{"type": "Feature","bbox": [-83.1993,8.5589,-82.9692,8.8142],"geometry": {"type": "MultiPolygon","coordinates": [[[[-83.1627,8.8142,1622.7148],[-83.1643,8.8073,1476.2955],[-83.1672,8.8041,1377.3396],[-83.1665,8.8004,1200.1307],[-83.171,8.7926,775.1277],[-83.1726,8.7794,543.457],[-83.1739,8.7781,502.9691],[-83.173,8.7674,385.136],[-83.171,8.7637,268.7404],[-83.1728,8.7596,271.8357],[-83.1721,8.7529,173.5184],[-83.1748,8.7514,125.2577],[-83.1757,8.745,95.3092],[-83.1795,8.7379,65.4736],[-83.1842,8.7354,90.8134],[-83.1827,8.7314,59.3229],[-83.1803,8.7311,58.0324],[-83.176,8.7269,88.9417],[-83.169,8.7256,61.5773],[-83.1672,8.7218,65.6803],[-83.1721,8.7213,65.9669],[-83.1782,8.7165,60.6146],[-83.1804,8.7166,62.1385],[-83.1828,8.7136,64.1226],[-83.185,8.7144,62.037],[-83.1875,8.7116,67.4538],[-83.1936,8.697,73.8219],[-83.1967,8.6937,78.7138],[-83.1977,8.6886,88.4538],[-83.1967,8.6865,105.9913],[-83.1993,8.6776,146.3193],[-83.1761,8.6781,420.8677],[-83.169,8.6707,452.472],[-83.1669,8.6711,451.898],[-83.1674,8.6672,418.8925],[-83.165,8.6636,377.3784],[-83.1559,8.666,449.4647],[-83.1524,8.6712,332.3872],[-83.1531,8.6776,276.9376],[-83.1514,8.6817,264.0727],[-83.1482,8.6788,265.2759],[-83.1437,8.6807,311.3174],[-83.1411,8.6761,315.1454],[-83.1377,8.6766,267.6364],[-83.125,8.6867,30.4511],[-83.1233,8.6846,30.018],[-83.1259,8.6828,37.6217],[-83.1255,8.6811,27.2993],[-83.124,8.6811,27.2993],[-83.1226,8.677,29.9886],[-83.1179,8.6758,28.9595],[-83.1158,8.6726,28.055],[-83.1148,8.6738,24.4875],[-83.1117,8.6722,22.7912],[-83.1067,8.674,19.7944],[-83.1061,8.6722,23.7025],[-83.1047,8.6731,24.4645],[-83.1048,8.6715,23.2187],[-83.0977,8.6671,21.1219],[-83.0953,8.6685,21.6031],[-83.0948,8.667,16.6805],[-83.0919,8.6681,21.3999],[-83.0868,8.6672,19.961],[-83.0825,8.6599,22.839],[-83.0811,8.6609,16.1508],[-83.0798,8.6597,15.8611],[-83.0818,8.6585,15.5907],[-83.0791,8.6577,13.1941],[-83.0805,8.6568,14.3106],[-83.0793,8.6552,12.7087],[-83.0811,8.6554,15.7282],[-83.0812,8.6539,15.7282],[-83.077,8.6542,12.148],[-83.0771,8.652,13.9763],[-83.0745,8.652,14.7726],[-83.0752,8.6486,14.4977],[-83.0702,8.6425,12.5999],[-83.0679,8.6427,12.248],[-83.0654,8.6388,15.7053],[-83.0643,8.6398,15.7053],[-83.0655,8.6359,11.544],[-83.0633,8.6357,16.2694],[-83.0642,8.6317,10.1577],[-83.0609,8.6304,11.6982],[-83.0612,8.6247,11.7764],[-83.0584,8.624,12.6307],[-83.0605,8.6217,10.3123],[-83.0568,8.6192,9.7696],[-83.0527,8.6212,12.2488],[-83.0523,8.6193,7.664],[-83.0514,8.6207,15.2276],[-83.0497,8.618,7.3013],[-83.0444,8.6159,11.0782],[-83.0437,8.6136,8.0164],[-83.0418,8.6148,12.4256],[-83.0384,8.6118,7.2447],[-83.0377,8.6133,10.4486],[-83.0356,8.612,7.0575],[-83.0346,8.6131,9.4129],[-83.0313,8.6103,5.9369],[-83.0324,8.6085,5.7504],[-83.0287,8.6081,11.0666],[-83.0291,8.6065,8.4594],[-83.0247,8.6048,14.615],[-83.0219,8.6055,6.5331],[-83.0208,8.604,8.3083],[-83.0195,8.6052,6.9296],[-83.0198,8.6025,7.2639],[-83.016,8.6024,9.1886],[-83.0168,8.6004,9.1563],[-83.0133,8.5965,4.1535],[-83.0154,8.593,4.5147],[-83.0137,8.5937,4.7984],[-83.0146,8.5922,4.5147],[-83.0134,8.5911,4.8962],[-83.0113,8.5925,5.3043],[-83.0099,8.5901,4.4605],[-83.0131,8.5877,4.2545],[-83.0121,8.5857,4.1118],[-83.0142,8.5876,4.2545],[-83.0144,8.5854,3.2751],[-83.0191,8.5872,4.2709],[-83.0169,8.5828,3.667],[-83.0215,8.5822,5.1391],[-83.0214,8.5839,3.818],[-83.0235,8.5852,4.137],[-83.0254,8.5833,4.0879],[-83.0236,8.5824,3.883],[-83.0255,8.5812,4.3902],[-83.0241,8.5795,5.0346],[-83.0265,8.5788,4.5404],[-83.0259,8.5763,6.7673],[-83.0282,8.5784,4.4958],[-83.0299,8.5768,4.3365],[-83.027,8.5733,4.582],[-83.0269,8.57,4.528],[-83.0287,8.5705,4.2624],[-83.0281,8.5684,3.9332],[-83.0301,8.5659,4.2595],[-83.0286,8.5599,8.9081],[-83.0266,8.5589,4.348],[-83.0249,8.5627,3.5676],[-83.0013,8.5838,8.9337],[-83.0014,8.6488,22.9288],[-83.0035,8.6528,28.7797],[-83.0048,8.6525,19.3432],[-83.0043,8.6538,27.8292],[-83.0072,8.6547,27.6829],[-83.0067,8.6571,18.6035],[-83.0088,8.6601,29.9164],[-83.0064,8.6671,40.6949],[-83.0074,8.6684,40.6949],[-83.0056,8.6692,37.6348],[-83.0093,8.6734,50.2864],[-83.0092,8.6786,83.914],[-82.9967,8.6872,116.3728],[-82.9934,8.6976,299.0498],[-82.9892,8.7026,405.9728],[-82.9929,8.709,463.2622],[-82.9913,8.7166,631.5995],[-82.9896,8.7192,740.9462],[-82.9845,8.7202,997.7858],[-82.98,8.7253,1251.7555],[-82.9798,8.7284,1268.105],[-82.9831,8.7334,1326.58],[-82.9824,8.7374,1422.6667],[-82.9847,8.7394,1455.074],[-82.982,8.7498,1437.1833],[-82.9832,8.757,1412.5298],[-82.9779,8.7636,1271.4149],[-82.9693,8.763,1260.4722],[-82.9692,8.7646,1230.0409],[-82.9739,8.7692,1281.5997],[-82.9739,8.7764,1338.1379],[-82.9806,8.7827,1414.9104],[-82.9866,8.783,1442.7365],[-82.994,8.7867,1417.0521],[-83.0177,8.7833,1312.7078],[-83.0275,8.788,1496.1135],[-83.0326,8.7882,1568.9889],[-83.0349,8.7838,1517.9452],[-83.0399,8.7829,1535.825],[-83.0413,8.7789,1472.986],[-83.0465,8.7745,1496.5266],[-83.0482,8.7775,1550.2693],[-83.0572,8.7801,1516.3973],[-83.0651,8.7793,1457.5027],[-83.0727,8.7762,1513.1431],[-83.0753,8.7775,1567.1104],[-83.0844,8.7753,1405.9662],[-83.0907,8.7769,1621.5911],[-83.0925,8.7753,1543.4976],[-83.0966,8.7753,1589.4498],[-83.1039,8.7811,1597.3354],[-83.1148,8.7799,1472.019],[-83.1202,8.7832,1476.5267],[-83.1301,8.7853,1512.1746],[-83.1386,8.7942,1618.854],[-83.142,8.7944,1571.2985],[-83.1513,8.7986,1524.0385],[-83.1526,8.8007,1592.5769],[-83.1599,8.8027,1588.2015],[-83.1579,8.8071,1539.5161],[-83.1595,8.8086,1553.8247],[-83.1592,8.8118,1586.5939],[-83.1627,8.8142,1622.7148]]]]}
,"properties": {"GID_3": "CRI.6.7.2_1","GID_0": "CRI","country": "CostaRica","GID_1": "CRI.6_1","province": "Puntarenas","NL_NAME_1": "NA","GID_2": "CRI.6.7_1","county": "Golfito","NL_NAME_2": "NA","city": "Guaycará","VARNAME_3": "NA","NL_NAME_3": "NA","TYPE_3": "Distrito","ENGTYPE_3": "District","CC_3": "3","HASC_3": "NA","name": "Guaycará.city","area_km2": 323.7937,"hist_schema_id": "Elevation0-9000","hist_area_km2": {"0": 15.2405,"25": 49.5935,"50": 11.4016,"75": 13.4553,"100": 9.3475,"125": 8.6557,"150": 7.3144,"175": 8.5509,"200": 8.8862,"225": 9.5777,"250": 9.8502,"275": 9.5358,"300": 7.6286,"325": 6.2243,"350": 7.6284,"375": 6.7062,"400": 5.9517,"425": 5.7001,"450": 6.5803,"475": 4.9247,"500": 4.6522,"525": 4.5055,"550": 4.736,"575": 4.7569,"600": 4.1911,"625": 3.4995,"650": 3.2271,"675": 3.9815,"700": 3.5414,"725": 3.3319,"750": 3.1642,"775": 3.4366,"800": 3.269,"825": 2.8918,"850": 2.8289,"875": 2.4308,"900": 2.0536,"925": 2.3679,"950": 1.9488,"975": 2.2002,"1000": 1.7392,"1025": 1.9697,"1050": 2.0536,"1075": 2.1583,"1100": 2.326,"1125": 2.6612,"1150": 2.5774,"1175": 2.5984,"1200": 2.745,"1225": 2.9965,"1250": 2.5564,"1275": 2.284,"1300": 2.0954,"1325": 2.0954,"1350": 1.823,"1375": 1.5087,"1400": 1.6763,"1425": 1.6344,"1450": 1.1525,"1475": 0.7962,"1500": 0.7124,"1525": 0.6286,"1550": 0.5238,"1575": 0.4191,"1600": 0.1886,"1625": 0.1048}}}