{"type": "Feature","bbox": [-84.3393,10.0852,-84.2707,10.1888],"geometry": {"type": "MultiPolygon","coordinates": [[[[-84.2707,10.1888,2191.3994],[-84.2822,10.1864,2097.7078],[-84.2881,10.1783,1851.9338],[-84.308,10.1621,1571.6899],[-84.308,10.1539,1507.9832],[-84.3096,10.1514,1478.2197],[-84.3147,10.1451,1430.465],[-84.3189,10.145,1407.412],[-84.3196,10.1432,1400.2491],[-84.3228,10.1421,1393.8457],[-84.3243,10.1356,1327.7104],[-84.3291,10.1335,1300.4027],[-84.3278,10.1309,1278.3344],[-84.334,10.1236,1225.2983],[-84.3328,10.1216,1190.9004],[-84.3393,10.1147,1142.1169],[-84.3382,10.1108,1100.9122],[-84.3357,10.1097,1094.7717],[-84.3376,10.1059,1083.9268],[-84.3372,10.1008,1046.5317],[-84.332,10.1008,1035.8651],[-84.334,10.0973,1011.0337],[-84.3334,10.0937,1000.0311],[-84.336,10.0916,962.6571],[-84.3298,10.0852,941.8951],[-84.3297,10.0888,998.1381],[-84.3275,10.0901,963.1562],[-84.3283,10.0911,959.2026],[-84.3229,10.0995,1028.7285],[-84.3249,10.1059,1058.6688],[-84.3227,10.1085,1091.0835],[-84.3248,10.11,1092.483],[-84.3249,10.1175,1184.744],[-84.3215,10.121,1229.4297],[-84.3199,10.1282,1271.6859],[-84.3167,10.1303,1308.4747],[-84.3173,10.1362,1358.6874],[-84.3143,10.1417,1389.0673],[-84.3051,10.1543,1560.9543],[-84.3007,10.1555,1557.197],[-84.2962,10.1645,1642.2411],[-84.2946,10.1652,1642.2411],[-84.2947,10.1691,1736.8673],[-84.2885,10.1712,1746.4978],[-84.2813,10.1765,1845.1118],[-84.2768,10.1845,1972.4648],[-84.2707,10.1888,2191.3994]]]]}
,"properties": {"GID_3": "CRI.1.15.2_1","GID_0": "CRI","country": "CostaRica","GID_1": "CRI.1_1","province": "Alajuela","NL_NAME_1": "NA","GID_2": "CRI.1.15_1","county": "Sarchí","NL_NAME_2": "NA","city": "SanPedro","VARNAME_3": "NA","NL_NAME_3": "NA","TYPE_3": "Distrito","ENGTYPE_3": "District","CC_3": "4","HASC_3": "NA","name": "San_Pedro.city","area_km2": 10.874038,"hist_schema_id": "Elevation0-9000","hist_area_km2": {"925": 0.020875,"950": 0.104372,"975": 0.020874,"1000": 0.333987,"1025": 0.542718,"1050": 0.542714,"1075": 0.521835,"1100": 0.45921,"1125": 0.480078,"1150": 0.417456,"1175": 0.417454,"1200": 0.313087,"1225": 0.438318,"1250": 0.29221,"1275": 0.292208,"1300": 0.271334,"1325": 0.292205,"1350": 0.292202,"1375": 0.354814,"1400": 0.396553,"1425": 0.43829,"1450": 0.166967,"1475": 0.125223,"1500": 0.04174,"1525": 0.125221,"1550": 0.166959,"1575": 0.146088,"1600": 0.125218,"1625": 0.166958,"1650": 0.250436,"1675": 0.187826,"1700": 0.187824,"1725": 0.208692,"1750": 0.166954,"1775": 0.125214,"1800": 0.125214,"1825": 0.083475,"1850": 0.146081,"1875": 0.083475,"1900": 0.146081,"1925": 0.146079,"1950": 0.125211,"1975": 0.104341,"2000": 0.125209,"2025": 0.020868,"2050": 0.062605,"2075": 0.062604,"2100": 0.041736,"2125": 0.020868,"2150": 0.10434,"2175": 0.020868,"2200": 0.020868}}}