{"type":"Feature","properties":{"GID_3":"CRI.1.14.1_1","GID_0":"CRI","country":"CostaRica","GID_1":"CRI.1_1","province":"Alajuela","NL_NAME_1":"NA","GID_2":"CRI.1.14_1","county":"Upala","NL_NAME_2":"NA","city":"AguasClaras","VARNAME_3":"NA","NL_NAME_3":"NA","TYPE_3":"Distrito","ENGTYPE_3":"District","CC_3":"2","HASC_3":"NA","name":"Aguas_Claras.city"},
"geometry":{"type": "MultiPolygon","coordinates": [[[[-85.1326,10.7652,1607.2892],[-85.132,10.7922,916.1553],[-85.1286,10.8061,646.108],[-85.1352,10.8185,539.8127],[-85.1296,10.8237,487.4044],[-85.1271,10.8301,403.3779],[-85.1223,10.8296,384.5738],[-85.1205,10.8319,348.576],[-85.1255,10.8345,351.2812],[-85.1296,10.8414,311.0657],[-85.1433,10.8541,171.9458],[-85.1469,10.8563,142.2028],[-85.1512,10.8563,169.6308],[-85.1511,10.8594,133.8151],[-85.1567,10.8649,125.9821],[-85.1581,10.8735,75.6187],[-85.1656,10.8852,59.9375],[-85.1706,10.8865,57.5461],[-85.1713,10.889,59.8345],[-85.1739,10.8897,55.4207],[-85.1745,10.8938,55.2956],[-85.178,10.8979,54.618899999999996],[-85.1771,10.9015,53.4367],[-85.1784,10.9043,52.6891],[-85.1803,10.903,54.7135],[-85.1832,10.9071,53.2391],[-85.1823,10.9125,54.27],[-85.1838,10.913,54.5864],[-85.186,10.9105,57.9574],[-85.189,10.9119,56.4103],[-85.1946,10.9101,55.5812],[-85.2005,10.9123,56.6436],[-85.2126,10.9268,63.9614],[-85.2136,10.927,63.9614],[-85.2134,10.9232,68.1244],[-85.2146,10.9228,68.4377],[-85.2154,10.9277,69.1257],[-85.2192,10.9266,75.1484],[-85.2227,10.9291,67.0828],[-85.2191,10.93,66.5645],[-85.2216,10.9345,66.6975],[-85.2285,10.9346,66.2839],[-85.2285,10.9372,67.7936],[-85.2327,10.9413,76.9983],[-85.2315,10.9387,67.5032],[-85.233,10.9381,78.0763],[-85.2374,10.9419,72.1829],[-85.2407,10.9431,67.2838],[-85.2438,10.9421,73.7518],[-85.2471,10.9456,71.4092],[-85.2446,10.9494,81.5005],[-85.2477,10.9515,86.2247],[-85.2436,10.9546,70.5478],[-85.245,10.9575,73.4157],[-85.244,10.9603,76.0814],[-85.2478,10.962,74.6051],[-85.2469,10.9668,71.4139],[-85.2495,10.9684,77.6288],[-85.2521,10.9675,73.8036],[-85.2505,10.9706,92.4847],[-85.2517,10.9727,75.0492],[-85.2583,10.9736,77.4379],[-85.2695,10.9788,85.8225],[-85.2727,10.9832,88.347],[-85.2863,10.9788,137.1003],[-85.2832,10.973,126.1141],[-85.2845,10.9713,126.3351],[-85.2932,10.9731,143.4563],[-85.2983,10.9701,149.6857],[-85.2995,10.9675,155.0066],[-85.3018,10.9668,166.2298],[-85.303,10.9592,171.9685],[-85.3072,10.956,221.5336],[-85.3046,10.9517,277.7952],[-85.3071,10.9488,232.2256],[-85.3007,10.9419,265.5792],[-85.3017,10.9385,274.4996],[-85.2992,10.9357,269.871],[-85.3002,10.9234,290.1071],[-85.3028,10.9211,290.321],[-85.3067,10.9233,284.1151],[-85.3064,10.9196,287.0759],[-85.3103,10.9175,300.855],[-85.3131,10.9205,356.9033],[-85.3148,10.9182,319.3344],[-85.3179,10.9205,347.6407],[-85.3204,10.9164,322.9944],[-85.3249,10.9159,355.2739],[-85.3305,10.9096,405.3584],[-85.3344,10.899,442.6818],[-85.3453,10.8896,526.7134],[-85.3463,10.8817,581.1658],[-85.3552,10.8753,703.2863],[-85.3531,10.8681,766.5584],[-85.3582,10.8621,884.0018],[-85.3567,10.8521,1075.3478],[-85.3598,10.8463,1213.3726],[-85.3573,10.8335,1610.5712],[-85.3605,10.8272,1759.0112],[-85.349,10.8272,1860.9587],[-85.3368,10.8184,1741.9644],[-85.3286,10.8162,1739.7095],[-85.3248,10.8109,1722.9838],[-85.3192,10.8112,1854.7695],[-85.3184,10.8084,1873.246],[-85.3056,10.8001,1566.9318],[-85.3018,10.7885,1318.0085],[-85.2959,10.7771,1114.2285],[-85.2907,10.7748,1018.9998],[-85.2891,10.7688,920.5217],[-85.2866,10.7673,894.6704],[-85.2856,10.7616,816.026],[-85.2806,10.7603,827.0056],[-85.2773,10.7509,808.6677],[-85.2735,10.7528,799.8024],[-85.2713,10.7516,791.7227],[-85.269,10.7557,790.7904],[-85.2624,10.7543,760.4616],[-85.253,10.7589,700.7479],[-85.2481,10.7639,706.8821],[-85.2433,10.7637,694.0439],[-85.2353,10.7667,788.3351],[-85.2043,10.7552,568.406],[-85.1897,10.7476,661.7786],[-85.181,10.7458,877.2153],[-85.1696,10.7479,1206.4172],[-85.1497,10.7469,1955.7642],[-85.1446,10.7478,1818.5824],[-85.1447,10.7523,1918.7183],[-85.1354,10.7588,1718.6467],[-85.1326,10.7652,1607.2892]]]]}}