{"type": "Feature","bbox": [-84.1351,9.8322,-84.0793,9.8754],"geometry": {"type": "MultiPolygon","coordinates": [[[[-84.1351,9.8477,2375.7122],[-84.1299,9.8446,2322.4417],[-84.1245,9.8445,2227.7373],[-84.1174,9.8342,1950.1055],[-84.1086,9.8323,1878.3909],[-84.1049,9.8353,1788.5311],[-84.1059,9.8322,1810.7642],[-84.1043,9.8326,1767.9633],[-84.1023,9.8352,1703.1614],[-84.0978,9.8365,1657.2233],[-84.0986,9.8436,1557.8319],[-84.1004,9.8462,1517.6506],[-84.0989,9.8461,1486.1603],[-84.0999,9.8475,1480.5125],[-84.0987,9.8507,1425.3458],[-84.0957,9.8528,1373.4965],[-84.0945,9.8571,1352.6915],[-84.0871,9.8588,1282.7709],[-84.083,9.8652,1236.1383],[-84.0831,9.8676,1221.5413],[-84.0797,9.8706,1203.6299],[-84.0793,9.8736,1195.0044],[-84.0824,9.8714,1206.8477],[-84.0933,9.8705,1316.0763],[-84.103,9.8754,1382.3711],[-84.114,9.8721,1554.6359],[-84.1185,9.8658,1609.7747],[-84.1212,9.8645,1656.656],[-84.1223,9.8613,1723.4299],[-84.1338,9.8529,2059.8103],[-84.1351,9.8477,2375.7122]]]]}
,"properties": {"GID_3": "CRI.7.3.1_1","GID_0": "CRI","country": "CostaRica","GID_1": "CRI.7_1","province": "SanJosé","NL_NAME_1": "NA","GID_2": "CRI.7.3_1","county": "Aserrí","NL_NAME_2": "NA","city": "Aserri","VARNAME_3": "NA","NL_NAME_3": "NA","TYPE_3": "Distrito","ENGTYPE_3": "District","CC_3": "1","HASC_3": "NA","name": "Aserri.city","area_km2": 14.97766,"hist_schema_id": "Elevation0-9000","hist_area_km2": {"1200": 0.10444,"1225": 0.16711,"1250": 0.41777,"1275": 0.43866,"1300": 0.41777,"1325": 0.41777,"1350": 0.41777,"1375": 0.43867,"1400": 0.376,"1425": 0.43867,"1450": 0.376,"1475": 0.35511,"1500": 0.41778,"1525": 0.41778,"1550": 0.33423,"1575": 0.54312,"1600": 0.27156,"1625": 0.45956,"1650": 0.56401,"1675": 0.52224,"1700": 0.45958,"1725": 0.45957,"1750": 0.54313,"1775": 0.6058,"1800": 0.58491,"1825": 0.48046,"1850": 0.39691,"1875": 0.37601,"1900": 0.62669,"1925": 0.22979,"1950": 0.39691,"1975": 0.2089,"2000": 0.18801,"2025": 0.25068,"2050": 0.12534,"2075": 0.16712,"2100": 0.2089,"2125": 0.16712,"2150": 0.14623,"2175": 0.08356,"2200": 0.08356,"2225": 0.08356,"2250": 0.08356,"2275": 0.04178,"2300": 0.02089,"2325": 0.02089,"2350": 0.04178}}}