{"type":"Feature","properties":{"GID_3":"CRI.1.1.11_1","GID_0":"CRI","country":"CostaRica","GID_1":"CRI.1_1","province":"Alajuela","NL_NAME_1":"NA","GID_2":"CRI.1.1_1","county":"Alajuela","NL_NAME_2":"NA","city":"SanRafael","VARNAME_3":"NA","NL_NAME_3":"NA","TYPE_3":"Distrito","ENGTYPE_3":"District","CC_3":"8","HASC_3":"NA","name":"San_Rafael.city"},
"geometry":{"type": "MultiPolygon","coordinates": [[[[-84.2607,9.9326,650.0134],[-84.2584,9.93,648.5986],[-84.2513,9.9282,611.1757],[-84.2489,9.9316,653.7532],[-84.2468,9.9319,673.6696],[-84.246,9.9348,680.6634],[-84.2391,9.9385,681.1368],[-84.2363,9.938,672.5905],[-84.2338,9.9457,762.631],[-84.2312,9.9484,755.0708],[-84.2269,9.9483,755.7794],[-84.2247,9.9456,782.2913],[-84.2205,9.9478,784.3521],[-84.2176,9.9587,817.63],[-84.2128,9.963,802.5475],[-84.2064,9.9608,804.1832],[-84.2031,9.9618,827.27],[-84.2015,9.965,817.2317],[-84.198,9.9657,833.8779],[-84.1906,9.9731,873.1307],[-84.1836,9.9733,860.4781],[-84.1902,9.9745,894.7628],[-84.1999,9.9681,873.6931],[-84.2,9.9762,882.2415],[-84.1947,9.9775,897.1436],[-84.1983,9.9919,882.5865],[-84.2018,9.9898,885.1349],[-84.2022,9.9908,888.9583],[-84.2082,9.9896,873.8859],[-84.2094,9.9867,866.6397],[-84.2133,9.9855,871.0054],[-84.2157,9.9805,853.0762],[-84.2237,9.9776,839.8475],[-84.225,9.9724,833.1379],[-84.2304,9.9718,832.2355],[-84.2342,9.9695,819.3728],[-84.2357,9.9649,815.7776],[-84.2421,9.9595,806.7191],[-84.248,9.9563,800.8555],[-84.2539,9.9559,796.0609],[-84.2561,9.9523,786.9268],[-84.2587,9.9514,782.432],[-84.2608,9.9432,760.0263],[-84.2598,9.9399,727.7518],[-84.2615,9.9379,731.4216],[-84.2607,9.9326,650.0134]]]]}}