{"type":"Feature","properties":{"GID_3":"CRI.7.7.2_1","GID_0":"CRI","country":"CostaRica","GID_1":"CRI.7_1","province":"SanJosé","NL_NAME_1":"NA","GID_2":"CRI.7.7_1","county":"Escazú","NL_NAME_2":"NA","city":"SanAntonio","VARNAME_3":"NA","NL_NAME_3":"NA","TYPE_3":"Distrito","ENGTYPE_3":"District","CC_3":"2","HASC_3":"NA","name":"San_Antonio.city"},
"geometry":{"type": "MultiPolygon","coordinates": [[[[-84.1217,9.8952,1473.6991],[-84.1217,9.9204,1106.2876],[-84.1234,9.9187,1110.6068],[-84.1267,9.9199,1134.2871],[-84.1333,9.9159,1143.2141],[-84.141,9.9152,1138.5193],[-84.1433,9.9168,1123.2432],[-84.1554,9.9086,1393.7592],[-84.1578,9.9046,1515.1227],[-84.1617,9.9058,1605.5596],[-84.1608,9.8999,1664.3138],[-84.1527,9.8862,1885.429],[-84.1525,9.8814,1963.0754],[-84.147,9.8699,2206.0889],[-84.1485,9.8644,2303.6714],[-84.1459,9.8597,2338.8789],[-84.1371,9.8625,1957.6616],[-84.1326,9.8704,1794.486],[-84.1345,9.8782,1644.3242],[-84.1336,9.8816,1584.9631],[-84.1217,9.8952,1473.6991]]]]}}