{"type":"Feature","properties":{"GID_2":"CRI.4.3_1","GID_0":"CRI","country":"CostaRica","GID_1":"CRI.4_1","province":"Heredia","NL_NAME_1":"NA","county":"Flores","VARNAME_2":"NA","NL_NAME_2":"NA","TYPE_2":"Cantón","ENGTYPE_2":"Canton","CC_2":"8","HASC_2":"CR.HE.FL","name":"Flores.county"},
"geometry":{"type": "MultiPolygon","coordinates": [[[[-84.165,9.991,979.4373],[-84.1635,9.9906,975.9978],[-84.1603,9.9945,1000.8574],[-84.1548,9.9944,1018.1088],[-84.1411,10.0086,1075.8547],[-84.1346,10.0062,1097.8588],[-84.1341,10.0099,1104.2839],[-84.1432,10.0106,1087.4828],[-84.1447,10.0203,1092.038],[-84.1469,10.0215,1074.5939],[-84.1625,10.0145,1031.7209],[-84.164,10.0134,1022.6445],[-84.1635,10.0119,1011.9342],[-84.1682,10.0104,982.0597],[-84.1738,10.0056,967.729],[-84.1714,10.0046,981.8514],[-84.165,9.991,979.4373]]]]}}