{"type":"Feature","properties":{"GID_3":"CRI.1.1.9_1","GID_0":"CRI","country":"CostaRica","GID_1":"CRI.1_1","province":"Alajuela","NL_NAME_1":"NA","GID_2":"CRI.1.1_1","county":"Alajuela","NL_NAME_2":"NA","city":"SanIsidro","VARNAME_3":"NA","NL_NAME_3":"NA","TYPE_3":"Distrito","ENGTYPE_3":"District","CC_3":"6","HASC_3":"NA","name":"San_Isidro.city"},
"geometry":{"type": "MultiPolygon","coordinates": [[[[-84.1874,10.0528,1219.5361],[-84.1918,10.0599,1200.078],[-84.1879,10.0677,1236.8787],[-84.1901,10.0732,1281.6771],[-84.1848,10.0825,1339.8792],[-84.1851,10.0869,1356.2354],[-84.1828,10.0882,1368.7814],[-84.18,10.1073,1520.4879],[-84.1766,10.1124,1618.3208],[-84.1726,10.1146,1710.0808],[-84.1728,10.1168,1709.051],[-84.1696,10.1206,1751.5089],[-84.1654,10.1233,1837.1298],[-84.1613,10.1232,1877.4095],[-84.1614,10.1582,1912.1881],[-84.163,10.1588,1914.2091],[-84.1704,10.1561,1867.8761],[-84.1707,10.1536,1874.391],[-84.173,10.1536,1855.2871],[-84.174,10.1512,1817.3048],[-84.1851,10.1471,1763.6689],[-84.1852,10.1408,1750.4205],[-84.1922,10.1306,1679.3035],[-84.1916,10.1271,1670.2344],[-84.194,10.1201,1603.1736],[-84.1922,10.1174,1578.1938],[-84.1925,10.1095,1501.8892],[-84.1932,10.1048,1475.1133],[-84.196,10.1014,1455.3812],[-84.1962,10.0929,1368.8329],[-84.2028,10.0853,1322.8608],[-84.2069,10.0837,1290.0212],[-84.206,10.0802,1257.4618],[-84.2085,10.0777,1275.0472],[-84.2071,10.0736,1257.6306],[-84.2119,10.0671,1214.7877],[-84.2188,10.0616,1081.968],[-84.2203,10.0624,1114.1084],[-84.2233,10.0601,1046.8635],[-84.2245,10.0568,1020.5253],[-84.2271,10.0551,1025.6893],[-84.2303,10.0469,1005.6112],[-84.2274,10.0446,1017.9365],[-84.2266,10.0408,993.674],[-84.2244,10.0411,999.7859],[-84.2265,10.0388,968.9536],[-84.2248,10.036,970.425],[-84.2283,10.0333,948.879],[-84.2256,10.0326,942.4766],[-84.2247,10.029,963.6744],[-84.2164,10.0226,948.9016],[-84.2148,10.0259,956.1371],[-84.21,10.0276,970.6113],[-84.2095,10.0319,979.7764],[-84.2073,10.0339,1010.7737],[-84.2083,10.035,1006.1063],[-84.1964,10.0396,1022.3179],[-84.195,10.0443,1044.5277],[-84.1924,10.0458,1058.1259],[-84.1911,10.0511,1129.5967],[-84.1874,10.0528,1219.5361]]]]}}