{"type": "Feature","bbox": [-84.146,10.0099,-84.0856,10.1371],"geometry": {"type": "MultiPolygon","coordinates": [[[[-84.1301,10.0143,1135.1379],[-84.1274,10.0163,1144.9639],[-84.1229,10.0165,1161.9434],[-84.1197,10.0115,1170.7322],[-84.105,10.0195,1265.6033],[-84.108,10.0258,1293.4062],[-84.1078,10.0388,1396.0034],[-84.1045,10.0483,1502.9668],[-84.0986,10.0548,1611.8013],[-84.0924,10.0654,1752.7567],[-84.0912,10.0753,1847.23],[-84.0856,10.0886,2030.1139],[-84.0872,10.098,2177.5469],[-84.0872,10.1204,2536.0767],[-84.0955,10.1243,2729.6885],[-84.0975,10.1287,2786.1445],[-84.1017,10.1312,2890.7686],[-84.1061,10.1302,2841.6711],[-84.1061,10.1324,2842.1194],[-84.1104,10.1356,2795.4429],[-84.1142,10.1342,2731.3723],[-84.1196,10.1358,2688.3354],[-84.1249,10.1335,2643.9502],[-84.1312,10.1371,2507.7744],[-84.1311,10.0824,1592.5162],[-84.1265,10.0696,1512.2239],[-84.1216,10.0672,1500.7556],[-84.1283,10.06,1369.4298],[-84.1333,10.0594,1334.1724],[-84.1414,10.0454,1196.7073],[-84.1428,10.0415,1168.3333],[-84.1417,10.0251,1134.6614],[-84.146,10.0213,1093.3434],[-84.1428,10.0143,1094.6265],[-84.1432,10.0106,1087.4828],[-84.1341,10.0099,1104.2839],[-84.1301,10.0143,1135.1379]]]]}
,"properties": {"GID_2": "CRI.4.1_1","GID_0": "CRI","country": "CostaRica","GID_1": "CRI.4_1","province": "Heredia","NL_NAME_1": "NA","county": "Barva","VARNAME_2": "NA","NL_NAME_2": "NA","TYPE_2": "Cantón","ENGTYPE_2": "Canton","CC_2": "2","HASC_2": "CR.HE.BA","name": "Barva.county","area_km2": 56.88492,"hist_schema_id": "Elevation0-9000","hist_area_km2": {"1075": 0.04176,"1100": 0.70989,"1125": 0.93955,"1150": 1.56589,"1175": 1.85818,"1200": 1.64938,"1225": 1.39883,"1250": 1.31532,"1275": 1.41969,"1300": 0.98125,"1325": 0.89773,"1350": 1.02299,"1375": 0.96035,"1400": 1.02298,"1425": 1.04384,"1450": 0.75156,"1475": 0.6263,"1500": 1.0647,"1525": 0.89768,"1550": 0.77242,"1575": 0.73066,"1600": 0.83503,"1625": 0.8559,"1650": 0.83503,"1675": 0.89764,"1700": 0.93939,"1725": 0.75151,"1750": 1.08551,"1775": 0.85588,"1800": 0.81412,"1825": 1.21074,"1850": 1.10636,"1875": 0.70973,"1900": 0.87673,"1925": 0.79322,"1950": 0.66798,"1975": 0.77234,"2000": 0.81409,"2025": 0.81409,"2050": 0.73059,"2075": 0.60534,"2100": 0.93932,"2125": 0.83495,"2150": 0.60533,"2175": 0.68882,"2200": 0.64708,"2225": 0.64707,"2250": 0.73056,"2275": 0.66794,"2300": 0.7723,"2325": 0.62619,"2350": 0.66793,"2375": 0.60531,"2400": 0.60531,"2425": 0.52182,"2450": 0.52181,"2475": 0.52181,"2500": 0.4592,"2525": 0.62617,"2550": 0.7514,"2575": 0.8975,"2600": 0.73052,"2625": 0.60529,"2650": 0.64703,"2675": 0.77226,"2700": 0.52179,"2725": 0.48005,"2750": 0.41744,"2775": 0.20872,"2800": 0.31308,"2825": 0.08349,"2850": 0.04174,"2875": 0.06261,"2900": 0.02087}}}