{"type": "Feature","bbox": [-84.4558,9.9765,-84.404,10.0133],"geometry": {"type": "MultiPolygon","coordinates": [[[[-84.4339,9.9781,970.6913],[-84.4278,9.9837,923.4711],[-84.413,9.9845,853.8898],[-84.4116,9.9888,758.095],[-84.4131,9.9917,734.2475],[-84.4066,9.9913,718.1681],[-84.404,9.9937,711.2782],[-84.4092,9.9977,827.6348],[-84.409,10.0006,816.2543],[-84.4123,10.0031,870.1329],[-84.4155,10.003,887.7236],[-84.4293,10.0133,1288.7988],[-84.4383,10.0105,1314.8904],[-84.447,10.0104,1294.7894],[-84.4547,10.0074,1328.7029],[-84.4558,10.0039,1305.6779],[-84.4541,10.0031,1305.9143],[-84.452,9.9978,1281.3362],[-84.4535,9.9959,1256.5018],[-84.4522,9.9932,1223.1581],[-84.4541,9.9911,1229.5669],[-84.4517,9.988,1107.1984],[-84.4504,9.9803,991.0208],[-84.4451,9.9798,992.9927],[-84.4422,9.9765,1049.6337],[-84.4339,9.9781,970.6913]]]]}
,"properties": {"GID_3": "CRI.1.3.6_1","GID_0": "CRI","country": "CostaRica","GID_1": "CRI.1_1","province": "Alajuela","NL_NAME_1": "NA","GID_2": "CRI.1.3_1","county": "Atenas","NL_NAME_2": "NA","city": "SanIsidro","VARNAME_3": "NA","NL_NAME_3": "NA","TYPE_3": "Distrito","ENGTYPE_3": "District","CC_3": "4","HASC_3": "NA","name": "San_Isidro.city","area_km2": 14.53275,"hist_schema_id": "Elevation0-9000","hist_area_km2": {"700": 0.02088,"725": 0.20881,"750": 0.33409,"775": 0.48026,"800": 0.68906,"825": 0.58466,"850": 1.04403,"875": 0.77258,"900": 0.91875,"925": 0.6473,"950": 0.87698,"975": 0.87699,"1000": 1.16931,"1025": 0.70994,"1050": 0.79345,"1075": 0.522,"1100": 0.56376,"1125": 0.54288,"1150": 0.43848,"1175": 0.522,"1200": 0.48023,"1225": 0.27144,"1250": 0.37584,"1275": 0.41759,"1300": 0.16704,"1325": 0.1044}}}