{"type":"Feature","properties":{"GID_3":"CRI.7.12.2_1","GID_0":"CRI","country":"CostaRica","GID_1":"CRI.7_1","province":"SanJosé","NL_NAME_1":"NA","GID_2":"CRI.7.12_1","county":"Moravia","NL_NAME_2":"NA","city":"SanJerónimo","VARNAME_3":"NA","NL_NAME_3":"NA","TYPE_3":"Distrito","ENGTYPE_3":"District","CC_3":"2","HASC_3":"NA","name":"San_Jerónimo.city"},
"geometry":{"type": "MultiPolygon","coordinates": [[[[-84.0231,10.0139,1337.4927],[-84.0255,9.9917,1289.5305],[-84.0234,9.992,1291.2772],[-84.0219,9.9902,1305.7552],[-84.0196,9.9907,1303.7117],[-84.0196,9.9926,1307.3162],[-84.0172,9.9939,1322.5802],[-84.0131,9.9931,1323.0735],[-84.0143,9.997,1334.1748],[-84.0119,9.9974,1339.5692],[-84.0111,10.0012,1360.3456],[-84.0073,10.0,1360.9399],[-84.0045,10.0026,1378.8196],[-84.0023,10.0015,1392.4783],[-84.0023,10.019,1438.9561],[-83.9987,10.021,1449.8641],[-83.9936,10.0211,1467.4707],[-83.9885,10.031,1459.7607],[-83.9894,10.04,1512.1017],[-83.9864,10.0454,1512.1798],[-83.9875,10.0502,1540.6643],[-83.9862,10.0569,1439.9656],[-83.9847,10.0568,1452.9579],[-83.9866,10.0606,1285.8972],[-83.9837,10.0589,1300.4197],[-83.9812,10.0635,1227.0388],[-83.9832,10.0644,1146.2631],[-83.9777,10.0643,1080.7122],[-83.9751,10.0667,1077.876],[-83.9838,10.066,1170.1094],[-84.0005,10.0561,1417.3408],[-84.0071,10.0583,1496.7627],[-84.0104,10.0562,1545.3047],[-84.0143,10.0565,1559.5881],[-84.0209,10.06,1700.5745],[-84.0239,10.0636,1774.2385],[-84.0283,10.0601,2067.9856],[-84.0158,10.05,1602.637],[-84.0125,10.0395,1504.9236],[-84.0101,10.0369,1475.0737],[-84.0125,10.0217,1386.2129],[-84.0199,10.019,1365.8555],[-84.0197,10.0162,1355.3003],[-84.0231,10.0139,1337.4927]]]]}}