{"type": "Feature","bbox": [-84.2441,9.8633,-84.147,9.9731],"geometry": {"type": "MultiPolygon","coordinates": [[[[-84.195,9.8889,1741.8403],[-84.1878,9.8847,1774.6362],[-84.1862,9.8852,1760.824],[-84.1871,9.8834,1740.1456],[-84.1856,9.8787,1783.5671],[-84.1773,9.8677,1967.6226],[-84.1634,9.8675,1996.92],[-84.1512,9.8633,2242.7705],[-84.1485,9.8644,2303.6714],[-84.147,9.8699,2206.0889],[-84.1525,9.8814,1963.0754],[-84.1527,9.8862,1885.429],[-84.1608,9.8999,1664.3138],[-84.1629,9.9091,1516.8672],[-84.1585,9.9225,1282.1349],[-84.1605,9.9259,1181.8013],[-84.1598,9.9311,1115.8639],[-84.1638,9.9371,1084.667],[-84.1668,9.9487,1061.5801],[-84.1736,9.9523,1050.8762],[-84.1783,9.9607,982.2194],[-84.184,9.9655,939.1644],[-84.1858,9.9717,885.7022],[-84.1846,9.973,860.4781],[-84.1906,9.9731,873.1307],[-84.198,9.9657,833.8779],[-84.2015,9.965,817.2317],[-84.2031,9.9618,827.27],[-84.2064,9.9608,804.1832],[-84.2128,9.963,802.5475],[-84.2176,9.9587,817.63],[-84.2205,9.9478,784.3521],[-84.2247,9.9456,782.2913],[-84.2269,9.9483,755.7794],[-84.2312,9.9484,755.0708],[-84.2338,9.9457,762.631],[-84.2363,9.938,672.5905],[-84.2391,9.9385,681.1368],[-84.2441,9.9352,666.4496],[-84.2389,9.933,773.9618],[-84.2333,9.9332,783.6211],[-84.229,9.9306,797.8824],[-84.224,9.9234,1008.3564],[-84.2194,9.9105,1242.0889],[-84.2015,9.8974,1577.6173],[-84.195,9.8889,1741.8403]]]]}
,"properties": {"GID_2": "CRI.7.16_1","GID_0": "CRI","country": "CostaRica","GID_1": "CRI.7_1","province": "SanJosé","NL_NAME_1": "NA","county": "SantaAna","VARNAME_2": "NA","NL_NAME_2": "NA","TYPE_2": "Cantón","ENGTYPE_2": "Canton","CC_2": "9","HASC_2": "CR.SJ.SA","name": "Santa_Ana.county","area_km2": 61.1101,"hist_schema_id": "Elevation0-9000","hist_area_km2": {"650": 0.04177,"675": 0.10442,"700": 0.08354,"725": 0.20884,"750": 0.16707,"775": 0.62651,"800": 1.64982,"825": 2.46425,"850": 8.29072,"875": 4.74061,"900": 3.29969,"925": 2.81938,"950": 1.85872,"975": 1.94227,"1000": 1.9005,"1025": 1.77521,"1050": 1.73345,"1075": 1.1278,"1100": 1.60819,"1125": 1.25314,"1150": 1.04429,"1175": 1.12784,"1200": 1.14872,"1225": 0.73101,"1250": 1.08608,"1275": 1.00254,"1300": 0.83545,"1325": 0.93988,"1350": 0.79369,"1375": 1.00255,"1400": 0.7728,"1425": 0.73103,"1450": 0.75193,"1475": 0.81458,"1500": 0.71016,"1525": 0.71016,"1550": 0.68927,"1575": 0.54307,"1600": 0.66839,"1625": 0.5013,"1650": 0.68929,"1675": 0.60574,"1700": 0.54308,"1725": 0.64752,"1750": 0.43864,"1775": 0.52219,"1800": 0.31332,"1825": 0.27154,"1850": 0.25066,"1875": 0.29243,"1900": 0.27155,"1925": 0.29243,"1950": 0.22977,"1975": 0.20888,"2000": 0.33421,"2025": 0.10444,"2050": 0.10444,"2075": 0.08355,"2100": 0.08355,"2125": 0.12533,"2150": 0.12533,"2175": 0.06267,"2200": 0.06267,"2225": 0.02089,"2250": 0.06267,"2275": 0.02089,"2300": 0.02089,"2350": 0.02089}}}