{"type": "Feature","bbox": [-83.6101,9.1473,-83.4705,9.2551],"geometry": {"type": "MultiPolygon","coordinates": [[[[-83.4711,9.1521,284.7436],[-83.4721,9.155,293.0554],[-83.4705,9.1594,332.8488],[-83.4738,9.1635,303.1413],[-83.474,9.1669,298.2941],[-83.4768,9.1676,304.7737],[-83.4781,9.1713,304.9514],[-83.4737,9.1812,318.5993],[-83.4763,9.1844,338.2249],[-83.4817,9.1866,355.6497],[-83.4834,9.1907,337.8242],[-83.4815,9.1948,360.3953],[-83.4866,9.1998,341.7033],[-83.49,9.1958,385.566],[-83.4882,9.1941,350.075],[-83.4894,9.1924,353.1226],[-83.5036,9.202,355.6808],[-83.5128,9.2,399.7525],[-83.517,9.2063,411.9434],[-83.5143,9.2115,425.9901],[-83.5162,9.2147,373.3012],[-83.5189,9.215,387.6186],[-83.5233,9.2078,381.9664],[-83.5258,9.2107,391.1442],[-83.5229,9.2149,388.9771],[-83.532,9.2129,400.5426],[-83.5343,9.2185,398.0509],[-83.5376,9.2195,416.6506],[-83.5404,9.2228,405.1453],[-83.5417,9.2257,411.2942],[-83.541,9.2299,449.7919],[-83.5435,9.2324,429.0357],[-83.5544,9.2192,427.3853],[-83.556,9.227,433.6873],[-83.5648,9.2257,439.0007],[-83.5641,9.2298,439.1041],[-83.5654,9.2322,477.5213],[-83.5736,9.236,451.1797],[-83.5766,9.2436,493.4393],[-83.5794,9.2468,455.8071],[-83.5842,9.2485,465.4893],[-83.5903,9.2551,467.8617],[-83.5948,9.2519,471.5659],[-83.5976,9.2518,469.73],[-83.6005,9.246,492.1407],[-83.6027,9.2455,481.9355],[-83.6048,9.2475,481.4998],[-83.6081,9.2447,533.7119],[-83.6101,9.2406,540.5172],[-83.6068,9.2277,761.1724],[-83.6028,9.2256,748.4885],[-83.5918,9.2317,678.9833],[-83.5938,9.226,707.3169],[-83.5983,9.2236,771.1482],[-83.6016,9.2184,765.6526],[-83.5994,9.2188,770.1661],[-83.5947,9.2134,692.4399],[-83.5914,9.2134,688.8377],[-83.5914,9.211,689.0396],[-83.5849,9.2098,688.7329],[-83.5833,9.2061,691.3596],[-83.5788,9.2061,687.1287],[-83.5833,9.2013,712.3914],[-83.5719,9.1903,664.9371],[-83.5679,9.1923,636.4877],[-83.5598,9.1891,507.674],[-83.5427,9.1696,666.353],[-83.5431,9.1542,423.5524],[-83.5403,9.1522,388.5281],[-83.524,9.1493,388.9256],[-83.5224,9.1473,404.102],[-83.5167,9.1501,373.107],[-83.511,9.1485,354.7334],[-83.5094,9.1522,405.7723],[-83.505,9.1493,349.0156],[-83.5033,9.1518,357.0235],[-83.4964,9.1497,349.8561],[-83.4883,9.1538,410.0291],[-83.4795,9.1488,383.7841],[-83.4805,9.1517,323.5845],[-83.4762,9.1514,300.6053],[-83.4739,9.1491,299.4706],[-83.4711,9.1521,284.7436]]]]}
,"properties": {"GID_3": "CRI.7.13.5_1","GID_0": "CRI","country": "CostaRica","GID_1": "CRI.7_1","province": "SanJosé","NL_NAME_1": "NA","GID_2": "CRI.7.13_1","county": "PérezZeledón","NL_NAME_2": "NA","city": "LaAmistad","VARNAME_3": "NA","NL_NAME_3": "NA","TYPE_3": "Distrito","ENGTYPE_3": "District","CC_3": "6","HASC_3": "NA","name": "La_Amistad.city","area_km2": 76.41471,"hist_schema_id": "Elevation0-9000","hist_area_km2": {"275": 0.10466,"300": 0.64889,"325": 1.48611,"350": 1.13026,"375": 2.07211,"400": 2.82555,"425": 2.95114,"450": 3.03483,"475": 4.12314,"500": 3.99757,"525": 4.37425,"550": 4.62544,"575": 4.37432,"600": 4.26967,"625": 4.79291,"650": 5.14874,"675": 7.26267,"700": 8.39291,"725": 5.1068,"750": 4.56259,"775": 1.06736,"800": 0.06279}}}