{"type":"Feature","properties":{"GID_3":"CRI.6.8.1_1","GID_0":"CRI","country":"CostaRica","GID_1":"CRI.6_1","province":"Puntarenas","NL_NAME_1":"NA","GID_2":"CRI.6.8_1","county":"MontesdeOro","NL_NAME_2":"NA","city":"LaUnión","VARNAME_3":"NA","NL_NAME_3":"NA","TYPE_3":"Distrito","ENGTYPE_3":"District","CC_3":"2","HASC_3":"NA","name":"La_Unión.city"},
"geometry":{"type": "MultiPolygon","coordinates": [[[[-84.6971,10.2707,1658.4167],[-84.6944,10.2709,1595.036],[-84.6923,10.2743,1537.1945],[-84.6888,10.2727,1472.4041],[-84.688,10.268,1392.9783],[-84.6886,10.2649,1352.6606],[-84.6903,10.2642,1369.7004],[-84.6893,10.2601,1245.9697],[-84.6851,10.2563,1208.0356],[-84.6822,10.2465,1087.356],[-84.6788,10.243,1017.5289],[-84.6788,10.2391,1012.1804],[-84.682,10.2367,977.675],[-84.6826,10.2272,873.004],[-84.6924,10.2193,816.4872],[-84.6979,10.2195,809.5665],[-84.7022,10.2149,849.3451],[-84.7057,10.2144,806.5276],[-84.7111,10.2108,656.3099],[-84.7142,10.2084,615.2016],[-84.7141,10.2067,650.6186],[-84.7166,10.2077,641.8905],[-84.7273,10.196,571.3251],[-84.7289,10.191,536.8541],[-84.7326,10.188,564.1151],[-84.7375,10.1873,543.351],[-84.7387,10.1841,484.4474],[-84.7419,10.1836,473.5386],[-84.7491,10.1742,431.5976],[-84.7572,10.1694,359.5257],[-84.7643,10.1573,298.6987],[-84.7717,10.1521,270.6198],[-84.7741,10.1528,268.3585],[-84.7724,10.1472,368.1057],[-84.7682,10.1436,475.1707],[-84.7481,10.1344,562.36],[-84.7215,10.1341,765.7769],[-84.721,10.137,783.3383],[-84.7181,10.1381,828.7872],[-84.7165,10.144,938.9532],[-84.7132,10.1459,1011.778],[-84.7108,10.15,1069.8466],[-84.7046,10.1507,1183.2365],[-84.7005,10.1468,1328.4449],[-84.6908,10.152,1418.3999],[-84.6884,10.1556,1407.5879],[-84.6896,10.1603,1377.7072],[-84.6835,10.1767,1320.7731],[-84.6618,10.1987,1436.2369],[-84.6644,10.2063,1408.3896],[-84.6604,10.2113,1340.5629],[-84.6615,10.2152,1215.7974],[-84.66,10.2173,1220.6163],[-84.6608,10.2235,1329.313],[-84.6628,10.226,1282.5096],[-84.6566,10.2339,1309.582],[-84.6586,10.2377,1334.9828],[-84.6572,10.2433,1324.3933],[-84.6701,10.2607,1426.5669],[-84.6705,10.2677,1500.3685],[-84.6745,10.2715,1576.9556],[-84.6738,10.2792,1636.0317],[-84.6774,10.2823,1647.5254],[-84.6811,10.2837,1620.8993],[-84.6827,10.2823,1613.0177],[-84.6854,10.2843,1574.0261],[-84.6947,10.2777,1525.8175],[-84.6971,10.2707,1658.4167]]]]}}