{"type": "Feature","bbox": [-84.3279,9.8329,-84.2703,9.8904],"geometry": {"type": "MultiPolygon","coordinates": [[[[-84.2883,9.8638,1009.0905],[-84.2936,9.8638,1000.912],[-84.2924,9.8648,1000.912],[-84.2964,9.8689,943.1923],[-84.3,9.8815,826.6893],[-84.3047,9.884,834.2653],[-84.3072,9.8822,786.4638],[-84.3092,9.8827,780.8486],[-84.317,9.8879,671.1929],[-84.3267,9.8904,556.9755],[-84.3279,9.8877,567.3439],[-84.3265,9.8733,644.4781],[-84.3205,9.8686,727.5519],[-84.3167,9.8629,745.5898],[-84.3139,9.8625,770.5392],[-84.3145,9.8577,856.5701],[-84.3084,9.856,922.1235],[-84.3016,9.8474,984.9373],[-84.2978,9.8519,1015.3411],[-84.2949,9.853,1007.5041],[-84.2897,9.842,821.0424],[-84.2853,9.8416,760.082],[-84.272,9.8329,627.1688],[-84.2704,9.8338,632.7855],[-84.2722,9.8369,673.0665],[-84.2703,9.8432,699.1746],[-84.276,9.852,800.3643],[-84.2811,9.8529,865.4708],[-84.2866,9.858,974.2021],[-84.2883,9.8638,1009.0905]]]]}
,"properties": {"GID_3": "CRI.7.14.7_1","GID_0": "CRI","country": "CostaRica","GID_1": "CRI.7_1","province": "SanJosé","NL_NAME_1": "NA","GID_2": "CRI.7.14_1","county": "Puriscal","NL_NAME_2": "NA","city": "SanAntonio","VARNAME_3": "NA","NL_NAME_3": "NA","TYPE_3": "Distrito","ENGTYPE_3": "District","CC_3": "8","HASC_3": "NA","name": "San_Antonio.city","area_km2": 14.47593,"hist_schema_id": "Elevation0-9000","hist_area_km2": {"550": 0.04177,"575": 0.12532,"600": 0.18799,"625": 0.41776,"650": 0.18799,"675": 0.45955,"700": 0.50133,"725": 0.66844,"750": 0.50133,"775": 0.77289,"800": 0.68932,"825": 0.85644,"850": 0.96088,"875": 0.96089,"900": 0.98178,"925": 0.91911,"950": 0.91911,"975": 1.14889,"1000": 1.37867,"1025": 0.73111,"1050": 0.52222,"1075": 0.43867,"1100": 0.04178,"1125": 0.04178,"1150": 0.02089}}}