{"type": "Feature","bbox": [-83.489,9.0749,-82.5524,9.7678],"geometry": {"type": "MultiPolygon","coordinates": [[[[-83.489,9.484,3753.5232],[-83.4867,9.4765,3710.4033],[-83.4837,9.4729,3675.1558],[-83.4837,9.4683,3531.2427],[-83.4817,9.4658,3550.175],[-83.4811,9.4577,3665.7141],[-83.4783,9.45,3469.2507],[-83.4808,9.4436,3448.4155],[-83.4798,9.4372,3370.6423],[-83.4826,9.4298,3422.7075],[-83.4726,9.4196,3132.0352],[-83.4703,9.4102,3200.9954],[-83.4659,9.4055,3239.4268],[-83.4583,9.3832,2875.0317],[-83.4547,9.3793,3039.5515],[-83.4499,9.3773,3114.1968],[-83.4401,9.3771,3142.6621],[-83.4374,9.3709,3115.603],[-83.4314,9.3722,3117.6396],[-83.4293,9.3673,3107.0334],[-83.4222,9.3663,3004.0991],[-83.4183,9.3631,3003.1462],[-83.4155,9.3574,2910.7375],[-83.4059,9.3531,2895.2544],[-83.4036,9.3485,2848.3943],[-83.4006,9.3478,2886.0408],[-83.4007,9.3425,2882.6934],[-83.3986,9.3372,2883.6736],[-83.3939,9.3424,2852.0791],[-83.3857,9.3464,2898.6494],[-83.3783,9.3464,2873.9646],[-83.3754,9.3478,2844.3062],[-83.3667,9.3461,2738.2881],[-83.3553,9.3523,2980.4551],[-83.3515,9.3508,3021.624],[-83.3445,9.3572,2934.5342],[-83.3435,9.363,2964.2166],[-83.3448,9.3669,2989.3137],[-83.342,9.3707,2909.8491],[-83.3386,9.371,2923.3059],[-83.3347,9.3742,3007.6841],[-83.3325,9.383,3071.0977],[-83.3276,9.3815,2978.7834],[-83.3256,9.3837,2952.52],[-83.3206,9.3842,3023.2292],[-83.3121,9.3826,3138.0564],[-83.3075,9.3769,3169.8997],[-83.3029,9.3746,3253.5603],[-83.2991,9.3685,3063.042],[-83.2904,9.3629,2865.0378],[-83.2874,9.3553,2809.812],[-83.279,9.3557,2682.3594],[-83.2719,9.3523,2619.3503],[-83.2687,9.3477,2553.7327],[-83.2619,9.3454,2306.8022],[-83.257,9.3416,2288.5042],[-83.2409,9.3389,2259.5161],[-83.2358,9.3296,2316.8306],[-83.229,9.3268,2337.0916],[-83.2241,9.3205,2539.1023],[-83.2068,9.3207,2612.4326],[-83.1973,9.3236,2648.6606],[-83.1885,9.3227,2853.7576],[-83.178,9.3268,3039.5366],[-83.1685,9.3193,2973.5278],[-83.1644,9.3077,2794.3628],[-83.1572,9.3031,2825.666],[-83.1574,9.3,2813.0581],[-83.1533,9.2981,2749.2266],[-83.1515,9.2949,2710.0452],[-83.1449,9.2926,2753.5835],[-83.1452,9.2896,2709.8936],[-83.1344,9.282,2868.5815],[-83.1342,9.2762,2870.1426],[-83.1166,9.2749,2632.9465],[-83.1132,9.2717,2542.2441],[-83.1102,9.2654,2474.1086],[-83.1029,9.263,2669.8181],[-83.1024,9.2592,2658.7715],[-83.0983,9.2563,2715.5496],[-83.0917,9.2538,2775.6321],[-83.0843,9.2556,2850.25],[-83.0733,9.2499,2933.4497],[-83.0717,9.2427,3041.1147],[-83.0733,9.2368,2917.6943],[-83.0797,9.2338,2862.4094],[-83.0791,9.2285,2820.4551],[-83.0758,9.224,2913.3003],[-83.0768,9.22,3011.4695],[-83.0702,9.212,2956.0496],[-83.0669,9.2106,2993.4902],[-83.0629,9.2043,2947.7688],[-83.0568,9.2,2951.6846],[-83.0578,9.194,2958.8386],[-83.067,9.1894,2820.8835],[-83.0673,9.183,2726.9438],[-83.065,9.1769,2714.0642],[-83.057,9.1685,2695.0059],[-83.0459,9.1603,2656.4497],[-83.0405,9.1615,2593.0266],[-83.038,9.16,2607.6716],[-83.0332,9.1617,2573.3921],[-83.0195,9.1583,2558.3284],[-83.016,9.1589,2549.698],[-83.0074,9.1559,2634.7886],[-83.0028,9.1559,2653.9094],[-82.9969,9.1586,2692.9514],[-82.9923,9.1553,2676.4873],[-82.9915,9.1528,2669.8574],[-82.996,9.1444,2569.5369],[-82.9941,9.1425,2551.4341],[-82.9927,9.1357,2506.1216],[-82.9966,9.127,2519.2668],[-82.9874,9.1244,2566.4089],[-82.9895,9.1167,2515.6567],[-82.9813,9.113,2517.3193],[-82.9814,9.1064,2542.2371],[-82.9786,9.1033,2540.9043],[-82.9779,9.0959,2552.1555],[-82.9759,9.0943,2545.2605],[-82.9709,9.0966,2535.9111],[-82.9582,9.0899,2649.5986],[-82.9547,9.0915,2673.5527],[-82.9512,9.0908,2682.5955],[-82.9428,9.0771,2700.8569],[-82.939,9.0749,2708.353],[-82.9342,9.0787,2766.2461],[-82.9341,9.4751,620.204],[-82.8411,9.4971,109.7553],[-82.8442,9.4991,99.6472],[-82.8425,9.5043,76.4817],[-82.8478,9.5086,84.1559],[-82.8475,9.5142,123.788],[-82.856,9.5117,68.6897],[-82.8572,9.5128,71.588],[-82.8531,9.5168,72.0707],[-82.8555,9.5198,72.6322],[-82.8648,9.5181,81.0978],[-82.8725,9.5245,62.8929],[-82.8719,9.5334,68.209],[-82.8742,9.538,62.2582],[-82.8675,9.545,71.2993],[-82.8691,9.5506,47.5547],[-82.8685,9.5539,53.555],[-82.8712,9.5554,55.1985],[-82.8775,9.5533,79.0571],[-82.8812,9.5568,49.3752],[-82.8813,9.5636,43.7269],[-82.8844,9.5638,40.6246],[-82.8852,9.5655,44.1464],[-82.8833,9.5718,43.4832],[-82.878,9.5798,41.2149],[-82.8771,9.5925,63.6175],[-82.8727,9.5942,33.5],[-82.8641,9.59,37.6012],[-82.8605,9.5903,46.2899],[-82.8595,9.5915,44.4922],[-82.8635,9.5955,35.6461],[-82.8602,9.6098,36.9715],[-82.8582,9.6129,33.3383],[-82.8469,9.6165,33.5694],[-82.8396,9.6152,45.6444],[-82.8352,9.6119,27.4841],[-82.8272,9.6112,26.039],[-82.825,9.6051,29.1504],[-82.8185,9.6022,30.8189],[-82.816,9.5973,25.1611],[-82.8066,9.5963,21.4397],[-82.8035,9.5966,30.5383],[-82.8009,9.5994,20.4569],[-82.7933,9.5987,62.7422],[-82.7764,9.5851,19.1966],[-82.7693,9.5878,18.8651],[-82.763,9.5937,21.7152],[-82.7607,9.5941,22.3057],[-82.752,9.5903,19.832],[-82.7475,9.593,19.711],[-82.7451,9.5926,19.4743],[-82.7428,9.59,19.9833],[-82.7458,9.5871,21.1819],[-82.7474,9.5817,16.1421],[-82.7434,9.5736,12.0],[-82.7434,9.5685,13.626],[-82.7292,9.5641,19.3721],[-82.7263,9.5599,11.8192],[-82.7289,9.5541,19.4048],[-82.72,9.551,17.3234],[-82.7143,9.5455,15.9136],[-82.7099,9.5536,15.5832],[-82.7076,9.5539,16.2047],[-82.7054,9.5522,15.0868],[-82.703,9.5455,16.2563],[-82.6945,9.5426,12.2123],[-82.6921,9.5351,16.4902],[-82.6994,9.5306,9.0],[-82.7003,9.5282,14.4895],[-82.6931,9.5213,9.7332],[-82.6909,9.5119,12.5216],[-82.6814,9.5068,11.8751],[-82.6789,9.5077,7.5],[-82.6752,9.5129,9.9252],[-82.6725,9.5094,10.4435],[-82.6716,9.5018,13.2694],[-82.6681,9.5006,12.095],[-82.6617,9.5025,16.3797],[-82.6614,9.5085,11.5507],[-82.6593,9.5101,14.5668],[-82.648,9.4975,9.7695],[-82.637,9.4942,8.6972],[-82.6335,9.4951,5.7703],[-82.6354,9.5006,8.5045],[-82.6346,9.5023,9.1039],[-82.6178,9.4982,4.815],[-82.611,9.5003,10.3343],[-82.6046,9.5064,4.5907],[-82.6034,9.5116,7.9791],[-82.6045,9.5212,2.0],[-82.5981,9.534,3.3001],[-82.5987,9.5407,1.0],[-82.6039,9.5515,2.602],[-82.6027,9.5568,15.6618],[-82.6005,9.5588,2.7251],[-82.5888,9.5594,0.5],[-82.5792,9.5569,4.3126],[-82.5724,9.5521,0.5],[-82.5657,9.5422,6.5471],[-82.5607,9.5396,2.2575],[-82.5552,9.5416,1.2971],[-82.5524,9.5484,6.5685],[-82.5541,9.552,8.7553],[-82.5636,9.5614,8.5564],[-82.5648,9.5718,0.5439],[-82.602,9.5947,0.0],[-82.6166,9.6119,3.5831],[-82.6205,9.6209,11.4092],[-82.6187,9.6302,0.0],[-82.622,9.6322,20.7183],[-82.622,9.6346,12.0028],[-82.6333,9.6379,13.9601],[-82.6396,9.636,4.2963],[-82.6485,9.6399,4.5285],[-82.6593,9.6322,0.0],[-82.6682,9.6319,18.7937],[-82.6779,9.636,2.0824],[-82.6854,9.6438,0.0],[-82.6907,9.6409,3.2725],[-82.6935,9.6416,0.0],[-82.6931,9.6388,9.5562],[-82.6973,9.6375,3.0997],[-82.7059,9.6409,0.0],[-82.7084,9.6402,16.1095],[-82.7161,9.6423,3.0948],[-82.7198,9.6456,0.0],[-82.7246,9.6436,11.3207],[-82.7306,9.6469,15.3162],[-82.7334,9.646,26.3584],[-82.7342,9.6495,0.0],[-82.7424,9.6573,0.0],[-82.7487,9.6602,6.6815],[-82.7551,9.6583,3.1995],[-82.758,9.6544,2.3696],[-82.7686,9.6569,3.9561],[-82.7817,9.6654,4.3866],[-82.7895,9.6739,0.0],[-82.7901,9.6724,1.68],[-82.7899,9.6745,0.0],[-82.8117,9.712,0.0],[-82.8154,9.7271,11.9903],[-82.8135,9.7329,6.5228],[-82.8103,9.7364,0.0],[-82.8096,9.7456,0.0],[-82.8157,9.7497,2.5844],[-82.8185,9.7464,2.6488],[-82.8193,9.7418,9.9338],[-82.8278,9.7346,3.7314],[-82.8322,9.7347,4.6996],[-82.8377,9.7363,5.2907],[-82.8408,9.7415,1.4489],[-82.8456,9.7406,0.0],[-82.8512,9.7435,2.4191],[-82.8727,9.7628,8.7802],[-82.8802,9.7598,14.6789],[-82.8901,9.7631,14.8195],[-82.8923,9.7666,13.8599],[-82.8957,9.7678,14.4982],[-82.8968,9.764,19.162],[-82.8993,9.7647,15.8784],[-82.9043,9.7614,20.8251],[-82.9042,9.759,23.3744],[-82.9068,9.7583,31.6768],[-82.9059,9.7568,46.0891],[-82.9034,9.7574,32.1665],[-82.9041,9.7533,56.6016],[-82.9,9.7502,35.7215],[-82.9032,9.7463,42.0076],[-82.9033,9.7425,43.6178],[-82.9093,9.7396,58.3153],[-82.9122,9.7359,82.415],[-82.9185,9.7339,120.4695],[-82.9217,9.7345,123.3319],[-82.925,9.7244,229.3111],[-82.9334,9.719,404.7293],[-82.9268,9.7154,231.5661],[-82.9274,9.7107,225.4561],[-82.9257,9.7086,202.583],[-82.9222,9.7078,248.7697],[-82.9223,9.7045,185.0179],[-82.9139,9.6955,255.1183],[-82.9099,9.694,217.0306],[-82.9076,9.6949,192.4496],[-82.9042,9.6859,210.319],[-82.9016,9.6857,187.3043],[-82.8958,9.677,249.8666],[-82.8913,9.6734,344.4674],[-82.8889,9.6672,330.6171],[-82.8898,9.6643,399.9872],[-82.8912,9.6628,436.1243],[-82.8964,9.6622,457.5252],[-82.8997,9.6591,483.9214],[-82.9005,9.6554,459.0158],[-82.9088,9.6596,421.5066],[-82.9097,9.6627,422.4481],[-82.9125,9.6629,427.3053],[-82.9121,9.666,417.7666],[-82.9158,9.668,421.3506],[-82.9168,9.6708,432.2028],[-82.9188,9.6708,461.4057],[-82.9193,9.667,452.5499],[-82.9213,9.6697,481.2967],[-82.9234,9.67,497.4857],[-82.9257,9.6611,427.4563],[-82.9227,9.6519,463.4536],[-82.9201,9.6494,480.3488],[-82.923,9.6343,475.4135],[-82.9309,9.6299,532.974],[-82.9399,9.6211,598.1854],[-82.9493,9.6178,528.1459],[-82.9524,9.6125,479.4654],[-82.9592,9.6131,484.8157],[-82.9688,9.6223,412.0944],[-82.9708,9.6223,417.301],[-82.9883,9.6178,367.1369],[-82.9943,9.6129,388.3413],[-83.0048,9.6109,435.1219],[-83.0138,9.6137,389.1455],[-83.0172,9.6105,388.3639],[-83.0209,9.6112,392.4985],[-83.0237,9.6124,370.8742],[-83.0234,9.6164,422.1322],[-83.0272,9.6205,466.2221],[-83.0266,9.6248,492.4001],[-83.0305,9.6285,549.0761],[-83.0338,9.6285,545.5794],[-83.0362,9.6253,566.0596],[-83.0402,9.6234,635.1609],[-83.0457,9.6233,530.2686],[-83.0489,9.6189,600.1528],[-83.0531,9.6188,653.8074],[-83.0584,9.6146,667.2245],[-83.0687,9.6224,663.5526],[-83.0767,9.6227,625.7957],[-83.0836,9.6269,656.592],[-83.0914,9.6293,684.0348],[-83.0954,9.6257,592.7081],[-83.105,9.6221,680.9972],[-83.1122,9.6218,658.4228],[-83.1197,9.6165,739.5392],[-83.1255,9.617,722.2779],[-83.1296,9.6193,708.671],[-83.1306,9.6179,768.8741],[-83.1338,9.6181,796.2911],[-83.1353,9.619,814.9814],[-83.1309,9.6339,936.8544],[-83.1365,9.6401,1009.3648],[-83.1407,9.6384,883.9318],[-83.1494,9.6392,716.0104],[-83.1537,9.6362,790.2731],[-83.1554,9.6383,823.7781],[-83.16,9.6384,877.7256],[-83.1656,9.6429,1322.9807],[-83.1674,9.6413,1378.4929],[-83.1705,9.6423,1268.7104],[-83.1714,9.6468,1171.9574],[-83.1838,9.6507,1231.6343],[-83.1856,9.6538,1262.5999],[-83.1886,9.6532,1276.6875],[-83.1987,9.6584,1470.257],[-83.2033,9.6571,1394.1807],[-83.2086,9.6578,1528.8756],[-83.2121,9.664,1442.6588],[-83.216,9.664,1416.4484],[-83.2239,9.6687,1198.3511],[-83.2336,9.6671,1315.863],[-83.2388,9.6695,1504.8137],[-83.2423,9.6668,1489.0082],[-83.2532,9.6696,1634.7587],[-83.2553,9.668,1682.2439],[-83.2655,9.6699,1778.1304],[-83.2698,9.6733,1963.5643],[-83.2732,9.6683,1967.3708],[-83.2836,9.6656,1751.8687],[-83.2907,9.6673,1744.3385],[-83.2978,9.6666,1736.7595],[-83.303,9.6696,1838.8093],[-83.3059,9.6679,1873.2749],[-83.3149,9.6722,2140.2251],[-83.3209,9.6687,1988.0449],[-83.3219,9.6653,2158.0564],[-83.3272,9.6643,2265.9575],[-83.3294,9.6615,2374.2236],[-83.3322,9.6503,2183.3394],[-83.3373,9.6481,2103.4138],[-83.3428,9.6362,2046.8043],[-83.3398,9.6303,2053.2749],[-83.3411,9.6256,2182.9143],[-83.3444,9.6235,2236.6189],[-83.3505,9.6231,2242.7148],[-83.3527,9.6213,2232.0159],[-83.3652,9.6196,2107.074],[-83.3683,9.6111,1995.2932],[-83.378,9.6016,2289.8325],[-83.3927,9.6037,2655.335],[-83.4043,9.5983,2580.843],[-83.4112,9.5897,2474.0664],[-83.4126,9.5829,2558.7224],[-83.4155,9.5808,2541.8325],[-83.4171,9.5757,2544.1521],[-83.421,9.5753,2549.1594],[-83.424,9.5718,2555.0156],[-83.4231,9.5671,2586.8516],[-83.4285,9.5634,2547.8389],[-83.438,9.5619,2531.5239],[-83.4411,9.5629,2574.7607],[-83.4573,9.5584,2849.4441],[-83.4705,9.5498,3216.5159],[-83.4716,9.5423,3347.7495],[-83.4767,9.5366,3563.2222],[-83.4732,9.5269,3550.1162],[-83.4699,9.5257,3592.1968],[-83.4693,9.5214,3576.5391],[-83.4756,9.5154,3590.4863],[-83.4773,9.5059,3645.0723],[-83.4822,9.502,3684.9155],[-83.4813,9.493,3581.3069],[-83.4792,9.4893,3669.9233],[-83.4799,9.4859,3630.542],[-83.489,9.484,3753.5232]]],
[[[-82.6156,9.6312,0.2691],[-82.6171,9.6317,0.2691],[-82.6175,9.6308,0.0],[-82.6157,9.6301,0.0],[-82.6156,9.6312,0.2691]]]]}
,"properties": {"GID_2": "CRI.5.6_1","GID_0": "CRI","country": "CostaRica","GID_1": "CRI.5_1","province": "Limón","NL_NAME_1": "NA","county": "Talamanca","VARNAME_2": "NA","NL_NAME_2": "NA","TYPE_2": "Cantón","ENGTYPE_2": "Canton","CC_2": "4","HASC_2": "CR.LI.TA","name": "Talamanca.county","area_km2": 2827.683,"hist_schema_id": "Elevation0-9000","hist_area_km2": {"0": 57.578,"25": 153.986,"50": 74.337,"75": 87.387,"100": 66.605,"125": 53.79,"150": 46.472,"175": 45.531,"200": 37.442,"225": 31.589,"250": 24.9,"275": 23.437,"300": 21.283,"325": 18.503,"350": 17.918,"375": 17.751,"400": 17.73,"425": 18.42,"450": 18.964,"475": 18.358,"500": 18.421,"525": 18.171,"550": 19.801,"575": 19.363,"600": 20.367,"625": 20.032,"650": 20.262,"675": 19.53,"700": 19.865,"725": 20.2,"750": 21.12,"775": 19.761,"800": 20.911,"825": 20.179,"850": 21.768,"875": 19.698,"900": 20.953,"925": 20.368,"950": 21.413,"975": 21.163,"1000": 19.866,"1025": 19.552,"1050": 19.427,"1075": 20.096,"1100": 19.803,"1125": 18.172,"1150": 19.49,"1175": 19.427,"1200": 18.109,"1225": 19.05,"1250": 17.524,"1275": 17.148,"1300": 18.026,"1325": 16.124,"1350": 17.232,"1375": 17.881,"1400": 17.232,"1425": 16.982,"1450": 18.654,"1475": 17.525,"1500": 18.404,"1525": 17.149,"1550": 19.22,"1575": 19.178,"1600": 20.119,"1625": 19.387,"1650": 19.596,"1675": 19.889,"1700": 19.89,"1725": 20.497,"1750": 21.062,"1775": 21.187,"1800": 20.539,"1825": 21.23,"1850": 20.979,"1875": 21.753,"1900": 22.046,"1925": 20.54,"1950": 21.817,"1975": 20.813,"2000": 21.42,"2025": 21.922,"2050": 21.19,"2075": 21.713,"2100": 22.78,"2125": 23.303,"2150": 23.283,"2175": 23.366,"2200": 25.312,"2225": 23.116,"2250": 22.76,"2275": 21.191,"2300": 21.505,"2325": 20.585,"2350": 21.108,"2375": 21.421,"2400": 22.217,"2425": 23.201,"2450": 22.615,"2475": 23.307,"2500": 22.827,"2525": 23.371,"2550": 20.987,"2575": 19.856,"2600": 17.303,"2625": 17.429,"2650": 17.869,"2675": 17.785,"2700": 16.718,"2725": 15.943,"2750": 15.838,"2775": 13.871,"2800": 12.156,"2825": 11.214,"2850": 10.502,"2875": 10.0,"2900": 8.264,"2925": 7.908,"2950": 8.159,"2975": 6.966,"3000": 5.648,"3025": 4.749,"3050": 4.539,"3075": 3.619,"3100": 3.284,"3125": 2.489,"3150": 2.782,"3175": 2.636,"3200": 2.259,"3225": 2.28,"3250": 1.987,"3275": 2.364,"3300": 2.113,"3325": 1.778,"3350": 1.506,"3375": 1.255,"3400": 1.213,"3425": 1.422,"3450": 1.485,"3475": 1.213,"3500": 1.401,"3525": 1.192,"3550": 1.171,"3575": 0.983,"3600": 0.439,"3625": 0.523,"3650": 0.376,"3675": 0.439,"3700": 0.209,"3725": 0.042,"3750": 0.042}}}