{"type":"Feature","properties":{"GID_3":"CRI.7.13.11_1","GID_0":"CRI","country":"CostaRica","GID_1":"CRI.7_1","province":"SanJosé","NL_NAME_1":"NA","GID_2":"CRI.7.13_1","county":"PérezZeledón","NL_NAME_2":"NA","city":"SanIsidrodelGeneral","VARNAME_3":"NA","NL_NAME_3":"NA","TYPE_3":"Distrito","ENGTYPE_3":"District","CC_3":"1","HASC_3":"NA","name":"San_Isidrodel_General.city"},
"geometry":{"type": "MultiPolygon","coordinates": [[[[-83.7046,9.2239,1130.1334],[-83.6956,9.2272,1055.6838],[-83.69,9.2257,1089.8999],[-83.688,9.2289,1003.7446],[-83.6868,9.2385,887.1841],[-83.6705,9.2477,777.4067],[-83.6723,9.2517,690.6118],[-83.6702,9.2558,632.8976],[-83.6713,9.258,578.9821],[-83.6759,9.2585,618.8349],[-83.6778,9.2616,732.616],[-83.6723,9.2661,612.9741],[-83.6712,9.2699,564.5217],[-83.6665,9.2628,555.7167],[-83.6625,9.2633,588.8149],[-83.6568,9.2751,544.2113],[-83.6579,9.2812,578.6964],[-83.6608,9.2811,613.8292],[-83.6599,9.2871,608.5859],[-83.6649,9.2872,634.2154],[-83.6633,9.2885,611.4097],[-83.6654,9.2904,619.4463],[-83.6636,9.2918,623.5928],[-83.6655,9.2929,613.5989],[-83.6678,9.2919,625.5978],[-83.6711,9.296,626.2244],[-83.6729,9.2949,625.0179],[-83.6728,9.298,646.7164],[-83.6758,9.3005,643.4158],[-83.6763,9.305,647.2551],[-83.6831,9.3092,653.3152],[-83.6837,9.3214,677.3547],[-83.6898,9.323,684.823],[-83.693,9.3327,675.3615],[-83.693,9.3463,683.9242],[-83.6943,9.3483,686.7712],[-83.6932,9.357,694.4386],[-83.6945,9.3603,692.4976],[-83.6928,9.3625,693.0949],[-83.6933,9.3664,697.9725],[-83.6898,9.3706,709.0823],[-83.6874,9.3861,772.2476],[-83.6818,9.3912,793.249],[-83.6796,9.3965,817.1235],[-83.6729,9.4019,859.3384],[-83.6712,9.4045,861.2444],[-83.6719,9.407,877.7918],[-83.6687,9.41,895.671],[-83.6694,9.4195,960.876],[-83.6827,9.4306,1434.9938],[-83.682,9.4396,1487.696],[-83.6793,9.444,1464.4406],[-83.6806,9.4483,1500.7856],[-83.6797,9.4501,1555.3031],[-83.6826,9.4567,1750.9552],[-83.6841,9.4438,1349.3325],[-83.6891,9.4413,1262.2833],[-83.6929,9.4346,1086.5007],[-83.7005,9.431,995.8212],[-83.7007,9.4285,963.0148],[-83.7056,9.4331,1049.524],[-83.7097,9.4338,1195.2064],[-83.7096,9.4299,1148.4211],[-83.7126,9.4257,1139.4934],[-83.711,9.422,1091.6174],[-83.7125,9.4199,1098.0143],[-83.7123,9.4158,1058.6462],[-83.7183,9.4154,1124.5869],[-83.7186,9.4102,1084.4858],[-83.7325,9.3966,824.2554],[-83.7326,9.3926,783.7012],[-83.7303,9.3876,757.7482],[-83.7404,9.3877,826.9786],[-83.742,9.3852,808.3968],[-83.7494,9.387,692.4225],[-83.7494,9.3788,679.4292],[-83.751,9.3802,679.4292],[-83.7536,9.3793,698.8492],[-83.7614,9.3811,742.0306],[-83.7668,9.3763,784.324],[-83.7729,9.3757,864.0679],[-83.7793,9.3711,874.3502],[-83.7835,9.3705,902.5533],[-83.7864,9.3722,953.4163],[-83.7893,9.3714,960.927],[-83.8006,9.3802,1190.5432],[-83.8081,9.3836,1307.6107],[-83.804,9.3705,1280.1172],[-83.7874,9.3643,1055.5876],[-83.7846,9.3607,1112.2515],[-83.7808,9.3588,1209.899],[-83.7785,9.3523,1246.322],[-83.7752,9.3512,1271.0281],[-83.7676,9.3422,1145.9348],[-83.7666,9.3366,1140.74],[-83.755,9.3326,1131.4213],[-83.7539,9.3308,1125.3907],[-83.7551,9.3251,1044.6987],[-83.7588,9.3246,1067.9064],[-83.7603,9.3227,1069.3956],[-83.7672,9.322,1013.6532],[-83.7699,9.3194,879.568],[-83.7706,9.3161,942.8721],[-83.7701,9.3102,1001.6294],[-83.7639,9.3012,1055.3546],[-83.7635,9.2938,1130.0588],[-83.7611,9.2911,1177.6417],[-83.766,9.2763,1073.4053],[-83.7546,9.2485,1036.9305],[-83.756,9.2439,874.315],[-83.753,9.2422,804.2615],[-83.7476,9.2442,793.1979],[-83.7458,9.241,709.2167],[-83.7411,9.2376,463.2725],[-83.7361,9.2282,323.8665],[-83.7352,9.2238,275.9937],[-83.7362,9.2229,269.0388],[-83.7229,9.2205,705.9133],[-83.7108,9.2206,960.8181],[-83.7092,9.2251,996.0801],[-83.7046,9.2239,1130.1334]]]]}}