{"type": "Feature","bbox": [-84.0691,9.9791,-84.0443,10.0056],"geometry": {"type": "MultiPolygon","coordinates": [[[[-84.0685,9.9979,1238.0815],[-84.0691,9.9935,1219.3336],[-84.0665,9.9905,1208.5153],[-84.0625,9.9799,1166.1415],[-84.0609,9.9791,1170.2231],[-84.0602,9.9806,1196.9089],[-84.0584,9.9801,1184.5542],[-84.0593,9.9832,1186.4324],[-84.0561,9.9875,1221.2865],[-84.0528,9.9893,1231.3777],[-84.0475,9.9893,1237.2572],[-84.0445,9.9953,1260.2091],[-84.0443,9.9993,1260.2126],[-84.0466,10.0032,1270.2573],[-84.0461,10.0056,1284.0558],[-84.0482,10.0024,1289.9446],[-84.0685,9.9979,1238.0815]]]]}
,"properties": {"GID_3": "CRI.4.9.8_1","GID_0": "CRI","country": "CostaRica","GID_1": "CRI.4_1","province": "Heredia","NL_NAME_1": "NA","GID_2": "CRI.4.9_1","county": "SantoDomingo","NL_NAME_2": "NA","city": "Tures","VARNAME_3": "NA","NL_NAME_3": "NA","TYPE_3": "Distrito","ENGTYPE_3": "District","CC_3": "7","HASC_3": "NA","name": "Tures.city","area_km2": 3.862896,"hist_schema_id": "Elevation0-9000","hist_area_km2": {"1175": 0.083525,"1200": 0.438501,"1225": 1.231956,"1250": 0.960501,"1275": 0.856091,"1300": 0.292322}}}