{"type":"Feature","properties":{"GID_3":"CRI.3.5.1_1","GID_0":"CRI","country":"CostaRica","GID_1":"CRI.3_1","province":"Guanacaste","NL_NAME_1":"NA","GID_2":"CRI.3.5_1","county":"Hojancha","NL_NAME_2":"NA","city":"Hojancha","VARNAME_3":"NA","NL_NAME_3":"NA","TYPE_3":"Distrito","ENGTYPE_3":"District","CC_3":"1","HASC_3":"NA","name":"Hojancha.city"},
"geometry":{"type": "MultiPolygon","coordinates": [[[[-85.3894,10.0677,145.9635],[-85.3787,10.0724,117.7652],[-85.3815,10.0737,126.206],[-85.3827,10.0774,206.8979],[-85.3857,10.079,248.7505],[-85.3878,10.0782,264.0002],[-85.3923,10.0833,318.2851],[-85.3888,10.0833,251.3947],[-85.3852,10.0861,230.1398],[-85.3922,10.0927,234.4804],[-85.3974,10.0926,130.196],[-85.4025,10.0973,147.7884],[-85.4066,10.0943,190.3692],[-85.3968,10.0792,342.2459],[-85.4009,10.0734,369.9932],[-85.4071,10.0718,366.2306],[-85.4091,10.0692,358.3226],[-85.4286,10.0747,482.4083],[-85.4387,10.0909,326.6415],[-85.4455,10.088,210.6285],[-85.4516,10.08,281.287],[-85.4511,10.072,522.7878],[-85.4479,10.071,526.6021],[-85.4475,10.0645,450.3261],[-85.4527,10.0591,408.4424],[-85.4525,10.0562,388.8906],[-85.4595,10.054,242.981],[-85.4649,10.0413,230.2774],[-85.4647,10.0363,275.7656],[-85.4723,10.0271,402.883],[-85.4745,10.0205,581.5765],[-85.4706,10.0122,732.8368],[-85.4704,9.999,742.0248],[-85.4688,9.9963,687.5385],[-85.46,10.0002,357.5388],[-85.4511,9.9997,210.7887],[-85.4482,9.9939,184.4641],[-85.4438,9.9961,204.5805],[-85.4431,9.9993,204.9556],[-85.4318,9.9974,298.1223],[-85.428,10.0066,403.543],[-85.4313,10.0114,503.1472],[-85.4238,10.0158,630.4552],[-85.4178,10.0145,728.7585],[-85.414,10.0088,753.1782],[-85.4018,10.0003,846.1696],[-85.39,10.0055,738.6661],[-85.3895,10.0089,734.2083],[-85.3869,10.0091,784.6033],[-85.3827,10.0219,697.2408],[-85.3868,10.03,751.7214],[-85.3916,10.0334,629.4391],[-85.3919,10.0382,607.8497],[-85.3944,10.0427,438.5258],[-85.3946,10.0541,300.4658],[-85.3962,10.0564,265.6531],[-85.3886,10.0661,155.4907],[-85.3894,10.0677,145.9635]]]]}}