{"type": "Feature","bbox": [-84.1647,9.9713,-84.109,10.0006],"geometry": {"type": "MultiPolygon","coordinates": [[[[-84.1617,9.9814,995.2292],[-84.1496,9.989,1047.4183],[-84.1345,9.991,1115.5054],[-84.1331,9.9865,1110.1832],[-84.1301,9.9873,1119.7054],[-84.1285,9.9898,1114.7631],[-84.1233,9.9897,1119.6338],[-84.1208,9.9886,1107.0569],[-84.1204,9.9784,1046.6738],[-84.1225,9.9741,1032.5181],[-84.1139,9.9713,1049.2744],[-84.109,9.984,1121.1963],[-84.1113,9.9905,1127.2928],[-84.1249,9.9905,1125.722],[-84.1249,9.9967,1134.5583],[-84.1345,9.9965,1111.1342],[-84.1476,10.0006,1052.1965],[-84.1549,9.9943,1018.1088],[-84.1603,9.9945,1000.8574],[-84.1647,9.9901,971.0789],[-84.1617,9.9814,995.2292]]]]}
,"properties": {"GID_3": "CRI.4.4.3_1","GID_0": "CRI","country": "CostaRica","GID_1": "CRI.4_1","province": "Heredia","NL_NAME_1": "NA","GID_2": "CRI.4.4_1","county": "Heredia","NL_NAME_2": "NA","city": "SanFrancisco","VARNAME_3": "NA","NL_NAME_3": "NA","TYPE_3": "Distrito","ENGTYPE_3": "District","CC_3": "3","HASC_3": "NA","name": "San_Francisco.city","area_km2": 6.473059,"hist_schema_id": "Elevation0-9000","hist_area_km2": {"975": 0.292331,"1000": 0.45938,"1025": 0.751706,"1050": 1.315504,"1075": 1.002285,"1100": 1.106684,"1125": 1.545169}}}