{"type":"Feature","properties":{"GID_3":"CRI.2.2.5_1","GID_0":"CRI","country":"CostaRica","GID_1":"CRI.2_1","province":"Cartago","NL_NAME_1":"NA","GID_2":"CRI.2.2_1","county":"Cartago","NL_NAME_2":"NA","city":"Guadalupe","VARNAME_3":"Arenilla","NL_NAME_3":"NA","TYPE_3":"Distrito","ENGTYPE_3":"District","CC_3":"6","HASC_3":"NA","name":"Guadalupe.city"},
"geometry":{"type": "MultiPolygon","coordinates": [[[[-83.9325,9.866,1427.6041],[-83.9487,9.8678,1415.256],[-83.9464,9.871,1420.3784],[-83.9505,9.8732,1410.4977],[-83.9527,9.8767,1407.1045],[-83.9563,9.873,1404.2916],[-83.9577,9.8662,1415.4718],[-83.9597,9.8653,1394.3722],[-83.9659,9.8697,1484.3853],[-83.966,9.8729,1543.6543],[-83.97,9.8745,1616.1479],[-83.972,9.8801,1737.9966],[-83.9768,9.8794,1798.252],[-83.9763,9.8819,1836.038],[-83.9801,9.884,1819.1025],[-83.9843,9.8781,1638.7275],[-83.9834,9.8736,1537.631],[-83.985,9.8703,1447.4451],[-83.9846,9.8641,1400.0574],[-83.9819,9.8552,1403.1591],[-83.9688,9.8513,1379.7571],[-83.9611,9.8467,1380.6954],[-83.9582,9.8466,1381.6375],[-83.9566,9.8504,1385.3907],[-83.9488,9.848,1384.8783],[-83.9427,9.8527,1389.4426],[-83.9341,9.8539,1396.2015],[-83.9294,9.8624,1422.6028],[-83.9328,9.863,1418.6782],[-83.9325,9.866,1427.6041]]]]}}