{"type":"Feature","properties":{"GID_3":"CRI.7.1.1_1","GID_0":"CRI","country":"CostaRica","GID_1":"CRI.7_1","province":"SanJosé","NL_NAME_1":"NA","GID_2":"CRI.7.1_1","county":"Acosta","NL_NAME_2":"NA","city":"Cangrejal","VARNAME_3":"NA","NL_NAME_3":"NA","TYPE_3":"Distrito","ENGTYPE_3":"District","CC_3":"4","HASC_3":"NA","name":"Cangrejal.city"},
"geometry":{"type": "MultiPolygon","coordinates": [[[[-84.2451,9.7674,409.2447],[-84.2427,9.7575,597.5948],[-84.2437,9.7544,642.5166],[-84.2379,9.7489,801.3242],[-84.2361,9.7386,1143.1455],[-84.2317,9.7382,1129.4724],[-84.2315,9.734,1075.7072],[-84.2272,9.7261,761.675],[-84.2274,9.7237,641.1584],[-84.2226,9.7249,728.9122],[-84.2164,9.7208,783.6384],[-84.2093,9.7202,1011.7504],[-84.1976,9.7146,1374.1926],[-84.1939,9.7149,1398.8959],[-84.1882,9.7121,1705.176],[-84.1828,9.7073,1821.7021],[-84.1766,9.6981,2126.8171],[-84.1728,9.6988,2104.3762],[-84.1734,9.7017,2184.928],[-84.1703,9.7039,2167.8811],[-84.1685,9.7077,2068.7715],[-84.1687,9.7125,2099.9331],[-84.1586,9.7097,2230.3691],[-84.1508,9.7215,2249.4453],[-84.1446,9.7233,2372.2031],[-84.1391,9.7221,2469.4197],[-84.1338,9.7286,2152.9702],[-84.135,9.733,2134.7905],[-84.1398,9.7366,1938.3774],[-84.157,9.7594,1261.1857],[-84.1616,9.7614,1179.9144],[-84.1628,9.7649,1032.4473],[-84.1622,9.7765,715.4548],[-84.1666,9.7754,698.8813],[-84.1765,9.7831,630.4459],[-84.1823,9.7787,627.2056],[-84.1951,9.7783,554.9635],[-84.1996,9.7756,559.7626],[-84.2059,9.7771,549.2528],[-84.2107,9.7713,524.0561],[-84.2188,9.7704,550.4282],[-84.2223,9.774,527.9136],[-84.225,9.7729,504.3677],[-84.2274,9.7749,455.8947],[-84.2313,9.7723,446.1586],[-84.2313,9.7689,429.8525],[-84.2409,9.7668,434.6328],[-84.2451,9.7674,409.2447]]]]}}