{"type":"Feature","properties":{"GID_3":"CRI.3.10.1_1","GID_0":"CRI","country":"CostaRica","GID_1":"CRI.3_1","province":"Guanacaste","NL_NAME_1":"NA","GID_2":"CRI.3.10_1","county":"SantaCruz","NL_NAME_2":"NA","city":"Bolsón","VARNAME_3":"NA","NL_NAME_3":"NA","TYPE_3":"Distrito","ENGTYPE_3":"District","CC_3":"2","HASC_3":"NA","name":"Bolsón.city"},
"geometry":{"type": "MultiPolygon","coordinates": [[[[-85.4102,10.3651,9.4294],[-85.4133,10.3678,8.808],[-85.4167,10.3674,10.6537],[-85.4233,10.3699,11.6742],[-85.4322,10.3676,9.4175],[-85.4497,10.3687,11.4959],[-85.4543,10.3661,12.438],[-85.4669,10.3668,9.7283],[-85.4665,10.3634,9.5763],[-85.4655,10.3649,8.9388],[-85.4643,10.3638,9.9358],[-85.4685,10.3621,8.2971],[-85.4681,10.3607,9.7703],[-85.4707,10.3584,12.8566],[-85.4736,10.3569,9.185],[-85.4756,10.3588,7.7002],[-85.479,10.3566,9.729],[-85.4803,10.358,9.0691],[-85.4837,10.3569,11.7489],[-85.481,10.3549,8.5364],[-85.4805,10.3531,10.3166],[-85.4817,10.3522,10.3166],[-85.4789,10.3516,13.2013],[-85.4816,10.3471,20.4098],[-85.4839,10.3506,17.4771],[-85.4849,10.3492,16.5891],[-85.486,10.3509,16.0012],[-85.4884,10.3489,22.1909],[-85.4901,10.3501,14.1182],[-85.4924,10.3481,13.3148],[-85.4941,10.349,9.4446],[-85.4944,10.3463,14.9163],[-85.4962,10.3467,11.0861],[-85.4956,10.3454,11.5363],[-85.4984,10.3462,10.6029],[-85.5005,10.3423,17.1497],[-85.503,10.3428,13.609],[-85.5027,10.3444,13.0758],[-85.5093,10.3446,11.7943],[-85.5112,10.3469,17.0626],[-85.5144,10.343,11.5519],[-85.515,10.3372,10.8503],[-85.5118,10.3308,11.9498],[-85.5043,10.3298,8.8259],[-85.501,10.3309,9.8357],[-85.4983,10.3352,9.4772],[-85.496,10.3328,11.6205],[-85.4897,10.334,10.0868],[-85.4841,10.3383,15.8954],[-85.4672,10.3339,17.4894],[-85.4597,10.3344,6.019],[-85.4551,10.3287,4.6291],[-85.4524,10.3295,4.0977],[-85.4508,10.3276,6.357],[-85.4491,10.3278,6.357],[-85.4483,10.3246,3.9101],[-85.4448,10.3255,3.581],[-85.4428,10.3281,3.6847],[-85.4382,10.3282,3.5525],[-85.4388,10.3317,5.0702],[-85.4425,10.3332,5.5082],[-85.4374,10.3372,4.7245],[-85.4356,10.3365,3.5129],[-85.434,10.3319,3.8535],[-85.427,10.3282,3.2954],[-85.4291,10.3341,6.5962],[-85.4267,10.3403,3.9785],[-85.4229,10.3412,10.2408],[-85.4228,10.3436,8.78],[-85.4079,10.3465,3.4917],[-85.4069,10.3486,10.0874],[-85.4062,10.3587,6.1412],[-85.4108,10.3623,5.6852],[-85.4102,10.3651,9.4294]]]]}}