{"type": "Feature","bbox": [-84.583,9.7732,-84.4714,9.8929],"geometry": {"type": "MultiPolygon","coordinates": [[[[-84.563,9.8419,14.6458],[-84.5637,9.8388,14.7952],[-84.56,9.8369,25.903199999999998],[-84.5605,9.8325,21.9742],[-84.568,9.8268,57.035],[-84.5714,9.8295,14.7402],[-84.5823,9.823,13.5928],[-84.5828,9.8173,7.5],[-84.5799,9.8121,17.0635],[-84.583,9.8061,6.3504],[-84.578,9.8091,10.1207],[-84.5676,9.81,36.1133],[-84.5676,9.8053,50.7889],[-84.5609,9.7936,60.6195],[-84.563,9.7928,80.9913],[-84.5618,9.7902,62.7061],[-84.5585,9.7898,78.1334],[-84.5574,9.788,142.8127],[-84.5581,9.7841,145.1663],[-84.552,9.7798,170.1395],[-84.5501,9.7802,137.0959],[-84.5502,9.778,169.0559],[-84.544,9.7821,178.9834],[-84.5414,9.7816,141.6597],[-84.5342,9.7732,149.8904],[-84.5304,9.7775,178.775],[-84.5228,9.7771,289.2984],[-84.5157,9.7807,333.9249],[-84.5104,9.7793,402.1217],[-84.4987,9.7866,573.8977],[-84.497,9.786,588.4515],[-84.4925,9.7881,676.3602],[-84.4871,9.7875,810.7312],[-84.4834,9.7927,1049.339],[-84.478,9.7959,1345.4751],[-84.4714,9.7933,1656.1034],[-84.4792,9.8021,1462.1661],[-84.4768,9.8242,1223.1016],[-84.479,9.8293,1132.1841],[-84.4796,9.8373,820.9387],[-84.4894,9.8431,456.0641],[-84.4947,9.8434,372.3713],[-84.503,9.8513,92.4393],[-84.5067,9.852,78.5477],[-84.5115,9.8499,61.3626],[-84.5137,9.8512,50.6882],[-84.512,9.8542,58.9997],[-84.5133,9.8568,51.1118],[-84.5065,9.8612,68.6242],[-84.5075,9.8655,94.4547],[-84.5064,9.8661,94.4547],[-84.5047,9.864,57.8727],[-84.5021,9.8718,111.5546],[-84.5,9.873,98.0305],[-84.5048,9.8849,96.7822],[-84.5081,9.8877,90.3831],[-84.5099,9.8925,77.7149],[-84.5133,9.8929,73.8655],[-84.5188,9.8864,66.4513],[-84.5259,9.8841,66.0673],[-84.5288,9.8769,88.4034],[-84.5336,9.878,61.6875],[-84.5349,9.8762,48.3622],[-84.5335,9.8731,43.248],[-84.5372,9.8732,41.5249],[-84.5408,9.8762,48.6731],[-84.5424,9.8755,40.0056],[-84.5437,9.873,61.1415],[-84.538,9.8621,29.6043],[-84.5482,9.8629,27.6637],[-84.5471,9.8485,52.1682],[-84.5489,9.8476,25.301],[-84.5547,9.8494,18.3977],[-84.5586,9.8436,31.4283],[-84.563,9.8419,14.6458]]]]}
,"properties": {"GID_3": "CRI.7.19.2_1","GID_0": "CRI","country": "CostaRica","GID_1": "CRI.7_1","province": "SanJosé","NL_NAME_1": "NA","GID_2": "CRI.7.19_1","county": "Turrubares","NL_NAME_2": "NA","city": "SanJuandeMata","VARNAME_3": "NA","NL_NAME_3": "NA","TYPE_3": "Distrito","ENGTYPE_3": "District","CC_3": "3","HASC_3": "NA","name": "San_Juande_Mata.city","area_km2": 86.67794,"hist_schema_id": "Elevation0-9000","hist_area_km2": {"0": 0.54318,"25": 4.32438,"50": 5.43145,"75": 6.2043,"100": 7.72915,"125": 6.47582,"150": 5.6403,"175": 3.50966,"200": 2.86223,"225": 2.69511,"250": 2.56972,"275": 3.78154,"300": 4.90972,"325": 4.26205,"350": 2.98762,"375": 2.27727,"400": 1.46246,"425": 1.31622,"450": 0.98193,"475": 1.16996,"500": 0.89837,"525": 1.08641,"550": 0.75212,"575": 0.89837,"600": 0.66855,"625": 0.56409,"650": 0.68944,"675": 0.50141,"700": 0.62677,"725": 0.64765,"750": 0.50142,"775": 0.41785,"800": 0.48052,"825": 0.43874,"850": 0.39696,"875": 0.50142,"900": 0.48052,"925": 0.35516,"950": 0.43874,"975": 0.33427,"1000": 0.48052,"1025": 0.31338,"1050": 0.41784,"1075": 0.18803,"1100": 0.37606,"1125": 0.14625,"1150": 0.29249,"1175": 0.22981,"1200": 0.29249,"1225": 0.10446,"1250": 0.12535,"1275": 0.16714,"1300": 0.14625,"1325": 0.12535,"1350": 0.08357,"1375": 0.04179,"1400": 0.10446,"1425": 0.06268,"1475": 0.06268,"1500": 0.02089,"1525": 0.06268,"1700": 0.02089}}}