{"type":"Feature","properties":{"GID_3":"CRI.2.4.2_1","GID_0":"CRI","country":"CostaRica","GID_1":"CRI.2_1","province":"Cartago","NL_NAME_1":"NA","GID_2":"CRI.2.4_1","county":"Jiménez","NL_NAME_2":"NA","city":"Pejibaye","VARNAME_3":"NA","NL_NAME_3":"NA","TYPE_3":"Distrito","ENGTYPE_3":"District","CC_3":"3","HASC_3":"NA","name":"Pejibaye.city"},
"geometry":{"type": "MultiPolygon","coordinates": [[[[-83.7665,9.8222,1784.7306],[-83.7716,9.8172,1825.3372],[-83.7717,9.8096,1718.78],[-83.7764,9.808,1874.2688],[-83.7783,9.8025,1899.7554],[-83.778,9.7978,1876.7119],[-83.7823,9.789,1985.813],[-83.7818,9.7862,1867.6561],[-83.7853,9.7812,1711.6436],[-83.7855,9.7748,1606.7905],[-83.7802,9.7694,1646.3311],[-83.7711,9.7673,1523.4772],[-83.7663,9.7691,1332.756],[-83.7578,9.769,1082.274],[-83.7446,9.7831,918.4487],[-83.7354,9.7814,855.4507],[-83.7262,9.7826,781.921],[-83.7192,9.7793,736.7423],[-83.7236,9.7703,856.3385],[-83.7257,9.7712,796.3123],[-83.7272,9.766,849.1382],[-83.7212,9.7642,831.3009],[-83.7217,9.7608,838.5391],[-83.7193,9.7547,858.4684],[-83.6721,9.6897,2289.5981],[-83.5991,9.7343,1863.5913],[-83.6147,9.7493,1369.8926],[-83.6176,9.7616,1175.3702],[-83.6287,9.7724,1024.2961],[-83.6272,9.776,996.6637],[-83.6281,9.781,940.3546],[-83.635,9.7879,874.7445],[-83.6394,9.7959,818.3082],[-83.6391,9.7979,799.9846],[-83.6439,9.8015,765.936],[-83.6446,9.8053,753.5716],[-83.649,9.8091,712.4119],[-83.6492,9.8124,692.1439],[-83.6524,9.8157,680.4694],[-83.6531,9.8187,663.6484],[-83.6579,9.8231,642.3101],[-83.6532,9.8282,626.5588],[-83.6519,9.8377,599.2996],[-83.6535,9.8457,582.0472],[-83.6513,9.8483,582.2333],[-83.6622,9.8469,651.0016],[-83.6656,9.8486,587.5883],[-83.6702,9.855,608.0345],[-83.6765,9.8569,605.5373],[-83.6864,9.8558,623.4188],[-83.6977,9.8573,646.9808],[-83.6952,9.8492,834.2957],[-83.6981,9.8474,832.6111],[-83.699,9.8443,890.8954],[-83.6965,9.8428,889.4622],[-83.6995,9.8396,851.0473],[-83.6944,9.8373,786.1576],[-83.6944,9.8333,683.6957],[-83.6915,9.8306,649.8345],[-83.6946,9.8255,799.6741],[-83.7021,9.8246,733.595],[-83.7045,9.8264,770.4106],[-83.7141,9.8195,1031.3684],[-83.718,9.8232,1141.04],[-83.7259,9.8246,1293.2045],[-83.7332,9.8289,1239.1666],[-83.7452,9.8237,1300.665],[-83.7506,9.8164,1415.5719],[-83.7562,9.8176,1501.4343],[-83.7574,9.8165,1485.8889],[-83.7665,9.8222,1784.7306]]]]}}