{"type":"Feature","properties":{"GID_3":"CRI.3.8.1_1","GID_0":"CRI","country":"CostaRica","GID_1":"CRI.3_1","province":"Guanacaste","NL_NAME_1":"NA","GID_2":"CRI.3.8_1","county":"Nandayure","NL_NAME_2":"NA","city":"Bejuco","VARNAME_3":"NA","NL_NAME_3":"NA","TYPE_3":"Distrito","ENGTYPE_3":"District","CC_3":"6","HASC_3":"NA","name":"Bejuco.city"},
"geometry":{"type": "MultiPolygon","coordinates": [[[[-85.4262,9.8532,0.0],[-85.4133,9.8517,12.3945],[-85.4038,9.8475,29.9222],[-85.4033,9.851,0.0],[-85.3998,9.8527,5.0846],[-85.3933,9.8516,2.2822],[-85.3898,9.8491,24.3917],[-85.3799,9.8482,0.0],[-85.3687,9.8404,0.0],[-85.3655,9.8414,4.4514],[-85.3596,9.8395,2.9185],[-85.3418,9.8298,1.7477],[-85.3332,9.8226,0.9489],[-85.3322,9.8237,0.9489],[-85.3312,9.8226,5.6143],[-85.3322,9.8191,0.0],[-85.3356,9.8173,18.8402],[-85.3345,9.8159,26.6898],[-85.3285,9.8155,31.1552],[-85.3234,9.8173,42.4022],[-85.2999,9.8045,0.0],[-85.2978,9.805,0.0],[-85.2974,9.8032,0.0],[-85.2781,9.7895,0.0],[-85.2679,9.7773,0.0],[-85.2634,9.7745,2.7059],[-85.2658,9.773,0.0],[-85.2676,9.7676,54.3481],[-85.2724,9.7651,0.0],[-85.2756,9.7599,0.0],[-85.2675,9.7585,0.0],[-85.2619,9.7556,0.6315],[-85.2465,9.7464,1.233],[-85.2259,9.73,2.0115],[-85.2179,9.7272,5.8189],[-85.2155,9.7286,4.2561],[-85.2179,9.7304,4.0799],[-85.2173,9.7369,9.4455],[-85.2192,9.7427,7.4776],[-85.2123,9.7411,7.3904],[-85.2103,9.7436,7.4646],[-85.2119,9.7463,8.2809],[-85.2068,9.7456,10.7618],[-85.2055,9.7477,7.4643],[-85.2036,9.7472,20.9715],[-85.2035,9.755,7.7621],[-85.1987,9.7553,16.394],[-85.1976,9.7576,14.6981],[-85.2008,9.7616,10.9877],[-85.1978,9.7637,7.7442],[-85.199,9.7689,17.4509],[-85.1929,9.7758,38.8989],[-85.188,9.7753,31.96],[-85.1847,9.7794,20.2734],[-85.18,9.7818,29.399],[-85.1832,9.7836,20.061],[-85.1838,9.7878,15.4028],[-85.1865,9.7829,22.696],[-85.1892,9.7812,28.4763],[-85.194,9.7869,39.3438],[-85.1945,9.7882,30.3118],[-85.1918,9.7894,19.5252],[-85.1902,9.7932,30.3161],[-85.195,9.7951,24.208],[-85.1932,9.7994,28.2709],[-85.1951,9.8021,23.0024],[-85.1935,9.8038,29.6437],[-85.1898,9.8035,26.5257],[-85.1889,9.8077,37.6148],[-85.1933,9.8136,21.3595],[-85.1889,9.8128,25.5194],[-85.1877,9.8165,32.6643],[-85.1845,9.8177,29.2418],[-85.1874,9.8201,28.9692],[-85.1889,9.8254,27.9938],[-85.1858,9.8319,34.3144],[-85.19,9.8359,32.474],[-85.1865,9.8351,38.3088],[-85.1835,9.8375,24.0856],[-85.1841,9.8415,25.313],[-85.1865,9.8401,27.3988],[-85.1862,9.8437,29.2867],[-85.1852,9.8455,31.2958],[-85.1814,9.8447,29.3235],[-85.1789,9.8461,51.1247],[-85.1759,9.8546,28.2271],[-85.1825,9.8534,35.9258],[-85.1836,9.8569,34.6119],[-85.1908,9.8562,54.2486],[-85.1931,9.8599,36.167],[-85.1982,9.8609,47.4313],[-85.1969,9.867,46.5546],[-85.2003,9.8686,43.8975],[-85.2001,9.8744,43.9213],[-85.2042,9.8764,47.2029],[-85.2043,9.8825,54.4626],[-85.2062,9.8831,51.6439],[-85.2045,9.8856,57.088],[-85.2106,9.8857,62.2462],[-85.209,9.8905,62.1938],[-85.2133,9.8884,58.7945],[-85.2166,9.894,71.6305],[-85.2166,9.9018,73.5586],[-85.2184,9.9025,70.1165],[-85.2223,9.9021,74.6297],[-85.2231,9.8994,79.7264],[-85.2264,9.9027,93.4147],[-85.2279,9.9023,92.3902],[-85.2274,9.9005,82.0144],[-85.2309,9.9025,89.4267],[-85.2419,9.8931,330.9339],[-85.2442,9.892,451.4427],[-85.2454,9.8953,578.3082],[-85.247,9.8945,578.3082],[-85.2478,9.8896,337.3972],[-85.2487,9.8913,393.5981],[-85.2518,9.8907,364.4354],[-85.2565,9.8938,367.9162],[-85.2568,9.8906,434.3284],[-85.2668,9.8848,658.8117],[-85.2762,9.8711,684.7102],[-85.2849,9.8699,773.803],[-85.2879,9.8768,688.1714],[-85.2902,9.8787,699.3812],[-85.2877,9.8871,815.4164],[-85.2904,9.8946,698.9537],[-85.295,9.8997,667.0981],[-85.2977,9.9082,657.6174],[-85.3009,9.9097,718.8531],[-85.3039,9.908,662.8202],[-85.3166,9.9081,662.3301],[-85.3157,9.9153,277.6067],[-85.309,9.9251,750.8566],[-85.3246,9.926,529.993],[-85.3326,9.9205,402.0965],[-85.3389,9.9184,371.7583],[-85.3439,9.9111,365.5475],[-85.3496,9.9105,406.783],[-85.3522,9.9043,519.1056],[-85.3512,9.9003,525.8621],[-85.3631,9.8984,447.9161],[-85.3707,9.8916,428.6694],[-85.3753,9.891,470.1956],[-85.3799,9.8881,546.5333],[-85.3819,9.8845,592.9301],[-85.3855,9.8832,484.9855],[-85.3934,9.8765,384.5331],[-85.4103,9.8691,282.7292],[-85.4135,9.8641,201.3047],[-85.4128,9.8609,136.4506],[-85.4158,9.8584,143.9409],[-85.4162,9.8547,183.2954],[-85.4232,9.855,150.6819],[-85.4262,9.8532,0.0]]]]}}