{"type":"Feature","properties":{"GID_3":"CRI.6.11.7_1","GID_0":"CRI","country":"CostaRica","GID_1":"CRI.6_1","province":"Puntarenas","NL_NAME_1":"NA","GID_2":"CRI.6.11_1","county":"Puntarenas","NL_NAME_2":"NA","city":"Cóbano","VARNAME_3":"NA","NL_NAME_3":"NA","TYPE_3":"Distrito","ENGTYPE_3":"District","CC_3":"11","HASC_3":"NA","name":"Cóbano.city"},
"geometry":{"type": "MultiPolygon","coordinates": [[[[-85.031,9.674,0.0],[-85.0307,9.6739,0.0],[-85.0307,9.6741,0.0],[-85.031,9.6741,0.0],[-85.031,9.674,0.0]]],
[[[-85.0326,9.6741,0.0],[-85.0323,9.6742,0.0],[-85.0323,9.6744,0.0],[-85.0325,9.6745,0.0],[-85.0326,9.6741,0.0]]],
[[[-85.1107,9.5414,0.0],[-85.1111,9.5439,0.0],[-85.1136,9.5427,0.0],[-85.1135,9.5379,0.0],[-85.1118,9.5372,0.3196],[-85.1107,9.5414,0.0]]],
[[[-85.0807,9.5942,1.1273],[-85.0801,9.5934,0.0],[-85.0811,9.5968,1.2661],[-85.0816,9.5959,1.2661],[-85.0807,9.5942,1.1273]]],
[[[-85.2306,9.7341,6.9537],[-85.2218,9.7236,3.1532],[-85.2167,9.7143,0.0],[-85.2147,9.7056,2.2508],[-85.2106,9.7017,0.0],[-85.2035,9.69,2.092],[-85.2034,9.6821,12.7869],[-85.1959,9.6678,0.0],[-85.1868,9.6614,9.641],[-85.1777,9.6495,2.0724],[-85.1514,9.6243,0.0],[-85.1462,9.6154,3.7033],[-85.1448,9.6155,8.2772],[-85.1445,9.6126,0.0],[-85.1469,9.6094,0.0],[-85.1457,9.6069,0.0],[-85.143,9.6063,5.0196],[-85.1444,9.6039,0.0],[-85.1424,9.5992,0.0],[-85.1442,9.5969,9.4796],[-85.1431,9.5947,8.6464],[-85.1442,9.5929,12.3305],[-85.1412,9.5804,0.0],[-85.1386,9.5812,5.0133],[-85.1356,9.5785,7.6372],[-85.1365,9.5765,0.0],[-85.1345,9.5774,7.6372],[-85.1329,9.5762,4.248],[-85.1334,9.5731,1.6099],[-85.1312,9.5721,11.9785],[-85.1256,9.5753,0.0],[-85.1217,9.5734,0.0],[-85.1142,9.5651,0.0],[-85.1169,9.56,0.0],[-85.1111,9.5584,0.0],[-85.1114,9.5621,91.2234],[-85.1068,9.5674,7.0848],[-85.1024,9.5694,48.331],[-85.0962,9.5676,0.0],[-85.0912,9.571,0.0],[-85.0925,9.5859,0.0],[-85.0888,9.5904,4.4233],[-85.0844,9.5999,0.0],[-85.0845,9.6049,0.0],[-85.0779,9.6156,5.4629],[-85.0779,9.6284,2.2156],[-85.0739,9.6331,0.0],[-85.073,9.6445,10.224],[-85.0689,9.6491,12.3955],[-85.0678,9.6536,4.6426],[-85.0581,9.66,2.6819],[-85.0554,9.6663,0.0],[-85.042,9.6715,1.1364],[-85.0405,9.6748,0.4715],[-85.0384,9.6753,0.0],[-85.0393,9.6781,0.0],[-85.0371,9.6808,0.0],[-85.0307,9.6841,7.2151],[-85.0074,9.69,2.5417],[-85.0039,9.6953,0.0],[-84.9988,9.6988,6.9749],[-84.9983,9.7025,31.6972],[-84.9948,9.7053,0.8351],[-85.0007,9.7128,7.6067],[-85.0149,9.7136,35.6247],[-85.0169,9.7236,0.952],[-85.0197,9.7222,4.6804],[-85.023,9.7241,14.9848],[-85.0271,9.7221,12.5824],[-85.0311,9.7266,16.0926],[-85.0331,9.7203,25.5435],[-85.0394,9.719,14.0611],[-85.0391,9.7167,25.8025],[-85.0422,9.7133,23.3333],[-85.0538,9.7123,27.1284],[-85.0567,9.7155,47.2404],[-85.0588,9.7124,22.1848],[-85.0622,9.7137,26.9085],[-85.0627,9.7105,30.8708],[-85.0671,9.712,35.3909],[-85.0682,9.7105,33.3034],[-85.0704,9.7107,47.1101],[-85.0745,9.7142,51.252],[-85.083,9.7109,62.3735],[-85.0863,9.7207,88.0716],[-85.0843,9.7219,123.7666],[-85.0834,9.7298,95.9684],[-85.0798,9.7343,97.8189],[-85.0744,9.734,106.5638],[-85.071,9.7359,108.2652],[-85.0601,9.7356,129.5002],[-85.0538,9.7484,343.1576],[-85.0564,9.7585,571.114],[-85.0506,9.7643,428.6637],[-85.051,9.7685,386.8359],[-85.0613,9.774,258.0958],[-85.0618,9.7757,229.9984],[-85.0656,9.7752,208.1604],[-85.0678,9.7732,191.2366],[-85.07,9.7743,205.1725],[-85.071,9.7671,211.4904],[-85.077,9.7648,183.3969],[-85.078,9.7624,157.1321],[-85.0763,9.7612,178.2999],[-85.0779,9.7587,137.4575],[-85.0798,9.7591,144.5701],[-85.0793,9.7568,133.6307],[-85.0803,9.758,130.5732],[-85.0833,9.7561,118.2404],[-85.0832,9.7535,131.3023],[-85.085,9.7539,121.4306],[-85.086,9.7519,111.8248],[-85.0847,9.7508,111.8248],[-85.0864,9.7487,120.2703],[-85.0879,9.7516,105.3085],[-85.0896,9.7505,103.1321],[-85.0898,9.7528,112.5507],[-85.0911,9.7489,102.803],[-85.0953,9.7501,99.5661],[-85.0979,9.7556,108.3601],[-85.1013,9.7533,97.2565],[-85.1032,9.7546,87.9579],[-85.1046,9.7536,93.8469],[-85.1046,9.7554,87.9579],[-85.1099,9.7598,95.9091],[-85.1121,9.7597,115.0177],[-85.1198,9.7653,118.759],[-85.1247,9.7663,141.8022],[-85.1291,9.7721,351.5812],[-85.1265,9.7768,509.1566],[-85.1274,9.7792,538.4439],[-85.1296,9.7799,491.506],[-85.1326,9.7854,221.1183],[-85.1394,9.7868,106.5925],[-85.1399,9.7895,112.7344],[-85.1381,9.79,112.7344],[-85.137,9.7958,131.9202],[-85.1307,9.8038,215.3341],[-85.1324,9.8096,445.7232],[-85.1372,9.8121,526.5311],[-85.1438,9.8097,693.478],[-85.1513,9.8155,331.7673],[-85.1531,9.8139,322.8271],[-85.1607,9.8143,401.6561],[-85.1658,9.8127,443.6909],[-85.1749,9.7972,445.7786],[-85.1809,9.7943,287.7299],[-85.1839,9.7893,26.867],[-85.1832,9.7836,20.061],[-85.1802,9.7816,29.399],[-85.1847,9.7794,20.2734],[-85.188,9.7753,31.96],[-85.1929,9.7758,38.8989],[-85.199,9.7689,17.4509],[-85.1978,9.7637,7.7442],[-85.2008,9.7616,10.9877],[-85.1976,9.7576,14.6981],[-85.1987,9.7553,16.394],[-85.2035,9.755,7.7621],[-85.2036,9.7472,20.9715],[-85.2055,9.7477,7.4643],[-85.2068,9.7456,10.7618],[-85.2119,9.7463,8.2809],[-85.2103,9.7436,7.4646],[-85.2123,9.7411,7.3904],[-85.2192,9.7427,7.4776],[-85.2173,9.7369,9.4455],[-85.2179,9.7304,4.0799],[-85.2158,9.7293,3.7468],[-85.216,9.7274,4.2561],[-85.2259,9.73,2.0115],[-85.2306,9.7341,6.9537]]]]}}