{"type":"Feature","properties":{"GID_3":"CRI.7.11.3_1","GID_0":"CRI","country":"CostaRica","GID_1":"CRI.7_1","province":"SanJosé","NL_NAME_1":"NA","GID_2":"CRI.7.11_1","county":"Mora","NL_NAME_2":"NA","city":"Jaris","VARNAME_3":"NA","NL_NAME_3":"NA","TYPE_3":"Distrito","ENGTYPE_3":"District","CC_3":"1","HASC_3":"NA","name":"Jaris.city"},
"geometry":{"type": "MultiPolygon","coordinates": [[[[-84.2787,9.8864,611.0312],[-84.2781,9.8843,651.5952],[-84.2984,9.8773,857.3067],[-84.2964,9.8689,943.1923],[-84.2924,9.8648,1000.912],[-84.2936,9.8638,1000.912],[-84.2872,9.8648,1011.4277],[-84.2824,9.8626,1010.4402],[-84.2725,9.8695,891.8926],[-84.2682,9.8685,938.4255],[-84.2685,9.8709,835.6022],[-84.2663,9.8746,768.0181],[-84.2754,9.885,690.4463],[-84.2787,9.8864,611.0312]]]]}}