{"type":"Feature","properties":{"GID_3":"CRI.6.11.4_1","GID_0":"CRI","country":"CostaRica","GID_1":"CRI.6_1","province":"Puntarenas","NL_NAME_1":"NA","GID_2":"CRI.6.11_1","county":"Puntarenas","NL_NAME_2":"NA","city":"Chacarita","VARNAME_3":"NA","NL_NAME_3":"NA","TYPE_3":"Distrito","ENGTYPE_3":"District","CC_3":"12","HASC_3":"NA","name":"Chacarita.city"},
"geometry":{"type": "MultiPolygon","coordinates": [[[[-84.7522,9.973,0.0],[-84.752,9.9798,7.4869],[-84.7573,9.9801,6.0627],[-84.7563,9.9844,5.0007],[-84.758,9.9893,10.6933],[-84.7668,9.9889,8.9543],[-84.7686,9.9929,9.0894],[-84.7675,9.9935,8.9935],[-84.7717,9.9949,10.1207],[-84.7813,9.9937,7.3586],[-84.7821,9.9837,4.3215],[-84.7874,9.9809,0.0],[-84.7874,9.9797,0.0],[-84.7728,9.9785,0.0],[-84.7522,9.973,0.0]]]]}}