{"type": "Feature","bbox": [-85.4491,10.6708,-84.8806,11.0656],"geometry": {"type": "MultiPolygon","coordinates": [[[[-84.9619,10.7575,442.5168],[-84.9633,10.7585,432.7289],[-84.9506,10.7728,211.2665],[-84.9269,10.7769,120.4812],[-84.922,10.7845,107.8436],[-84.9218,10.7904,90.725],[-84.9154,10.7928,95.5957],[-84.9181,10.7988,101.476],[-84.9166,10.8031,72.541],[-84.9045,10.804,69.008],[-84.9015,10.8121,62.8791],[-84.9032,10.8147,69.7562],[-84.9021,10.8281,64.1541],[-84.8976,10.8273,67.2716],[-84.8906,10.8392,54.4521],[-84.893,10.8407,44.7598],[-84.8926,10.8419,44.7598],[-84.8904,10.8445,47.6527],[-84.8861,10.8443,49.1682],[-84.8842,10.8583,46.8219],[-84.8863,10.8631,46.2366],[-84.8899,10.8648,42.9109],[-84.8905,10.8701,41.2998],[-84.8924,10.8725,42.2566],[-84.8891,10.885,37.1199],[-84.885,10.8904,40.0946],[-84.8882,10.8938,37.1509],[-84.8887,10.8983,36.6],[-84.8871,10.9001,36.4364],[-84.8913,10.9059,34.975],[-84.8865,10.9141,34.9288],[-84.8877,10.9197,34.0569],[-84.8869,10.9292,34.2271],[-84.8849,10.93,33.794],[-84.885,10.9348,32.45],[-84.8812,10.9416,32.9759],[-84.8806,10.9568,32.6028],[-84.8819,10.9612,32.81],[-84.9108,10.9438,41.2092],[-85.2291,11.0633,40.042],[-85.2332,11.0622,41.3765],[-85.2353,11.0655,42.1353],[-85.2393,11.0636,44.9659],[-85.2428,11.0656,40.6033],[-85.2432,11.0622,42.6074],[-85.245,11.0611,44.82],[-85.2481,11.0624,64.7152],[-85.2497,11.0612,47.3035],[-85.2492,11.0571,61.7314],[-85.2517,11.0494,56.7265],[-85.2543,11.0492,54.269],[-85.2567,11.0441,56.8857],[-85.2587,11.0451,56.3395],[-85.2635,11.0424,76.082],[-85.2608,11.039,81.6583],[-85.2613,11.0355,93.887],[-85.2589,11.0339,95.4527],[-85.2582,11.0209,132.0806],[-85.2629,11.0126,119.3013],[-85.265,11.014099999999999,154.8344],[-85.2688,11.0117,133.2143],[-85.2685,11.016,129.7905],[-85.272,11.016,145.4375],[-85.2732,11.014099999999999,144.2101],[-85.2772,11.0148,159.7516],[-85.2762,11.0166,161.0528],[-85.2789,11.0171,151.8237],[-85.2787,11.0191,156.905],[-85.2849,11.0247,150.3015],[-85.2862,11.0227,158.7463],[-85.2881,11.0241,190.1561],[-85.2901,11.0226,184.2342],[-85.2915,11.025,180.3241],[-85.2967,11.0277,182.6451],[-85.2997,11.0314,178.4483],[-85.2976,11.0311,186.9063],[-85.2984,11.0322,205.3127],[-85.305,11.0356,206.1476],[-85.3042,11.0373,205.234],[-85.307,11.0381,215.4666],[-85.3059,11.0396,194.5122],[-85.3093,11.0402,199.5576],[-85.3118,11.043,184.1926],[-85.3216,11.0404,199.5282],[-85.3231,11.0421,240.9964],[-85.3255,11.0419,208.2488],[-85.3286,11.0395,211.9103],[-85.3312,11.0411,229.7694],[-85.3334,11.0362,231.5563],[-85.3358,11.0366,233.1985],[-85.3391,11.0343,231.0924],[-85.3406,11.036,236.5849],[-85.3508,11.0348,271.3399],[-85.3517,11.0326,277.6667],[-85.354,11.0328,275.3221],[-85.3536,11.0307,286.5062],[-85.3557,11.0303,308.0013],[-85.3562,11.0274,327.188],[-85.3546,11.025,326.8659],[-85.3566,11.0243,330.3034],[-85.3571,11.0188,311.0415],[-85.3624,11.0144,334.4419],[-85.3621,11.0104,346.7124],[-85.3638,11.0104,328.1653],[-85.3649,11.0074,342.3636],[-85.3661,11.0094,343.1593],[-85.3689,11.0048,353.9776],[-85.3675,11.0033,363.7368],[-85.3687,11.0007,386.4251],[-85.3664,10.9991,372.124],[-85.3701,10.997,378.2579],[-85.3744,10.998,366.827],[-85.3776,10.9957,400.8461],[-85.3768,10.9948,391.4878],[-85.3784,10.9936,390.0935],[-85.3767,10.9895,396.8612],[-85.3793,10.9886,398.2161],[-85.3806,10.9843,400.617],[-85.3789,10.9812,420.6987],[-85.3802,10.9797,426.1291],[-85.3775,10.9776,431.6233],[-85.3795,10.9772,441.3155],[-85.3813,10.9745,446.3943],[-85.3801,10.9732,442.7252],[-85.3821,10.9711,447.5767],[-85.389,10.9681,467.7684],[-85.3914,10.9651,482.8811],[-85.3967,10.9664,495.2081],[-85.4042,10.9619,533.0636],[-85.4084,10.9632,551.5432],[-85.4121,10.9618,601.7898],[-85.4205,10.9644,644.9935],[-85.444,10.9442,1055.2875],[-85.4486,10.937,1447.7124],[-85.4491,10.9345,1596.1426],[-85.4455,10.9283,1539.176],[-85.4477,10.9226,1326.4753],[-85.4471,10.9169,1311.2067],[-85.4366,10.9082,997.8392],[-85.4343,10.8986,923.9818],[-85.4271,10.8965,932.7153],[-85.4227,10.8907,866.9504],[-85.4205,10.8902,810.3322],[-85.4139,10.8794,684.8885],[-85.4087,10.8799,696.312],[-85.4051,10.8716,648.1708],[-85.3945,10.8644,718.6066],[-85.3814,10.8441,1161.2815],[-85.3777,10.8353,1459.8328],[-85.3745,10.8349,1543.0763],[-85.3712,10.8302,1653.1139],[-85.3657,10.8272,1740.4171],[-85.349,10.8272,1860.9587],[-85.3368,10.8184,1741.9644],[-85.3286,10.8162,1739.7095],[-85.3248,10.8109,1722.9838],[-85.3192,10.8112,1854.7695],[-85.3184,10.8084,1873.246],[-85.3056,10.8001,1566.9318],[-85.3018,10.7885,1318.0085],[-85.2959,10.7771,1114.2285],[-85.2907,10.7748,1018.9998],[-85.2909,10.7721,995.9601],[-85.2866,10.7673,894.6704],[-85.2851,10.7609,816.026],[-85.2806,10.7603,827.0056],[-85.2779,10.7511,808.6677],[-85.2735,10.7528,799.8024],[-85.2713,10.7516,791.7227],[-85.269,10.7557,790.7904],[-85.2624,10.7543,760.4616],[-85.253,10.7589,700.7479],[-85.2481,10.7639,706.8821],[-85.2433,10.7637,694.0439],[-85.2353,10.7667,788.3351],[-85.2043,10.7552,568.406],[-85.1897,10.7476,661.7786],[-85.1863,10.748,746.3569],[-85.1818,10.7459,803.5309],[-85.1696,10.7479,1206.4172],[-85.1554,10.7468,1834.9299],[-85.1446,10.7478,1818.5824],[-85.1419,10.7451,1749.9263],[-85.1397,10.7451,1758.3635],[-85.1376,10.7397,1581.001],[-85.1295,10.733,1492.1792],[-85.1283,10.7256,1528.1484],[-85.1294,10.719,1486.7452],[-85.1244,10.7146,1469.1948],[-85.1245,10.7106,1448.3296],[-85.1019,10.7137,1272.3352],[-85.0967,10.7177,1131.413],[-85.0868,10.7128,859.4209],[-85.071,10.7126,511.0756],[-85.0671,10.708,543.8833],[-85.0608,10.7088,566.4731],[-85.0586,10.7006,602.825],[-85.055,10.6974,629.606],[-85.0438,10.6975,818.8522],[-85.0267,10.6934,1497.1753],[-85.0199,10.6806,1535.391],[-85.0196,10.674,1741.5804],[-85.0142,10.6708,1833.4135],[-85.0113,10.6728,1804.4122],[-85.0049,10.6827,1255.4011],[-85.0004,10.6948,895.9367],[-84.9991,10.7045,768.9896],[-84.9896,10.7101,716.7377],[-84.9816,10.7208,715.4623],[-84.9794,10.7214,676.4203],[-84.9756,10.7174,668.47],[-84.97,10.72,590.613],[-84.9622,10.7194,531.9785],[-84.9555,10.7226,483.9811],[-84.9574,10.7277,442.1448],[-84.9561,10.7307,434.3579],[-84.9573,10.7337,406.5208],[-84.9512,10.7327,406.6929],[-84.9496,10.7365,429.5515],[-84.9548,10.7485,414.9682],[-84.9604,10.7513,391.8763],[-84.9619,10.7575,442.5168]]]]}
,"properties": {"GID_2": "CRI.1.14_1","GID_0": "CRI","country": "CostaRica","GID_1": "CRI.1_1","province": "Alajuela","NL_NAME_1": "NA","county": "Upala","VARNAME_2": "NA","NL_NAME_2": "NA","TYPE_2": "Cantón","ENGTYPE_2": "Canton","CC_2": "13","HASC_2": "CR.AL.UP","name": "Upala.county","area_km2": 1597.653,"hist_schema_id": "Elevation0-9000","hist_area_km2": {"25": 68.023,"50": 371.668,"75": 141.408,"100": 90.8,"125": 64.066,"150": 33.998,"175": 24.733,"200": 21.339,"225": 22.07,"250": 22.82,"275": 19.738,"300": 21.299,"325": 36.729,"350": 38.186,"375": 39.227,"400": 44.556,"425": 48.618,"450": 37.855,"475": 39.375,"500": 33.255,"525": 25.406,"550": 27.594,"575": 26.844,"600": 22.346,"625": 19.576,"650": 18.598,"675": 17.098,"700": 15.474,"725": 12.995,"750": 10.85,"775": 10.246,"800": 10.725,"825": 9.351,"850": 8.455,"875": 8.205,"900": 6.997,"925": 7.185,"950": 6.602,"975": 5.998,"1000": 6.331,"1025": 5.477,"1050": 5.206,"1075": 5.602,"1100": 4.623,"1125": 4.79,"1150": 4.936,"1175": 4.27,"1200": 3.916,"1225": 4.02,"1250": 4.228,"1275": 3.541,"1300": 3.707,"1325": 3.478,"1350": 3.457,"1375": 3.02,"1400": 3.083,"1425": 3.27,"1450": 2.77,"1475": 3.145,"1500": 3.062,"1525": 2.416,"1550": 2.478,"1575": 2.062,"1600": 2.229,"1625": 1.77,"1650": 1.791,"1675": 1.458,"1700": 1.625,"1725": 1.458,"1750": 1.208,"1775": 0.708,"1800": 0.604,"1825": 0.375,"1850": 0.458,"1875": 0.271,"1900": 0.146,"1925": 0.167,"1950": 0.146,"1975": 0.021,"2000": 0.021}}}