{"type":"Feature","properties":{"GID_3":"CRI.7.8.4_1","GID_0":"CRI","country":"CostaRica","GID_1":"CRI.7_1","province":"SanJosé","NL_NAME_1":"NA","GID_2":"CRI.7.8_1","county":"Goicoechea","NL_NAME_2":"NA","city":"MatadePlátano","VARNAME_3":"NA","NL_NAME_3":"NA","TYPE_3":"Distrito","ENGTYPE_3":"District","CC_3":"4","HASC_3":"NA","name":"Matade_Plátano.city"},
"geometry":{"type": "MultiPolygon","coordinates": [[[[-84.0393,9.9515,1228.8115],[-84.0374,9.9493,1244.0903],[-84.0336,9.9499,1253.6294],[-84.031,9.9471,1277.6047],[-84.0271,9.9482,1286.3785],[-84.0239,9.9459,1301.4757],[-84.0145,9.9458,1338.9132],[-84.01,9.947,1334.3866],[-83.9926,9.9577,1506.3383],[-83.9912,9.9513,1484.2668],[-83.9879,9.9536,1503.2595],[-83.9846,9.9525,1539.333],[-83.9799,9.9543,1577.3639],[-83.9726,9.9519,1669.9572],[-83.9672,9.952,1767.8572],[-83.9582,9.956,1869.3647],[-83.9585,9.9573,1875.2313],[-83.9693,9.9619,1670.0779],[-83.9723,9.961,1647.5658],[-83.9739,9.9625,1642.2173],[-83.9787,9.9611,1606.8328],[-83.9837,9.9639,1554.6558],[-83.9864,9.9619,1529.4431],[-83.996,9.9647,1455.6517],[-84.0005,9.9617,1416.2959],[-84.0024,9.9624,1417.3849],[-84.0033,9.9588,1399.3053],[-84.0073,9.9554,1370.1357],[-84.0091,9.9575,1369.7708],[-84.0123,9.955,1365.426],[-84.0188,9.9571,1330.402],[-84.0297,9.9515,1270.2837],[-84.0332,9.9551,1231.7809],[-84.0371,9.9558,1227.8528],[-84.0393,9.9515,1228.8115]]]]}}