{"type":"Feature","properties":{"GID_3":"CRI.7.3.3_1","GID_0":"CRI","country":"CostaRica","GID_1":"CRI.7_1","province":"SanJosé","NL_NAME_1":"NA","GID_2":"CRI.7.3_1","county":"Aserrí","NL_NAME_2":"NA","city":"Monterrey","VARNAME_3":"NA","NL_NAME_3":"NA","TYPE_3":"Distrito","ENGTYPE_3":"District","CC_3":"6","HASC_3":"NA","name":"Monterrey.city"},
"geometry":{"type": "MultiPolygon","coordinates": [[[[-84.0933,9.7307,1596.9314],[-84.0947,9.7358,1572.5869],[-84.099,9.7397,1516.1282],[-84.0991,9.7464,1245.934],[-84.0956,9.7499,1115.4968],[-84.0957,9.7521,1112.6077],[-84.1008,9.7523,1023.5416],[-84.1018,9.7548,1004.8071],[-84.1065,9.7574,979.2015],[-84.1079,9.7609,963.4773],[-84.1106,9.7612,950.6053],[-84.1121,9.7634,925.7604],[-84.1161,9.7608,903.1017],[-84.1192,9.7667,915.0],[-84.122,9.7673,868.9487],[-84.1274,9.7577,1166.4779],[-84.1367,9.7542,1688.5369],[-84.1349,9.7498,1676.4432],[-84.1295,9.7459,1864.3284],[-84.135,9.733,2134.7905],[-84.1289,9.7323,1901.5608],[-84.1195,9.737,1448.6821],[-84.1203,9.7436,1349.9323],[-84.1109,9.7548,1028.9348],[-84.1089,9.7487,1128.8085],[-84.1048,9.7453,1190.8971],[-84.1,9.729,1519.6962],[-84.0957,9.7287,1666.0986],[-84.0933,9.7307,1596.9314]]]]}}