{"type":"Feature","properties":{"GID_3":"CRI.1.12.3_1","GID_0":"CRI","country":"CostaRica","GID_1":"CRI.1_1","province":"Alajuela","NL_NAME_1":"NA","GID_2":"CRI.1.12_1","county":"SanMateo","NL_NAME_2":"NA","city":"SanMateo","VARNAME_3":"NA","NL_NAME_3":"NA","TYPE_3":"Distrito","ENGTYPE_3":"District","CC_3":"1","HASC_3":"NA","name":"San_Mateo.city"},
"geometry":{"type": "MultiPolygon","coordinates": [[[[-84.5456,9.9237,153.9528],[-84.5442,9.93,161.464],[-84.5409,9.932,170.3751],[-84.5372,9.9291,177.151],[-84.5363,9.9306,171.3922],[-84.5384,9.9317,166.8565],[-84.535,9.9321,192.881],[-84.5338,9.9299,184.5122],[-84.5266,9.9263,189.4222],[-84.5263,9.9286,187.3463],[-84.5242,9.9279,196.001],[-84.5229,9.9306,214.9452],[-84.5214,9.9286,215.2951],[-84.5178,9.9306,203.6392],[-84.5129,9.9303,224.0706],[-84.5071,9.9393,223.9585],[-84.5073,9.9426,235.7734],[-84.5035,9.9444,275.2083],[-84.5039,9.9474,255.7862],[-84.5003,9.9472,267.2906],[-84.5002,9.9498,284.5486],[-84.4951,9.955,304.7523],[-84.495,9.9652,362.2296],[-84.4917,9.9757,489.9998],[-84.4979,9.9842,602.7031],[-84.4944,9.9927,692.346],[-84.4967,10.0054,878.7029],[-84.4952,10.0097,1014.6838],[-84.4978,10.0149,1187.3354],[-84.5014,10.0116,1154.8101],[-84.5081,10.0147,970.3143],[-84.5176,10.011,750.5142],[-84.5218,10.0134,691.0426],[-84.5382,10.0078,412.2085],[-84.5496,9.999,394.5349],[-84.5516,9.9963,304.7538],[-84.5516,9.9933,325.7728],[-84.5547,9.9924,292.2248],[-84.5533,9.9861,260.8481],[-84.5555,9.986,252.7355],[-84.5565,9.9838,248.5626],[-84.5582,9.9853,238.9099],[-84.5592,9.9821,241.1079],[-84.5618,9.9806,243.0468],[-84.5607,9.9736,313.5929],[-84.559,9.9717,299.6284],[-84.5597,9.9665,257.8346],[-84.562,9.9671,252.8867],[-84.5623,9.9635,250.1136],[-84.5652,9.9644,236.7725],[-84.5692,9.961,181.6884],[-84.5685,9.9535,123.9102],[-84.5757,9.9448,164.9809],[-84.5797,9.9429,106.9939],[-84.5791,9.9395,89.6062],[-84.5846,9.9347,101.8691],[-84.5771,9.935,111.6777],[-84.5733,9.9292,112.7775],[-84.5703,9.9298,115.4529],[-84.5665,9.9268,151.52],[-84.5647,9.9274,148.0284],[-84.5623,9.9258,134.2485],[-84.5576,9.928,158.4012],[-84.5586,9.9246,167.4667],[-84.5543,9.9244,139.7822],[-84.5529,9.921,144.2627],[-84.5488,9.9205,148.3304],[-84.5477,9.9233,147.1649],[-84.5456,9.9237,153.9528]]]]}}