{"type": "Feature","bbox": [-84.8959,9.9851,-84.7791,10.1048],"geometry": {"type": "MultiPolygon","coordinates": [[[[-84.8095,10.1003,101.458],[-84.8168,10.0955,140.0072],[-84.8356,10.0872,101.4156],[-84.8416,10.0872,79.7397],[-84.8517,10.0886,35.4219],[-84.8577,10.0967,79.735],[-84.8743,10.1031,72.5719],[-84.8745,10.0974,68.8486],[-84.8772,10.0946,63.6971],[-84.8772,10.0895,42.5043],[-84.875,10.0871,45.2078],[-84.877,10.0711,20.7303],[-84.8674,10.0586,14.4029],[-84.8652,10.0455,9.1343],[-84.8659,10.0389,10.8781],[-84.8695,10.0334,6.9687],[-84.8777,10.0296,6.6577],[-84.8892,10.03,8.8765],[-84.8902,10.0231,9.0929],[-84.8953,10.0236,9.6294],[-84.8959,10.0215,8.5968],[-84.8916,10.0201,5.3024],[-84.8895,10.0159,3.7863],[-84.8855,10.0143,6.7273],[-84.8842,10.0111,1.5218],[-84.8788,10.0074,3.4593],[-84.8747,10.008,5.345],[-84.8663,10.003,2.7037],[-84.8634,10.0044,16.3848],[-84.8623,10.0012,2.6504],[-84.8568,10.0002,0.0],[-84.8558,9.9975,1.6581],[-84.8527,9.9956,1.7557],[-84.8454,9.9951,3.3132],[-84.8423,9.9931,2.345],[-84.8416,9.9907,5.5619],[-84.8402,9.9898,0.0],[-84.8404,9.9916,5.5619],[-84.8388,9.9912,9.9193],[-84.8342,9.9864,1.3565],[-84.827,9.989,14.7516],[-84.8245,9.988,15.2735],[-84.827,9.9873,11.8102],[-84.8245,9.9859,11.0711],[-84.8186,9.9851,0.0],[-84.8062,9.9872,18.3095],[-84.8015,9.9855,6.0749],[-84.7998,9.9908,10.913],[-84.797,9.9898,13.7382],[-84.7935,9.9969,17.2015],[-84.7909,9.9994,16.6776],[-84.7877,9.9996,10.3856],[-84.7885,10.0023,6.0913],[-84.7857,10.0099,4.1739],[-84.786,10.0135,4.1496],[-84.7923,10.0225,11.5942],[-84.7888,10.0263,14.4419],[-84.7867,10.0378,7.7324],[-84.7836,10.0382,11.3052],[-84.7829,10.0428,12.9337],[-84.7847,10.0509,17.968],[-84.7814,10.0544,16.2077],[-84.7791,10.0645,33.1095],[-84.7827,10.0672,36.8339],[-84.7869,10.0663,40.9796],[-84.7892,10.0685,48.7826],[-84.7886,10.07,34.7202],[-84.7911,10.0711,37.552],[-84.7901,10.075,52.1694],[-84.793,10.0788,55.3448],[-84.7888,10.0834,58.1793],[-84.7916,10.0856,79.9615],[-84.7929,10.093,104.7012],[-84.7946,10.0945,116.3028],[-84.7946,10.096,115.4386],[-84.7911,10.0976,111.808],[-84.7924,10.0975,108.6787],[-84.7913,10.1004,113.1112],[-84.7928,10.1024,116.2108],[-84.7954,10.1012,153.8257],[-84.8051,10.1048,163.5565],[-84.8095,10.1003,101.458]]]]}
,"properties": {"GID_3": "CRI.6.11.15_1","GID_0": "CRI","country": "CostaRica","GID_1": "CRI.6_1","province": "Puntarenas","NL_NAME_1": "NA","GID_2": "CRI.6.11_1","county": "Puntarenas","NL_NAME_2": "NA","city": "Pitahaya","VARNAME_3": "NA","NL_NAME_3": "NA","TYPE_3": "Distrito","ENGTYPE_3": "District","CC_3": "2","HASC_3": "NA","name": "Pitahaya.city","area_km2": 109.91903,"hist_schema_id": "Elevation0-9000","hist_area_km2": {"0": 46.95567,"25": 34.03064,"50": 12.67137,"75": 9.95732,"100": 4.02876,"125": 1.58643,"150": 0.64708,"175": 0.04175}}}