{"type":"Feature","properties":{"GID_3":"CRI.5.5.5_1","GID_0":"CRI","country":"CostaRica","GID_1":"CRI.5_1","province":"Limón","NL_NAME_1":"NA","GID_2":"CRI.5.5_1","county":"Siquirres","NL_NAME_2":"NA","city":"Pacuarito","VARNAME_3":"NA","NL_NAME_3":"NA","TYPE_3":"Distrito","ENGTYPE_3":"District","CC_3":"2","HASC_3":"NA","name":"Pacuarito.city"},
"geometry":{"type": "MultiPolygon","coordinates": [[[[-83.45,9.9819,555.895],[-83.4585,9.9877,554.2949],[-83.4581,9.9931,624.899],[-83.4617,9.9935,598.9271],[-83.4675,10.007,632.5393],[-83.4673,10.0126,666.4662],[-83.463,10.0203,541.7971],[-83.4577,10.0235,577.5669],[-83.4561,10.0267,559.7211],[-83.4462,10.0284,471.8598],[-83.4448,10.0343,411.2657],[-83.4335,10.041,280.2429],[-83.424,10.0411,251.22559999999999],[-83.42,10.044,246.059],[-83.4121,10.0616,178.1139],[-83.4174,10.0703,156.4319],[-83.4117,10.0771,117.6124],[-83.4065,10.0787,95.9049],[-83.4021,10.0834,77.2482],[-83.3981,10.0914,51.539],[-83.3927,10.0973,37.2462],[-83.3838,10.1015,23.0699],[-83.3812,10.0997,26.5955],[-83.3753,10.1075,18.2892],[-83.3705,10.1105,16.1579],[-83.3633,10.1233,13.6608],[-83.3662,10.1276,12.5917],[-83.3624,10.1306,13.4615],[-83.3638,10.1368,14.7496],[-83.3623,10.1417,12.3447],[-83.3547,10.1495,15.2708],[-83.3484,10.16,6.0842],[-83.3455,10.1613,10.5178],[-83.3442,10.1677,9.5621],[-83.3417,10.1676,12.9812],[-83.3337,10.1791,4.1542],[-83.33,10.1794,11.2101],[-83.3295,10.1815,8.1552],[-83.3232,10.1847,13.9742],[-83.3216,10.1837,10.367],[-83.3212,10.1857,6.2252],[-83.3156,10.1873,15.8567],[-83.3105,10.1851,16.4515],[-83.3108,10.187,16.4956],[-83.3085,10.1868,14.5905],[-83.31,10.1899,11.4796],[-83.3086,10.192,6.8946],[-83.3049,10.1915,6.5155],[-83.3032,10.1957,3.1285],[-83.3012,10.1964,7.5487],[-83.2994,10.1963,5.2816],[-83.3002,10.1945,9.2667],[-83.2983,10.1948,5.7922],[-83.296,10.1921,6.5845],[-83.2877,10.1948,13.4848],[-83.2847,10.1917,11.1479],[-83.2792,10.1933,13.5607],[-83.2769,10.1902,9.4945],[-83.2698,10.1947,3.6952],[-83.2711,10.207,0.0],[-83.2809,10.2202,0.0],[-83.2896,10.2205,10.8584],[-83.2937,10.2238,12.7874],[-83.2951,10.2273,12.8563],[-83.3023,10.2321,6.0854],[-83.3049,10.232,4.3555],[-83.3071,10.2304,4.2194],[-83.3071,10.2276,3.4433],[-83.300299999999993,10.2172,2.6104],[-83.3038,10.2124,4.8614],[-83.3091,10.2115,5.502],[-83.3147,10.2152,7.3171],[-83.3193,10.2146,5.744],[-83.322,10.2112,4.9929],[-83.3247,10.2031,5.384],[-83.3306,10.205,7.9841],[-83.3355,10.2008,5.7966],[-83.3423,10.204,6.6428],[-83.3424,10.2051,6.6428],[-83.3374,10.2047,7.1883],[-83.3359,10.2067,6.8813],[-83.3381,10.2133,6.5519],[-83.3427,10.2145,8.412],[-83.358,10.2049,9.9003],[-83.3646,10.2059,8.17],[-83.3666,10.1967,10.8559],[-83.3699,10.193,9.2715],[-83.372,10.1867,12.0687],[-83.3765,10.1826,11.0956],[-83.3807,10.1826,9.5982],[-83.3916,10.1889,10.921],[-83.3976,10.1888,14.3107],[-83.4014,10.1865,13.9657],[-83.4015,10.1815,13.8576],[-83.4071,10.1775,15.2523],[-83.4065,10.171,12.4652],[-83.4082,10.1687,14.8973],[-83.4121,10.1678,13.5399],[-83.4215,10.1729,15.9252],[-83.4316,10.1683,16.3959],[-83.4327,10.1648,15.6555],[-83.4269,10.1639,17.0607],[-83.4262,10.1623,15.3058],[-83.4332,10.1564,14.9293],[-83.4327,10.1456,17.4455],[-83.4368,10.1462,15.5954],[-83.4391,10.1447,16.0361],[-83.4382,10.1425,15.8496],[-83.4317,10.1423,19.1445],[-83.4345,10.139099999999999,17.0859],[-83.4367,10.1325,17.912],[-83.4379,10.1327,17.912],[-83.4373,10.1358,19.2935],[-83.4389,10.1388,19.7218],[-83.4472,10.1362,24.1986],[-83.4486,10.1336,17.7663],[-83.445,10.1275,20.5684],[-83.4494,10.1237,17.526],[-83.4506,10.1199,23.2076],[-83.4531,10.1192,22.998],[-83.4573,10.1207,24.7984],[-83.4612,10.1173,23.1724],[-83.4646,10.1179,24.1894],[-83.4734,10.1147,28.9031],[-83.4774,10.1057,43.845],[-83.484,10.1015,44.1486],[-83.485,10.097,46.5709],[-83.4875,10.094,49.2283],[-83.4869,10.0888,97.2925],[-83.4907,10.0836,68.3086],[-83.4988,10.0786,113.7062],[-83.4966,10.0715,189.3104],[-83.4971,10.0674,103.6118],[-83.4863,10.0585,104.1052],[-83.4842,10.0544,114.5193],[-83.4887,10.0395,117.5615],[-83.4989,10.0362,201.7028],[-83.4987,10.0344,192.059],[-83.4957,10.0329,157.0195],[-83.4971,10.0303,177.418],[-83.4966,10.0267,160.6614],[-83.5071,10.0189,207.6345],[-83.5102,10.0184,184.2628],[-83.5099,10.0149,228.2066],[-83.5059,10.0118,267.7988],[-83.507,10.0107,231.7973],[-83.5104,10.0124,228.5498],[-83.5157,10.0091,229.4455],[-83.5196,10.0117,227.7075],[-83.5266,10.0055,256.9113],[-83.5301,10.0052,248.1034],[-83.5318,10.0026,228.6246],[-83.5388,10.0017,249.1881],[-83.539,9.9981,264.7553],[-83.5442,9.9991,265.5139],[-83.545,9.9959,256.0514],[-83.5494,9.9946,252.5635],[-83.5475,9.985,262.4031],[-83.5514,9.9819,265.0061],[-83.45,9.9819,555.895]]]]}}