{"type": "Feature","bbox": [-84.1305,10.0152,-84.1169,10.026],"geometry": {"type": "MultiPolygon","coordinates": [[[[-84.1292,10.0216,1151.8466],[-84.1288,10.0182,1157.4712],[-84.1305,10.0179,1154.8066],[-84.1293,10.0152,1136.3776],[-84.1229,10.0165,1161.9434],[-84.1169,10.0223,1221.5221],[-84.1173,10.026,1250.4314],[-84.124,10.0224,1176.1313],[-84.1292,10.0216,1151.8466]]]]}
,"properties": {"GID_3": "CRI.4.1.1_1","GID_0": "CRI","country": "CostaRica","GID_1": "CRI.4_1","province": "Heredia","NL_NAME_1": "NA","GID_2": "CRI.4.1_1","county": "Barva","NL_NAME_2": "NA","city": "Barva","VARNAME_3": "NA","NL_NAME_3": "NA","TYPE_3": "Distrito","ENGTYPE_3": "District","CC_3": "1","HASC_3": "NA","name": "Barva.city","area_km2": 0.87691,"hist_schema_id": "Elevation0-9000","hist_area_km2": {"1150": 0.2296685,"1175": 0.3966977,"1200": 0.1670294,"1225": 0.0835143}}}