{"type": "Feature","bbox": [-84.3416,9.6225,-84.1746,9.7734],"geometry": {"type": "MultiPolygon","coordinates": [[[[-84.2254,9.6281,924.4163],[-84.2192,9.638,276.0003],[-84.2208,9.64,257.0558],[-84.2147,9.6415,302.6967],[-84.2177,9.6446,349.3412],[-84.2153,9.6471,429.1714],[-84.2118,9.6475,433.1231],[-84.2114,9.6508,443.5646],[-84.2142,9.6545,494.8276],[-84.2097,9.6568,527.1442],[-84.207,9.6618,659.0178],[-84.208,9.6682,806.1052],[-84.2046,9.6809,1163.3478],[-84.2,9.6853,1349.1519],[-84.185,9.69,2059.6113],[-84.1746,9.6984,2142.4941],[-84.1777,9.6991,2096.979],[-84.1814,9.7037,1906.0566],[-84.1803,9.7042,1907.2393],[-84.1865,9.7108,1762.9901],[-84.1939,9.7149,1398.8959],[-84.1976,9.7146,1374.1926],[-84.2093,9.7202,1011.7504],[-84.2164,9.7208,783.6384],[-84.2226,9.7249,728.9122],[-84.2274,9.7237,641.1584],[-84.2272,9.7261,761.675],[-84.2315,9.734,1075.7072],[-84.2317,9.7382,1129.4724],[-84.2361,9.7386,1143.1455],[-84.2379,9.7489,801.3242],[-84.2437,9.7544,642.5166],[-84.2427,9.7575,597.5948],[-84.2451,9.7674,409.2447],[-84.2527,9.7677,385.584],[-84.2549,9.7698,404.5703],[-84.2579,9.7691,382.6893],[-84.26,9.7709,412.3499],[-84.2635,9.7695,355.567],[-84.2655,9.7722,436.0097],[-84.2718,9.7713,341.9312],[-84.2743,9.7728,356.2617],[-84.281,9.772,335.2293],[-84.2844,9.7734,315.5303],[-84.2987,9.77,291.0829],[-84.3061,9.77,288.9002],[-84.3081,9.7717,270.3024],[-84.3105,9.7693,271.1795],[-84.3169,9.7702,249.9777],[-84.3192,9.7687,241.5191],[-84.3229,9.7708,238.6163],[-84.3271,9.768,223.7527],[-84.3265,9.7661,222.4053],[-84.333,9.7649,218.6133],[-84.3374,9.7579,223.4762],[-84.3362,9.7553,219.4888],[-84.3401,9.7538,255.1695],[-84.3378,9.7508,196.586],[-84.3408,9.7492,211.6532],[-84.3416,9.7415,167.232],[-84.3391,9.7398,226.5951],[-84.3319,9.728,176.0012],[-84.3332,9.724,161.1755],[-84.3301,9.7195,148.8327],[-84.3328,9.7175,157.6169],[-84.3282,9.7148,159.254],[-84.3291,9.7116,133.7075],[-84.3231,9.7076,131.705],[-84.323,9.7035,154.5998],[-84.3184,9.7044,170.5078],[-84.3149,9.7002,140.1694],[-84.3094,9.6978,107.8832],[-84.3069,9.6837,159.2642],[-84.2969,9.674,90.9276],[-84.2976,9.6702,87.4739],[-84.3012,9.6691,89.0028],[-84.2995,9.6636,83.6075],[-84.3047,9.6583,71.3621],[-84.3054,9.6539,71.1873],[-84.3031,9.6492,66.1192],[-84.2951,9.6467,60.8109],[-84.297,9.6345,50.9464],[-84.2928,9.634,58.5984],[-84.2882,9.6381,61.6104],[-84.284,9.6296,72.8934],[-84.266,9.6308,117.6605],[-84.2593,9.627,182.2507],[-84.2572,9.6281,239.8834],[-84.2464,9.6271,633.0018],[-84.2435,9.6236,565.6714],[-84.2383,9.6225,610.6184],[-84.2286,9.6278,861.4335],[-84.2254,9.6281,924.4163]]]]}
,"properties": {"GID_3": "CRI.7.1.4_1","GID_0": "CRI","country": "CostaRica","GID_1": "CRI.7_1","province": "SanJosé","NL_NAME_1": "NA","GID_2": "CRI.7.1_1","county": "Acosta","NL_NAME_2": "NA","city": "Sabanillas","VARNAME_3": "NA","NL_NAME_3": "NA","TYPE_3": "Distrito","ENGTYPE_3": "District","CC_3": "5","HASC_3": "NA","name": "Sabanillas.city","area_km2": 177.8501,"hist_schema_id": "Elevation0-9000","hist_area_km2": {"50": 0.6271,"75": 3.7206,"100": 3.2189,"125": 3.0725,"150": 3.0725,"175": 3.1352,"200": 3.9294,"225": 3.971,"250": 4.201,"275": 3.6575,"300": 3.7619,"325": 3.6992,"350": 4.0754,"375": 4.1381,"400": 4.1171,"425": 4.5769,"450": 4.5977,"475": 4.5769,"500": 4.8694,"525": 5.2873,"550": 4.3052,"575": 4.8694,"600": 4.8485,"625": 4.5349,"650": 4.0543,"675": 4.2842,"700": 3.908,"725": 3.908,"750": 3.8243,"775": 4.2006,"800": 3.7408,"825": 3.5945,"850": 3.7616,"875": 3.3646,"900": 4.3468,"925": 3.5527,"950": 3.6362,"975": 3.4063,"1000": 4.2423,"1025": 3.5944,"1050": 2.8212,"1075": 2.6958,"1100": 1.6927,"1125": 1.4001,"1150": 1.3793,"1175": 0.9613,"1200": 0.7105,"1225": 0.4389,"1250": 0.5643,"1275": 0.3971,"1300": 0.3971,"1325": 0.5016,"1350": 0.6061,"1375": 0.3971,"1400": 0.418,"1425": 0.3762,"1450": 0.3553,"1475": 0.418,"1500": 0.3762,"1525": 0.4389,"1550": 0.3553,"1575": 0.2717,"1600": 0.1881,"1625": 0.1881,"1650": 0.1254,"1675": 0.1881,"1700": 0.0836,"1725": 0.1254,"1750": 0.1463,"1775": 0.209,"1800": 0.1881,"1825": 0.1045,"1850": 0.1672,"1875": 0.3344,"1900": 0.3344,"1925": 0.2717,"1950": 0.1463,"1975": 0.1672,"2000": 0.0836,"2025": 0.1045,"2050": 0.0627,"2075": 0.1045,"2100": 0.1254,"2125": 0.0627,"2150": 0.0418,"2175": 0.0418}}}