{"type":"Feature","properties":{"GID_3":"CRI.3.3.4_1","GID_0":"CRI","country":"CostaRica","GID_1":"CRI.3_1","province":"Guanacaste","NL_NAME_1":"NA","GID_2":"CRI.3.3_1","county":"Cañas","NL_NAME_2":"NA","city":"Porozal","VARNAME_3":"NA","NL_NAME_3":"NA","TYPE_3":"Distrito","ENGTYPE_3":"District","CC_3":"5","HASC_3":"NA","name":"Porozal.city"},
"geometry":{"type": "MultiPolygon","coordinates": [[[[-85.1283,10.2833,17.0073],[-85.1243,10.2857,11.0604],[-85.1214,10.2854,13.6344],[-85.1189,10.2905,11.3564],[-85.1121,10.29,21.8883],[-85.1104,10.2914,14.6541],[-85.1089,10.2899,23.9014],[-85.107,10.2909,20.6656],[-85.1044,10.2897,19.8303],[-85.1065,10.2932,24.4145],[-85.1167,10.3011,63.9736],[-85.1373,10.3303,54.0416],[-85.1422,10.3316,64.1986],[-85.1461,10.3357,60.7679],[-85.1496,10.3449,21.5815],[-85.1591,10.3352,12.1126],[-85.1704,10.3384,7.2778],[-85.18,10.3334,5.5936],[-85.186,10.3344,5.3961],[-85.192,10.3315,5.9965],[-85.1987,10.331,19.4618],[-85.2009,10.3322,16.5317],[-85.201,10.3347,6.2273],[-85.203,10.3344,7.5418],[-85.2065,10.3373,5.6691],[-85.2079,10.3344,4.3849],[-85.2109,10.3357,3.5834],[-85.2045,10.3248,3.3999],[-85.2094,10.3162,3.2061],[-85.2131,10.3144,3.5515],[-85.2145,10.3059,2.6781],[-85.2111,10.2911,2.8551],[-85.2084,10.2876,6.3377],[-85.2044,10.2861,2.1884],[-85.2037,10.2836,2.1875],[-85.2054,10.2823,7.6734],[-85.2124,10.2844,3.8998],[-85.216,10.2835,24.1063],[-85.219,10.2721,18.585],[-85.232,10.2636,19.0218],[-85.2396,10.2532,1.7673],[-85.2475,10.2519,0.0],[-85.2313,10.2368,4.313],[-85.2282,10.2301,4.5244],[-85.2299,10.2169,15.216],[-85.2347,10.213,6.4576],[-85.2274,10.2037,0.0],[-85.2262,10.1986,9.4786],[-85.2273,10.1961,0.0],[-85.2257,10.1931,0.0],[-85.1452,10.2789,5.7496],[-85.1371,10.2824,9.0257],[-85.1283,10.2833,17.0073]]]]}}