{"type": "Feature","bbox": [-85.2479,9.9689,-85.1499,10.0725],"geometry": {"type": "MultiPolygon","coordinates": [[[[-85.2206,9.9714,75.668],[-85.2126,9.9721,63.0156],[-85.2043,9.9707,51.9277],[-85.2032,9.9692,50.1964],[-85.1992,9.9711,43.6944],[-85.1957,9.9689,40.8925],[-85.1906,9.9708,32.3571],[-85.1862,9.9702,34.2539],[-85.1856,9.9719,28.3865],[-85.1813,9.973,28.2871],[-85.1802,9.976,26.4281],[-85.1812,9.9765,26.4281],[-85.1724,9.9802,25.0873],[-85.1689,9.9803,18.5728],[-85.1636,9.9867,16.9621],[-85.1611,9.9876,18.8569],[-85.1616,9.9958,9.2192],[-85.1688,10.0045,14.002],[-85.1687,10.0081,13.1326],[-85.1704,10.0093,13.4227],[-85.1661,10.0115,8.6988],[-85.1633,10.0161,4.9648],[-85.1644,10.0166,4.9648],[-85.1636,10.0199,4.8384],[-85.169,10.0221,6.7717],[-85.1687,10.0245,0.0],[-85.1707,10.0268,3.4492],[-85.1691,10.0279,6.5562],[-85.169,10.0341,0.0],[-85.1671,10.0377,4.0207],[-85.1627,10.036,12.216],[-85.1592,10.0305,12.5969],[-85.1545,10.0313,0.0],[-85.1499,10.0408,0.0],[-85.1527,10.0495,6.8039],[-85.1589,10.0473,0.0],[-85.1701,10.0463,4.4366],[-85.1789,10.0524,0.0],[-85.182,10.0618,5.5331],[-85.1866,10.0664,2.3556],[-85.1921,10.0633,4.2274],[-85.1894,10.0585,21.14],[-85.1902,10.0552,17.0533],[-85.202,10.0555,20.2841],[-85.2059,10.053,15.7915],[-85.21,10.0557,24.7844],[-85.2141,10.0529,18.7513],[-85.2169,10.0543,10.0372],[-85.215,10.0564,13.2449],[-85.2163,10.0578,11.8004],[-85.2148,10.0585,9.6661],[-85.2164,10.0601,8.4882],[-85.2174,10.0582,11.8004],[-85.222,10.0595,8.4826],[-85.23,10.0645,15.9016],[-85.2294,10.0672,13.7052],[-85.2315,10.0687,15.2552],[-85.2309,10.0724,12.8829],[-85.2368,10.0725,11.7939],[-85.2389,10.071,7.995],[-85.2386,10.0635,4.4089],[-85.2428,10.0642,5.4539],[-85.2473,10.0578,34.6847],[-85.2416,10.054,54.6244],[-85.2414,10.049,16.386],[-85.237799999999993,10.0476,16.8355],[-85.2375,10.0438,18.5134],[-85.2415,10.0386,33.5323],[-85.2468,10.0374,27.6299],[-85.2479,10.0337,33.2547],[-85.2443,10.031,32.0921],[-85.2436,10.0223,38.9612],[-85.2415,10.0236,38.175],[-85.2382,10.0226,32.8932],[-85.245,10.0037,193.3589],[-85.2426,10.0013,293.476],[-85.2366,10.0013,390.9913],[-85.2346,9.9993,418.8616],[-85.2329,9.9832,209.3892],[-85.2271,9.979,89.5612],[-85.2246,9.9734,75.2938],[-85.2206,9.9714,75.668]]]]}
,"properties": {"GID_3": "CRI.3.8.4_1","GID_0": "CRI","country": "CostaRica","GID_1": "CRI.3_1","province": "Guanacaste","NL_NAME_1": "NA","GID_2": "CRI.3.8_1","county": "Nandayure","NL_NAME_2": "NA","city": "SanPablo","VARNAME_3": "NA","NL_NAME_3": "NA","TYPE_3": "Distrito","ENGTYPE_3": "District","CC_3": "4","HASC_3": "NA","name": "San_Pablo.city","area_km2": 78.21248,"hist_schema_id": "Elevation0-9000","hist_area_km2": {"0": 27.83071,"25": 28.47873,"50": 7.30792,"75": 4.30124,"100": 2.63087,"125": 1.48247,"150": 1.29454,"175": 1.00226,"200": 1.00226,"225": 0.41761,"250": 0.45937,"275": 0.41761,"300": 0.27145,"325": 0.43849,"350": 0.25056,"375": 0.35496,"400": 0.2088,"425": 0.06264}}}