{"type": "Feature","bbox": [-84.1587,9.555,-84.0743,9.6625],"geometry": {"type": "MultiPolygon","coordinates": [[[[-84.136,9.572,479.2133],[-84.1291,9.57,395.1192],[-84.1264,9.5663,379.2853],[-84.1241,9.5579,318.9205],[-84.1204,9.555,265.0345],[-84.1193,9.5595,341.1114],[-84.1175,9.5608,322.9903],[-84.1105,9.5614,356.5192],[-84.1091,9.5638,383.8582],[-84.1064,9.5635,400.9312],[-84.0992,9.569,447.4162],[-84.0929,9.5681,449.5275],[-84.0928,9.572,527.8608],[-84.0902,9.5735,567.7238],[-84.0874,9.5841,679.337],[-84.0821,9.5921,807.1244],[-84.0816,9.5987,905.7629],[-84.0827,9.6004,1002.3866],[-84.079,9.6074,1348.3945],[-84.0779,9.6161,1749.0347],[-84.0754,9.6186,1823.3262],[-84.0772,9.6193,1850.1702],[-84.0756,9.6216,1764.6912],[-84.0787,9.6309,1507.8223],[-84.0778,9.6363,1405.8069],[-84.0743,9.6408,1286.0492],[-84.0805,9.6424,1269.2595],[-84.0829,9.6464,1205.5],[-84.0888,9.6439,1205.5],[-84.0944,9.6458,1205.5],[-84.1004,9.6418,1205.5],[-84.1104,9.6462,1109.5717],[-84.1127,9.6424,1069.636],[-84.117,9.6429,1058.86],[-84.1204,9.6385,1038.5906],[-84.1255,9.6368,1028.5529],[-84.1287,9.6422,955.3397],[-84.1316,9.6432,966.3514],[-84.1297,9.6474,958.7017],[-84.1304,9.6494,950.3222],[-84.1345,9.649,919.8167],[-84.1365,9.6522,905.4706],[-84.135,9.6576,902.7428],[-84.1362,9.6612,854.5386],[-84.1385,9.6618,836.5338],[-84.1428,9.6596,861.1758],[-84.1458,9.6616,821.9821],[-84.1497,9.66,813.9749],[-84.1567,9.6625,725.2374],[-84.1587,9.6565,640.4871],[-84.1534,9.6553,968.8492],[-84.1466,9.6481,1337.2645],[-84.1451,9.6401,1837.5175],[-84.1498,9.6291,2119.8896],[-84.1485,9.6234,2078.0513],[-84.1392,9.6215,1652.9818],[-84.1306,9.6088,1717.55],[-84.1309,9.6047,1646.8828],[-84.1337,9.6,1528.2179],[-84.142,9.6005,1304.2773],[-84.1393,9.5898,853.1245],[-84.1432,9.5809,618.89],[-84.136,9.572,479.2133]]]]}
,"properties": {"GID_3": "CRI.7.17.1_1","GID_0": "CRI","country": "CostaRica","GID_1": "CRI.7_1","province": "SanJosé","NL_NAME_1": "NA","GID_2": "CRI.7.17_1","county": "Tarrazú","NL_NAME_2": "NA","city": "SanCarlos","VARNAME_3": "NA","NL_NAME_3": "NA","TYPE_3": "Distrito","ENGTYPE_3": "District","CC_3": "3","HASC_3": "NA","name": "San_Carlos.city","area_km2": 58.86759,"hist_schema_id": "Elevation0-9000","hist_area_km2": {"250": 0.02091,"275": 0.06272,"300": 0.06272,"325": 0.10454,"350": 0.22998,"375": 0.10454,"400": 0.2718,"425": 0.45996,"450": 0.33452,"475": 0.41814,"500": 0.54358,"525": 0.56449,"550": 0.75265,"575": 0.68993,"600": 0.64811,"625": 0.79445,"650": 0.98261,"675": 0.85717,"700": 0.73173,"725": 0.79444,"750": 0.669,"775": 0.7526,"800": 0.7317,"825": 0.62718,"850": 0.71079,"875": 0.66898,"900": 0.60625,"925": 0.87802,"950": 0.81529,"975": 0.98253,"1000": 0.64804,"1025": 0.878,"1050": 0.60624,"1075": 0.85707,"1100": 0.56442,"1125": 1.08702,"1150": 1.0243,"1175": 0.83616,"1200": 1.25421,"1225": 1.19152,"1250": 1.04518,"1275": 1.37965,"1300": 1.54688,"1325": 1.42146,"1350": 1.69321,"1375": 1.6305,"1400": 1.50508,"1425": 1.71413,"1450": 1.65141,"1475": 1.92317,"1500": 1.83955,"1525": 2.17403,"1550": 2.0277,"1575": 1.81867,"1600": 1.98591,"1625": 1.17064,"1650": 1.58873,"1675": 1.04522,"1700": 0.81527,"1725": 0.64803,"1750": 0.4599,"1775": 0.27176,"1800": 0.37627,"1825": 0.18814,"1850": 0.12542,"1875": 0.25084,"1900": 0.08361,"1925": 0.14632,"1950": 0.06271,"1975": 0.06271,"2000": 0.08361,"2050": 0.04181,"2075": 0.04181,"2100": 0.08361,"2125": 0.14632}}}