{"type":"Feature","properties":{"GID_3":"CRI.1.14.7_1","GID_0":"CRI","country":"CostaRica","GID_1":"CRI.1_1","province":"Alajuela","NL_NAME_1":"NA","GID_2":"CRI.1.14_1","county":"Upala","NL_NAME_2":"NA","city":"Upala","VARNAME_3":"NA","NL_NAME_3":"NA","TYPE_3":"Distrito","ENGTYPE_3":"District","CC_3":"1","HASC_3":"NA","name":"Upala.city"},
"geometry":{"type": "MultiPolygon","coordinates": [[[[-84.902,10.8282,64.1541],[-84.935,10.855,61.0681],[-84.9805,10.8549,56.9144],[-84.9854,10.8594,49.1702],[-84.9858,10.8717,48.7503],[-84.9914,10.8894,45.6588],[-84.9901,10.8943,61.4962],[-84.9886,10.8946,55.9382],[-84.9966,10.9142,44.641],[-84.995,10.9187,39.6564],[-84.9891,10.9256,46.5473],[-84.9906,10.9293,47.4371],[-84.9967,10.9337,38.4185],[-84.9967,10.9437,36.518],[-84.9935,10.9511,42.8413],[-84.9977,10.9643,42.3204],[-85.0011,10.9594,35.6319],[-85.0055,10.9601,35.1493],[-85.0119,10.9566,35.7468],[-85.0153,10.9566,35.8085],[-85.0216,10.945,43.3218],[-85.0204,10.9396,38.8091],[-85.0217,10.934,39.4004],[-85.0274,10.9341,44.2098],[-85.0271,10.9308,42.1906],[-85.0305,10.9265,42.372],[-85.0387,10.9267,47.4356],[-85.04,10.9241,51.0126],[-85.0391,10.9211,45.7752],[-85.0443,10.9152,55.42],[-85.0427,10.9091,52.5055],[-85.0453,10.905,57.3036],[-85.0431,10.899,53.9774],[-85.0532,10.9069,51.5228],[-85.0563,10.9053,56.3877],[-85.064,10.9075,58.2465],[-85.0703,10.9064,56.1006],[-85.0778,10.9084,56.1334],[-85.0872,10.9082,58.1566],[-85.0874,10.8999,57.7011],[-85.0891,10.8957,60.3745],[-85.0785,10.8851,64.4853],[-85.0736,10.8762,70.8894],[-85.0556,10.8801,65.6719],[-85.0472,10.8737,71.7062],[-85.0422,10.8762,61.0216],[-85.0417,10.8801,66.1911],[-85.0312,10.8752,65.4594],[-85.0327,10.8662,68.6145],[-85.0302,10.8622,66.6508],[-85.0272,10.8677,64.6516],[-85.0203,10.8722,66.0318],[-85.0128,10.8597,88.1954],[-85.0247,10.8383,87.9448],[-84.9859,10.8403,115.3645],[-84.9884,10.8273,116.2141],[-84.9963,10.8229,115.93],[-85.0023,10.8164,127.7256],[-85.0118,10.7978,274.5783],[-85.0066,10.7963,263.7213],[-84.9989,10.7853,295.9775],[-84.9728,10.7667,422.7797],[-84.968,10.7697,398.9183],[-84.9469,10.7744,183.7942],[-84.929,10.7756,122.2814],[-84.9269,10.7769,120.4812],[-84.922,10.7845,107.8436],[-84.9218,10.7904,90.725],[-84.9154,10.7928,95.5957],[-84.9181,10.7988,101.476],[-84.9166,10.8031,72.541],[-84.9045,10.804,69.008],[-84.9015,10.8121,62.8791],[-84.9032,10.8147,69.7562],[-84.902,10.8282,64.1541]]]]}}