{"type": "Feature","bbox": [-84.1858,9.9175,-84.1208,9.9725],"geometry": {"type": "MultiPolygon","coordinates": [[[[-84.1841,9.9725,860.4781],[-84.1858,9.9717,885.7022],[-84.184,9.9655,939.1644],[-84.1783,9.9607,982.2194],[-84.1736,9.9523,1050.8762],[-84.1668,9.9487,1061.5801],[-84.1638,9.9371,1084.667],[-84.1598,9.9311,1115.8639],[-84.1602,9.9274,1164.7023],[-84.1534,9.9276,1072.4744],[-84.1492,9.924,1072.6328],[-84.1391,9.9281,1049.5917],[-84.1337,9.9204,1117.9626],[-84.13,9.9189,1122.3528],[-84.1307,9.9175,1134.8931],[-84.1267,9.9199,1134.2871],[-84.1227,9.919,1106.2876],[-84.1208,9.9282,1061.5646],[-84.1223,9.9311,1045.2531],[-84.1219,9.9345,1039.4104],[-84.1235,9.9361,1039.5005],[-84.1379,9.9391,1022.3919],[-84.1434,9.9418,995.8652],[-84.1445,9.9449,985.0691],[-84.1508,9.9481,979.9542],[-84.1519,9.9512,975.4801],[-84.1553,9.9523,974.4654],[-84.1585,9.9557,968.6749],[-84.1648,9.9571,954.3585],[-84.1695,9.9647,904.7377],[-84.1752,9.9682,892.7675],[-84.183,9.9686,882.843],[-84.1841,9.9725,860.4781]]]]}
,"properties": {"GID_3": "CRI.7.7.3_1","GID_0": "CRI","country": "CostaRica","GID_1": "CRI.7_1","province": "SanJosé","NL_NAME_1": "NA","GID_2": "CRI.7.7_1","county": "Escazú","NL_NAME_2": "NA","city": "SanRafael","VARNAME_3": "NA","NL_NAME_3": "NA","TYPE_3": "Distrito","ENGTYPE_3": "District","CC_3": "3","HASC_3": "NA","name": "San_Rafael.city","area_km2": 12.98978,"hist_schema_id": "Elevation0-9000","hist_area_km2": {"850": 0.02088,"875": 0.06265,"900": 0.16706,"925": 0.33412,"950": 0.73089,"975": 1.54535,"1000": 2.96549,"1025": 2.52698,"1050": 2.21375,"1075": 1.19042,"1100": 0.64743,"1125": 0.45947,"1150": 0.08354,"1175": 0.04177}}}