{"type":"Feature","properties":{"GID_3":"CRI.2.3.4_1","GID_0":"CRI","country":"CostaRica","GID_1":"CRI.2_1","province":"Cartago","NL_NAME_1":"NA","GID_2":"CRI.2.3_1","county":"ElGuarco","NL_NAME_2":"NA","city":"Tobosi","VARNAME_3":"NA","NL_NAME_3":"NA","TYPE_3":"Distrito","ENGTYPE_3":"District","CC_3":"3","HASC_3":"NA","name":"Tobosi.city"},
"geometry":{"type": "MultiPolygon","coordinates": [[[[-84.0122,9.8051,1941.7391],[-84.0118,9.8075,1892.9313],[-84.0096,9.8061,1894.7203],[-84.0031,9.8094,1839.604],[-83.9974,9.8051,1915.123],[-83.9953,9.8012,2011.2631],[-83.9977,9.7974,2114.666],[-83.9957,9.7968,2125.2664],[-83.9957,9.7947,2045.2184],[-83.9932,9.7947,2094.0654],[-83.9929,9.7927,2048.895],[-83.9901,9.7924,2081.3535],[-83.9894,9.7903,2008.1338],[-83.9879,9.7972,2091.8391],[-83.9803,9.7983,2122.1106],[-83.9794,9.803,2000.1443],[-83.981,9.8088,1944.1921],[-83.9792,9.8149,1895.3314],[-83.972,9.8209,1683.3577],[-83.9741,9.8219,1689.3705],[-83.973,9.8256,1552.7714],[-83.9751,9.8316,1492.603],[-83.9724,9.8338,1464.6698],[-83.9662,9.8332,1431.5691],[-83.963,9.8404,1381.3771],[-83.9591,9.8414,1379.3394],[-83.9662,9.8419,1384.2607],[-83.9739,9.8374,1389.8933],[-83.9793,9.8386,1391.8909],[-83.9767,9.8429,1388.2961],[-83.9832,9.8442,1397.6533],[-83.9853,9.8434,1398.5645],[-83.9843,9.842,1397.7488],[-83.9883,9.8422,1409.422],[-83.9984,9.8361,1443.9226],[-83.9999,9.8365,1443.9226],[-83.9981,9.8384,1429.8674],[-83.9993,9.8416,1526.5105],[-84.0105,9.8395,1723.1997],[-84.0153,9.8365,1776.988],[-84.0112,9.8329,1671.9296],[-84.0116,9.8281,1583.5222],[-84.0139,9.8287,1592.2606],[-84.0157,9.8253,1708.0205],[-84.0233,9.8257,1834.0781],[-84.0264,9.8205,1935.6252],[-84.0195,9.8167,1985.7549],[-84.0122,9.8051,1941.7391]]]]}}