{"type": "Feature","bbox": [-84.0456,9.2547,-83.8405,9.4499],"geometry": {"type": "MultiPolygon","coordinates": [[[[-83.8534,9.2806,13.2281],[-83.858,9.2909,33.5066],[-83.855,9.2931,49.8634],[-83.8568,9.2962,98.6678],[-83.8565,9.3004,100.5805],[-83.8546,9.3022,73.1911],[-83.8587,9.3033,92.1053],[-83.8601,9.308,70.1845],[-83.8558,9.3104,176.333],[-83.8539,9.3244,82.4573],[-83.8499,9.325,92.4629],[-83.8455,9.33,149.3384],[-83.8472,9.3344,109.995],[-83.8405,9.3371,120.7295],[-83.8416,9.3429,121.9156],[-83.8478,9.342,167.8382],[-83.8515,9.3398,190.2168],[-83.8606,9.3432,171.1943],[-83.8641,9.3429,171.5961],[-83.8705,9.3482,240.9156],[-83.8698,9.3543,238.7977],[-83.8778,9.3602,313.4935],[-83.8907,9.3622,418.6846],[-83.8915,9.3673,478.3674],[-83.8874,9.3749,586.4018],[-83.8914,9.3828,908.9004],[-83.8953,9.3868,1032.8584],[-83.8976,9.3868,999.0389],[-83.902,9.4002,1024.4333],[-83.9102,9.4053,1156.6462],[-83.922,9.403,890.0598],[-83.9245,9.4038,919.188],[-83.9269,9.401,829.6292],[-83.9363,9.3966,740.432],[-83.9329,9.3908,719.1678],[-83.9337,9.3882,727.8232],[-83.9364,9.3871,711.7712],[-83.9426,9.3886,670.2651],[-83.9456,9.3949,763.5074],[-83.9501,9.3958,742.4208],[-83.9541,9.3942,731.2786],[-83.9584,9.3973,769.5244],[-83.9617,9.396,765.238],[-83.9654,9.402,709.7531],[-83.9617,9.4096,732.0175],[-83.9681,9.4156,616.0134],[-83.9721,9.4168,602.9207],[-83.9741,9.4199,594.1414],[-83.9799,9.4211,517.4246],[-83.9827,9.433,662.734],[-83.9895,9.4334,607.5403],[-83.9981,9.4382,368.8584],[-84.0017,9.4432,284.5823],[-84.0016,9.4499,83.2523],[-84.0103,9.4462,79.5939],[-84.0136,9.4486,73.2767],[-84.0238,9.4438,99.6439],[-84.0228,9.4376,70.2955],[-84.0241,9.435,66.4477],[-84.0285,9.4383,52.6498],[-84.0331,9.438,44.6659],[-84.0446,9.432,38.0426],[-84.0456,9.423,47.0522],[-84.0409,9.4141,31.1712],[-84.0429,9.4075,17.0436],[-84.0409,9.4011,15.8154],[-84.0382,9.3994,14.6453],[-84.0329,9.3902,11.9328],[-84.0335,9.3872,15.2627],[-84.0367,9.3858,10.6942],[-84.0369,9.3822,12.8653],[-84.0335,9.3761,14.1953],[-84.0252,9.3734,9.0164],[-84.0257,9.3675,7.8342],[-84.0223,9.364,9.7293],[-84.0236,9.3623,2.5593],[-84.0248,9.3636,2.5593],[-84.0304,9.3636,6.182],[-84.0325,9.3661,7.0082],[-84.0337,9.3654,6.1165],[-84.0337,9.3624,7.6894],[-84.0264,9.3594,3.0355],[-84.0284,9.3556,2.3258],[-84.0335,9.356,2.1957],[-84.0317,9.3514,2.1354],[-84.0323,9.3487,0.8323],[-84.0301,9.3465,0.5],[-84.0132,9.3426,11.5934],[-84.0134,9.3395,1.9038],[-84.0003,9.3366,0.0],[-83.9976,9.3341,4.3021],[-83.9569,9.3168,0.0],[-83.9326,9.3024,2.4002],[-83.9279,9.3025,2.077],[-83.9244,9.2968,0.0],[-83.9183,9.2934,0.0],[-83.9172,9.2944,6.8949],[-83.9167,9.2913,2.628],[-83.9075,9.2841,5.1188],[-83.904,9.2839,0.0],[-83.9006,9.279,9.941],[-83.8695,9.2547,0.0],[-83.862799999999993,9.2595,6.0447],[-83.8585,9.2725,54.0857],[-83.859,9.2764,22.7967],[-83.8534,9.2806,13.2281]]]]}
,"properties": {"GID_3": "CRI.6.12.3_1","GID_0": "CRI","country": "CostaRica","GID_1": "CRI.6_1","province": "Puntarenas","NL_NAME_1": "NA","GID_2": "CRI.6.12_1","county": "Quepos","NL_NAME_2": "NA","city": "Savegre","VARNAME_3": "NA","NL_NAME_3": "NA","TYPE_3": "Distrito","ENGTYPE_3": "District","CC_3": "2","HASC_3": "NA","name": "Savegre.city","area_km2": 216.7327,"hist_schema_id": "Elevation0-9000","hist_area_km2": {"0": 29.9181,"25": 23.5355,"50": 8.3678,"75": 8.5146,"100": 8.8076,"125": 8.7031,"150": 8.2426,"175": 8.6192,"200": 8.4726,"225": 9.8953,"250": 9.184,"275": 8.9747,"300": 7.6777,"325": 7.5311,"350": 6.2759,"375": 6.1503,"400": 5.1671,"425": 5.0625,"450": 4.916,"475": 4.1629,"500": 4.4139,"525": 3.5144,"550": 2.9078,"575": 3.1378,"600": 2.9495,"625": 2.2592,"650": 1.9663,"675": 1.7153,"700": 1.3388,"725": 1.025,"750": 0.7112,"775": 0.5648,"800": 0.3347,"825": 0.1255,"850": 0.2929,"875": 0.2929,"900": 0.1046,"925": 0.2092,"950": 0.0837,"975": 0.0837,"1000": 0.1046,"1025": 0.1673,"1050": 0.0628,"1075": 0.0418,"1100": 0.0628,"1125": 0.0209,"1150": 0.0209,"1175": 0.0209,"1200": 0.0209}}}