{"type": "Feature","bbox": [-84.0982,9.9341,-84.0784,9.9458],"geometry": {"type": "MultiPolygon","coordinates": [[[[-84.0784,9.9415,1149.1465],[-84.082,9.9412,1139.5338],[-84.0826,9.9429,1136.8965],[-84.0809,9.9437,1129.1101],[-84.0828,9.9458,1132.087],[-84.0847,9.9458,1137.0074],[-84.0856,9.9438,1116.0509],[-84.0916,9.9445,1113.2167],[-84.092,9.9458,1125.3047],[-84.0953,9.9432,1102.1295],[-84.0982,9.9447,1097.0112],[-84.0981,9.9359,1140.2122],[-84.079,9.9341,1166.4429],[-84.0784,9.9415,1149.1465]]]]}
,"properties": {"GID_3": "CRI.7.15.6_1","GID_0": "CRI","country": "CostaRica","GID_1": "CRI.7_1","province": "SanJosé","NL_NAME_1": "NA","GID_2": "CRI.7.15_1","county": "SanJosé","NL_NAME_2": "NA","city": "Merced","VARNAME_3": "NA","NL_NAME_3": "NA","TYPE_3": "Distrito","ENGTYPE_3": "District","CC_3": "2","HASC_3": "NA","name": "Merced.city","area_km2": 2.213701,"hist_schema_id": "Elevation0-9000","hist_area_km2": {"1100": 0.125302,"1125": 0.918893,"1150": 1.106853,"1175": 0.062653}}}