{"type": "Feature","bbox": [-84.1738,10.0056,-84.1421,10.0335],"geometry": {"type": "MultiPolygon","coordinates": [[[[-84.1738,10.0056,967.729],[-84.1682,10.0104,982.0597],[-84.1635,10.0119,1011.9342],[-84.164,10.0134,1022.6445],[-84.1625,10.0145,1031.7209],[-84.1427,10.0238,1127.4059],[-84.1421,10.0335,1150.5088],[-84.1463,10.0296,1125.5474],[-84.1503,10.0303,1123.7604],[-84.1557,10.0275,1075.5865],[-84.1571,10.0276,1074.9211],[-84.1553,10.0301,1077.7944],[-84.1618,10.0305,1091.0872],[-84.1678,10.022,1042.9657],[-84.1735,10.0171,1033.0726],[-84.1725,10.0155,1019.0106],[-84.1738,10.0056,967.729]]]]}
,"properties": {"GID_3": "CRI.4.8.3_1","GID_0": "CRI","country": "CostaRica","GID_1": "CRI.4_1","province": "Heredia","NL_NAME_1": "NA","GID_2": "CRI.4.8_1","county": "SantaBárbara","NL_NAME_2": "NA","city": "SanJuan","VARNAME_3": "NA","NL_NAME_3": "NA","TYPE_3": "Distrito","ENGTYPE_3": "District","CC_3": "3","HASC_3": "NA","name": "San_Juan.city","area_km2": 4.321893,"hist_schema_id": "Elevation0-9000","hist_area_km2": {"975": 0.146156,"1000": 0.250552,"1025": 0.48022,"1050": 1.357123,"1075": 0.96041,"1100": 0.27142,"1125": 0.730743,"1150": 0.12527}}}