{"type": "Feature","bbox": [-84.2718,9.9758,-84.2164,10.0327],"geometry": {"type": "MultiPolygon","coordinates": [[[[-84.2164,10.0226,948.9016],[-84.224,10.0282,956.4392],[-84.2259,10.0327,942.4766],[-84.2423,10.0225,873.6608],[-84.2466,10.0213,860.2614],[-84.2506,10.0228,847.2847],[-84.2525,10.0209,840.5349],[-84.2577,10.0209,831.3374],[-84.2586,10.0165,825.6992],[-84.2635,10.0152,805.6672],[-84.2635,10.0087,845.0776],[-84.2616,10.0092,847.4399],[-84.26,10.0041,838.741],[-84.266,10.0025,831.6405],[-84.2703,9.9956,816.4744],[-84.2697,9.9904,815.5687],[-84.2718,9.9848,791.5283],[-84.2706,9.9758,778.5328],[-84.2548,9.9871,820.7704],[-84.2519,9.9944,838.0574],[-84.2485,9.9939,847.2943],[-84.2442,9.9968,859.061],[-84.2395,10.0035,871.35],[-84.2338,10.0065,878.7266],[-84.2297,10.006,885.0167],[-84.2253,10.0103,904.7311],[-84.2252,10.0149,912.8692],[-84.224,10.0155,930.717],[-84.2258,10.0177,916.9361],[-84.2164,10.0226,948.9016]]]]}
,"properties": {"GID_3": "CRI.1.1.10_1","GID_0": "CRI","country": "CostaRica","GID_1": "CRI.1_1","province": "Alajuela","NL_NAME_1": "NA","GID_2": "CRI.1.1_1","county": "Alajuela","NL_NAME_2": "NA","city": "SanJosé","VARNAME_3": "NA","NL_NAME_3": "NA","TYPE_3": "Distrito","ENGTYPE_3": "District","CC_3": "2","HASC_3": "NA","name": "San_José.city","area_km2": 14.80366,"hist_schema_id": "Elevation0-9000","hist_area_km2": {"775": 0.12529,"800": 1.16934,"825": 2.69356,"850": 2.92317,"875": 3.42423,"900": 2.27582,"925": 1.21096,"950": 0.91865,"975": 0.06263}}}