{"type":"Feature","properties":{"GID_3":"CRI.5.5.3_1","GID_0":"CRI","country":"CostaRica","GID_1":"CRI.5_1","province":"Limón","NL_NAME_1":"NA","GID_2":"CRI.5.5_1","county":"Siquirres","NL_NAME_2":"NA","city":"Germania","VARNAME_3":"NA","NL_NAME_3":"NA","TYPE_3":"Distrito","ENGTYPE_3":"District","CC_3":"4","HASC_3":"NA","name":"Germania.city"},
"geometry":{"type": "MultiPolygon","coordinates": [[[[-83.6008,10.1621,98.5995],[-83.587,10.1506,133.3974],[-83.5676,10.1403,131.4826],[-83.5543,10.1226,132.3617],[-83.5531,10.1265,124.8663],[-83.5505,10.1264,124.5762],[-83.5504,10.1307,111.2613],[-83.5378,10.136,74.9058],[-83.5362,10.1411,66.5242],[-83.5305,10.1432,59.1809],[-83.5313,10.1484,53.6958],[-83.5263,10.152,50.0415],[-83.5275,10.1553,46.0794],[-83.5237,10.1546,38.2627],[-83.523,10.1559,40.3836],[-83.5235,10.1584,41.1927],[-83.5557,10.1584,61.4084],[-83.5546,10.1696,41.5366],[-83.5559,10.1726,30.9553],[-83.5554,10.1757,26.6877],[-83.5533,10.1765,35.5593],[-83.5559,10.1801,29.8736],[-83.554,10.1823,23.3548],[-83.5552,10.1845,26.3252],[-83.5543,10.1864,22.5353],[-83.5509,10.1859,22.7221],[-83.5504,10.1898,24.6353],[-83.5483,10.1904,18.5027],[-83.5483,10.1918,22.836],[-83.5519,10.1914,32.8897],[-83.5557,10.1998,16.9437],[-83.5543,10.2085,16.256],[-83.5548,10.211,21.4423],[-83.5565,10.2115,18.4458],[-83.5554,10.214,23.5528],[-83.5566,10.2151,24.2104],[-83.56,10.2142,28.345],[-83.5623,10.2099,25.7561],[-83.5607,10.2094,23.7052],[-83.561,10.2052,22.188],[-83.5636,10.2053,22.9511],[-83.5643,10.2026,29.1674],[-83.5686,10.2022,29.6988],[-83.5722,10.2064,38.6572],[-83.5734,10.2017,41.5091],[-83.577,10.2019,43.5882],[-83.5797,10.1876,37.683],[-83.5895,10.1798,55.6088],[-83.5966,10.1666,79.2747],[-83.596,10.1641,93.2936],[-83.6008,10.1621,98.5995]]]]}}