{"type":"Feature","properties":{"GID_3":"CRI.3.10.9_1","GID_0":"CRI","country":"CostaRica","GID_1":"CRI.3_1","province":"Guanacaste","NL_NAME_1":"NA","GID_2":"CRI.3.10_1","county":"SantaCruz","NL_NAME_2":"NA","city":"VeintisietedeAbril","VARNAME_3":"NA","NL_NAME_3":"NA","TYPE_3":"Distrito","ENGTYPE_3":"District","CC_3":"3","HASC_3":"NA","name":"Veintisietede_Abril.city"},
"geometry":{"type": "MultiPolygon","coordinates": [[[[-85.697,10.3014,19.824],[-85.7021,10.3042,22.6076],[-85.7044,10.3083,21.8724],[-85.7132,10.3017,40.7735],[-85.7219,10.3056,170.7187],[-85.7245,10.3043,184.8086],[-85.7278,10.3051,110.4778],[-85.732,10.3117,282.4829],[-85.7397,10.3095,267.0326],[-85.7426,10.3121,330.7439],[-85.7443,10.3108,407.4402],[-85.7472,10.3024,204.5234],[-85.7466,10.2994,149.8554],[-85.7511,10.292,112.4609],[-85.7509,10.2866,79.9651],[-85.7577,10.2803,36.6764],[-85.7576,10.2772,37.096],[-85.7531,10.2747,41.6057],[-85.7594,10.2721,37.7116],[-85.7602,10.2632,93.3924],[-85.752,10.2571,247.9653],[-85.7519,10.2545,263.4774],[-85.7484,10.2528,261.5044],[-85.7512,10.2444,135.713],[-85.76,10.24,203.9048],[-85.7614,10.2418,246.0385],[-85.7677,10.2407,223.7502],[-85.7687,10.2362,206.5617],[-85.7744,10.234,267.8013],[-85.7759,10.2305,287.7732],[-85.789,10.2225,203.5012],[-85.7914,10.2222,172.4702],[-85.7952,10.2251,166.5957],[-85.7969,10.2208,171.6115],[-85.8001,10.222,183.9615],[-85.8023,10.2197,213.8803],[-85.8062,10.223,138.6997],[-85.8074,10.2289,150.6401],[-85.8128,10.231,110.2943],[-85.8176,10.2287,59.2914],[-85.823,10.2302,42.491],[-85.8384,10.2268,0.0],[-85.8351,10.2073,12.2894],[-85.836,10.2011,2.9045],[-85.828,10.1923,8.3946],[-85.8225,10.1815,0.6815],[-85.8187,10.1789,13.3861],[-85.8185,10.1735,0.0],[-85.8112,10.1647,1.2805],[-85.8081,10.1554,5.2593],[-85.8088,10.1501,1.3738],[-85.8008,10.1423,0.0],[-85.8008,10.1345,0.0],[-85.7975,10.1275,1.0444],[-85.7938,10.1279,18.6916],[-85.7898,10.1307,30.3589],[-85.785,10.1286,52.7325],[-85.7806,10.1293,51.0954],[-85.7786,10.127,47.0353],[-85.7744,10.1286,95.1052],[-85.7729,10.1257,101.4472],[-85.7656,10.1245,101.6993],[-85.7636,10.122,106.2663],[-85.7598,10.1209,113.2695],[-85.756,10.1235,132.6533],[-85.7503,10.1235,208.1719],[-85.7375,10.1284,38.887],[-85.7363,10.1317,39.6829],[-85.7389,10.1363,41.8567],[-85.734,10.1357,48.6591],[-85.7334,10.1388,100.6986],[-85.7297,10.1358,47.806],[-85.7282,10.139099999999999,57.1225],[-85.7246,10.1388,69.5042],[-85.7221,10.1412,62.3287],[-85.7179,10.1392,83.5174],[-85.7155,10.134,86.3111],[-85.7047,10.1346,105.1982],[-85.7031,10.1328,102.7684],[-85.697,10.1331,124.7794],[-85.6832,10.125,148.4707],[-85.6768,10.1258,189.9424],[-85.6695,10.1232,191.1489],[-85.6583,10.1273,252.2562],[-85.6552,10.1355,311.1625],[-85.6501,10.1387,329.0386],[-85.6449,10.14,376.5418],[-85.6361,10.1377,566.1863],[-85.6309,10.1399,850.9304],[-85.6285,10.1453,906.5247],[-85.6287,10.1555,783.6094],[-85.6254,10.1593,729.2222],[-85.6238,10.1586,734.1246],[-85.622,10.1605,692.9639],[-85.6208,10.1653,666.6558],[-85.6289,10.1784,523.3442],[-85.629,10.2447,225.7225],[-85.68,10.2561,206.7457],[-85.6839,10.2549,189.2592],[-85.686,10.2594,271.1021],[-85.6893,10.2602,204.6889],[-85.6952,10.2658,309.301],[-85.717,10.2729,39.5103],[-85.7121,10.2736,29.2701],[-85.709,10.2765,33.0496],[-85.704,10.2782,29.8291],[-85.6981,10.2892,23.9722],[-85.6949,10.2925,25.5097],[-85.6878,10.2954,22.5917],[-85.6902,10.2987,22.2717],[-85.693,10.3003,21.0015],[-85.696,10.2994,20.6441],[-85.697,10.3014,19.824]]]]}}