{"type": "Feature","id": "1328","bbox": [-84.20186,9.94565,-83.70357,10.78945],"geometry": {"type": "Polygon","coordinates": [[[-83.91728,10.71348,10.5],[-83.92658,10.7149,26.44],[-83.93332,10.71805,21.2528],[-83.99363,10.765,26.4528],[-83.9982,10.78206,62.0559],[-84.00923,10.78945,36.901],[-84.0227,10.78722,17.7728],[-84.03456,10.77552,17.7702],[-84.05163,10.77955,18.6003],[-84.07644,10.76381,30.5034],[-84.08856,10.77552,31.131],[-84.09543,10.77552,47.2598],[-84.10693,10.76691,18.8825],[-84.11843,10.77123,34.4444],[-84.137,10.78916,18.5845],[-84.14902,10.78717,17.0],[-84.15773,10.78842,17.5],[-84.15798,10.78425,19.5046],[-84.16052,10.57114,53.0861],[-84.16269,10.41011,195.3784],[-84.16419,10.2957,727.1644],[-84.16579,10.1584,1889.3337],[-84.17736,10.00683,973.7444],[-84.17762,10.00435,963.1274],[-84.19602,9.98508,884.9529],[-84.20098,9.97717,882.4436],[-84.2016,9.97417,875.6518],[-84.20186,9.97138,870.8735],[-84.20175,9.96601,860.1455],[-84.19997,9.95722,847.836],[-84.1824,9.96022,924.717],[-84.16274,9.9504,998.568],[-84.15132,9.94565,994.6599],[-84.11455,9.96203,997.4956],[-84.10993,9.96234,1037.8512],[-84.08422,9.96022,1141.339],[-84.07391,9.96218,1172.7898],[-84.04747,9.9705,1238.4832],[-84.02799,9.98203,1302.542],[-84.01551,10.0151,1378.7679],[-84.00941,10.03494,1465.9867],[-84.01042,10.04228,1549.8169],[-84.01368,10.0458,1584.5681],[-84.01851,10.05003,1613.093],[-84.02665,10.05887,2023.4336],[-84.0283,10.08285,1289.5195],[-84.03091,10.09086,1398.6179],[-84.04409,10.10491,1894.7506],[-84.06706,10.13855,1940.6636],[-84.07063,10.14656,1957.7598],[-84.0714,10.15153,1785.9358],[-84.06641,10.15339,1693.2489],[-84.02228,10.1568,1266.5724],[-84.00293,10.16093,1071.7172],[-83.98079,10.16258,664.0942],[-83.97598,10.16424,584.4969],[-83.96993,10.17044,527.266],[-83.95053,10.19514,488.5405],[-83.91355,10.19896,303.7248],[-83.86648,10.24873,161.1607],[-83.8634,10.25353,151.8332],[-83.85108,10.27927,118.0673],[-83.84842,10.2865,116.2272],[-83.84723,10.29198,123.0872],[-83.84772,10.29477,115.0188],[-83.84687,10.30692,97.7144],[-83.84361,10.32123,89.117],[-83.84273,10.32831,85.4404],[-83.84291,10.33322,85.3482],[-83.84413,10.33549,81.1411],[-83.84723,10.33932,76.6368],[-83.84986,10.34335,77.4156],[-83.85175,10.34841,77.5689],[-83.8548,10.35926,67.3641],[-83.86813,10.38376,66.8472],[-83.86942,10.38753,63.9747],[-83.87167,10.4021,61.3952],[-83.87108,10.40805,60.3684],[-83.87028,10.41234,58.244],[-83.86679,10.41952,68.1623],[-83.86395,10.4236,55.4947],[-83.85594,10.43885,51.8966],[-83.85392,10.44122,51.6417],[-83.85165,10.44226,51.8948],[-83.84901,10.44257,51.2279],[-83.84625,10.44329,50.3492],[-83.844,10.44448,50.7882],[-83.84206,10.44603,50.9061],[-83.83803,10.45011,51.8049],[-83.82904,10.46365,46.6122],[-83.82343,10.48463,44.5776],[-83.82341,10.48959,42.6104],[-83.82387,10.49233,42.7085],[-83.82788,10.5022,41.5343],[-83.8285,10.5052,41.6514],[-83.82865,10.50861,40.805],[-83.82772,10.51677,39.812],[-83.82762,10.52008,39.3309],[-83.82803,10.52298,40.732],[-83.82919,10.5253,48.9066],[-83.83059,10.52742,43.9242],[-83.83377,10.53114,38.6083],[-83.83524,10.53321,37.0818],[-83.8362,10.53558,36.4203],[-83.83635,10.54148,35.2395],[-83.83069,10.58437,26.4984],[-83.83136,10.59377,37.0376],[-83.82997,10.62426,41.2257],[-83.82865,10.63336,38.749],[-83.827,10.63925,24.9186],[-83.82539,10.64106,29.1959],[-83.82157,10.64426,34.1433],[-83.81312,10.64969,29.3728],[-83.80351,10.65465,12.9345],[-83.79956,10.65764,12.8215],[-83.78953,10.66829,19.7731],[-83.77258,10.67909,19.3416],[-83.76214,10.68255,19.9162],[-83.75633,10.68374,13.3585],[-83.72716,10.68622,5.4443],[-83.71662,10.68886,4.4019],[-83.71277,10.68896,7.7452],[-83.70917,10.68865,4.2881],[-83.70458,10.68715,2.9083],[-83.70357,10.68808,2.0],[-83.7037,10.68979,3.3618],[-83.70579,10.69299,10.7153],[-83.70827,10.69583,11.863],[-83.71199,10.69893,5.2994],[-83.72065,10.70415,5.5349],[-83.72457,10.70736,10.1448],[-83.72793,10.71077,4.2775],[-83.73101,10.71459,3.0],[-83.73189,10.71811,9.7314],[-83.73227,10.72296,17.9861],[-83.72928,10.74301,15.7415],[-83.72943,10.74653,11.2846],[-83.73,10.74984,5.4193],[-83.73274,10.75464,6.0742],[-83.73651,10.75914,21.4398],[-83.74155,10.76399,10.2554],[-83.74385,10.76565,7.4686],[-83.74625,10.76715,5.7244],[-83.74935,10.76834,5.5],[-83.7608,10.77149,6.0],[-83.76382,10.77368,6.0],[-83.76896,10.77247,6.0],[-83.83534,10.74761,8.0],[-83.85581,10.724,11.353],[-83.85953,10.72178,9.0],[-83.88686,10.72715,30.1069],[-83.89356,10.72493,17.3794],[-83.90748,10.71537,12.5186],[-83.91728,10.71348,10.5]]]}
,"properties": {"ISO3166-1-Alpha-3": "CRI","country": "Costa Rica","fill": "#FF0","name": "Heredia","area_km2": 2705.721,"hist_schema_id": "Elevation0-9000","hist_area_km2": {"0": 68.412,"25": 569.113,"50": 635.542,"75": 175.291,"100": 110.08,"125": 78.056,"150": 59.583,"175": 50.117,"200": 45.946,"225": 35.04,"250": 27.199,"275": 24.404,"300": 21.318,"325": 18.606,"350": 16.479,"375": 14.894,"400": 14.727,"425": 14.602,"450": 12.683,"475": 11.828,"500": 10.994,"525": 9.096,"550": 10.014,"575": 10.452,"600": 11.057,"625": 8.762,"650": 8.721,"675": 8.784,"700": 7.845,"725": 8.116,"750": 7.678,"775": 6.718,"800": 6.092,"825": 5.55,"850": 7.178,"875": 8.41,"900": 8.661,"925": 8.953,"950": 12.878,"975": 15.28,"1000": 13.589,"1025": 13.025,"1050": 15.217,"1075": 13.296,"1100": 13.776,"1125": 15.03,"1150": 15.218,"1175": 14.695,"1200": 15.364,"1225": 14.945,"1250": 13.318,"1275": 13.84,"1300": 13.631,"1325": 13.61,"1350": 12.274,"1375": 11.585,"1400": 10.499,"1425": 10.311,"1450": 10.311,"1475": 10.373,"1500": 11.709,"1525": 11.458,"1550": 11.062,"1575": 10.436,"1600": 10.018,"1625": 9.726,"1650": 9.455,"1675": 8.745,"1700": 8.787,"1725": 8.745,"1750": 8.328,"1775": 7.764,"1800": 7.952,"1825": 7.222,"1850": 7.973,"1875": 6.616,"1900": 5.928,"1925": 6.032,"1950": 6.199,"1975": 5.469,"2000": 4.947,"2025": 4.675,"2050": 4.112,"2075": 4.049,"2100": 4.738,"2125": 4.404,"2150": 3.945,"2175": 3.694,"2200": 3.924,"2225": 3.694,"2250": 3.277,"2275": 3.047,"2300": 3.611,"2325": 2.713,"2350": 2.943,"2375": 2.442,"2400": 2.484,"2425": 2.087,"2450": 1.941,"2475": 1.732,"2500": 1.962,"2525": 1.858,"2550": 1.837,"2575": 1.732,"2600": 1.628,"2625": 1.586,"2650": 1.732,"2675": 1.628,"2700": 1.169,"2725": 0.918,"2750": 0.689,"2775": 0.564,"2800": 0.605,"2825": 0.313,"2850": 0.188,"2875": 0.146}}}