{"type":"Feature","properties":{"GID_1":"CRI.4_1","GID_0":"CRI","country":"CostaRica","province":"Heredia","VARNAME_1":"NA","NL_NAME_1":"NA","TYPE_1":"Provincia","ENGTYPE_1":"Province","CC_1":"4","HASC_1":"CR.HE","ISO_1":"CR-H","name":"Heredia.province"},
"geometry":{"type": "MultiPolygon","coordinates": [[[[-84.1097,9.9613,1012.3206],[-84.1088,9.9621,1050.8016],[-84.1072,9.9603,1039.8481],[-84.1064,9.9634,1031.3315],[-84.094,9.9628,1082.4821],[-84.0885,9.9673,1115.7102],[-84.0862,9.9667,1100.4502],[-84.0832,9.9706,1106.3051],[-84.0794,9.9694,1121.3274],[-84.0793,9.9678,1125.3176],[-84.0764,9.9674,1111.3838],[-84.0761,9.9692,1141.6693],[-84.0732,9.9691,1156.3431],[-84.0702,9.9686,1139.1414],[-84.069,9.9668,1163.8616],[-84.0646,9.9696,1164.4501],[-84.0639,9.9683,1153.2087],[-84.0606,9.969,1173.2888],[-84.0604,9.9705,1201.031],[-84.0577,9.9691,1167.7604],[-84.056,9.971,1152.8007],[-84.0574,9.9727,1160.8491],[-84.0523,9.9735,1168.9568],[-84.0542,9.9767,1191.5747],[-84.0482,9.9763,1212.4414],[-84.046,9.9813,1234.4982],[-84.0442,9.9805,1209.4556],[-84.0447,9.9824,1244.5283],[-84.0408,9.9846,1295.0713],[-84.043,9.9872,1271.6384],[-84.0398,9.9868,1242.9939],[-84.0346,9.991,1256.9812],[-84.0324,9.9899,1285.1143],[-84.0317,9.992,1265.9135],[-84.0255,9.9917,1289.5305],[-84.0231,10.0139,1337.4927],[-84.0197,10.0162,1355.3003],[-84.0199,10.019,1365.8555],[-84.0125,10.0217,1386.2129],[-84.0101,10.0369,1475.0737],[-84.0125,10.0395,1504.9236],[-84.0158,10.05,1602.637],[-84.0283,10.06,2067.9856],[-84.0283,10.0829,1289.5195],[-84.0217,10.0822,1279.115],[-84.0156,10.0795,1169.0216],[-84.0057,10.0862,1113.7568],[-84.0018,10.0921,1060.5121],[-83.9942,10.0954,988.2943],[-83.9892,10.0942,943.5798],[-83.985,10.0977,909.1794],[-83.9844,10.1011,896.8868],[-83.9801,10.1025,877.0974],[-83.9788,10.1148,833.724],[-83.9805,10.1164,792.7803],[-83.9805,10.1238,778.9161],[-83.9772,10.1326,736.5411],[-83.9794,10.1496,656.5607],[-83.9764,10.1548,595.8252],[-83.9745,10.1659,535.1856],[-83.9719,10.1695,547.1394],[-83.9612,10.1725,466.344],[-83.9527,10.1796,405.8527],[-83.935,10.1871,336.549],[-83.9187,10.1968,288.3794],[-83.9133,10.2032,266.3319],[-83.9086,10.2052,262.1633],[-83.9027,10.2107,238.1959],[-83.8969,10.2188,228.8119],[-83.8733,10.2428,169.5339],[-83.8638,10.2479,154.5935],[-83.8575,10.255,139.8174],[-83.8547,10.2623,131.2979],[-83.8553,10.2656,130.5551],[-83.852,10.2712,128.1173],[-83.8525,10.2752,122.6988],[-83.85,10.2821,121.3032],[-83.8516,10.2858,118.7534],[-83.8506,10.2887,113.4131],[-83.8527,10.3014,99.6341],[-83.8512,10.3076,95.0763],[-83.8532,10.3103,91.6793],[-83.8542,10.3177,86.4561],[-83.8522,10.3207,86.8206],[-83.8532,10.3264,82.5244],[-83.85,10.3302,85.3051],[-83.8489,10.335,79.3262],[-83.8517,10.3487,77.5689],[-83.8504,10.3543,73.4617],[-83.8549,10.359,67.3641],[-83.8576,10.3673,64.5884],[-83.865,10.3755,66.1271],[-83.8653,10.3797,69.5667],[-83.8691,10.3808,62.3964],[-83.8727,10.3896,63.4067],[-83.8754,10.3904,61.3822],[-83.8805,10.4036,62.7281],[-83.8753,10.4164,59.7469],[-83.874,10.429,56.8103],[-83.8665,10.4354,56.038],[-83.8598,10.4377,54.6062],[-83.8594,10.4446,53.2413],[-83.856,10.4466,52.0775],[-83.8447,10.4451,50.7882],[-83.8393,10.4551,51.3616],[-83.831,10.4622,47.4213],[-83.8319,10.4675,48.0085],[-83.838,10.4721,45.9904],[-83.8386,10.4745,45.8632],[-83.8365,10.4787,46.3812],[-83.831,10.4819,44.5719],[-83.8281,10.4944,44.0269],[-83.8322,10.4962,45.8023],[-83.8311,10.5034,41.7883],[-83.8392,10.5115,41.4595],[-83.8376,10.5157,41.8504],[-83.8378,10.5324,37.0951],[-83.8404,10.5392,37.2527],[-83.8454,10.54,36.9661],[-83.8462,10.5463,35.9523],[-83.8431,10.5487,35.0751],[-83.8473,10.5511,35.7506],[-83.845,10.5559,35.6969],[-83.8457,10.5588,34.5898],[-83.844,10.5636,33.8289],[-83.8404,10.5663,32.8369],[-83.8437,10.5729,37.0641],[-83.8394,10.5774,41.6213],[-83.8367,10.584,42.2769],[-83.8387,10.5888,39.1955],[-83.8363,10.5897,36.1568],[-83.8389,10.5943,28.2293],[-83.8414,10.5951,28.9728],[-83.842,10.6011,26.1324],[-83.8457,10.6039,25.3799],[-83.8456,10.6063,27.0363],[-83.8434,10.6064,24.7627],[-83.845,10.613,24.3705],[-83.8418,10.6148,24.1417],[-83.8401,10.6208,21.26],[-83.8424,10.6311,21.2805],[-83.8403,10.6372,21.4931],[-83.8408,10.6404,21.1878],[-83.8391,10.6437,18.0933],[-83.8356,10.6453,18.1447],[-83.8305,10.6448,18.9727],[-83.8157,10.65,24.7401],[-83.8117,10.6486,20.3899],[-83.8091,10.6524,17.0092],[-83.7965,10.653,15.2204],[-83.7875,10.6577,26.6674],[-83.7857,10.6652,10.2949],[-83.7864,10.6712,23.3579],[-83.7807,10.679,17.2038],[-83.7798,10.6842,10.1524],[-83.7752,10.6882,10.5385],[-83.7709,10.6963,17.8869],[-83.7651,10.6994,9.5331],[-83.7609,10.6981,10.3636],[-83.759,10.6991,11.2264],[-83.7561,10.6956,9.6949],[-83.7501,10.696,8.8666],[-83.7484,10.6938,10.6544],[-83.7421,10.6926,16.9915],[-83.7353,10.6924,11.5135],[-83.7288,10.6944,24.0241],[-83.7194,10.6918,12.938],[-83.71,10.6925,3.6958],[-83.7165,10.7034,7.7124],[-83.7394,10.7211,3.5],[-83.741,10.7259,3.5],[-83.7404,10.7304,6.3961],[-83.7331,10.7366,4.0],[-83.7326,10.7388,6.8571],[-83.7404,10.7561,5.0],[-83.7481,10.766,5.5],[-83.7523,10.7691,5.5],[-83.7618,10.7722,6.0],[-83.765,10.7696,6.0],[-83.7783,10.7718,7.7136],[-83.7933,10.7694,7.7858],[-83.7967,10.7666,7.0],[-83.8001,10.7554,9.5176],[-83.8073,10.7509,8.7951],[-83.8099,10.7474,11.4069],[-83.8132,10.7459,8.9726],[-83.8269,10.7486,11.4346],[-83.8403,10.744,8.25],[-83.8633,10.7175,10.1732],[-83.8713,10.7159,11.81],[-83.8778,10.7191,11.1234],[-83.8909,10.7217,13.6843],[-83.9152,10.711,13.8414],[-83.9322,10.7074,15.3704],[-83.9355,10.7096,13.4089],[-83.9369,10.7134,15.6046],[-83.9361,10.7181,11.0],[-83.938,10.7212,14.0409],[-83.9551,10.724,17.7891],[-83.9666,10.7285,26.218],[-83.9693,10.7319,15.4872],[-83.9722,10.7453,15.9101],[-83.9835,10.7495,13.3652],[-83.991,10.7545,18.9082],[-83.9939,10.7592,13.0],[-83.9981,10.7599,28.3708],[-84.0053,10.7644,13.0],[-84.0093,10.7731,15.1446],[-84.0146,10.7791,15.7977],[-84.0149,10.7845,13.3412],[-84.0217,10.7917,14.9541],[-84.0256,10.7925,14.0],[-84.0307,10.7888,15.9416],[-84.034,10.7736,17.3246],[-84.0362,10.7711,15.9444],[-84.0431,10.7714,16.231],[-84.0474,10.7771,14.0],[-84.0541,10.7787,16.2113],[-84.0612,10.7741,15.4521],[-84.0625,10.7634,17.6399],[-84.0699,10.76,18.6187],[-84.0796,10.7583,18.2789],[-84.0836,10.7594,23.0886],[-84.0999,10.7732,17.2857],[-84.1056,10.7744,16.5],[-84.1159,10.7652,18.5412],[-84.1216,10.7638,17.0],[-84.1267,10.765,23.9228],[-84.1324,10.7719,25.8918],[-84.1332,10.7845,17.7599],[-84.1354,10.7869,17.9286],[-84.1462,10.7876,17.0],[-84.1611,10.7854,19.7528],[-84.1613,10.0832,1488.6588],[-84.1663,10.0718,1347.5894],[-84.1735,10.0274,1064.5403],[-84.1738,10.0056,967.729],[-84.1765,10.0055,967.9751],[-84.1766,10.0032,957.6014],[-84.1803,9.9993,922.7151],[-84.1852,9.9979,910.0096],[-84.1886,9.9945,895.836],[-84.1983,9.9919,882.5865],[-84.1947,9.9775,897.1436],[-84.2,9.9762,882.2415],[-84.1999,9.9681,873.6931],[-84.1902,9.9745,894.7628],[-84.1836,9.9733,860.4781],[-84.1829,9.9685,882.843],[-84.1739,9.972,919.2748],[-84.1689,9.9657,932.7045],[-84.1621,9.9663,944.7072],[-84.1559,9.9689,960.788],[-84.1454,9.9623,952.9376],[-84.1379,9.964,991.1828],[-84.1333,9.9675,996.4274],[-84.1159,9.9622,1018.8143],[-84.1138,9.9597,1008.9287],[-84.1097,9.9613,1012.3206]]]]}}