{"type":"Feature","properties":{"featurecla":"River","scalerank":5,"rivernum":159,"dissolve":"159River","name":"San33","name_alt":null,"note":null,"min_zoom":4.7,"strokeweig":0.25,"name_en":"San Juan","min_label":5.7},
"geometry":{"type": "LineString","coordinates": [[-84.09619140625,10.77570221561912,47.2598],[-84.08935546875,10.77570221561912,34.6686],[-84.077197265624989,10.76398346561912,30.5034],[-84.052416992187489,10.77973053593162,18.6003],[-84.035400390625,10.77570221561912,30.852],[-84.023486328124989,10.78742096561912,15.2594],[-84.010058593749989,10.78961823124412,36.901],[-83.998950195312489,10.782245184369117,82.2564],[-83.994384765625,10.765155340619117,27.7204],[-83.934130859374989,10.71820709843162,21.2528],[-83.92734375,10.71503327030662,26.44],[-83.918066406249991,10.713641668744117,21.9573],[-83.908300781249991,10.71552155155662,10.0],[-83.894335937499989,10.725116278119117,17.3794],[-83.887622070312489,10.727313543744117,27.6517],[-83.8603515625,10.721942449994117,15.286],[-83.856616210937489,10.72418854374412,9.0],[-83.836108398437489,10.74774811405662,8.0],[-83.769775390625,10.77265045780662,6.0],[-83.698974609375,10.78937409061912,13.1973],[-83.663818359375,10.80719635624412,12.3156],[-83.660937499999989,10.834344793744108,35.6511],[-83.6701171875,10.869891668744117,3.8544],[-83.670996093749991,10.912860418744117,10.8591],[-83.670581054687489,10.917743231244117,10.1311],[-83.671728515624991,10.92279694218162,11.6816],[-83.664404296874991,10.927850653119108,0.4326],[-83.658618164062489,10.926629949994108,0.0],[-83.652270507812489,10.92682526249412,0.0],[-83.644335937499989,10.925897528119108,0.0]]}}