{"type": "Feature","bbox": [-84.1931,9.8633,-84.147,9.9259],"geometry": {"type": "MultiPolygon","coordinates": [[[[-84.1605,9.9259,1181.8013],[-84.163,9.9222,1156.4534],[-84.165,9.9227,1121.2489],[-84.1672,9.9208,1099.3063],[-84.1832,9.9217,964.7069],[-84.1832,9.9154,1002.949],[-84.1864,9.9156,1121.524],[-84.1887,9.9139,1143.913],[-84.1886,9.9043,1252.7844],[-84.1857,9.8959,1430.4957],[-84.19,9.8934,1547.9941],[-84.1931,9.888,1782.0695],[-84.1878,9.8847,1774.6362],[-84.1862,9.8852,1760.824],[-84.1871,9.8834,1740.1456],[-84.1856,9.8787,1783.5671],[-84.1773,9.8677,1967.6226],[-84.1634,9.8675,1996.92],[-84.1503,9.8633,2297.3984],[-84.1485,9.8644,2303.6714],[-84.147,9.8699,2206.0889],[-84.1525,9.8814,1963.0754],[-84.1527,9.8862,1885.429],[-84.1608,9.8999,1664.3138],[-84.1629,9.9091,1516.8672],[-84.1585,9.9225,1282.1349],[-84.1605,9.9259,1181.8013]]]]}
,"properties": {"GID_3": "CRI.7.16.4_1","GID_0": "CRI","country": "CostaRica","GID_1": "CRI.7_1","province": "SanJosé","NL_NAME_1": "NA","GID_2": "CRI.7.16_1","county": "SantaAna","NL_NAME_2": "NA","city": "Salitral","VARNAME_3": "NA","NL_NAME_3": "NA","TYPE_3": "Distrito","ENGTYPE_3": "District","CC_3": "2","HASC_3": "NA","name": "Salitral.city","area_km2": 20.32302,"hist_schema_id": "Elevation0-9000","hist_area_km2": {"975": 0.25062,"1000": 0.35505,"1025": 0.39683,"1050": 0.31329,"1075": 0.25063,"1100": 0.75189,"1125": 0.48038,"1150": 0.56393,"1175": 0.50127,"1200": 0.58481,"1225": 0.41772,"1250": 0.71013,"1275": 0.52216,"1300": 0.58482,"1325": 0.52216,"1350": 0.6266,"1375": 0.54306,"1400": 0.58483,"1425": 0.45951,"1450": 0.60572,"1475": 0.6266,"1500": 0.56395,"1525": 0.54307,"1550": 0.54307,"1575": 0.41775,"1600": 0.54307,"1625": 0.43864,"1650": 0.62663,"1675": 0.58485,"1700": 0.52219,"1725": 0.62663,"1750": 0.43864,"1775": 0.48042,"1800": 0.31332,"1825": 0.27154,"1850": 0.25066,"1875": 0.29243,"1900": 0.27155,"1925": 0.29243,"1950": 0.22977,"1975": 0.20888,"2000": 0.33421,"2025": 0.10444,"2050": 0.10444,"2075": 0.08355,"2100": 0.08355,"2125": 0.12533,"2150": 0.12533,"2175": 0.04178,"2200": 0.06267,"2225": 0.02089,"2250": 0.06267,"2275": 0.02089,"2300": 0.02089,"2350": 0.02089}}}