{"type": "Feature","bbox": [-84.0885,9.484,-83.3119,10.1473],"geometry": {"type": "MultiPolygon","coordinates": [[[[-83.548,9.9819,346.2903],[-83.6048,9.982,340.4409],[-83.6179,9.9879,482.0151],[-83.6249,9.9991,471.4297],[-83.6295,10.0005,496.1339],[-83.6305,9.9993,582.6473],[-83.6341,10.0057,607.7054],[-83.6373,10.0045,623.3113],[-83.6376,10.0084,700.9794],[-83.6394,10.0101,678.2791],[-83.6452,10.0108,710.7134],[-83.6494,10.0148,775.8674],[-83.6543,10.0158,855.7557],[-83.6564,10.018,888.905],[-83.6591,10.0163,929.3668],[-83.6644,10.0193,1017.5441],[-83.6689,10.0247,1161.5155],[-83.6801,10.0258,1356.8042],[-83.6897,10.0298,1661.5001],[-83.7068,10.0408,2131.4265],[-83.7091,10.041,2222.0156],[-83.7143,10.0378,2331.8296],[-83.7224,10.0385,2340.9106],[-83.947,10.1473,473.381],[-83.9415,10.1297,566.9847],[-83.9381,10.1245,654.8297],[-83.9379,10.1174,685.7578],[-83.9362,10.1158,765.2194],[-83.9377,10.1102,713.4905],[-83.9325,10.0986,771.4249],[-83.9315,10.0832,908.7759],[-83.9262,10.0792,960.6834],[-83.9234,10.079,970.8759],[-83.9216,10.0759,975.8729],[-83.9181,10.077,977.0717],[-83.9169,10.0745,1000.4568],[-83.9124,10.0733,1020.1208],[-83.9083,10.0685,1062.6663],[-83.8949,10.0606,1196.9225],[-83.8816,10.0446,1406.0365],[-83.8792,10.038,1432.7762],[-83.8752,10.0345,1508.4402],[-83.877,10.0204,1724.181],[-83.8718,10.014,1791.8431],[-83.8671,10.0041,1975.7932],[-83.8688,9.9946,2372.3101],[-83.8662,9.9865,2811.7681],[-83.8592,9.9792,3049.801],[-83.8592,9.9722,3390.9116],[-83.8727,9.9696,3152.5918],[-83.8855,9.9707,2995.2161],[-83.8912,9.9678,3003.9414],[-83.8991,9.9686,2920.9453],[-83.9041,9.9661,2781.0305],[-83.906,9.9613,2673.4204],[-83.9106,9.9607,2595.5591],[-83.9153,9.9546,2369.0508],[-83.9214,9.9518,2293.5186],[-83.9314,9.9518,2168.0354],[-83.937,9.9553,2162.9644],[-83.9388,9.9583,2051.3242],[-83.9479,9.9532,1955.4132],[-83.9523,9.9538,1925.446],[-83.9565,9.9496,1811.6035],[-83.9635,9.9503,1785.9412],[-83.9693,9.9437,1693.2079],[-84.0084,9.9398,1356.6577],[-84.0054,9.9313,1359.7175],[-84.0051,9.9245,1344.2422],[-84.0159,9.9095,1237.2393],[-84.0177,9.9048,1237.4296],[-84.0157,9.8991,1242.4543],[-84.0263,9.8936,1312.7368],[-84.0305,9.8959,1230.8984],[-84.0343,9.894,1180.7394],[-84.0418,9.8963,1170.2114],[-84.0403,9.8957,1167.2688],[-84.0374,9.8885,1177.2612],[-84.0361,9.8886,1171.4417],[-84.0373,9.8866,1180.6221],[-84.0349,9.8873,1173.4308],[-84.0318,9.8836,1211.5859],[-84.0203,9.8842,1371.0129],[-83.9987,9.8762,1592.9744],[-83.9992,9.8681,1599.9539],[-84.0125,9.8589,1709.5764],[-84.0168,9.8542,1707.7906],[-84.0186,9.8479,1790.5769],[-84.0165,9.8443,1797.8176],[-84.0255,9.8391,1842.8718],[-84.0302,9.8238,1893.6249],[-84.0344,9.8233,1796.7935],[-84.0416,9.8192,1717.6907],[-84.0462,9.8135,1621.0599],[-84.0653,9.8088,1435.1614],[-84.0753,9.8019,1349.1284],[-84.0768,9.7956,1308.0935],[-84.0823,9.7902,1243.5212],[-84.082,9.7875,1235.4346],[-84.084,9.7868,1219.7313],[-84.0845,9.7758,1192.4226],[-84.0866,9.7746,1232.7161],[-84.0885,9.7696,1137.5831],[-84.0817,9.7655,1181.1636],[-84.0788,9.7662,1175.0898],[-84.0714,9.7638,1245.066],[-84.0666,9.7656,1272.7004],[-84.0634,9.764,1234.1295],[-84.058,9.7674,1297.851],[-84.0553,9.7661,1271.9026],[-84.0493,9.7673,1368.1843],[-84.0467,9.7659,1332.1548],[-84.0411,9.7678,1383.0049],[-84.0371,9.7649,1378.0042],[-84.0317,9.7642,1411.6394],[-84.0296,9.7647,1417.8921],[-84.0289,9.7681,1445.4504],[-84.0249,9.7704,1464.8895],[-84.0195,9.7703,1523.7931],[-84.0187,9.7722,1582.5881],[-84.0021,9.7788,1757.2568],[-83.9992,9.7853,1798.0134],[-83.9946,9.7833,1888.1274],[-83.9918,9.7837,1882.5011],[-83.9919,9.779,1863.6528],[-83.9888,9.777,1867.6299],[-83.9877,9.7714,1865.144],[-83.9843,9.7717,1846.464],[-83.9815,9.7696,1838.7988],[-83.9825,9.7601,1917.4204],[-83.978,9.7577,1897.6714],[-83.9775,9.7535,1914.5668],[-83.9791,9.7452,1998.2931],[-83.9661,9.7412,2007.7233],[-83.9609,9.741,2051.8843],[-83.9594,9.7429,2029.166],[-83.9553,9.7384,2107.4639],[-83.9536,9.7407,2062.6848],[-83.9508,9.7396,2136.6499],[-83.9512,9.7351,2184.0293],[-83.9491,9.7356,2168.8723],[-83.9497,9.7178,2331.7786],[-83.9473,9.7099,2409.7383],[-83.9493,9.7064,2425.8613],[-83.946,9.7051,2428.8774],[-83.9455,9.7014,2415.7007],[-83.9426,9.6987,2417.6748],[-83.9345,9.6988,2477.0505],[-83.926,9.6952,2546.6072],[-83.9248,9.6916,2601.5129],[-83.9214,9.6888,2562.1394],[-83.9211,9.6829,2524.7676],[-83.9149,9.6853,2499.6284],[-83.9127,9.6847,2495.5161],[-83.91,9.6867,2509.2729],[-83.906,9.6858,2534.0454],[-83.9032,9.6891,2528.417],[-83.9011,9.689,2489.8745],[-83.8968,9.6855,2500.7207],[-83.896,9.6798,2495.3909],[-83.8884,9.6711,2541.2842],[-83.8828,9.6706,2554.2024],[-83.882,9.6685,2541.5413],[-83.8746,9.6702,2544.8259],[-83.8738,9.6722,2596.9617],[-83.8633,9.6709,2640.3032],[-83.858,9.6725,2666.4526],[-83.85,9.664,2668.7883],[-83.85,9.6557,2700.1069],[-83.846,9.649,2764.1147],[-83.8466,9.6334,2956.2288],[-83.8491,9.6311,3013.283],[-83.8506,9.6253,3143.2024],[-83.8352,9.6226,3005.4668],[-83.832,9.6174,2994.106],[-83.826,9.6189,2965.3401],[-83.8173,9.6149,2979.8682],[-83.8113,9.6153,2930.5266],[-83.8013,9.6119,2912.2444],[-83.800299999999993,9.6141,2930.1121],[-83.794,9.6109,3012.1057],[-83.7905,9.6116,3060.7461],[-83.7865,9.6065,3117.9766],[-83.7653,9.6039,3249.5923],[-83.7579,9.5919,3376.3169],[-83.7639,9.5836,3364.3472],[-83.7575,9.5748,3356.188],[-83.7562,9.5703,3362.6475],[-83.7579,9.5674,3392.6548],[-83.7531,9.56,3458.3474],[-83.7437,9.5585,3200.9028],[-83.7343,9.5602,3037.3831],[-83.7277,9.5596,3092.9956],[-83.7186,9.5513,3095.719],[-83.712,9.5545,3055.2808],[-83.7087,9.5583,3024.6418],[-83.7011,9.5529,2845.905],[-83.6894,9.5531,2830.7769],[-83.6836,9.5511,2830.981],[-83.6711,9.5596,2884.8794],[-83.6654,9.5673,2989.3496],[-83.663,9.5745,3083.2964],[-83.6534,9.5837,3232.8362],[-83.6471,9.5844,3253.7456],[-83.6364,9.5816,3302.7461],[-83.6296,9.5753,3335.0413],[-83.6298,9.569,3295.8555],[-83.6188,9.5577,3131.2102],[-83.6111,9.5566,3028.7295],[-83.6064,9.552,2896.8015],[-83.5962,9.5524,2992.1633],[-83.5933,9.545,2938.7666],[-83.5715,9.5346,3164.6665],[-83.5614,9.5334,3228.8274],[-83.5563,9.5305,3278.9866],[-83.55,9.5322,3311.7939],[-83.5465,9.529,3286.5312],[-83.5454,9.5249,3263.9644],[-83.5347,9.51,3589.7314],[-83.5143,9.5025,3672.3599],[-83.5089,9.4962,3704.5322],[-83.5058,9.4967,3692.6262],[-83.5041,9.4947,3715.709],[-83.5009,9.4945,3691.5249],[-83.4968,9.4881,3736.1807],[-83.4938,9.4877,3700.1494],[-83.4891,9.484,3753.5232],[-83.4875,9.4917,3496.6694],[-83.4886,9.495,3503.9116],[-83.4865,9.4988,3486.8706],[-83.4947,9.5104,3322.9141],[-83.4962,9.5215,3114.1948],[-83.5032,9.5299,2857.4468],[-83.5073,9.5298,2800.7739],[-83.5155,9.5356,2661.1104],[-83.5138,9.5407,2602.8218],[-83.5162,9.5531,2413.2241],[-83.5131,9.5569,2382.1411],[-83.5144,9.561,2417.6628],[-83.5133,9.5676,2242.9932],[-83.5078,9.575,1900.8062],[-83.5045,9.5837,1676.7437],[-83.5068,9.5895,1559.9727],[-83.5114,9.5941,1469.9213],[-83.5118,9.5971,1307.1112],[-83.5066,9.6017,1306.5077],[-83.5027,9.603,1269.157],[-83.4939,9.6129,1209.8806],[-83.4914,9.6136,1228.4158],[-83.4821,9.6283,1115.2428],[-83.4736,9.6323,1133.1042],[-83.4681,9.6329,1057.6592],[-83.4634,9.6429,1070.9387],[-83.4575,9.6474,1006.007],[-83.4517,9.6479,967.8444],[-83.4496,9.6522,918.8438],[-83.4468,9.6533,915.7955],[-83.4407,9.6649,855.7419],[-83.4331,9.6718,816.8909],[-83.428,9.6799,885.483],[-83.4268,9.6915,791.4656],[-83.4293,9.6994,737.065],[-83.4292,9.7067,726.3571],[-83.4109,9.7256,674.6644],[-83.4104,9.7288,736.9778],[-83.4079,9.73,660.1652],[-83.4047,9.7368,691.1974],[-83.397,9.7417,635.029],[-83.3831,9.7676,606.59],[-83.3781,9.7739,556.7697],[-83.3686,9.7808,583.3624],[-83.3674,9.7856,534.4299],[-83.3566,9.7966,514.1466],[-83.3556,9.8022,551.8942],[-83.3463,9.8103,514.9507],[-83.3404,9.8213,511.2071],[-83.3363,9.8231,474.8091],[-83.3363,9.8303,457.1037],[-83.3387,9.8338,433.4713],[-83.3341,9.8383,453.1148],[-83.3321,9.844,450.2598],[-83.3358,9.8475,455.9419],[-83.3394,9.8601,384.008],[-83.3347,9.8719,349.0669],[-83.3366,9.8751,328.1845],[-83.3341,9.8792,304.8527],[-83.3374,9.8841,269.6485],[-83.3348,9.8851,284.975],[-83.3424,9.8890999999999991,252.6867],[-83.3403,9.894,217.9289],[-83.3438,9.8936,250.6719],[-83.3478,9.898,218.9715],[-83.3439,9.8999,186.2071],[-83.3494,9.9035,219.5695],[-83.3476,9.9056,275.9532],[-83.3489,9.9079,247.1682],[-83.3487,9.9148,163.8116],[-83.3449,9.9168,202.0484],[-83.3467,9.9201,166.5569],[-83.3498,9.9216,156.5477],[-83.3507,9.9264,204.3656],[-83.3487,9.9294,182.4863],[-83.3513,9.9318,167.7139],[-83.353,9.9383,132.4196],[-83.3482,9.9361,119.468],[-83.3453,9.9401,112.6296],[-83.3383,9.9421,101.8649],[-83.3377,9.9439,126.0694],[-83.341,9.9541,88.1486],[-83.3399,9.9602,100.7841],[-83.3331,9.9647,75.117],[-83.3278,9.9651,71.2055],[-83.3165,9.979,53.203],[-83.3119,9.9816,52.7434],[-83.548,9.9819,346.2903]]]]}
,"properties": {"GID_1": "CRI.2_1","GID_0": "CRI","country": "CostaRica","province": "Cartago","VARNAME_1": "NA","NL_NAME_1": "NA","TYPE_1": "Provincia","ENGTYPE_1": "Province","CC_1": "3","HASC_1": "CR.CA","ISO_1": "CR-C","name": "Cartago.province","area_km2": 3106.437,"hist_schema_id": "Elevation0-9000","hist_area_km2": {"50": 0.668,"75": 2.36,"100": 1.399,"125": 1.232,"150": 1.42,"175": 1.566,"200": 1.232,"225": 1.253,"250": 1.441,"275": 2.172,"300": 2.485,"325": 2.736,"350": 4.511,"375": 6.453,"400": 6.891,"425": 8.27,"450": 10.504,"475": 10.024,"500": 13.637,"525": 13.575,"550": 15.997,"575": 24.875,"600": 31.559,"625": 30.119,"650": 30.432,"675": 32.041,"700": 31.769,"725": 33.628,"750": 37.179,"775": 39.686,"800": 40.063,"825": 39.478,"850": 39.04,"875": 40.085,"900": 39.187,"925": 38.519,"950": 40.462,"975": 39.835,"1000": 48.275,"1025": 44.641,"1050": 44.975,"1075": 42.741,"1100": 45.666,"1125": 46.209,"1150": 46.147,"1175": 45.917,"1200": 45.103,"1225": 42.701,"1250": 44.706,"1275": 41.218,"1300": 43.412,"1325": 48.488,"1350": 51.872,"1375": 60.708,"1400": 57.115,"1425": 50.096,"1450": 47.13,"1475": 43.976,"1500": 42.66,"1525": 42.827,"1550": 43.83,"1575": 43.246,"1600": 41.407,"1625": 39.674,"1650": 37.794,"1675": 38.86,"1700": 36.792,"1725": 35.204,"1750": 31.653,"1775": 31.883,"1800": 30.964,"1825": 31.11,"1850": 29.564,"1875": 28.102,"1900": 25.219,"1925": 23.944,"1950": 23.15,"1975": 21.687,"2000": 20.894,"2025": 19.515,"2050": 20.434,"2075": 20.454,"2100": 19.807,"2125": 18.658,"2150": 18.783,"2175": 18.303,"2200": 17.969,"2225": 17.823,"2250": 17.99,"2275": 18.011,"2300": 17.238,"2325": 17.238,"2350": 17.406,"2375": 19.705,"2400": 20.709,"2425": 19.517,"2450": 19.769,"2475": 20.145,"2500": 19.937,"2525": 18.912,"2550": 20.481,"2575": 19.812,"2600": 19.749,"2625": 19.623,"2650": 18.243,"2675": 17.867,"2700": 17.158,"2725": 15.235,"2750": 16.26,"2775": 15.048,"2800": 13.71,"2825": 13.627,"2850": 13.146,"2875": 12.226,"2900": 11.454,"2925": 10.387,"2950": 10.617,"2975": 9.468,"3000": 8.611,"3025": 7.022,"3050": 6.312,"3075": 6.312,"3100": 5.538,"3125": 4.18,"3150": 4.723,"3175": 4.598,"3200": 3.741,"3225": 3.365,"3250": 3.072,"3275": 2.675,"3300": 2.32,"3325": 1.735,"3350": 1.442,"3375": 1.108,"3400": 0.836,"3425": 0.585,"3450": 0.648,"3475": 0.502,"3500": 0.544,"3525": 0.544,"3550": 0.941,"3575": 0.606,"3600": 0.523,"3625": 0.753,"3650": 0.606,"3675": 0.355,"3700": 0.293,"3725": 0.167}}}