{"type":"Feature","properties":{"ISO3166-1-Alpha-3":"CRI","country":"Costa Rica","fill":"#F0F","id":"1327","name":"Cartago"},
"geometry":{"type": "Polygon","coordinates": [[[-83.48686,9.46759,3497.9617],[-83.49043,9.47828,3702.5085],[-83.49684,9.49146,3635.759],[-83.49895,9.49436,3674.5408],[-83.50216,9.49777,3618.938],[-83.50402,9.50051,3579.7764],[-83.51007,9.51404,3264.7637],[-83.51213,9.5264,2813.1003],[-83.5143,9.53585,2711.9968],[-83.51092,9.56644,2344.731],[-83.49699,9.59456,1704.0903],[-83.43911,9.66329,949.7086],[-83.41663,9.71972,682.2784],[-83.40875,9.73212,658.1307],[-83.37855,9.76834,618.1304],[-83.33592,9.821,542.6925],[-83.32925,9.83826,941.8249],[-83.33183,9.85645,888.361],[-83.34338,9.8919,320.9713],[-83.34486,9.91392,256.763],[-83.34155,9.93159,254.7548],[-83.33364,9.94792,246.3315],[-83.32129,9.96575,81.7686],[-83.31891,9.96962,165.7353],[-83.33899,9.9736,119.8392],[-83.4449,9.97603,409.7036],[-83.58905,9.97717,460.359],[-83.61523,9.98657,479.5897],[-83.71326,10.03174,1939.5774],[-83.77356,10.05995,1829.547],[-83.81746,10.08042,944.5316],[-83.94273,10.13623,571.0021],[-83.92864,10.08869,917.8705],[-83.92637,10.08471,1088.1035],[-83.9226,10.08021,970.8759],[-83.91386,10.07256,1049.8512],[-83.90539,10.06667,1089.9336],[-83.90087,10.0643,1146.7283],[-83.89883,10.0629,1164.6783],[-83.87883,10.04047,1385.0806],[-83.87508,10.03484,1508.4402],[-83.87239,10.02605,1687.8702],[-83.87043,10.00006,2191.1838],[-83.86596,9.978,3072.3235],[-83.86821,9.96988,3118.5095],[-83.87123,9.9659,2918.2241],[-83.875,9.9626,2918.022],[-83.88059,9.96063,2780.3962],[-83.89268,9.95924,2744.6045],[-83.90523,9.94565,2410.3066],[-83.90849,9.94461,2375.2222],[-83.91224,9.94379,2366.5713],[-83.91516,9.94466,2350.2515],[-83.91751,9.94585,2350.8994],[-83.92668,9.9473,2257.2788],[-83.95301,9.94699,1909.3977],[-83.95397,9.94647,1909.3977],[-83.99996,9.9303,1354.3816],[-84.02634,9.88715,1229.5073],[-84.02807,9.87898,1285.5908],[-84.02642,9.87769,1245.994],[-84.02259,9.87547,1262.9955],[-84.00262,9.86684,1577.729],[-84.03145,9.82069,1879.3147],[-84.0389,9.81273,1795.7606],[-84.05127,9.80436,1653.7977],[-84.06884,9.78865,1396.8484],[-84.07551,9.7778,1257.77],[-84.07861,9.77134,1300.8162],[-84.07928,9.76695,1175.0898],[-84.07918,9.76385,1212.2072],[-84.07871,9.76106,1336.6099],[-84.07763,9.75858,1390.3408],[-84.07613,9.75672,1443.7632],[-84.07393,9.75558,1480.1721],[-84.07109,9.75548,1460.553],[-84.06822,9.75579,1438.6575],[-84.05605,9.76044,1403.1735],[-84.04797,9.76256,1403.1698],[-84.04502,9.76282,1438.5302],[-84.03905,9.76199,1491.7025],[-84.03329,9.76064,1506.6218],[-83.99639,9.76881,1710.9299],[-83.98815,9.76767,1775.9072],[-83.98598,9.75816,1815.7693],[-83.98386,9.75331,1828.3993],[-83.98213,9.74824,1886.1896],[-83.97551,9.7361,1881.9974],[-83.95619,9.72985,2139.9036],[-83.95076,9.72509,2267.7385],[-83.95014,9.72277,2286.6655],[-83.94983,9.72085,2306.4907],[-83.94092,9.70607,2437.8555],[-83.91875,9.67755,2523.1943],[-83.91345,9.67279,2336.0898],[-83.91056,9.67207,2290.9785],[-83.89839,9.66773,2344.4741],[-83.87785,9.6576,2383.6875],[-83.87283,9.65647,2323.2114],[-83.87035,9.65729,2333.136],[-83.86821,9.65858,2310.1646],[-83.86526,9.65998,2365.6909],[-83.86115,9.6607,2521.1309],[-83.85314,9.65982,2661.4424],[-83.84906,9.65838,2698.4182],[-83.84614,9.65641,2692.48],[-83.84454,9.6545,2688.2964],[-83.83697,9.64215,2678.7913],[-83.8302,9.62794,2903.4915],[-83.82945,9.62546,2899.4343],[-83.82751,9.62081,2948.75],[-83.82328,9.61285,2912.1653],[-83.81829,9.605,3013.27],[-83.81496,9.60127,2970.6577],[-83.81188,9.59879,2886.6841],[-83.80917,9.59786,2876.0132],[-83.78721,9.59332,2772.9109],[-83.78245,9.59363,2780.3726],[-83.76328,9.59569,3204.9292],[-83.75201,9.58019,3166.2412],[-83.74938,9.57812,3205.8242],[-83.74439,9.57502,3117.8076],[-83.72925,9.56996,2990.3198],[-83.72478,9.56737,3015.4302],[-83.72204,9.56479,2880.2629],[-83.72103,9.56231,2915.0359],[-83.71801,9.55167,3119.8091],[-83.71587,9.53844,2871.1929],[-83.71416,9.53689,2820.1628],[-83.71202,9.53668,2702.3093],[-83.69817,9.54345,2475.3181],[-83.69318,9.54531,2510.0081],[-83.69026,9.54593,2469.1558],[-83.67863,9.54484,2579.2705],[-83.67525,9.54495,2492.5205],[-83.67228,9.54531,2292.4165],[-83.66951,9.54598,2360.292],[-83.66695,9.54696,2420.3945],[-83.66478,9.54805,2499.2732],[-83.66292,9.54944,2357.9558],[-83.66101,9.55105,2375.7683],[-83.65951,9.55301,2405.2161],[-83.65455,9.5619,2545.6853],[-83.65057,9.56634,2542.9766],[-83.63874,9.56991,2992.1997],[-83.61321,9.5435,2546.0708],[-83.60453,9.53637,2401.5632],[-83.59469,9.53167,2656.5388],[-83.59215,9.53079,2494.6443],[-83.48686,9.46759,3497.9617]]]}}