{"type":"Feature","properties":{"featurecla":"River","scalerank":8,"rivernum":807,"dissolve":"807River","name":"Chirrip","name_alt":null,"note":null,"min_zoom":7.0,"strokeweig":0.15,"name_en":"Chirrip del Atlntico","min_label":8.0},
"geometry":{"type": "LineString","coordinates": [[-83.514404296875,9.53583405155662,2711.9968],[-83.511035156249989,9.5664248718691169,2344.731],[-83.497119140624989,9.59454987186912,1704.0903],[-83.439257812499989,9.66315338749412,949.7086],[-83.416748046875,9.71967194218162,682.2784],[-83.408862304687489,9.73212311405662,658.1307],[-83.378662109375,9.7683291687441169,618.1304]]}}