{"type":"Feature","properties":{"featurecla":"River","scalerank":8,"rivernum":807,"dissolve":"807River","name":"Chirrip1","name_alt":null,"note":null,"min_zoom":7.0,"strokeweig":0.2,"name_en":"Chirrip del Atlntico","min_label":8.0},
"geometry":{"type": "LineString","coordinates": [[-83.378662109375,9.7683291687441169,618.1304],[-83.336035156249991,9.8209170593691084,542.6925],[-83.329394531249989,9.83820221561912,806.3705],[-83.331958007812489,9.8564639343691169,888.361],[-83.343505859375,9.8918643249941169,320.9713],[-83.344970703125,9.9138369812441169,256.763],[-83.341650390624991,9.9315127624941084,254.7548],[-83.333740234375,9.94782135624412,246.3315],[-83.321386718749991,9.9656924499941084,81.7686],[-83.285888671875,10.00470612186912,27.2467],[-83.27890625,10.017108465619117,25.2639],[-83.279711914062489,10.026971746869108,19.5528],[-83.2890625,10.04547760624412,14.4085],[-83.288671874999991,10.05609772343162,16.8105],[-83.283984374999989,10.06268952030662,13.8562],[-83.277026367187489,10.06647369999412,12.2443],[-83.268896484374991,10.069696356244108,10.9574],[-83.260839843749991,10.074969793744117,10.3855],[-83.235522460937489,10.104852606244108,7.6566],[-83.227832031249989,10.11200592655662,6.1742],[-83.221289062499991,10.11286041874412,13.5985],[-83.212744140624991,10.11127350468162,6.2761],[-83.202441406249989,10.11151764530662,11.7064],[-83.190722656249989,10.11798737186912,0.0]]}}