{"type": "Feature","bbox": [-84.6677,9.907,-84.559,9.9868],"geometry": {"type": "MultiPolygon","coordinates": [[[[-84.5846,9.9347,101.8691],[-84.5791,9.9395,89.6062],[-84.5797,9.9429,106.9939],[-84.5757,9.9448,164.9809],[-84.5685,9.9535,123.9102],[-84.5692,9.961,181.6884],[-84.5652,9.9644,236.7725],[-84.5623,9.9635,250.1136],[-84.562,9.9671,252.8867],[-84.5597,9.9665,257.8346],[-84.559,9.9717,299.6284],[-84.5607,9.9736,313.5929],[-84.5623,9.984,246.0286],[-84.5686,9.9816,251.983],[-84.5691,9.9834,231.3234],[-84.5706,9.9832,228.5334],[-84.571,9.9868,212.4305],[-84.5737,9.9835,246.4142],[-84.5775,9.9831,210.3175],[-84.5775,9.9817,223.7191],[-84.5807,9.9822,218.801],[-84.5815,9.9803,216.6595],[-84.5841,9.9805,196.1388],[-84.5845,9.9785,214.814],[-84.5897,9.9794,187.3604],[-84.5921,9.9722,195.5752],[-84.5962,9.9711,160.1529],[-84.597,9.9732,158.5342],[-84.599,9.9688,142.7398],[-84.6016,9.9706,166.8212],[-84.6048,9.9667,144.7332],[-84.6069,9.9587,146.7811],[-84.6085,9.9593,118.6955],[-84.6112,9.9559,166.4997],[-84.6151,9.9571,140.9701],[-84.6161,9.9551,88.7693],[-84.6151,9.9522,108.1837],[-84.63,9.9491,69.4067],[-84.6327,9.9501,54.7408],[-84.637,9.9472,40.4134],[-84.6364,9.9454,84.025],[-84.6395,9.9404,39.9961],[-84.6495,9.9444,35.6406],[-84.6528,9.9406,19.3974],[-84.6531,9.9351,40.2454],[-84.662,9.9333,11.7879],[-84.6614,9.9302,10.7962],[-84.6585,9.9311,15.5598],[-84.6576,9.9301,13.7112],[-84.6604,9.9255,18.1381],[-84.6652,9.925,11.0433],[-84.6636,9.9225,10.0907],[-84.6647,9.921,9.5057],[-84.6677,9.9226,8.3489],[-84.6654,9.9193,10.6144],[-84.6674,9.9175,8.6344],[-84.6634,9.9128,9.0415],[-84.6595,9.9118,9.723],[-84.6599,9.9093,10.7241],[-84.6536,9.9104,12.7858],[-84.6511,9.9075,12.2608],[-84.6484,9.907,11.6338],[-84.6459,9.9087,11.5533],[-84.6441,9.9072,17.9329],[-84.6447,9.9108,29.5289],[-84.6403,9.9127,15.4902],[-84.6387,9.9181,50.6895],[-84.634,9.9207,83.0914],[-84.624,9.9214,38.7092],[-84.6237,9.9261,81.7834],[-84.6128,9.9266,64.7925],[-84.611,9.9247,86.1288],[-84.605,9.9272,89.6402],[-84.6028,9.926,90.687],[-84.6021,9.9295,82.1821],[-84.597,9.9306,67.055],[-84.5966,9.9352,61.3338],[-84.5929,9.9312,100.7437],[-84.592,9.9334,75.0975],[-84.5846,9.9347,101.8691]]]]}
,"properties": {"GID_3": "CRI.1.12.2_1","GID_0": "CRI","country": "CostaRica","GID_1": "CRI.1_1","province": "Alajuela","NL_NAME_1": "NA","GID_2": "CRI.1.12_1","county": "SanMateo","NL_NAME_2": "NA","city": "JesúsMaría","VARNAME_3": "NA","NL_NAME_3": "NA","TYPE_3": "Distrito","ENGTYPE_3": "District","CC_3": "3","HASC_3": "NA","name": "Jesús_María.city","area_km2": 39.99211,"hist_schema_id": "Elevation0-9000","hist_area_km2": {"0": 0.60567,"25": 1.54548,"50": 1.25309,"75": 1.67079,"100": 2.56884,"125": 3.71743,"150": 6.22349,"175": 6.18156,"200": 3.77987,"225": 4.61511,"250": 4.32265,"275": 1.79584,"300": 0.98144,"325": 0.5638,"350": 0.16705}}}