{"type":"Feature","properties":{"GID_2":"CRI.1.17_1","GID_0":"CRI","country":"CostaRica","GID_1":"CRI.1_1","province":"Alajuela","NL_NAME_1":"NA","county":"RíoCuarto","VARNAME_2":"NA","NL_NAME_2":"NA","TYPE_2":"Cantón","ENGTYPE_2":"Canton","CC_2":"3","HASC_2":"CR.AL.RC","name":"Río_Cuarto.county"},
"geometry":{"type": "MultiPolygon","coordinates": [[[[-84.181,10.3728,291.7051],[-84.1795,10.3813,255.8961],[-84.1777,10.3827,246.9804],[-84.1773,10.3861,241.1562],[-84.1789,10.387,241.1562],[-84.1759,10.3912,237.3533],[-84.1751,10.397,235.3576],[-84.1705,10.4019,220.7596],[-84.1672,10.4099,218.7339],[-84.1655,10.4093,203.073],[-84.1628,10.4133,200.5382],[-84.161,10.4135,182.9064],[-84.1612,10.5754,55.0213],[-84.1667,10.5724,53.2218],[-84.172,10.5739,52.6388],[-84.1719,10.5775,55.1067],[-84.1795,10.5724,63.5335],[-84.1818,10.5673,57.5794],[-84.1861,10.5658,62.472],[-84.1873,10.5624,60.8406],[-84.1915,10.5621,62.6796],[-84.196,10.5582,64.6085],[-84.204,10.5558,70.3461],[-84.2035,10.5487,71.1074],[-84.2094,10.5411,72.0351],[-84.2098,10.5369,83.4738],[-84.2124,10.5355,76.0121],[-84.2121,10.5303,82.2912],[-84.2145,10.5278,81.0454],[-84.2106,10.5266,84.1415],[-84.2102,10.5242,84.8893],[-84.2149,10.5167,86.2196],[-84.2215,10.5117,92.3516],[-84.2216,10.5087,99.45],[-84.2273,10.5044,99.8079],[-84.2296,10.5044,102.9383],[-84.2303,10.4991,110.2895],[-84.2334,10.5004,112.2978],[-84.2339,10.4988,112.2978],[-84.2317,10.4967,112.2522],[-84.2315,10.4869,128.8328],[-84.2421,10.4571,149.8055],[-84.241,10.4526,156.462],[-84.2454,10.4521,164.4691],[-84.2463,10.4476,171.9085],[-84.2508,10.4413,183.2239],[-84.2536,10.4412,192.0836],[-84.2546,10.4316,202.1721],[-84.2578,10.4271,214.8668],[-84.2571,10.4217,228.1889],[-84.2612,10.4186,233.337],[-84.2569,10.4134,243.1111],[-84.2587,10.4006,263.0487],[-84.2498,10.3764,327.3788],[-84.2522,10.374,340.5781],[-84.249,10.3727,368.1334],[-84.2489,10.3664,363.3775],[-84.2455,10.3606,372.695],[-84.2463,10.3563,387.7924],[-84.2449,10.3546,394.0174],[-84.2429,10.3548,425.2125],[-84.2447,10.3527,405.2759],[-84.2432,10.3502,408.8774],[-84.2482,10.3409,434.9881],[-84.2478,10.3369,462.4975],[-84.2457,10.3333,499.5856],[-84.2391,10.3326,495.6895],[-84.2405,10.3293,538.972],[-84.2441,10.3276,541.7865],[-84.2434,10.3255,544.9885],[-84.2458,10.3254,528.8627],[-84.2456,10.3227,535.7937],[-84.2431,10.3212,538.741],[-84.2459,10.3204,582.4329],[-84.245,10.3174,556.6527],[-84.2475,10.3163,610.4076],[-84.2483,10.3132,626.9214],[-84.2509,10.3123,598.163],[-84.2509,10.308,657.9156],[-84.2571,10.3013,663.5986],[-84.2571,10.2902,712.3585],[-84.2599,10.2877,797.6335],[-84.2648,10.2763,742.6636],[-84.265,10.2724,914.5685],[-84.2624,10.268,1049.5923],[-84.2659,10.2603,1131.5984],[-84.258,10.2494,1269.7969],[-84.242,10.2419,1634.7338],[-84.231,10.247,1665.0795],[-84.2241,10.2471,1612.644],[-84.2153,10.2519,1455.1909],[-84.212,10.259,1262.986],[-84.2103,10.2683,1146.196],[-84.2017,10.2758,979.8071],[-84.2,10.2793,946.9297],[-84.1995,10.2853,886.9905],[-84.2049,10.2871,913.5889],[-84.2023,10.2917,887.9146],[-84.1944,10.2971,790.3694],[-84.1917,10.3021,739.4854],[-84.1971,10.3062,712.8813],[-84.1977,10.311,648.5541],[-84.1944,10.3183,505.4591],[-84.1948,10.3267,447.4641],[-84.1878,10.3373,385.3629],[-84.1848,10.3391,381.4792],[-84.1862,10.3471,348.5755],[-84.1811,10.3536,327.321],[-84.1807,10.3567,320.4839],[-84.1833,10.3631,322.5523],[-84.1827,10.3717,290.2123],[-84.181,10.3728,291.7051]]]]}}