{"type":"Feature","properties":{"GID_3":"CRI.6.2.7_1","GID_0":"CRI","country":"CostaRica","GID_1":"CRI.6_1","province":"Puntarenas","NL_NAME_1":"NA","GID_2":"CRI.6.2_1","county":"BuenosAires","NL_NAME_2":"NA","city":"Pilas","VARNAME_3":"NA","NL_NAME_3":"NA","TYPE_3":"Distrito","ENGTYPE_3":"District","CC_3":"5","HASC_3":"NA","name":"Pilas.city"},
"geometry":{"type": "MultiPolygon","coordinates": [[[[-83.3475,9.0855,166.6158],[-83.3487,9.0837,178.1004],[-83.3531,9.0837,185.5643],[-83.3726,9.0918,188.4194],[-83.3827,9.0986,180.756],[-83.3915,9.1103,303.2544],[-83.3911,9.1125,278.2771],[-83.3871,9.1158,196.4656],[-83.3883,9.1173,224.0086],[-83.3926,9.1179,222.0145],[-83.3943,9.1226,232.9771],[-83.3895,9.1224,204.5099],[-83.386,9.1256,210.1772],[-83.3885,9.1297,208.6209],[-83.3931,9.1332,224.1304],[-83.3983,9.1319,214.3575],[-83.4011,9.125,218.3898],[-83.4059,9.1254,248.1441],[-83.4105,9.1293,236.2957],[-83.4242,9.127,233.8216],[-83.4351,9.139,255.7632],[-83.4448,9.1377,286.6431],[-83.4469,9.1413,290.6054],[-83.4455,9.1495,259.442],[-83.447,9.1511,262.5254],[-83.4574,9.1518,276.3627],[-83.4621,9.1459,280.1859],[-83.4651,9.146,276.2446],[-83.4657,9.1498,323.711],[-83.4623,9.155,347.4479],[-83.465,9.157,282.6701],[-83.4676,9.1564,306.0591],[-83.4689,9.1528,325.0932],[-83.4726,9.1515,293.5485],[-83.4739,9.1491,299.4706],[-83.4762,9.1514,300.6053],[-83.4805,9.1517,323.5845],[-83.48,9.1474,309.7033],[-83.4831,9.1451,338.617],[-83.4815,9.138,458.5597],[-83.4826,9.1327,559.3615],[-83.4739,9.1259,792.0508],[-83.4734,9.1192,833.2758],[-83.4792,9.114,918.4052],[-83.4817,9.1149,868.9272],[-83.486,9.1087,799.4675],[-83.489,9.1076,790.1364],[-83.4905,9.1025,652.3328],[-83.4999,9.0998,558.2002],[-83.504,9.0937,478.0413],[-83.5099,9.0922,448.4993],[-83.5109,9.09,467.1324],[-83.5026,9.0841,379.3962],[-83.4992,9.0836,379.9554],[-83.4996,9.0822,379.9554],[-83.4947,9.0839,372.6618],[-83.495,9.0814,337.4428],[-83.4923,9.0789,331.4123],[-83.4874,9.0799,314.4093],[-83.4818,9.0764,305.7141],[-83.4776,9.0782,299.7741],[-83.4716,9.0742,309.4265],[-83.4652,9.0763,342.6526],[-83.4628,9.0791,321.8152],[-83.4624,9.0836,280.6727],[-83.4543,9.0781,272.2944],[-83.4503,9.0811,261.9261],[-83.4488,9.0728,316.325],[-83.4322,9.0608,552.3818],[-83.4302,9.0557,708.454],[-83.4152,9.0536,617.9871],[-83.4004,9.045,740.682],[-83.381,9.0455,766.9486],[-83.3727,9.0411,814.4886],[-83.3672,9.0445,788.2452],[-83.3492,9.0434,687.718],[-83.3326,9.0521,680.3907],[-83.3318,9.0537,680.3907],[-83.3475,9.0561,485.263],[-83.3522,9.0624,400.8993],[-83.3512,9.0653,368.5227],[-83.3495,9.065,358.6187],[-83.3506,9.069,335.7488],[-83.3463,9.085,170.5192],[-83.3475,9.0855,166.6158]]]]}}