{"type": "Feature","bbox": [-84.0635,9.894,-84.0305,9.904],"geometry": {"type": "MultiPolygon","coordinates": [[[[-84.0305,9.8959,1230.8984],[-84.0335,9.9005,1315.7471],[-84.0464,9.904,1171.6295],[-84.049,9.9034,1166.6514],[-84.0486,9.9017,1168.4934],[-84.0508,9.9006,1161.3667],[-84.0547,9.9028,1163.8014],[-84.058,9.9004,1154.1011],[-84.0583,9.9016,1151.7181],[-84.0635,9.9029,1148.7841],[-84.0601,9.898,1150.6106],[-84.055,9.8948,1155.144],[-84.0504,9.8961,1162.9808],[-84.0477,9.8952,1165.4062],[-84.0445,9.8985,1160.7747],[-84.0343,9.894,1180.7394],[-84.0305,9.8959,1230.8984]]]]}
,"properties": {"GID_3": "CRI.7.5.8_1","GID_0": "CRI","country": "CostaRica","GID_1": "CRI.7_1","province": "SanJosé","NL_NAME_1": "NA","GID_2": "CRI.7.5_1","county": "Desamparados","NL_NAME_2": "NA","city": "SanAntonio","VARNAME_3": "NA","NL_NAME_3": "NA","TYPE_3": "Distrito","ENGTYPE_3": "District","CC_3": "5","HASC_3": "NA","name": "San_Antonio.city","area_km2": 2.172201,"hist_schema_id": "Elevation0-9000","hist_area_km2": {"1150": 0.689256,"1175": 0.981668,"1200": 0.12532,"1225": 0.083546,"1250": 0.125319,"1275": 0.041773,"1300": 0.020886,"1325": 0.104432}}}