{"type":"Feature","properties":{"GID_2":"CRI.5.5_1","GID_0":"CRI","country":"CostaRica","GID_1":"CRI.5_1","province":"Limón","NL_NAME_1":"NA","county":"Siquirres","VARNAME_2":"NA","NL_NAME_2":"NA","TYPE_2":"Cantón","ENGTYPE_2":"Canton","CC_2":"3","HASC_2":"CR.LI.SI","name":"Siquirres.county"},
"geometry":{"type": "MultiPolygon","coordinates": [[[[-83.6179,9.9879,482.0151],[-83.6048,9.982,340.4409],[-83.45,9.9819,555.895],[-83.4585,9.9877,554.2949],[-83.4581,9.9931,624.899],[-83.4617,9.9935,598.9271],[-83.4675,10.007,632.5393],[-83.4673,10.0126,666.4662],[-83.463,10.0203,541.7971],[-83.4577,10.0235,577.5669],[-83.4561,10.0267,559.7211],[-83.4462,10.0284,471.8598],[-83.4448,10.0343,411.2657],[-83.4335,10.041,280.2429],[-83.424,10.0411,251.22559999999999],[-83.42,10.044,246.059],[-83.4121,10.0616,178.1139],[-83.4174,10.0703,156.4319],[-83.4117,10.0771,117.6124],[-83.4065,10.0787,95.9049],[-83.4021,10.0834,77.2482],[-83.3981,10.0914,51.539],[-83.3927,10.0973,37.2462],[-83.3838,10.1015,23.0699],[-83.3812,10.0997,26.5955],[-83.3753,10.1075,18.2892],[-83.3705,10.1105,16.1579],[-83.3633,10.1233,13.6608],[-83.3662,10.1276,12.5917],[-83.3624,10.1306,13.4615],[-83.3638,10.1368,14.7496],[-83.3625,10.1413,12.3447],[-83.3547,10.1495,15.2708],[-83.3484,10.16,6.0842],[-83.3455,10.1613,10.5178],[-83.3442,10.1677,9.5621],[-83.3417,10.1676,12.9812],[-83.3333,10.1794,8.302],[-83.33,10.1794,11.2101],[-83.3295,10.1815,8.1552],[-83.3232,10.1847,13.9742],[-83.3216,10.1837,10.367],[-83.3212,10.1857,6.2252],[-83.3156,10.1873,15.8567],[-83.3105,10.1851,16.4515],[-83.3108,10.187,16.4956],[-83.3085,10.1868,14.5905],[-83.31,10.1899,11.4796],[-83.3086,10.192,6.8946],[-83.3049,10.1915,6.5155],[-83.3028,10.1959,3.1285],[-83.2994,10.1963,5.2816],[-83.3002,10.1945,9.2667],[-83.2983,10.1948,5.7922],[-83.2957,10.192,10.5634],[-83.2886,10.1947,14.8429],[-83.2859,10.1943,14.8476],[-83.2847,10.1917,11.1479],[-83.2792,10.1933,13.5607],[-83.2765,10.1902,9.4945],[-83.2698,10.1947,3.6952],[-83.2711,10.207,0.0],[-83.2809,10.2202,0.0],[-83.2788,10.2243,0.9279],[-83.2945,10.2403,4.4788],[-83.3526,10.3109,3.2482],[-83.3548,10.3124,2.9077],[-83.3527,10.3027,0.8756],[-83.3446,10.295,0.3913],[-83.3438,10.2895,2.2049],[-83.3531,10.2944,2.1419],[-83.3543,10.2933,2.1166],[-83.3503,10.2897,2.8714],[-83.3512,10.2884,5.8371],[-83.356,10.2897,2.8745],[-83.3591,10.288,3.2241],[-83.3647,10.2881,6.4867],[-83.366,10.2898,14.3143],[-83.362799999999993,10.2942,3.4063],[-83.3659,10.2955,3.1507],[-83.3691,10.2921,4.3396],[-83.37,10.2934,4.3396],[-83.3682,10.2977,2.1891],[-83.3701,10.3,2.1462],[-83.3748,10.2989,3.0721],[-83.3788,10.294,3.6975],[-83.3777,10.2996,3.2467],[-83.3799,10.3034,6.151],[-83.3814,10.3027,5.6399],[-83.3835,10.2962,3.044],[-83.3848,10.2961,3.044],[-83.3855,10.3017,5.0867],[-83.388,10.3031,6.7414],[-83.3947,10.2947,7.2869],[-83.3942,10.3008,4.8671],[-83.3975,10.3033,5.7253],[-83.4011,10.3,9.6254],[-83.3991,10.2943,8.2796],[-83.4047,10.2959,7.6276],[-83.4054,10.2941,11.1194],[-83.4027,10.2912,8.7853],[-83.4035,10.2899,9.3162],[-83.4069,10.2878,6.9065],[-83.408,10.2902,10.3158],[-83.4102,10.2899,9.327],[-83.4054,10.2843,6.8844],[-83.4133,10.2855,14.3341],[-83.4164,10.2896,9.7023],[-83.4188,10.2876,10.1193],[-83.4247,10.2874,7.6435],[-83.4272,10.2907,9.063],[-83.428,10.2864,6.9767],[-83.4374,10.2877,7.2278],[-83.4374,10.2847,6.2941],[-83.4387,10.2842,6.8916],[-83.4447,10.2913,6.4962],[-83.4491,10.288,7.6956],[-83.4527,10.2892,10.5221],[-83.4551,10.2864,7.0749],[-83.4585,10.2885,6.6562],[-83.4627,10.2873,6.0903],[-83.4667,10.2894,6.9559],[-83.4717,10.2877,6.1956],[-83.4754,10.2839,7.7733],[-83.4785,10.2862,10.2813],[-83.4806,10.281,10.2171],[-83.4817,10.2844,10.2434],[-83.4873,10.2822,11.4123],[-83.4884,10.2797,9.0603],[-83.4867,10.2738,8.8552],[-83.4848,10.2739,13.7302],[-83.4839,10.2762,10.5402],[-83.4792,10.2712,8.1147],[-83.4829,10.2711,9.1467],[-83.4819,10.2654,11.2963],[-83.4852,10.2638,10.7025],[-83.4808,10.2621,9.9712],[-83.4825,10.2615,9.7786],[-83.4829,10.2584,9.9382],[-83.4864,10.2568,10.5302],[-83.4847,10.2513,9.5951],[-83.4905,10.2511,11.0911],[-83.489,10.2431,13.3668],[-83.4911,10.2464,11.9992],[-83.4939,10.2424,12.6755],[-83.4994,10.2451,14.4756],[-83.4995,10.241,12.9897],[-83.5028,10.2375,11.9042],[-83.5046,10.2323,13.01],[-83.5087,10.2328,12.2894],[-83.5079,10.2373,14.174],[-83.5134,10.2349,15.0163],[-83.5158,10.2377,15.5774],[-83.5172,10.2366,14.5794],[-83.5178,10.2319,15.5866],[-83.5214,10.2324,17.5324],[-83.5276,10.2296,19.5556],[-83.5308,10.2352,15.1101],[-83.5354,10.229,16.755],[-83.5407,10.2278,18.7238],[-83.543,10.2289,19.09],[-83.5473,10.2233,19.3163],[-83.552,10.223,20.291],[-83.552,10.2203,21.6674],[-83.5536,10.2193,21.6674],[-83.5518,10.2181,27.6455],[-83.5547,10.2145,23.5528],[-83.56,10.2142,28.345],[-83.5623,10.2099,25.7561],[-83.5607,10.2094,23.7052],[-83.561,10.2052,22.188],[-83.5636,10.2053,22.9511],[-83.5638,10.203,20.6976],[-83.5686,10.2022,29.6988],[-83.5722,10.2064,38.6572],[-83.5734,10.2017,41.5091],[-83.577,10.2019,43.5882],[-83.5797,10.1876,37.683],[-83.5895,10.1798,55.6088],[-83.5966,10.1666,79.2747],[-83.596,10.1641,93.2936],[-83.6018,10.1612,112.1353],[-83.612,10.1469,187.5186],[-83.608,10.1447,173.8485],[-83.6098,10.1398,195.1411],[-83.6034,10.1377,201.7295],[-83.6065,10.1335,246.7427],[-83.6073,10.128,244.1039],[-83.6101,10.1285,245.5117],[-83.6107,10.1178,295.868],[-83.6131,10.1155,302.2966],[-83.615,10.1094,354.9786],[-83.6154,10.0984,446.7194],[-83.6225,10.0818,600.0065],[-83.6234,10.0749,694.6034],[-83.6282,10.0714,770.8394],[-83.6371,10.0684,865.746],[-83.6402,10.064,928.7139],[-83.6609,10.0552,1049.3124],[-83.6795,10.0545,1227.3848],[-83.6872,10.0556,1330.0796],[-83.6899,10.0544,1481.4806],[-83.697,10.0563,1544.3325],[-83.7073,10.0506,1822.4917],[-83.7101,10.0448,2027.1776],[-83.7166,10.0399,2264.3364],[-83.7204,10.0387,2338.7578],[-83.7252,10.0398,2414.7217],[-83.7205,10.038,2338.7578],[-83.7143,10.0378,2331.8296],[-83.7091,10.041,2222.0156],[-83.7068,10.0408,2131.4265],[-83.6897,10.0298,1661.5001],[-83.6801,10.0258,1356.8042],[-83.6689,10.0247,1161.5155],[-83.6644,10.0193,1017.5441],[-83.6591,10.0163,929.3668],[-83.6564,10.018,888.905],[-83.6543,10.0158,855.7557],[-83.6494,10.0148,775.8674],[-83.6452,10.0108,710.7134],[-83.6394,10.0101,678.2791],[-83.6376,10.0084,700.9794],[-83.6373,10.0045,623.3113],[-83.6341,10.0057,607.7054],[-83.6305,9.9993,582.6473],[-83.6295,10.0005,496.1339],[-83.6249,9.9991,471.4297],[-83.6179,9.9879,482.0151]]]]}}