{"type":"Feature","properties":{"GID_3":"CRI.5.3.2_1","GID_0":"CRI","country":"CostaRica","GID_1":"CRI.5_1","province":"Limón","NL_NAME_1":"NA","GID_2":"CRI.5.3_1","county":"Matina","NL_NAME_2":"NA","city":"Carrandi","VARNAME_3":"NA","NL_NAME_3":"NA","TYPE_3":"Distrito","ENGTYPE_3":"District","CC_3":"3","HASC_3":"NA","name":"Carrandi.city"},
"geometry":{"type": "MultiPolygon","coordinates": [[[[-83.1529,10.0664,1.3146],[-83.1898,10.1154,3.6039],[-83.1912,10.1161,0.9534],[-83.1988,10.1109,10.5653],[-83.2006,10.1123,8.4027],[-83.1997,10.1178,13.1596],[-83.2014,10.1205,3.2092],[-83.2048,10.12,5.3902],[-83.206,10.1153,12.952],[-83.208,10.1141,5.8564],[-83.2105,10.1155,9.9959],[-83.2139,10.1217,4.1493],[-83.2178,10.1215,7.1965],[-83.2194,10.12,3.3046],[-83.2192,10.1161,4.1092],[-83.2133,10.1095,8.5033],[-83.2164,10.1064,4.8869],[-83.2222,10.1124,13.5985],[-83.2242,10.1207,11.7985],[-83.23,10.1246,7.1673],[-83.2329,10.1238,4.8815],[-83.2365,10.1173,6.5112],[-83.236,10.1089,10.5321],[-83.2411,10.1116,8.0235],[-83.2431,10.1038,9.1438],[-83.2481,10.105,9.0519],[-83.2506,10.1031,7.6061],[-83.2522,10.0973,7.987],[-83.2469,10.0942,8.333],[-83.2522,10.0891,10.2028],[-83.2553,10.0881,8.9078],[-83.2631,10.0894,8.9653],[-83.2671,10.0852,10.5551],[-83.2723,10.083,12.0387],[-83.2713,10.0783,13.4573],[-83.2732,10.0754,12.3494],[-83.2776,10.0751,11.0051],[-83.2872,10.071,12.0014],[-83.2952,10.073,11.8806],[-83.2975,10.0704,14.399],[-83.2975,10.0681,15.2771],[-83.2936,10.0676,14.5684],[-83.2918,10.0653,11.1651],[-83.2921,10.0615,15.8806],[-83.2959,10.0538,18.1091],[-83.2871,10.0408,15.1748],[-83.2868,10.0373,19.4564],[-83.29,10.0323,20.0683],[-83.2893,10.0275,18.8504],[-83.295,10.022,21.1296],[-83.2986,10.0127,28.7062],[-83.2927,10.004,28.4155],[-83.2961,9.9998,30.985],[-83.2935,9.9949,36.2102],[-83.2978,9.9933,36.3336],[-83.2993,9.9911,36.5786],[-83.2964,9.9862,62.918],[-83.2966,9.9821,41.0861],[-83.2937,9.9812,46.8852],[-83.2924,9.9781,41.1382],[-83.2901,9.9798,38.9101],[-83.2882,9.9793,38.9101],[-83.288,9.9754,44.3478],[-83.2861,9.9734,46.056399999999996],[-83.283,9.9773,43.2067],[-83.2808,9.9745,44.0018],[-83.2712,9.9727,52.9973],[-83.2588,9.9663,68.0676],[-83.2555,9.9663,64.273],[-83.2544,9.9686,75.5579],[-83.2512,9.9684,77.2719],[-83.2496,9.9628,82.1922],[-83.2468,9.9667,94.0977],[-83.2416,9.9674,100.7094],[-83.2403,9.9662,98.3988],[-83.2428,9.9639,98.5569],[-83.2413,9.9614,112.1903],[-83.2435,9.962,105.2055],[-83.2432,9.9587,99.7361],[-83.2447,9.9576,99.7361],[-83.2411,9.9579,109.9452],[-83.2413,9.9556,121.5134],[-83.2367,9.954,127.3949],[-83.2354,9.9501,119.1705],[-83.2372,9.9475,122.0936],[-83.2336,9.9434,124.9639],[-83.2354,9.9384,144.3142],[-83.2317,9.9384,136.4845],[-83.2271,9.934,161.6649],[-83.2252,9.9352,153.7188],[-83.2209,9.9317,168.6924],[-83.2247,9.9283,219.1187],[-83.2234,9.9242,188.8669],[-83.2267,9.9159,222.2413],[-83.2259,9.9124,216.3661],[-83.2237,9.9104,262.564],[-83.218,9.9116,255.1868],[-83.2161,9.9058,315.3184],[-83.2073,9.8984,346.013],[-83.2106,9.8921,386.4129],[-83.2218,9.8904,528.0911],[-83.2278,9.892,657.6569],[-83.2279,9.8894,679.7684],[-83.2265,9.8887,644.7717],[-83.2121,9.8859,521.0506],[-83.2007,9.8947,444.4309],[-83.201,9.9047,463.9691],[-83.2061,9.9082,500.4781],[-83.2086,9.9148,420.93],[-83.2078,9.9169,378.1137],[-83.2049,9.918,371.0587],[-83.2039,9.9211,349.7904],[-83.2006,9.9221,360.3969],[-83.1957,9.9322,387.0579],[-83.2056,9.9433,325.1607],[-83.206,9.9479,288.5883],[-83.2034,9.9515,225.0078],[-83.2041,9.9643,114.512],[-83.2009,9.9708,89.2919],[-83.2017,9.9739,83.1102],[-83.1999,9.9742,83.1102],[-83.1963,9.9785,67.6395],[-83.191,9.9779,54.3617],[-83.1882,9.9814,62.2732],[-83.1903,9.9849,54.1404],[-83.1961,9.9851,72.2273],[-83.1968,9.9894,48.3234],[-83.2014,9.991,26.4817],[-83.2072,10.0009,20.5237],[-83.2093,10.0024,29.0143],[-83.2103,10.0012,26.0683],[-83.2115,10.0092,19.7882],[-83.2098,10.0147,16.4027],[-83.2112,10.0157,13.9611],[-83.2081,10.0194,22.6745],[-83.2039,10.0188,12.8457],[-83.1996,10.0212,16.9711],[-83.197,10.0193,13.2297],[-83.1952,10.0201,14.4262],[-83.1941,10.0174,12.096],[-83.1918,10.0217,20.1974],[-83.1858,10.0258,11.3111],[-83.1802,10.0258,8.293],[-83.1739,10.0299,6.0578],[-83.1724,10.0332,3.7691],[-83.1679,10.0356,3.7882],[-83.1645,10.0354,10.8423],[-83.1633,10.0387,10.2755],[-83.1511,10.0412,3.33],[-83.1515,10.0482,10.2377],[-83.1599,10.0623,4.6024],[-83.1529,10.0664,1.3146]]]]}}