{"type":"Feature","properties":{"GID_3":"CRI.7.13.3_1","GID_0":"CRI","country":"CostaRica","GID_1":"CRI.7_1","province":"SanJosé","NL_NAME_1":"NA","GID_2":"CRI.7.13_1","county":"PérezZeledón","NL_NAME_2":"NA","city":"DanielFlores","VARNAME_3":"NA","NL_NAME_3":"NA","TYPE_3":"Distrito","ENGTYPE_3":"District","CC_3":"3","HASC_3":"NA","name":"Daniel_Flores.city"},
"geometry":{"type": "MultiPolygon","coordinates": [[[[-83.6316,9.2704,524.3487],[-83.6425,9.2829,541.7604],[-83.639,9.2969,555.4663],[-83.6402,9.3068,567.5521],[-83.6469,9.3153,585.5078],[-83.6492,9.3221,599.541],[-83.6554,9.3316,618.2141],[-83.6554,9.3379,626.8268],[-83.6578,9.3422,636.2762],[-83.6572,9.3465,643.9931],[-83.6627,9.3561,667.1238],[-83.6616,9.3602,675.8997],[-83.671,9.371,704.9679],[-83.6725,9.3746,710.749],[-83.6733,9.3821,781.2407],[-83.6705,9.3884,748.3559],[-83.6799,9.3961,817.1235],[-83.6818,9.3912,793.249],[-83.6874,9.3861,772.2476],[-83.6898,9.3706,709.0823],[-83.6937,9.3653,697.3679],[-83.693,9.3327,675.3615],[-83.6898,9.323,684.823],[-83.6837,9.3214,677.3547],[-83.6831,9.3092,653.3152],[-83.6763,9.305,647.2551],[-83.6758,9.3005,643.4158],[-83.6728,9.298,646.7164],[-83.6729,9.2949,625.0179],[-83.6711,9.296,626.2244],[-83.6678,9.2919,625.5978],[-83.6655,9.2929,613.5989],[-83.6636,9.2918,623.5928],[-83.6654,9.2904,619.4463],[-83.6633,9.2885,611.4097],[-83.6649,9.2872,634.2154],[-83.6599,9.2871,608.5859],[-83.6608,9.2811,613.8292],[-83.6579,9.2812,578.6964],[-83.6568,9.2751,544.2113],[-83.6625,9.2633,588.8149],[-83.6665,9.2628,555.7167],[-83.6712,9.2699,564.5217],[-83.6723,9.2661,612.9741],[-83.6778,9.2616,732.616],[-83.6759,9.2585,618.8349],[-83.6713,9.258,578.9821],[-83.6702,9.2558,632.8976],[-83.6723,9.2517,690.6118],[-83.6705,9.2477,777.4067],[-83.6868,9.2385,887.1841],[-83.688,9.2289,1003.7446],[-83.69,9.2257,1089.8999],[-83.6862,9.2224,1089.511],[-83.6791,9.2211,1018.3779],[-83.67,9.227,1003.5554],[-83.6702,9.2339,918.6996],[-83.6607,9.2384,800.0677],[-83.6576,9.2376,862.0214],[-83.6606,9.231,912.7141],[-83.6602,9.2277,892.1845],[-83.6577,9.2258,885.3616],[-83.6572,9.2191,963.1128],[-83.655,9.2209,924.2491],[-83.6511,9.2295,781.9684],[-83.6408,9.2354,694.0324],[-83.6424,9.2402,666.5195],[-83.6395,9.2451,630.4867],[-83.6351,9.247,594.0621],[-83.6333,9.246,592.0844],[-83.6313,9.2477,560.0181],[-83.6293,9.2471,543.3374],[-83.6259,9.2501,536.0631],[-83.6246,9.2543,500.8528],[-83.6285,9.2551,502.7202],[-83.6319,9.262,520.4836],[-83.6316,9.2704,524.3487]]]]}}