{"type": "Feature","bbox": [-84.1614,10.0574,-83.9136,10.2984],"geometry": {"type": "MultiPolygon","coordinates": [[[[-84.1614,10.1582,1912.1881],[-84.1577,10.1561,1944.281],[-84.1565,10.1536,1979.2742],[-84.141,10.1496,2187.084],[-84.1273,10.1339,2635.1733],[-84.1196,10.1358,2688.3354],[-84.1142,10.1342,2731.3723],[-84.1104,10.1356,2795.4429],[-84.1061,10.1324,2842.1194],[-84.1061,10.1302,2841.6711],[-84.1033,10.1317,2854.4014],[-84.0979,10.129,2784.5747],[-84.0955,10.1243,2729.6885],[-84.0868,10.1201,2536.0767],[-84.0831,10.1208,2468.5645],[-84.0796,10.1187,2401.5366],[-84.0763,10.1055,2233.6729],[-84.0785,10.0973,2152.5415],[-84.0782,10.0872,2078.5994],[-84.0608,10.0795,2242.2346],[-84.0534,10.0741,2162.5464],[-84.0506,10.0676,2088.4187],[-84.0462,10.067,1976.9673],[-84.0445,10.0631,2114.312],[-84.0397,10.0606,2053.856],[-84.0365,10.0615,1965.9409],[-84.0315,10.0574,1985.0303],[-84.0283,10.0601,2067.9856],[-84.0283,10.0829,1289.5195],[-84.0217,10.0822,1279.115],[-84.0156,10.0795,1169.0216],[-84.0057,10.0862,1113.7568],[-84.0018,10.0921,1060.5121],[-83.9942,10.0954,988.2943],[-83.9892,10.0942,943.5798],[-83.985,10.0977,909.1794],[-83.9844,10.1011,896.8868],[-83.9801,10.1025,877.0974],[-83.9788,10.1148,833.724],[-83.9805,10.1164,792.7803],[-83.9805,10.1238,778.9161],[-83.9772,10.1326,736.5411],[-83.9794,10.1496,656.5607],[-83.9764,10.1548,595.8252],[-83.9727,10.1686,510.324],[-83.9612,10.1725,466.344],[-83.9527,10.1796,405.8527],[-83.9295,10.19,338.0164],[-83.9187,10.1968,288.3794],[-83.9136,10.2028,266.3319],[-83.9203,10.1984,292.7639],[-83.925,10.1977,306.3093],[-83.9328,10.1992,334.2945],[-83.9393,10.198,393.0757],[-83.9427,10.2004,381.0235],[-83.946,10.1991,398.706],[-83.9511,10.1999,415.96],[-83.9552,10.1955,446.8852],[-83.9708,10.1873,523.0788],[-83.9822,10.1863,634.864],[-84.0025,10.1902,798.7792],[-84.0226,10.1849,1184.0804],[-84.0303,10.1856,1420.7892],[-84.0349,10.1823,1516.4258],[-84.0378,10.1839,1623.1423],[-84.0445,10.1971,1589.312],[-84.0526,10.1998,1314.7726],[-84.0577,10.2039,1219.8373],[-84.0583,10.2081,1142.2689],[-84.0606,10.206,1175.511],[-84.0667,10.2047,1221.5813],[-84.0678,10.2066,1245.3219],[-84.0733,10.2056,1367.5793],[-84.075,10.2023,1327.047],[-84.0801,10.201599999999999,1363.1962],[-84.0809,10.1984,1441.9187],[-84.0832,10.1984,1436.9951],[-84.0871,10.1929,1519.0378],[-84.0916,10.1913,1536.5988],[-84.0963,10.1918,1639.0125],[-84.1011,10.1993,1874.6602],[-84.1045,10.1999,1848.8607],[-84.1043,10.2186,1674.4304],[-84.1029,10.2199,1630.8284],[-84.1028,10.2246,1610.3817],[-84.1051,10.2265,1585.3513],[-84.105,10.2337,1511.0005],[-84.11,10.241,1397.5959],[-84.1079,10.2489,1292.7275],[-84.1124,10.2525,1240.5165],[-84.1129,10.2597,1220.9677],[-84.1146,10.2615,1199.5164],[-84.1188,10.2617,1196.0778],[-84.1229,10.2663,1114.3813],[-84.1253,10.2655,1096.8308],[-84.1306,10.2695,1030.1309],[-84.1417,10.2793,893.4819],[-84.1475,10.2888,823.8964],[-84.1494,10.2877,731.6326],[-84.1514,10.29,703.8435],[-84.1563,10.29,746.6665],[-84.1566,10.2932,757.5552],[-84.1588,10.2964,606.683],[-84.1606,10.2957,606.683],[-84.1613,10.2984,562.991],[-84.1614,10.1582,1912.1881]]]]}
,"properties": {"GID_3": "CRI.4.4.5_1","GID_0": "CRI","country": "CostaRica","GID_1": "CRI.4_1","province": "Heredia","NL_NAME_1": "NA","GID_2": "CRI.4.4_1","county": "Heredia","NL_NAME_2": "NA","city": "Varablanca","VARNAME_3": "NA","NL_NAME_3": "NA","TYPE_3": "Distrito","ENGTYPE_3": "District","CC_3": "5","HASC_3": "NA","name": "Varablanca.city","area_km2": 257.5283,"hist_schema_id": "Elevation0-9000","hist_area_km2": {"275": 0.1252,"300": 0.3965,"325": 0.2921,"350": 0.3548,"375": 0.3756,"400": 0.4174,"425": 0.5426,"450": 0.5843,"475": 0.793,"500": 1.8572,"525": 1.0434,"550": 0.8139,"575": 1.0434,"600": 0.7721,"625": 0.9808,"650": 1.0852,"675": 1.1269,"700": 1.106,"725": 1.4399,"750": 1.5443,"775": 1.2939,"800": 1.3565,"825": 1.5443,"850": 1.8156,"875": 1.6487,"900": 2.0034,"925": 1.7321,"950": 3.1925,"975": 2.6919,"1000": 2.2745,"1025": 3.0259,"1050": 2.8171,"1075": 2.9215,"1100": 2.8171,"1125": 2.8172,"1150": 3.2137,"1175": 3.3806,"1200": 3.1302,"1225": 3.4432,"1250": 3.6519,"1275": 3.7354,"1300": 3.7772,"1325": 3.8397,"1350": 4.3198,"1375": 4.0276,"1400": 4.1946,"1425": 4.2573,"1450": 4.5911,"1475": 4.4868,"1500": 5.3216,"1525": 5.6973,"1550": 6.0729,"1575": 6.0102,"1600": 5.4676,"1625": 6.1146,"1650": 5.8225,"1675": 5.3217,"1700": 5.0087,"1725": 5.9269,"1750": 5.927,"1775": 5.8018,"1800": 5.1967,"1825": 4.487,"1850": 4.7792,"1875": 4.3201,"1900": 4.1323,"1925": 3.7984,"1950": 3.5063,"1975": 3.235,"2000": 2.922,"2025": 2.8176,"2050": 2.5463,"2075": 2.5672,"2100": 2.7342,"2125": 2.3168,"2150": 2.442,"2175": 2.2333,"2200": 2.1289,"2225": 2.5046,"2250": 2.2333,"2275": 2.0872,"2300": 2.1497,"2325": 1.461,"2350": 1.7322,"2375": 1.294,"2400": 1.3566,"2425": 1.1688,"2450": 1.1479,"2475": 0.8974,"2500": 1.1479,"2525": 1.0435,"2550": 0.8975,"2575": 0.7722,"2600": 0.8975,"2625": 1.0227,"2650": 1.0644,"2675": 0.8348,"2700": 0.647,"2725": 0.4383,"2750": 0.2922,"2775": 0.3548,"2800": 0.2922,"2825": 0.2296,"2850": 0.1252,"2875": 0.0835}}}