{"type":"Feature","properties":{"GID_3":"CRI.6.11.16_1","GID_0":"CRI","country":"CostaRica","GID_1":"CRI.6_1","province":"Puntarenas","NL_NAME_1":"NA","GID_2":"CRI.6.11_1","county":"Puntarenas","NL_NAME_2":"NA","city":"Puntarenas","VARNAME_3":"NA","NL_NAME_3":"NA","TYPE_3":"Distrito","ENGTYPE_3":"District","CC_3":"1","HASC_3":"NA","name":"Puntarenas.city"},
"geometry":{"type": "MultiPolygon","coordinates": [[[[-84.8957,9.9518,29.2064],[-84.902,9.9543,0.0],[-84.9098,9.9526,0.0],[-84.9109,9.9511,0.0],[-84.9076,9.9501,0.0],[-84.9028,9.9522,17.2404],[-84.9023,9.9488,0.0],[-84.9058,9.944,4.0347],[-84.9085,9.9447,10.487],[-84.9122,9.9431,20.1813],[-84.9169,9.9456,0.0],[-84.9202,9.9451,0.0],[-84.9211,9.9435,0.0],[-84.9185,9.9414,0.0],[-84.9183,9.9351,0.0],[-84.9062,9.9307,9.8388],[-84.8959,9.9321,13.1434],[-84.8934,9.9337,0.0],[-84.8909,9.9372,0.0],[-84.8979,9.944,3.9514],[-84.8962,9.95,4.3105],[-84.8933,9.9508,5.9629],[-84.8957,9.9518,29.2064]]],
[[[-85.0032,9.9951,15.9235],[-85.0101,9.9964,7.0027],[-85.0134,9.9932,4.3988],[-85.0024,9.9926,17.4571],[-84.9957,9.9872,22.2369],[-84.9786,9.981,1.7893],[-84.9672,9.9811,40.7015],[-84.9643,9.9795,0.0],[-84.9615,9.9811,60.8832],[-84.9591,9.9806,8.4592],[-84.9601,9.9863,0.0],[-84.9669,9.9846,33.8082],[-84.9693,9.9854,18.9511],[-84.9704,9.9886,5.2759],[-84.9734,9.9874,0.0],[-84.9767,9.9895,6.0843],[-84.9882,9.9907,9.9374],[-84.9896,9.9926,5.7971],[-84.9888,9.9952,19.0762],[-84.9962,9.9935,23.4457],[-85.0032,9.9951,15.9235]]],
[[[-85.0483,10.006,0.0],[-85.0506,10.006,0.0],[-85.0488,10.0038,24.0566],[-85.0377,9.999,21.3037],[-85.0218,9.9957,10.7815],[-85.0184,9.9981,0.0],[-85.0208,10.0005,0.0],[-85.0483,10.006,0.0]]],
[[[-84.7874,9.9807,0.0],[-84.8146,9.9829,1.4693],[-84.8247,9.9789,0.3825],[-84.8354,9.98,2.6958],[-84.8418,9.9771,1.2213],[-84.8463,9.9779,1.997],[-84.8522,9.9765,0.0],[-84.8464,9.9738,2.609],[-84.8325,9.9743,2.2672],[-84.8119,9.9798,0.0],[-84.7874,9.9807,0.0]]],
[[[-84.7827,10.0475,13.7592],[-84.7841,10.0465,11.8866],[-84.7828,10.0424,12.9337],[-84.7836,10.0382,11.3052],[-84.7867,10.0378,7.7324],[-84.7888,10.0263,14.4419],[-84.7923,10.0225,11.5942],[-84.786,10.0135,4.1496],[-84.7857,10.0099,4.1739],[-84.7885,10.0023,6.0913],[-84.7877,9.9996,10.3856],[-84.7909,9.9994,16.6776],[-84.7935,9.9969,17.2015],[-84.797,9.9898,13.7382],[-84.7998,9.9908,10.913],[-84.8015,9.9855,6.0749],[-84.7949,9.9823,0.0],[-84.785,9.9824,6.8574],[-84.783,9.9866,6.352],[-84.7826,9.993,6.6551],[-84.7798,9.9955,9.6867],[-84.7689,9.9946,9.6093],[-84.7672,9.9935,8.9935],[-84.7683,9.993,9.0894],[-84.7673,9.9911,12.846],[-84.7619,9.9925,3.4572],[-84.7623,9.9951,7.8176],[-84.7596,9.9948,5.2024],[-84.7578,10.0033,7.8604],[-84.7538,10.0079,9.4901],[-84.7439,10.0061,11.5415],[-84.7373,10.0088,11.9531],[-84.7377,10.0154,14.2156],[-84.7397,10.0177,13.5812],[-84.7456,10.0177,6.8838],[-84.7445,10.0201,10.7733],[-84.7455,10.0232,38.0271],[-84.7622,10.0269,10.5245],[-84.7698,10.0418,16.4207],[-84.7827,10.0475,13.7592]]]]}}