{"type": "Feature","bbox": [-84.108,10.0193,-84.0693,10.1208],"geometry": {"type": "MultiPolygon","coordinates": [[[[-84.0883,10.0825,1936.1548],[-84.0912,10.0753,1847.23],[-84.0924,10.0654,1752.7567],[-84.0986,10.0548,1611.8013],[-84.1045,10.0483,1502.9668],[-84.1078,10.0388,1396.0034],[-84.108,10.0258,1293.4062],[-84.1049,10.0198,1265.6033],[-84.101,10.0193,1287.4266],[-84.0998,10.0223,1327.8109],[-84.0943,10.0215,1316.7201],[-84.0863,10.0304,1443.7668],[-84.0802,10.032,1493.1085],[-84.0772,10.0421,1582.965],[-84.0693,10.0545,1700.553],[-84.0715,10.0569,1721.4994],[-84.0714,10.0602,1754.7723],[-84.076,10.0697,1869.5269],[-84.0741,10.0804,2016.6517],[-84.0695,10.0832,2245.0645],[-84.075,10.0848,2164.9514],[-84.0785,10.0879,2084.0796],[-84.0785,10.0973,2152.5415],[-84.0763,10.1055,2233.6729],[-84.0796,10.1187,2401.5366],[-84.0831,10.1208,2468.5645],[-84.0872,10.1204,2536.0767],[-84.0872,10.098,2177.5469],[-84.0853,10.0904,2066.9944],[-84.0883,10.0825,1936.1548]]]]}
,"properties": {"GID_3": "CRI.4.7.1_1","GID_0": "CRI","country": "CostaRica","GID_1": "CRI.4_1","province": "Heredia","NL_NAME_1": "NA","GID_2": "CRI.4.7_1","county": "SanRafael","NL_NAME_2": "NA","city": "Ángeles","VARNAME_3": "NA","NL_NAME_3": "NA","TYPE_3": "Distrito","ENGTYPE_3": "District","CC_3": "4","HASC_3": "NA","name": "Ángeles.city","area_km2": 21.06411,"hist_schema_id": "Elevation0-9000","hist_area_km2": {"1275": 0.12527,"1300": 0.27142,"1325": 0.43845,"1350": 0.4802,"1375": 0.56371,"1400": 0.54283,"1425": 0.70985,"1450": 0.64721,"1475": 0.77247,"1500": 0.91861,"1525": 0.91861,"1550": 0.81421,"1575": 0.83508,"1600": 0.89771,"1625": 0.68893,"1650": 0.75156,"1675": 0.77243,"1700": 0.56366,"1725": 0.62629,"1750": 0.60541,"1775": 0.45927,"1800": 0.41752,"1825": 0.43839,"1850": 0.56364,"1875": 0.98114,"1900": 0.35488,"1925": 0.31312,"1950": 0.29225,"1975": 0.27137,"2000": 0.12525,"2025": 0.18787,"2050": 0.14612,"2075": 0.167,"2100": 0.27137,"2125": 0.43836,"2150": 0.33398,"2175": 0.20874,"2200": 0.3131,"2225": 0.25048,"2250": 0.16699,"2275": 0.20873,"2300": 0.20873,"2325": 0.25048,"2350": 0.16698,"2375": 0.18785,"2400": 0.12524,"2425": 0.12524,"2450": 0.02087,"2475": 0.06262,"2500": 0.04174,"2525": 0.02087}}}