{"type": "Feature","bbox": [-85.4336,10.2527,-85.0613,10.7759],"geometry": {"type": "MultiPolygon","coordinates": [[[[-85.2488,10.2527,7.0709],[-85.2396,10.2532,1.7673],[-85.232,10.2636,19.0218],[-85.219,10.2721,18.585],[-85.217,10.2771,9.7051],[-85.2171,10.2821,1.7332],[-85.2154,10.284,3.8598],[-85.2059,10.2823,7.6734],[-85.2037,10.2836,2.1875],[-85.2044,10.2861,2.1884],[-85.2084,10.2876,6.3377],[-85.2111,10.2911,2.8551],[-85.2145,10.3059,2.6781],[-85.2131,10.3144,3.5515],[-85.2094,10.3162,3.2061],[-85.2045,10.3248,3.3999],[-85.2072,10.3308,3.324],[-85.2113,10.3351,8.6795],[-85.2099,10.3362,5.2558],[-85.2075,10.3346,4.3849],[-85.2065,10.3373,5.6691],[-85.2028,10.3354,7.5418],[-85.2034,10.341,7.4223],[-85.1987,10.345,13.5693],[-85.1998,10.3505,5.6652],[-85.2042,10.3518,4.9333],[-85.2017,10.357,7.3789],[-85.1955,10.3608,5.727],[-85.1974,10.3701,9.7399],[-85.1932,10.371,16.4987],[-85.1908,10.3685,9.2755],[-85.1874,10.3758,11.4097],[-85.1802,10.38,12.9548],[-85.1834,10.3831,16.2731],[-85.1784,10.3845,13.0953],[-85.179,10.3877,11.7983],[-85.1841,10.3879,12.7761],[-85.1858,10.3897,14.3947],[-85.1853,10.3943,17.2342],[-85.184,10.3938,17.2342],[-85.1848,10.3911,13.9834],[-85.1807,10.3922,12.1511],[-85.181,10.3963,13.524],[-85.1843,10.3976,11.0414],[-85.1817,10.3994,18.2945],[-85.1782,10.3976,14.3054],[-85.1735,10.4,20.935],[-85.1764,10.4043,15.7005],[-85.1749,10.4073,20.7378],[-85.1714,10.4062,15.3374],[-85.1695,10.4108,23.5838],[-85.1639,10.4117,20.4794],[-85.1599,10.4189,18.5045],[-85.1588,10.4294,27.0656],[-85.157,10.4321,27.9563],[-85.1584,10.437,28.2781],[-85.1572,10.4434,30.7061],[-85.1635,10.4548,34.3338],[-85.1638,10.4642,33.9343],[-85.1623,10.4677,38.7711],[-85.1638,10.4778,42.2956],[-85.1668,10.4803,43.0826],[-85.1659,10.4892,45.9167],[-85.1637,10.4935,47.2529],[-85.1649,10.4968,57.8329],[-85.1606,10.5011,57.8329],[-85.1631,10.508,58.8895],[-85.1603,10.5157,63.9168],[-85.1626,10.5205,64.7616],[-85.1605,10.5262,66.3312],[-85.1493,10.5345,78.2255],[-85.15,10.5366,79.5374],[-85.1463,10.538,105.7775],[-85.1452,10.5416,92.4277],[-85.1412,10.5426,92.8515],[-85.1397,10.5478,108.2245],[-85.1409,10.5497,112.2155],[-85.1364,10.5539,106.8308],[-85.1377,10.5576,107.8104],[-85.136,10.5582,139.0873],[-85.1347,10.5698,131.0014],[-85.1325,10.5707,138.2029],[-85.1332,10.5743,166.584],[-85.1357,10.5753,154.0216],[-85.1349,10.577,157.3226],[-85.137,10.5777,152.2101],[-85.135,10.5789,169.3973],[-85.1337,10.5923,179.2659],[-85.1314,10.5954,191.0221],[-85.1349,10.596,187.42],[-85.1328,10.5983,192.5289],[-85.1337,10.5999,202.9999],[-85.1316,10.6043,217.8274],[-85.1329,10.6095,216.5919],[-85.1305,10.6122,235.7775],[-85.1282,10.6212,259.7351],[-85.1189,10.6269,334.1274],[-85.1143,10.6363,326.9521],[-85.1013,10.6487,355.7622],[-85.1,10.6535,365.4861],[-85.0944,10.6553,405.3301],[-85.0867,10.6636,419.9069],[-85.0822,10.6749,456.4171],[-85.0817,10.68,466.783],[-85.0726,10.6955,487.5687],[-85.0613,10.709,566.4731],[-85.0671,10.708,543.8833],[-85.0716,10.7129,511.0756],[-85.0868,10.7128,859.4209],[-85.0963,10.7177,1131.413],[-85.1019,10.7137,1272.3352],[-85.1238,10.7103,1457.2451],[-85.1244,10.7146,1469.1948],[-85.1294,10.719,1486.7452],[-85.1283,10.7256,1528.1484],[-85.1295,10.733,1492.1792],[-85.1376,10.7397,1581.001],[-85.1397,10.7451,1758.3635],[-85.1419,10.7451,1749.9263],[-85.1446,10.7478,1818.5824],[-85.1554,10.7468,1834.9299],[-85.1696,10.7479,1206.4172],[-85.1818,10.7459,803.5309],[-85.1863,10.748,746.3569],[-85.1897,10.7476,661.7786],[-85.2043,10.7552,568.406],[-85.2347,10.7665,772.6055],[-85.2433,10.7637,694.0439],[-85.2481,10.7639,706.8821],[-85.253,10.7589,700.7479],[-85.2615,10.7546,751.426],[-85.269,10.7557,790.7904],[-85.2713,10.7516,791.7227],[-85.2735,10.7528,799.8024],[-85.2773,10.7509,808.6677],[-85.2806,10.7603,827.0056],[-85.2851,10.7609,816.026],[-85.2866,10.7673,894.6704],[-85.2909,10.7721,995.9601],[-85.2907,10.7748,1018.9998],[-85.2937,10.7759,1056.7083],[-85.2921,10.7713,959.689],[-85.2947,10.7643,846.544],[-85.2923,10.7602,807.4484],[-85.3028,10.7536,767.6639],[-85.3085,10.7521,755.2107],[-85.3113,10.7396,621.5178],[-85.3101,10.7346,595.9804],[-85.3132,10.732,634.2563],[-85.3131,10.7298,591.4299],[-85.3218,10.7177,511.7465],[-85.3321,10.7101,472.2391],[-85.3341,10.7041,447.5009],[-85.3326,10.7022,434.2072],[-85.3339,10.6982,417.0309],[-85.3404,10.6942,423.5127],[-85.3414,10.6912,395.0135],[-85.3446,10.6891,378.6531],[-85.3444,10.6857,379.5245],[-85.3509,10.6727,323.6955],[-85.3485,10.6612,312.9266],[-85.3449,10.6551,272.3166],[-85.3438,10.6412,236.5554],[-85.3423,10.6393,225.0622],[-85.3449,10.6317,227.1165],[-85.3479,10.6293,233.1233],[-85.3481,10.6247,222.1159],[-85.3462,10.6234,178.701],[-85.3532,10.6122,153.4653],[-85.3589,10.6067,155.5492],[-85.362799999999993,10.607,144.4145],[-85.3653,10.5993,138.1658],[-85.369,10.5982,128.4284],[-85.3797,10.5903,121.8266],[-85.3808,10.5862,127.0011],[-85.379,10.584,119.9035],[-85.3798,10.5815,121.1137],[-85.3813,10.5814,116.3988],[-85.3816,10.5764,116.369],[-85.3886,10.5702,109.7891],[-85.3876,10.5664,109.1026],[-85.3894,10.5637,113.2986],[-85.393,10.5631,108.3157],[-85.3961,10.5599,105.7194],[-85.3944,10.5548,101.2344],[-85.4003,10.5434,101.0973],[-85.3985,10.5416,98.3218],[-85.3999,10.5374,114.0625],[-85.3987,10.5324,81.7332],[-85.4035,10.5243,60.4691],[-85.4057,10.5254,52.8721],[-85.4068,10.524,52.8721],[-85.4101,10.5157,65.6949],[-85.4039,10.5076,41.4378],[-85.408,10.5011,36.5107],[-85.4078,10.492,30.8651],[-85.4096,10.4902,34.9189],[-85.4101,10.4845,22.2699],[-85.4176,10.4765,18.2508],[-85.4231,10.4761,22.8654],[-85.4182,10.4602,13.2125],[-85.4324,10.4489,8.0518],[-85.4336,10.4447,7.0177],[-85.4319,10.4428,7.0705],[-85.4335,10.4402,7.3651],[-85.4267,10.4332,7.5207],[-85.4174,10.4317,7.1044],[-85.4133,10.4291,6.6846],[-85.4065,10.4298,9.6265],[-85.4036,10.4273,7.362],[-85.401,10.4214,8.2364],[-85.3926,10.4216,7.0098],[-85.3888,10.4246,17.0096],[-85.386,10.4221,16.7651],[-85.3819,10.424,16.3106],[-85.3788,10.4233,16.1779],[-85.3772,10.4184,15.6797],[-85.3732,10.4172,17.0714],[-85.3776,10.4132,16.245],[-85.3778,10.4114,15.9756],[-85.3713,10.4098,16.9823],[-85.3703,10.412,12.0883],[-85.3691,10.4102,15.2383],[-85.37,10.4078,12.7324],[-85.3734,10.4066,13.9019],[-85.3734,10.4028,7.1458],[-85.3768,10.4043,6.9357],[-85.3751,10.3996,10.2341],[-85.3777,10.3967,7.4348],[-85.3795,10.3972,7.7009],[-85.3786,10.3955,7.4348],[-85.3814,10.3932,11.3582],[-85.3843,10.3927,10.5758],[-85.3822,10.3913,7.8868],[-85.387,10.3934,10.3579],[-85.3903,10.392,8.8801],[-85.3918,10.3936,10.1584],[-85.3904,10.3954,11.0208],[-85.3915,10.3968,4.5715],[-85.3929,10.3938,9.0175],[-85.392,10.391,6.7696],[-85.3946,10.3946,5.5436],[-85.3959,10.3931,5.6981],[-85.3936,10.3876,8.992],[-85.3968,10.3871,8.7437],[-85.4001,10.3887,12.2439],[-85.3982,10.3862,7.9728],[-85.4026,10.3803,9.9313],[-85.3987,10.3809,7.716],[-85.398,10.3791,10.1001],[-85.404,10.3775,7.433],[-85.4031,10.3745,5.3644],[-85.406,10.3731,4.5516],[-85.4053,10.3705,7.2892],[-85.4092,10.3692,8.5467],[-85.4109,10.363,5.6852],[-85.4062,10.3587,6.1412],[-85.4079,10.3465,3.4917],[-85.4027,10.3398,5.337],[-85.3982,10.3376,9.8172],[-85.3866,10.3374,9.6044],[-85.3744,10.3443,5.2113],[-85.3676,10.3432,4.1797],[-85.3667,10.3405,10.7386],[-85.3712,10.3365,5.3344],[-85.3687,10.3276,6.6112],[-85.372,10.3265,4.4921],[-85.3771,10.3318,6.0862],[-85.379,10.3302,2.1795],[-85.3716,10.3253,2.5484],[-85.3584,10.3249,3.687],[-85.3568,10.3224,1.5],[-85.3569,10.3163,1.5],[-85.3462,10.3237,1.5],[-85.3399,10.3254,1.5],[-85.3164,10.3246,2.463],[-85.3103,10.3224,5.6387],[-85.3064,10.3186,2.389],[-85.3037,10.3071,5.3523],[-85.2925,10.3029,2.0942],[-85.2845,10.2978,1.3119],[-85.2803,10.2931,0.5],[-85.2787,10.2824,1.6937],[-85.2847,10.2731,1.5139],[-85.2844,10.2696,0.5],[-85.2678,10.2652,0.375],[-85.2488,10.2527,7.0709]]]]}
,"properties": {"GID_2": "CRI.3.2_1","GID_0": "CRI","country": "CostaRica","GID_1": "CRI.3_1","province": "Guanacaste","NL_NAME_1": "NA","county": "Bagaces","VARNAME_2": "NA","NL_NAME_2": "NA","TYPE_2": "Cantón","ENGTYPE_2": "Canton","CC_2": "4","HASC_2": "CR.GU.BA","name": "Bagaces.county","area_km2": 1277.8431,"hist_schema_id": "Elevation0-9000","hist_area_km2": {"0": 204.9757,"25": 162.5089,"50": 87.8832,"75": 80.4104,"100": 100.3523,"125": 95.4503,"150": 59.2812,"175": 37.9953,"200": 31.8031,"225": 28.8637,"250": 24.0904,"275": 16.8583,"300": 17.0871,"325": 17.8578,"350": 18.4616,"375": 17.3152,"400": 16.9397,"425": 21.5649,"450": 20.7312,"475": 17.4181,"500": 15.0217,"525": 13.6672,"550": 27.0206,"575": 32.6644,"600": 13.0622,"625": 8.5415,"650": 9.0621,"675": 8.3955,"700": 7.7496,"725": 6.1872,"750": 5.4581,"775": 4.9998,"800": 3.7081,"825": 4.0831,"850": 2.7291,"875": 2.6875,"900": 2.1875,"925": 2.25,"950": 1.8958,"975": 1.4167,"1000": 1.6042,"1025": 1.4791,"1050": 1.7916,"1075": 1.5208,"1100": 1.5,"1125": 1.4791,"1150": 1.5416,"1175": 1.1666,"1200": 1.5,"1225": 1.1041,"1250": 1.0833,"1275": 0.9791,"1300": 0.9791,"1325": 0.75,"1350": 0.5,"1375": 0.5833,"1400": 0.4791,"1425": 0.6041,"1450": 0.6041,"1475": 1.0416,"1500": 0.8124,"1525": 0.6666,"1550": 0.4166,"1575": 0.2708,"1600": 0.3541,"1625": 0.25,"1650": 0.25,"1675": 0.2291,"1700": 0.2916,"1725": 0.1458,"1750": 0.1875,"1775": 0.2083,"1800": 0.2291,"1825": 0.1666,"1850": 0.0833,"1875": 0.1458,"1900": 0.0417,"1925": 0.1042,"1950": 0.0417,"1975": 0.0208}}}