{"type": "Feature","bbox": [-84.0721,9.6566,-84.0176,9.7101],"geometry": {"type": "MultiPolygon","coordinates": [[[[-84.072,9.6964,2196.6714],[-84.0659,9.6915,1989.4346],[-84.066,9.6872,1955.5154],[-84.0634,9.6829,1972.8784],[-84.0658,9.6763,1706.8535],[-84.0721,9.6712,1517.8923],[-84.0648,9.6672,1454.5737],[-84.0637,9.6643,1454.059],[-84.0651,9.6596,1392.6603],[-84.0638,9.6581,1346.8071],[-84.0612,9.6569,1319.8029],[-84.0584,9.6595,1337.627],[-84.0544,9.6593,1333.2615],[-84.0497,9.6566,1388.0405],[-84.0377,9.6642,1504.088],[-84.0345,9.6745,1574.3763],[-84.0295,9.6781,1633.5132],[-84.0292,9.6822,1718.1959],[-84.0315,9.6853,1735.3379],[-84.0284,9.6853,1772.7371],[-84.0262,9.6891,1871.7614],[-84.0202,9.6884,2025.9102],[-84.0183,9.6897,2036.0157],[-84.0217,9.6961,2054.7192],[-84.0204,9.7022,2135.5073],[-84.0176,9.7028,2102.7144],[-84.0189,9.7049,2231.897],[-84.0345,9.7059,2080.6492],[-84.0372,9.7097,2098.6829],[-84.0398,9.7101,2097.1799],[-84.0417,9.7077,2068.4617],[-84.0435,9.7092,1961.5668],[-84.0465,9.7045,2017.2509],[-84.0497,9.7036,1921.9962],[-84.0513,9.7048,1939.3317],[-84.072,9.6964,2196.6714]]]]}
,"properties": {"GID_3": "CRI.7.9.5_1","GID_0": "CRI","country": "CostaRica","GID_1": "CRI.7_1","province": "SanJosé","NL_NAME_1": "NA","GID_2": "CRI.7.9_1","county": "LeónCortésCastro","NL_NAME_2": "NA","city": "SanPablo","VARNAME_3": "NA","NL_NAME_3": "NA","TYPE_3": "Distrito","ENGTYPE_3": "District","CC_3": "1","HASC_3": "NA","name": "San_Pablo.city","area_km2": 21.15084,"hist_schema_id": "Elevation0-9000","hist_area_km2": {"1300": 0.0418,"1325": 0.12541,"1350": 0.12541,"1375": 0.25082,"1400": 0.18811,"1425": 0.56433,"1450": 0.64794,"1475": 0.75244,"1500": 0.83603,"1525": 0.98234,"1550": 1.10773,"1575": 1.23313,"1600": 0.89872,"1625": 1.17041,"1650": 1.00321,"1675": 0.8569,"1700": 0.77329,"1725": 0.94049,"1750": 0.68969,"1775": 0.71059,"1800": 0.71058,"1825": 0.83598,"1850": 0.73148,"1875": 0.60608,"1900": 0.77328,"1925": 0.50158,"1950": 0.48068,"1975": 0.62698,"2000": 0.35529,"2025": 0.37618,"2050": 0.35528,"2075": 0.25079,"2100": 0.12539,"2125": 0.14629,"2150": 0.12539,"2175": 0.1045,"2200": 0.10449,"2225": 0.0418}}}