{"type": "Feature","bbox": [-83.7047,9.1267,-83.5918,9.2559],"geometry": {"type": "MultiPolygon","coordinates": [[[[-83.6263,9.1267,1115.0391],[-83.6199,9.1318,1083.7373],[-83.6233,9.1399,947.9192],[-83.6235,9.1448,845.2866],[-83.6181,9.1514,736.3728],[-83.618,9.1542,622.6792],[-83.623,9.1561,689.5262],[-83.6285,9.1556,749.7485],[-83.6359,9.1521,759.0853],[-83.6416,9.1525,822.1082],[-83.6376,9.1549,904.8163],[-83.6334,9.1607,1051.9069],[-83.6341,9.1676,1062.4316],[-83.6322,9.1686,1050.6523],[-83.6254,9.1668,967.9648],[-83.6225,9.1707,903.8491],[-83.6169,9.1702,846.1647],[-83.6086,9.1751,739.2352],[-83.6109,9.1847,711.3748],[-83.6094,9.1875,755.8379],[-83.6126,9.1923,754.5752],[-83.6121,9.1994,720.5461],[-83.6155,9.2021,704.2209],[-83.6131,9.2019,708.3834],[-83.6147,9.203,693.9073],[-83.6156,9.211,776.8381],[-83.6149,9.2128,817.2942],[-83.6116,9.2129,817.1246],[-83.611,9.2157,760.6682],[-83.6082,9.2178,770.0289],[-83.6016,9.2184,765.6526],[-83.5983,9.2236,771.1482],[-83.5938,9.226,707.3169],[-83.5918,9.2317,678.9833],[-83.6028,9.2256,748.4885],[-83.6068,9.2277,761.1724],[-83.6101,9.2406,540.5172],[-83.6048,9.2475,481.4998],[-83.6088,9.2507,480.0397],[-83.6113,9.2559,526.241],[-83.6146,9.2526,494.4219],[-83.6235,9.2548,501.4296],[-83.6293,9.2471,543.3374],[-83.6313,9.2477,560.0181],[-83.6333,9.246,592.0844],[-83.6351,9.247,594.0621],[-83.6395,9.2451,630.4867],[-83.6424,9.2402,666.5195],[-83.6408,9.2354,694.0324],[-83.6511,9.2295,781.9684],[-83.655,9.2209,924.2491],[-83.6572,9.2191,963.1128],[-83.6577,9.2258,885.3616],[-83.6602,9.2277,892.1845],[-83.6606,9.231,912.7141],[-83.6576,9.2376,862.0214],[-83.6618,9.2385,800.0677],[-83.6702,9.2339,918.6996],[-83.67,9.227,1003.5554],[-83.6727,9.224,912.4476],[-83.6794,9.221,1053.8889],[-83.6862,9.2224,1089.511],[-83.6892,9.2254,1057.9489],[-83.6948,9.2272,1055.6838],[-83.7046,9.2239,1130.1334],[-83.7047,9.2201,1107.1611],[-83.7025,9.2158,1104.5912],[-83.6896,9.2116,1052.6985],[-83.6854,9.2085,963.6251],[-83.6814,9.1996,876.6317],[-83.6769,9.196,1053.1859],[-83.6721,9.1884,1096.8877],[-83.6695,9.1821,1137.3225],[-83.6702,9.1787,975.2001],[-83.6726,9.1761,952.7809],[-83.6774,9.1754,943.201],[-83.6769,9.169,957.7785],[-83.6724,9.1561,989.667],[-83.6546,9.1451,1043.9147],[-83.6466,9.1316,1120.0549],[-83.6385,9.1281,1119.7294],[-83.6263,9.1267,1115.0391]]],
[[[-83.5994,9.2188,770.1661],[-83.5999,9.2187,734.4893],[-83.6001,9.2186,734.4893],[-83.5994,9.2188,770.1661]]]]}
,"properties": {"GID_3": "CRI.7.13.8_1","GID_0": "CRI","country": "CostaRica","GID_1": "CRI.7_1","province": "SanJosé","NL_NAME_1": "NA","GID_2": "CRI.7.13_1","county": "PérezZeledón","NL_NAME_2": "NA","city": "Platanares","VARNAME_3": "NA","NL_NAME_3": "NA","TYPE_3": "Distrito","ENGTYPE_3": "District","CC_3": "6","HASC_3": "NA","name": "Platanares.city","area_km2": 79.80519,"hist_schema_id": "Elevation0-9000","hist_area_km2": {"475": 0.04185,"500": 0.18834,"525": 0.37668,"550": 0.64873,"575": 0.92078,"600": 1.02543,"625": 1.19286,"650": 1.40215,"675": 1.54865,"700": 1.92543,"725": 4.98112,"750": 6.67646,"775": 6.67641,"800": 6.29973,"825": 5.79746,"850": 3.5580599999999998,"875": 4.41628,"900": 5.7769,"925": 4.37451,"950": 4.12334,"975": 3.87217,"1000": 3.51643,"1025": 2.72101,"1050": 2.00941,"1075": 2.03025,"1100": 1.71631,"1125": 1.31869,"1150": 0.52328,"1175": 0.12558,"1200": 0.02093}}}