{"type": "Feature","bbox": [-83.6017,8.8624,-83.2435,9.0141],"geometry": {"type": "MultiPolygon","coordinates": [[[[-83.3741,8.9807,933.5204],[-83.3795,8.9833,970.7762],[-83.3842,8.9829,933.0565],[-83.3855,8.9851,953.5739],[-83.39,8.9872,939.5471],[-83.396,8.9859,982.8671],[-83.397,8.988,983.7737],[-83.3993,8.9886,964.6034],[-83.3992,8.9925,829.8981],[-83.4008,8.9944,805.8732],[-83.4054,8.996,721.0706],[-83.4118,8.9955,632.2909],[-83.4151,8.9903,505.3609],[-83.413,8.9876,495.7391],[-83.4132,8.981,307.9438],[-83.4143,8.9773,184.2309],[-83.4168,8.9767,145.7921],[-83.4249,8.9807,451.5496],[-83.4262,8.9874,641.7894],[-83.4327,8.9919,1010.7648],[-83.4374,8.9899,1046.8861],[-83.4426,8.9906,1014.1053],[-83.4476,8.994,1004.037],[-83.4698,8.9969,781.4048],[-83.4717,8.9996,764.2035],[-83.4754,8.9999,785.3283],[-83.4743,9.0079,866.5291],[-83.4791,9.0117,863.7787],[-83.4876,9.0141,923.0272],[-83.4898,8.9967,243.3069],[-83.4941,8.9904,134.0926],[-83.4954,8.9846,91.2144],[-83.4921,8.9799,73.3378],[-83.4936,8.9764,64.9589],[-83.4915,8.9744,61.1111],[-83.4914,8.9713,48.1536],[-83.4887,8.9708,45.337],[-83.4881,8.969,41.6912],[-83.4802,8.9675,32.6212],[-83.4803,8.9645,30.0881],[-83.4783,8.9632,13.618],[-83.4837,8.9565,11.0852],[-83.495,8.9552,1.125],[-83.4981,8.9498,7.694],[-83.5082,8.9395,7.3773],[-83.511,8.9389,6.6664],[-83.5178,8.9449,6.7337],[-83.5276,8.9494,1.0],[-83.5442,8.948,3.4431],[-83.554,8.9583,4.19],[-83.5729,8.9636,3.1704],[-83.5775,8.972,3.4953],[-83.5803,8.9737,3.1119],[-83.5936,8.9702,1.8292],[-83.6004,8.971,0.5],[-83.6017,8.9672,0.6642],[-83.5973,8.9611,7.5276],[-83.5975,8.9575,8.3377],[-83.5942,8.9576,3.5636],[-83.5927,8.9564,7.3191],[-83.5934,8.955,8.5635],[-83.5877,8.9515,13.1807],[-83.5868,8.9492,12.0655],[-83.585,8.9503,10.0712],[-83.5839,8.9477,14.2915],[-83.5822,8.9475,6.532],[-83.5817,8.9502,8.898],[-83.579,8.9516,9.3561],[-83.5788,8.9473,5.1371],[-83.5754,8.9477,9.4616],[-83.5782,8.9453,3.7148],[-83.5707,8.9423,7.6179],[-83.5697,8.9409,11.5722],[-83.5713,8.9389,5.6231],[-83.5699,8.9392,8.5814],[-83.5692,8.9367,4.4189],[-83.5657,8.9379,5.679],[-83.5646,8.9363,8.6646],[-83.5608,8.939,6.2609],[-83.5514,8.9397,11.2572],[-83.5518,8.9329,10.5453],[-83.5487,8.9343,8.8739],[-83.4993,8.903,17.8675],[-83.4952,8.8949,14.216],[-83.4805,8.8854,13.7877],[-83.4622,8.9155,13.8074],[-83.4607,8.916,16.0497],[-83.4468,8.9077,14.272],[-83.4292,8.911,8.4836],[-83.4222,8.9081,7.8686],[-83.4175,8.903,12.0791],[-83.4075,8.8992,18.6752],[-83.4034,8.8928,23.5906],[-83.3939,8.8909,7.2256],[-83.367,8.8716,11.7023],[-83.3476,8.8624,20.4065],[-83.3469,8.8646,13.9932],[-83.3452,8.8643,13.1112],[-83.3468,8.8664,20.6914],[-83.3462,8.8702,17.4418],[-83.3423,8.872,20.5201],[-83.339,8.8705,22.6483],[-83.3356,8.8734,29.0471],[-83.3352,8.8761,25.9489],[-83.3284,8.875,41.9055],[-83.3253,8.8712,41.0148],[-83.3179,8.8701,63.3965],[-83.3167,8.8743,109.7403],[-83.3012,8.8941,750.8043],[-83.2938,8.8874,712.7652],[-83.2898,8.8863,834.7283],[-83.2901,8.8886,820.2383],[-83.2838,8.892,677.0194],[-83.2837,8.8967,707.0939],[-83.2814,8.9003,709.7032],[-83.2703,8.8956,659.3055],[-83.2663,8.8973,819.6642],[-83.2617,8.8936,836.0854],[-83.2569,8.8966,557.3162],[-83.2435,8.8982,913.5533],[-83.2492,8.905,813.5667],[-83.2481,8.9144,744.5745],[-83.2528,8.9178,732.2189],[-83.2593,8.9172,539.2631],[-83.2673,8.9197,319.0118],[-83.2715,8.9235,516.6696],[-83.2715,8.9262,610.3038],[-83.2766,8.9284,715.2755],[-83.279,8.9318,787.0861],[-83.2823,8.929,674.1783],[-83.2924,8.9265,762.7585],[-83.2993,8.9339,620.1182],[-83.3125,8.9428,533.1801],[-83.3182,8.9448,497.0479],[-83.3307,8.9469,63.6985],[-83.3418,8.9406,41.9672],[-83.3485,8.944,56.8796],[-83.3566,8.9445,66.8321],[-83.3707,8.9546,28.0],[-83.3681,8.9644,381.2932],[-83.3685,8.9749,772.0183],[-83.3741,8.9807,933.5204]]]]}
,"properties": {"GID_3": "CRI.6.9.3_1","GID_0": "CRI","country": "CostaRica","GID_1": "CRI.6_1","province": "Puntarenas","NL_NAME_1": "NA","GID_2": "CRI.6.9_1","county": "Osa","NL_NAME_2": "NA","city": "Palmar","VARNAME_3": "NA","NL_NAME_3": "NA","TYPE_3": "Distrito","ENGTYPE_3": "District","CC_3": "2","HASC_3": "NA","name": "Palmar.city","area_km2": 251.529,"hist_schema_id": "Elevation0-9000","hist_area_km2": {"0": 44.9064,"25": 46.436,"50": 13.2166,"75": 11.3733,"100": 10.0119,"125": 8.7132,"150": 7.8962,"175": 7.0165,"200": 5.6551,"225": 5.2362,"250": 5.0476,"275": 4.8801,"300": 4.7544,"325": 5.4456,"350": 5.1733,"375": 4.8173,"400": 4.8173,"425": 4.1052,"450": 4.4194,"475": 4.0634,"500": 4.2728,"525": 3.7282,"550": 4.0424,"575": 3.7282,"600": 3.6445,"625": 3.7073,"650": 3.2675,"675": 2.9114,"700": 2.2202,"725": 1.8431,"750": 1.7175,"775": 1.8221,"800": 1.2147,"825": 1.0262,"850": 0.9424,"875": 0.9633,"900": 0.8168,"925": 0.712,"950": 0.3351,"975": 0.2513,"1000": 0.2094,"1025": 0.0838,"1050": 0.0838}}}