{"type": "Feature","bbox": [-83.9448,10.5805,-83.71,10.7722],"geometry": {"type": "MultiPolygon","coordinates": [[[[-83.8381,10.5808,49.0398],[-83.8367,10.584,42.2769],[-83.8387,10.5888,39.1955],[-83.8363,10.5903,36.1568],[-83.8389,10.5943,28.2293],[-83.8414,10.5951,28.9728],[-83.842,10.6011,26.1324],[-83.8457,10.6039,25.3799],[-83.8456,10.6063,27.0363],[-83.8434,10.6064,24.7627],[-83.845,10.613,24.3705],[-83.8418,10.6148,24.1417],[-83.8405,10.618,22.0628],[-83.8401,10.6245,31.8801],[-83.8424,10.6311,21.2805],[-83.8388,10.6439,18.6604],[-83.8356,10.6453,18.1447],[-83.8305,10.6448,18.9727],[-83.8157,10.65,24.7401],[-83.8117,10.6486,20.3899],[-83.8091,10.6524,17.0092],[-83.7965,10.653,15.2204],[-83.7875,10.6577,26.6674],[-83.7857,10.6652,10.2949],[-83.7864,10.6712,23.3579],[-83.7807,10.679,17.2038],[-83.7798,10.6842,10.1524],[-83.7752,10.6882,10.5385],[-83.7709,10.6963,17.8869],[-83.7651,10.6994,9.5331],[-83.7609,10.6981,10.3636],[-83.759,10.6991,11.2264],[-83.7561,10.6956,9.6949],[-83.7501,10.696,8.8666],[-83.7484,10.6938,10.6544],[-83.7421,10.6926,16.9915],[-83.7353,10.6924,11.5135],[-83.7288,10.6944,24.0241],[-83.7194,10.6918,12.938],[-83.71,10.6925,3.6958],[-83.7165,10.7034,7.7124],[-83.7394,10.7211,3.5],[-83.741,10.7259,3.5],[-83.7404,10.7304,6.3961],[-83.7331,10.7366,4.0],[-83.7326,10.7388,6.8571],[-83.7404,10.7561,5.0],[-83.7481,10.766,5.5],[-83.7523,10.7691,5.5],[-83.7618,10.7722,6.0],[-83.765,10.7696,6.0],[-83.7783,10.7718,7.7136],[-83.7933,10.7694,7.7858],[-83.7967,10.7666,7.0],[-83.8001,10.7554,9.5176],[-83.8073,10.7509,8.7951],[-83.8099,10.7474,11.4069],[-83.8132,10.7459,8.9726],[-83.8269,10.7486,11.4346],[-83.8403,10.744,8.25],[-83.8633,10.7175,10.1732],[-83.8713,10.7159,11.81],[-83.8778,10.7191,11.1234],[-83.892,10.7215,10.0],[-83.92,10.7097,12.4276],[-83.919,10.7076,13.6931],[-83.9223,10.7021,19.8037],[-83.9219,10.6984,18.2886],[-83.9303,10.6937,19.7763],[-83.929,10.6911,31.6106],[-83.9258,10.6898,18.2049],[-83.9297,10.6845,24.6201],[-83.9276,10.6796,17.1675],[-83.9276,10.674,21.1314],[-83.9337,10.6668,20.4413],[-83.9317,10.6606,20.0653],[-83.9274,10.6556,18.4462],[-83.9242,10.6544,20.7923],[-83.922,10.6502,21.6198],[-83.9238,10.6463,20.2282],[-83.9216,10.6432,24.7789],[-83.9223,10.6327,22.1859],[-83.9251,10.6307,24.5177],[-83.9323,10.6301,23.8595],[-83.9354,10.6247,23.3977],[-83.9355,10.6142,24.5489],[-83.9385,10.6064,28.4913],[-83.9339,10.6033,25.0625],[-83.9332,10.6011,24.9097],[-83.9344,10.5986,26.4568],[-83.9408,10.5959,27.3319],[-83.9348,10.5911,28.7178],[-83.9367,10.5881,27.7887],[-83.942,10.5863,31.9028],[-83.9448,10.5805,28.3791],[-83.8381,10.5808,49.0398]]]]}
,"properties": {"GID_3": "CRI.4.10.4_1","GID_0": "CRI","country": "CostaRica","GID_1": "CRI.4_1","province": "Heredia","NL_NAME_1": "NA","GID_2": "CRI.4.10_1","county": "Sarapiquí","NL_NAME_2": "NA","city": "LlanurasdelGaspar","VARNAME_3": "NA","NL_NAME_3": "NA","TYPE_3": "Distrito","ENGTYPE_3": "District","CC_3": "4","HASC_3": "NA","name": "Llanurasdel_Gaspar.city","area_km2": 269.8153,"hist_schema_id": "Elevation0-9000","hist_area_km2": {"0": 55.2882,"25": 192.1677,"50": 21.0674,"75": 1.0003,"100": 0.2084,"125": 0.0834}}}