{"type": "Feature","bbox": [-84.2136,9.9889,-84.1736,10.014099999999999],"geometry": {"type": "MultiPolygon","coordinates": [[[[-84.2136,10.003,897.124],[-84.2127,9.9927,903.6532],[-84.2076,9.9889,872.7242],[-84.2051,9.9905,891.6668],[-84.2018,9.9898,885.1349],[-84.1808,9.9989,922.7151],[-84.1766,10.0032,957.6014],[-84.1765,10.0055,967.9751],[-84.1738,10.0056,967.729],[-84.1736,10.014099999999999,1018.2571],[-84.1837,10.0085,953.9372],[-84.1854,10.0056,949.8285],[-84.1912,10.0069,938.832],[-84.1953,10.0034,933.6689],[-84.2007,10.0028,903.5923],[-84.2073,10.0083,917.2627],[-84.2095,10.0034,896.7286],[-84.2136,10.003,897.124]]]]}
,"properties": {"GID_3": "CRI.1.1.6_1","GID_0": "CRI","country": "CostaRica","GID_1": "CRI.1_1","province": "Alajuela","NL_NAME_1": "NA","GID_2": "CRI.1.1_1","county": "Alajuela","NL_NAME_2": "NA","city": "RioSegundo","VARNAME_3": "NA","NL_NAME_3": "NA","TYPE_3": "Distrito","ENGTYPE_3": "District","CC_3": "9","HASC_3": "NA","name": "Rio_Segundo.city","area_km2": 5.721141,"hist_schema_id": "Elevation0-9000","hist_area_km2": {"875": 0.229686,"900": 1.54514,"925": 1.941857,"950": 1.148395,"975": 0.605511,"1000": 0.250553}}}