{"type":"Feature","properties":{"GID_3":"CRI.7.19.3_1","GID_0":"CRI","country":"CostaRica","GID_1":"CRI.7_1","province":"SanJosé","NL_NAME_1":"NA","GID_2":"CRI.7.19_1","county":"Turrubares","NL_NAME_2":"NA","city":"SanLuis","VARNAME_3":"NA","NL_NAME_3":"NA","TYPE_3":"Distrito","ENGTYPE_3":"District","CC_3":"4","HASC_3":"NA","name":"San_Luis.city"},
"geometry":{"type": "MultiPolygon","coordinates": [[[[-84.427,9.8384,291.0224],[-84.4344,9.84,299.8298],[-84.4405,9.845,260.8905],[-84.4421,9.8483,265.1709],[-84.4451,9.8472,247.3428],[-84.4479,9.8482,255.846],[-84.4485,9.8531,229.9785],[-84.4473,9.8546,231.6626],[-84.4517,9.8546,214.1295],[-84.4563,9.8597,205.4659],[-84.4588,9.8595,204.7635],[-84.4565,9.8625,202.3865],[-84.4685,9.8621,159.2864],[-84.4677,9.8645,176.5284],[-84.4705,9.8651,161.8098],[-84.4724,9.8679,146.1417],[-84.4716,9.8713,144.9563],[-84.4794,9.8698,164.2856],[-84.4808,9.8713,140.4671],[-84.4799,9.8735,124.0223],[-84.482,9.8736,143.9778],[-84.4859,9.8783,109.6326],[-84.4967,9.8727,92.9045],[-84.501,9.873,89.5721],[-84.5047,9.864,57.8727],[-84.5064,9.8661,94.4547],[-84.5075,9.8655,94.4547],[-84.5065,9.8612,68.6242],[-84.5134,9.8565,51.1118],[-84.512,9.8542,58.9997],[-84.5137,9.8512,50.6882],[-84.5115,9.8499,61.3626],[-84.5067,9.852,78.5477],[-84.503,9.8513,92.4393],[-84.4947,9.8434,372.3713],[-84.4894,9.8431,456.0641],[-84.4796,9.8373,820.9387],[-84.479,9.8293,1132.1841],[-84.4768,9.8242,1223.1016],[-84.4792,9.8021,1462.1661],[-84.4714,9.7933,1656.1034],[-84.4692,9.7943,1615.9602],[-84.4647,9.7917,1483.7953],[-84.4549,9.793,1573.6971],[-84.4504,9.7912,1561.5542],[-84.4496,9.7921,1442.8832],[-84.4427,9.8013,945.5815],[-84.4411,9.8054,814.5785],[-84.4421,9.8081,704.6104],[-84.4372,9.8111,637.7719],[-84.432,9.8199,470.1283],[-84.4305,9.8302,370.239],[-84.4277,9.8336,337.8115],[-84.427,9.8384,291.0224]]]]}}