{"type":"Feature","properties":{"GID_3":"CRI.5.4.4_1","GID_0":"CRI","country":"CostaRica","GID_1":"CRI.5_1","province":"Limón","NL_NAME_1":"NA","GID_2":"CRI.5.4_1","county":"Pococí","NL_NAME_2":"NA","city":"Jiménez","VARNAME_3":"NA","NL_NAME_3":"NA","TYPE_3":"Distrito","ENGTYPE_3":"District","CC_3":"2","HASC_3":"NA","name":"Jiménez.city"},
"geometry":{"type": "MultiPolygon","coordinates": [[[[-83.7739,10.063,1734.833],[-83.7751,10.0738,1431.3418],[-83.7718,10.0791,1341.7228],[-83.7721,10.0897,1125.0573],[-83.7685,10.0965,1022.5721],[-83.7725,10.1006,970.7214],[-83.7727,10.1091,909.5865],[-83.7627,10.1291,741.7206],[-83.7571,10.1359,646.826],[-83.756,10.1396,625.7036],[-83.7574,10.1437,608.6627],[-83.7555,10.1493,558.0663],[-83.7567,10.1563,535.3063],[-83.7525,10.1622,475.496],[-83.751,10.1704,472.3756],[-83.7527,10.1774,378.9984],[-83.7508,10.1795,373.4889],[-83.7472,10.1934,301.33],[-83.7363,10.2147,207.0953],[-83.7335,10.2244,176.8075],[-83.7297,10.2288,167.0647],[-83.7307,10.2318,157.2544],[-83.7279,10.2384,145.3877],[-83.7284,10.2409,136.4544],[-83.7265,10.2419,136.4544],[-83.7275,10.2435,136.0573],[-83.7215,10.2467,123.6956],[-83.7194,10.2497,115.5243],[-83.7159,10.2502,107.9814],[-83.7127,10.255,98.531],[-83.7047,10.2572,90.8221],[-83.7021,10.2596,88.7717],[-83.7006,10.2585,89.4289],[-83.7001,10.2612,86.1906],[-83.6968,10.2635,79.472],[-83.6931,10.2638,74.1386],[-83.6918,10.2663,72.3342],[-83.6863,10.2674,66.2049],[-83.6861,10.2703,64.8296],[-83.6814,10.2721,57.5222],[-83.6802,10.2745,59.105],[-83.6811,10.2781,59.6399],[-83.6744,10.2786,57.3917],[-83.675,10.2819,58.5635],[-83.6722,10.2846,55.3608],[-83.6743,10.2855,58.5884],[-83.6733,10.2874,65.7716],[-83.6715,10.2868,56.8131],[-83.6721,10.2883,59.9456],[-83.6691,10.2873,56.534],[-83.6678,10.2933,47.6013],[-83.6754,10.293,48.9053],[-83.6766,10.2958,48.8031],[-83.6806,10.2953,50.4587],[-83.6873,10.3001,52.9065],[-83.6923,10.2983,55.7641],[-83.6953,10.2992,54.1774],[-83.696,10.2979,56.7342],[-83.7002,10.2996,62.8022],[-83.7015,10.2975,62.1767],[-83.7071,10.2953,65.0334],[-83.7085,10.2961,66.8733],[-83.7113,10.2939,62.2831],[-83.7134,10.2949,69.3604],[-83.7178,10.2807,84.3717],[-83.7261,10.2745,87.5283],[-83.7298,10.2746,93.1374],[-83.7318,10.2721,94.8882],[-83.7352,10.2726,100.8892],[-83.7412,10.2699,108.9006],[-83.7481,10.2628,119.0569],[-83.7502,10.2568,126.2085],[-83.7528,10.2556,133.073],[-83.7584,10.2397,164.5359],[-83.7618,10.2384,174.1562],[-83.7654,10.2321,193.8636],[-83.769,10.2308,210.0077],[-83.7742,10.2255,230.7326],[-83.7753,10.2228,232.8629],[-83.7744,10.2182,247.3597],[-83.7762,10.2152,251.4916],[-83.7749,10.2115,257.4904],[-83.779,10.2043,287.9928],[-83.7811,10.1948,325.0799],[-83.7859,10.1867,358.8165],[-83.7869,10.1723,426.3718],[-83.8012,10.1497,490.4008],[-83.8035,10.1451,508.1864],[-83.8039,10.1397,549.6025],[-83.8063,10.1365,566.7488],[-83.8059,10.1335,597.6946],[-83.8036,10.132,610.636],[-83.8037,10.1252,680.6617],[-83.8091,10.1168,674.3825],[-83.8105,10.1117,674.1764],[-83.8078,10.1103,707.9221],[-83.8056,10.1061,708.9742],[-83.8078,10.0988,756.2576],[-83.8062,10.094,797.2018],[-83.8105,10.0873,906.4622],[-83.8163,10.0836,923.7301],[-83.7739,10.063,1734.833]]]]}}