{"type":"Feature","properties":{"GID_3":"CRI.4.5.1_1","GID_0":"CRI","country":"CostaRica","GID_1":"CRI.4_1","province":"Heredia","NL_NAME_1":"NA","GID_2":"CRI.4.5_1","county":"SanIsidro","NL_NAME_2":"NA","city":"Concepción","VARNAME_3":"NA","NL_NAME_3":"NA","TYPE_3":"Distrito","ENGTYPE_3":"District","CC_3":"3","HASC_3":"NA","name":"Concepción.city"},
"geometry":{"type": "MultiPolygon","coordinates": [[[[-84.0445,10.0631,2114.312],[-84.0472,10.0596,2024.5837],[-84.0445,10.0484,1686.0436],[-84.0451,10.0408,1574.4937],[-84.0481,10.0342,1471.8369],[-84.0531,10.0342,1479.2339],[-84.0537,10.0266,1414.9407],[-84.0509,10.0211,1368.9583],[-84.042,10.0234,1378.6219],[-84.0375,10.0299,1398.4072],[-84.0318,10.0302,1419.295],[-84.0272,10.0352,1466.7505],[-84.025,10.0404,1496.0942],[-84.0318,10.0586,1985.0303],[-84.0365,10.0615,1965.9409],[-84.0397,10.0606,2053.856],[-84.0445,10.0631,2114.312]]]]}}