{"type":"Feature","properties":{"GID_3":"CRI.7.14.5_1","GID_0":"CRI","country":"CostaRica","GID_1":"CRI.7_1","province":"SanJosé","NL_NAME_1":"NA","GID_2":"CRI.7.14_1","county":"Puriscal","NL_NAME_2":"NA","city":"GrifoAlto","VARNAME_3":"NA","NL_NAME_3":"NA","TYPE_3":"Distrito","ENGTYPE_3":"District","CC_3":"4","HASC_3":"NA","name":"Grifo_Alto.city"},
"geometry":{"type": "MultiPolygon","coordinates": [[[[-84.4038,9.9115,409.4719],[-84.4038,9.9064,485.64],[-84.4059,9.9044,519.7899],[-84.4085,9.8953,731.3147],[-84.4171,9.8958,918.5039],[-84.417,9.8841,834.6434],[-84.4144,9.8815,830.9338],[-84.4158,9.8722,658.7847],[-84.4137,9.8685,541.9857],[-84.414,9.8613,444.8668],[-84.4176,9.8561,407.7246],[-84.4166,9.8537,411.3105],[-84.4184,9.85,406.2107],[-84.4145,9.8507,402.1761],[-84.4111,9.8486,394.2036],[-84.411,9.8469,414.7521],[-84.3933,9.8476,499.3712],[-84.3913,9.8461,521.9695],[-84.3888,9.8472,578.1737],[-84.387,9.8612,804.4065],[-84.3724,9.8687,1124.8868],[-84.3674,9.8756,965.9913],[-84.3681,9.8890999999999991,798.937],[-84.3749,9.8967,726.2325],[-84.3753,9.8995,655.2072],[-84.3793,9.8995,661.7584],[-84.3835,9.902,633.3587],[-84.3865,9.9012,606.6193],[-84.3909,9.9044,537.0867],[-84.3965,9.9049,490.6223],[-84.4038,9.9115,409.4719]]]]}}