{"type": "Feature","bbox": [-84.4359,10.212,-84.3782,10.2258],"geometry": {"type": "MultiPolygon","coordinates": [[[[-84.4191,10.2237,1542.9536],[-84.423,10.2212,1519.5977],[-84.4235,10.2235,1507.6025],[-84.4249,10.2227,1496.0525],[-84.4267,10.2241,1556.403],[-84.4278,10.2205,1423.2302],[-84.4359,10.2169,1325.0571],[-84.4297,10.212,1417.7745],[-84.4211,10.2135,1567.0917],[-84.4042,10.2132,1744.1385],[-84.4016,10.2153,1760.2285],[-84.397,10.216,1813.0521],[-84.3907,10.2138,1902.7657],[-84.3852,10.2141,1929.1042],[-84.3791,10.2181,2031.0282],[-84.3782,10.2238,1886.7837],[-84.3792,10.2255,1887.7502],[-84.3868,10.2253,1861.092],[-84.3874,10.2233,1841.0601],[-84.3924,10.2214,1808.608],[-84.398,10.2245,1734.7788],[-84.3998,10.2231,1723.7329],[-84.4066,10.2258,1662.2781],[-84.4116,10.2254,1625.0667],[-84.4129,10.2236,1632.1755],[-84.4191,10.2237,1542.9536]]]]}
,"properties": {"GID_3": "CRI.1.16.5_1","GID_0": "CRI","country": "CostaRica","GID_1": "CRI.1_1","province": "Alajuela","NL_NAME_1": "NA","GID_2": "CRI.1.16_1","county": "Zarcero","NL_NAME_2": "NA","city": "Tapesco","VARNAME_3": "NA","NL_NAME_3": "NA","TYPE_3": "Distrito","ENGTYPE_3": "District","CC_3": "3","HASC_3": "NA","name": "Tapesco.city","area_km2": 6.259766,"hist_schema_id": "Elevation0-9000","hist_area_km2": {"1325": 0.083464,"1350": 0.020866,"1375": 0.062598,"1400": 0.083465,"1425": 0.062598,"1450": 0.062598,"1475": 0.062598,"1500": 0.125196,"1525": 0.125195,"1550": 0.208659,"1575": 0.250391,"1600": 0.125195,"1625": 0.271256,"1650": 0.312989,"1675": 0.375586,"1700": 0.229525,"1725": 0.438184,"1750": 0.375584,"1775": 0.417318,"1800": 0.396452,"1825": 0.396452,"1850": 0.229524,"1875": 0.208658,"1900": 0.187793,"1925": 0.292122,"1950": 0.208659,"1975": 0.208658,"2000": 0.166927,"2025": 0.187792,"2050": 0.083463}}}