{"type": "Feature","bbox": [-85.8596,10.3014,-85.6908,10.4885],"geometry": {"type": "MultiPolygon","coordinates": [[[[-85.7962,10.4837,52.9263],[-85.7983,10.483,12.7739],[-85.7968,10.4813,0.0],[-85.7914,10.4832,3.5689],[-85.7871,10.4806,0.0],[-85.7877,10.4774,2.5384],[-85.7812,10.4766,0.0],[-85.7786,10.4701,0.0],[-85.7793,10.4655,0.0],[-85.7764,10.4616,1.141],[-85.7773,10.4569,0.0],[-85.7736,10.458,1.3177],[-85.7715,10.4546,1.4308],[-85.7743,10.4451,0.913],[-85.7795,10.4385,7.5382],[-85.7702,10.4323,56.8278],[-85.7685,10.4255,129.8303],[-85.7699,10.4224,151.5],[-85.7664,10.4202,256.881],[-85.764,10.3952,412.6497],[-85.7703,10.39,253.6265],[-85.7762,10.3911,275.7197],[-85.7753,10.3862,216.2165],[-85.7822,10.3845,79.965],[-85.7844,10.381,85.179],[-85.792,10.3767,27.7417],[-85.7909,10.3605,26.7983],[-85.7886,10.3634,29.5438],[-85.7755,10.3645,47.6996],[-85.7594,10.3545,150.3789],[-85.7595,10.3495,214.218],[-85.7549,10.3463,220.4777],[-85.7585,10.3395,297.358],[-85.7609,10.3379,292.1564],[-85.7602,10.3351,206.1767],[-85.7585,10.3336,221.6045],[-85.7584,10.3308,245.3985],[-85.7536,10.3315,286.279],[-85.748,10.3273,162.3418],[-85.7456,10.3278,154.5285],[-85.7433,10.3261,205.2702],[-85.7458,10.3224,225.2504],[-85.7447,10.3183,336.4958],[-85.7423,10.3168,317.5587],[-85.7443,10.3108,407.4402],[-85.7426,10.3121,330.7439],[-85.7393,10.3095,267.0326],[-85.732,10.3117,282.4829],[-85.7278,10.3051,110.4778],[-85.7245,10.3043,184.8086],[-85.7219,10.3056,170.7187],[-85.7132,10.3017,40.7735],[-85.7044,10.3083,21.8724],[-85.7021,10.3042,22.6076],[-85.697,10.3014,19.824],[-85.6988,10.3092,22.1712],[-85.6951,10.3115,31.8046],[-85.6943,10.316,26.6452],[-85.6967,10.3187,25.8521],[-85.6985,10.3277,32.9962],[-85.7014,10.3321,30.9578],[-85.702,10.3382,27.2825],[-85.7118,10.3486,31.7558],[-85.7128,10.3558,103.8673],[-85.7206,10.3586,92.8356],[-85.7217,10.3604,84.1261],[-85.7184,10.3675,38.7727],[-85.7133,10.3632,38.8954],[-85.7052,10.3607,34.5758],[-85.7049,10.3552,37.9056],[-85.7007,10.35,31.8593],[-85.6992,10.3498,38.8705],[-85.6983,10.3519,32.0529],[-85.6995,10.3583,38.8523],[-85.7023,10.3583,35.564],[-85.7031,10.3608,36.1049],[-85.6975,10.371,41.2629],[-85.6967,10.3809,41.5635],[-85.6945,10.3824,42.9548],[-85.6917,10.3883,47.4404],[-85.6908,10.4037,62.1578],[-85.693,10.4108,71.6696],[-85.6915,10.4187,86.1396],[-85.695,10.4257,113.9087],[-85.6965,10.4356,293.2296],[-85.6995,10.4368,238.405],[-85.7053,10.4492,292.9526],[-85.7089,10.4494,307.3096],[-85.715,10.4565,337.4291],[-85.7224,10.4585,316.7308],[-85.7252,10.4613,231.8726],[-85.7246,10.4636,271.2144],[-85.7277,10.4653,297.0061],[-85.7313,10.4726,236.5224],[-85.7315,10.4777,197.4578],[-85.7374,10.482,148.0015],[-85.7496,10.4858,148.2149],[-85.7581,10.4789,321.5333],[-85.7632,10.4812,233.898],[-85.7687,10.4793,209.4571],[-85.7755,10.4854,111.6628],[-85.7849,10.4885,93.7266],[-85.7917,10.487,49.102],[-85.7962,10.4837,52.9263]]],
[[[-85.7814,10.4647,2.8963],[-85.7826,10.4639,1.6073],[-85.7839,10.464,1.6073],[-85.7827,10.4631,0.0],[-85.7814,10.4647,2.8963]]],
[[[-85.7963,10.4775,0.0],[-85.7959,10.4774,0.0],[-85.7952,10.4779,0.0],[-85.796,10.4779,0.0],[-85.7963,10.4775,0.0]]],
[[[-85.7958,10.4195,0.0],[-85.7952,10.4203,0.0],[-85.7956,10.4211,0.0],[-85.7969,10.4202,0.0],[-85.7958,10.4195,0.0]]],
[[[-85.8596,10.4615,0.0],[-85.859,10.4618,0.0],[-85.8588,10.4623,0.0],[-85.859,10.4623,0.0],[-85.8596,10.4615,0.0]]],
[[[-85.7984,10.4786,0.0],[-85.798,10.4786,0.0],[-85.7987,10.4788,0.0],[-85.7987,10.4787,0.0],[-85.7984,10.4786,0.0]]]]}
,"properties": {"GID_3": "CRI.3.10.8_1","GID_0": "CRI","country": "CostaRica","GID_1": "CRI.3_1","province": "Guanacaste","NL_NAME_1": "NA","GID_2": "CRI.3.10_1","county": "SantaCruz","NL_NAME_2": "NA","city": "Tempate","VARNAME_3": "NA","NL_NAME_3": "NA","TYPE_3": "Distrito","ENGTYPE_3": "District","CC_3": "4","HASC_3": "NA","name": "Tempate.city","area_km2": 140.2644,"hist_schema_id": "Elevation0-9000","hist_area_km2": {"0": 2.4603,"25": 19.5414,"50": 29.5722,"75": 25.0039,"100": 16.8915,"125": 10.7395,"150": 9.2173,"175": 6.6105,"200": 5.3386,"225": 4.2124,"250": 3.3366,"275": 2.2939,"300": 1.6682,"325": 1.6265,"350": 1.0218,"375": 0.3128,"400": 0.1877,"425": 0.1668,"450": 0.0209,"475": 0.0209,"500": 0.0209}}}