{"type":"Feature","properties":{"GID_3":"CRI.2.2.3_1","GID_0":"CRI","country":"CostaRica","GID_1":"CRI.2_1","province":"Cartago","NL_NAME_1":"NA","GID_2":"CRI.2.2_1","county":"Cartago","NL_NAME_2":"NA","city":"Corralillo","VARNAME_3":"NA","NL_NAME_3":"NA","TYPE_3":"Distrito","ENGTYPE_3":"District","CC_3":"7","HASC_3":"NA","name":"Corralillo.city"},
"geometry":{"type": "MultiPolygon","coordinates": [[[[-84.0447,9.8158,1654.5767],[-84.0462,9.8135,1621.0599],[-84.0511,9.8129,1541.6792],[-84.0542,9.8106,1532.4717],[-84.0653,9.8088,1435.1614],[-84.0753,9.8019,1349.1284],[-84.0768,9.7956,1308.0935],[-84.0823,9.7902,1243.5212],[-84.082,9.7875,1235.4346],[-84.084,9.7868,1219.7313],[-84.0845,9.7758,1192.4226],[-84.0866,9.7746,1232.7161],[-84.0885,9.7696,1137.5831],[-84.0817,9.7655,1181.1636],[-84.0788,9.7662,1175.0898],[-84.0714,9.7638,1245.066],[-84.0666,9.7656,1272.7004],[-84.0634,9.764,1234.1295],[-84.058,9.7674,1297.851],[-84.0553,9.7661,1271.9026],[-84.0493,9.7673,1368.1843],[-84.0467,9.7659,1332.1548],[-84.0411,9.7678,1383.0049],[-84.0371,9.7649,1378.0042],[-84.0317,9.7642,1411.6394],[-84.0293,9.7649,1417.8921],[-84.0287,9.7683,1445.4504],[-84.0215,9.7705,1532.2524],[-84.0215,9.7788,1721.0253],[-84.0242,9.778,1698.0011],[-84.0246,9.7796,1746.6821],[-84.0298,9.7782,1676.8086],[-84.0283,9.7805,1661.3164],[-84.0299,9.7876,1555.201],[-84.0284,9.7884,1575.6365],[-84.0297,9.7903,1533.7974],[-84.0211,9.7999,1697.2954],[-84.0143,9.8046,1932.5747],[-84.0116,9.8034,1937.0778],[-84.0124,9.8056,1908.5021],[-84.019,9.8157,1985.7549],[-84.0447,9.8158,1654.5767]]]]}}