{"type":"Feature","properties":{"GID_3":"CRI.2.3.2_1","GID_0":"CRI","country":"CostaRica","GID_1":"CRI.2_1","province":"Cartago","NL_NAME_1":"NA","GID_2":"CRI.2.3_1","county":"ElGuarco","NL_NAME_2":"NA","city":"PatiodeAgua","VARNAME_3":"NA","NL_NAME_3":"NA","TYPE_3":"Distrito","ENGTYPE_3":"District","CC_3":"4","HASC_3":"NA","name":"Patiode_Agua.city"},
"geometry":{"type": "MultiPolygon","coordinates": [[[[-84.0215,9.7705,1532.2524],[-84.0021,9.7788,1757.2568],[-83.9992,9.7853,1798.0134],[-83.9925,9.7838,1935.6929],[-83.9892,9.7881,1998.0693],[-83.9901,9.7924,2081.3535],[-83.9929,9.7927,2048.895],[-83.9932,9.7947,2094.0654],[-83.9957,9.7947,2045.2184],[-83.9957,9.7968,2125.2664],[-83.9977,9.7974,2114.666],[-83.9953,9.8012,2011.2631],[-83.9971,9.8047,1915.123],[-84.0031,9.8094,1839.604],[-84.0096,9.8061,1894.7203],[-84.0118,9.8075,1892.9313],[-84.0116,9.8034,1937.0778],[-84.0143,9.8046,1932.5747],[-84.0211,9.7999,1697.2954],[-84.0297,9.7903,1533.7974],[-84.0284,9.7884,1575.6365],[-84.0299,9.7876,1555.201],[-84.0283,9.7805,1661.3164],[-84.0298,9.7782,1676.8086],[-84.0246,9.7796,1746.6821],[-84.0242,9.778,1698.0011],[-84.0215,9.7788,1721.0253],[-84.0215,9.7705,1532.2524]]]]}}