{"type": "Feature","bbox": [-84.4688,10.0074,-84.4293,10.0359],"geometry": {"type": "MultiPolygon","coordinates": [[[[-84.4293,10.0133,1288.7988],[-84.4338,10.0173,1161.5286],[-84.4335,10.0265,1054.715],[-84.4351,10.0301,1001.6273],[-84.4332,10.0344,974.1961],[-84.4369,10.0359,1015.9032],[-84.4472,10.0353,1061.9946],[-84.4688,10.0152,1386.2688],[-84.465,10.0144,1418.2007],[-84.4637,10.011,1396.1577],[-84.4551,10.009,1382.3976],[-84.4547,10.0074,1328.7029],[-84.447,10.0104,1294.7894],[-84.4383,10.0105,1314.8904],[-84.4293,10.0133,1288.7988]]]]}
,"properties": {"GID_3": "CRI.1.9.6_1","GID_0": "CRI","country": "CostaRica","GID_1": "CRI.1_1","province": "Alajuela","NL_NAME_1": "NA","GID_2": "CRI.1.9_1","county": "Palmares","NL_NAME_2": "NA","city": "Santiago","VARNAME_3": "NA","NL_NAME_3": "NA","TYPE_3": "Distrito","ENGTYPE_3": "District","CC_3": "4","HASC_3": "NA","name": "Santiago.city","area_km2": 7.933926,"hist_schema_id": "Elevation0-9000","hist_area_km2": {"975": 0.020878,"1000": 0.292292,"1025": 0.125269,"1050": 0.542833,"1075": 0.75162,"1100": 0.668114,"1125": 0.772506,"1150": 0.730757,"1175": 0.563729,"1200": 0.584609,"1225": 0.64725,"1250": 0.501099,"1275": 0.292306,"1300": 0.396706,"1325": 0.27143,"1350": 0.167032,"1375": 0.250551,"1400": 0.271429,"1425": 0.083517}}}