{"type": "Feature","bbox": [-84.3904,10.0947,-84.337,10.1935],"geometry": {"type": "MultiPolygon","coordinates": [[[[-84.3722,10.0947,974.8258],[-84.3682,10.0989,1014.3828],[-84.367,10.111,1108.6326],[-84.3649,10.1125,1102.8337],[-84.362799999999993,10.1173,1143.9032],[-84.3638,10.1198,1165.3931],[-84.3613,10.1225,1191.4414],[-84.3626,10.1234,1195.3403],[-84.3602,10.1343,1287.6625],[-84.359,10.1363,1305.6659],[-84.3548,10.1373,1353.5753],[-84.3532,10.1414,1393.0818],[-84.354,10.1439,1434.1292],[-84.3519,10.1479,1466.6052],[-84.346,10.1503,1521.9749],[-84.3432,10.1595,1662.7261],[-84.3391,10.164,1842.3046],[-84.337,10.1691,1976.9376],[-84.341,10.1767,2154.2063],[-84.3411,10.1894,2098.9939],[-84.3451,10.1935,2139.7202],[-84.3502,10.1878,2160.2422],[-84.3718,10.1831,1751.0286],[-84.3894,10.1762,1610.2031],[-84.3783,10.1495,1498.6124],[-84.3815,10.1478,1451.5896],[-84.3844,10.1413,1392.0193],[-84.389,10.1374,1347.0251],[-84.3904,10.1319,1286.6201],[-84.3838,10.1173,1152.8953],[-84.3798,10.1174,1117.0244],[-84.3781,10.1151,1098.3859],[-84.3788,10.1113,1073.8896],[-84.3759,10.1073,1035.3223],[-84.3752,10.1028,1023.4611],[-84.3727,10.1009,999.1449],[-84.3735,10.0969,978.6475],[-84.3722,10.0947,974.8258]]]]}
,"properties": {"GID_3": "CRI.1.7.1_1","GID_0": "CRI","country": "CostaRica","GID_1": "CRI.1_1","province": "Alajuela","NL_NAME_1": "NA","GID_2": "CRI.1.7_1","county": "Naranjo","NL_NAME_2": "NA","city": "CirriSur","VARNAME_3": "NA","NL_NAME_3": "NA","TYPE_3": "Distrito","ENGTYPE_3": "District","CC_3": "4","HASC_3": "NA","name": "Cirri_Sur.city","area_km2": 31.8271,"hist_schema_id": "Elevation0-9000","hist_area_km2": {"975": 0.02087,"1000": 0.20874,"1025": 0.25048,"1050": 0.20873,"1075": 0.37572,"1100": 0.41746,"1125": 0.60531,"1150": 0.6053,"1175": 0.58443,"1200": 0.62617,"1225": 0.70965,"1250": 0.45918,"1275": 0.48005,"1300": 0.45918,"1325": 0.79312,"1350": 0.93921,"1375": 0.60527,"1400": 0.79311,"1425": 0.98094,"1450": 0.7931,"1475": 1.04354,"1500": 0.89744,"1525": 0.77221,"1550": 0.79307,"1575": 0.70958,"1600": 0.96001,"1625": 1.18957,"1650": 1.56522,"1675": 1.41912,"1700": 1.27303,"1725": 1.21041,"1750": 0.8765,"1775": 0.89737,"1800": 0.8765,"1825": 0.81389,"1850": 0.79301,"1875": 0.58433,"1900": 0.68867,"1925": 0.56345,"1950": 0.3965,"1975": 0.37563,"2000": 0.45911,"2025": 0.50084,"2050": 0.4591,"2075": 0.35476,"2100": 0.14608,"2125": 0.12521,"2150": 0.10434,"2175": 0.0626}}}