{"type":"Feature","properties":{"GID_3":"CRI.7.5.5_1","GID_0":"CRI","country":"CostaRica","GID_1":"CRI.7_1","province":"SanJosé","NL_NAME_1":"NA","GID_2":"CRI.7.5_1","county":"Desamparados","NL_NAME_2":"NA","city":"LosGuido","VARNAME_3":"NA","NL_NAME_3":"NA","TYPE_3":"Distrito","ENGTYPE_3":"District","CC_3":"13","HASC_3":"NA","name":"Los_Guido.city"},
"geometry":{"type": "MultiPolygon","coordinates": [[[[-84.05,9.8799,1383.7067],[-84.0525,9.8765,1333.941],[-84.0555,9.878,1320.3895],[-84.0551,9.8756,1299.7784],[-84.0586,9.8737,1204.2833],[-84.0568,9.8685,1213.5306],[-84.0504,9.86,1245.3014],[-84.0492,9.8618,1253.6208],[-84.0448,9.8624,1271.1257],[-84.0382,9.8696,1235.8951],[-84.0425,9.8713,1261.0334],[-84.0392,9.8736,1213.604],[-84.0432,9.8784,1341.9503],[-84.0424,9.8811,1356.7793],[-84.045,9.8795,1419.095],[-84.05,9.8799,1383.7067]]]]}}