{"type":"Feature","properties":{"GID_3":"CRI.6.2.5_1","GID_0":"CRI","country":"CostaRica","GID_1":"CRI.6_1","province":"Puntarenas","NL_NAME_1":"NA","GID_2":"CRI.6.2_1","county":"BuenosAires","NL_NAME_2":"NA","city":"Chánguena","VARNAME_3":"NA","NL_NAME_3":"NA","TYPE_3":"Distrito","ENGTYPE_3":"District","CC_3":"7","HASC_3":"NA","name":"Chánguena.city"},
"geometry":{"type": "MultiPolygon","coordinates": [[[[-83.3307,8.9469,63.6985],[-83.3125,8.9428,533.1801],[-83.2993,8.9339,620.1182],[-83.2924,8.9265,762.7585],[-83.2823,8.929,674.1783],[-83.2794,8.9319,787.0861],[-83.2766,8.9284,715.2755],[-83.2715,8.9262,610.3038],[-83.2715,8.9235,516.6696],[-83.2673,8.9197,319.0118],[-83.2593,8.9172,539.2631],[-83.2528,8.9178,732.2189],[-83.2481,8.9144,744.5745],[-83.2492,8.905,813.5667],[-83.2368,8.891,1047.0105],[-83.2355,8.8842,986.4656],[-83.2285,8.883,556.5452],[-83.2172,8.8745,1066.1643],[-83.2157,8.8749,1046.718],[-83.2094,8.866,1139.821],[-83.197,8.8566,1320.4302],[-83.1948,8.8492,1450.3744],[-83.1862,8.8434,1541.8477],[-83.1763,8.8203,1511.9767],[-83.1701,8.8166,1577.7339],[-83.1661,8.8117,1581.0704],[-83.163,8.8143,1622.7148],[-83.1595,8.8122,1613.42],[-83.1595,8.8086,1553.8247],[-83.1579,8.8071,1539.5161],[-83.1599,8.8027,1588.2015],[-83.1526,8.8007,1592.5769],[-83.1513,8.7986,1524.0385],[-83.142,8.7944,1571.2985],[-83.1386,8.7942,1618.854],[-83.1301,8.7853,1512.1746],[-83.1202,8.7832,1476.5267],[-83.1148,8.7799,1472.019],[-83.1039,8.7811,1597.3354],[-83.0966,8.7753,1589.4498],[-83.0925,8.7753,1543.4976],[-83.0907,8.7769,1621.5911],[-83.0844,8.7753,1405.9662],[-83.0753,8.7775,1567.1104],[-83.0729,8.7766,1513.1431],[-83.0659,8.783,1403.8647],[-83.0652,8.7912,1309.8641],[-83.0677,8.7903,1304.7834],[-83.0792,8.8003,944.3935],[-83.0795,8.8089,885.0665],[-83.0752,8.8144,772.0776],[-83.0734,8.8204,762.6651],[-83.074,8.8235,737.7713],[-83.0793,8.8291,638.2458],[-83.0807,8.8336,614.8972],[-83.0792,8.8365,592.2494],[-83.0862,8.8374,613.5503],[-83.089,8.8343,571.3431],[-83.0909,8.8357,569.7266],[-83.0909,8.838,565.9804],[-83.0969,8.8406,577.5051],[-83.0976,8.8469,541.3909],[-83.1065,8.8583,541.1344],[-83.101,8.8734,480.812],[-83.1026,8.875,476.293],[-83.1043,8.8742,473.8372],[-83.1066,8.8768,474.9885],[-83.1102,8.8763,472.2292],[-83.1109,8.8802,533.511],[-83.1127,8.8791,466.4622],[-83.114,8.8825,469.7401],[-83.1181,8.8842,455.2582],[-83.1203,8.8869,478.6726],[-83.121,8.8901,454.5309],[-83.1189,8.8911,525.0548],[-83.1257,8.8934,481.4579],[-83.1292,8.8987,455.7709],[-83.1283,8.9029,443.8853],[-83.1306,8.9075,453.8829],[-83.1284,8.9107,409.6979],[-83.1309,8.9213,398.2181],[-83.1296,8.9245,498.6762],[-83.1338,8.9281,360.2185],[-83.1374,8.9266,341.7783],[-83.1391,8.9315,300.3099],[-83.1423,8.9334,317.985],[-83.1415,8.9389,275.456],[-83.1357,8.9436,322.9311],[-83.1373,8.9534,299.8388],[-83.1455,8.9497,222.0953],[-83.1495,8.952,241.0878],[-83.1519,8.9579,233.2223],[-83.1553,8.9562,246.6854],[-83.1563,8.9538,200.7018],[-83.1638,8.9555,230.948],[-83.1668,8.9506,174.5866],[-83.1689,8.9533,173.4265],[-83.1724,8.9536,176.3788],[-83.1765,8.9594,172.671],[-83.18,8.9607,163.1044],[-83.184,8.9596,166.7193],[-83.1877,8.965,170.2866],[-83.191,8.9748,142.3474],[-83.1995,8.9755,149.7576],[-83.2007,8.9775,142.219],[-83.1995,8.9803,180.9568],[-83.2062,8.9798,118.533],[-83.2034,8.9847,119.7697],[-83.2109,8.9854,115.4202],[-83.2106,8.9932,107.3468],[-83.2088,8.9956,119.574],[-83.2143,8.9954,121.6216],[-83.2177,8.9984,98.4437],[-83.2244,8.9877,86.7586],[-83.2273,8.9878,89.8578],[-83.2276,8.985,90.2762],[-83.2302,8.9863,84.5557],[-83.2292,8.9815,76.7961],[-83.2333,8.9735,118.5947],[-83.2383,8.9733,95.4959],[-83.2437,8.9763,85.1919],[-83.2528,8.9766,83.9637],[-83.2589,8.9839,95.9329],[-83.2607,8.9834,67.8643],[-83.2643,8.9758,69.2108],[-83.2673,8.973,73.502],[-83.2742,8.9824,82.544],[-83.2746,8.9796,68.022],[-83.2721,8.9755,68.3725],[-83.2725,8.9716,58.9429],[-83.2817,8.9695,60.6824],[-83.2901,8.9737,57.6377],[-83.3014,8.9735,53.3218],[-83.3038,8.9713,54.2031],[-83.3034,8.9643,66.3468],[-83.31,8.9562,51.5999],[-83.3136,8.9568,135.3035],[-83.3174,8.963,47.6321],[-83.3214,8.9628,114.453],[-83.3235,8.96,115.2345],[-83.3185,8.953,82.3316],[-83.3266,8.9507,45.254],[-83.3307,8.9469,63.6985]]]]}}