{"type":"Feature","properties":{"GID_2":"CRI.7.12_1","GID_0":"CRI","country":"CostaRica","GID_1":"CRI.7_1","province":"SanJosé","NL_NAME_1":"NA","county":"Moravia","VARNAME_2":"NA","NL_NAME_2":"NA","TYPE_2":"Cantón","ENGTYPE_2":"Canton","CC_2":"14","HASC_2":"CR.SJ.MV","name":"Moravia.county"},
"geometry":{"type": "MultiPolygon","coordinates": [[[[-84.0548,9.9727,1165.5992],[-84.056,9.9689,1167.7604],[-84.0621,9.9646,1188.6294],[-84.061,9.9617,1180.7648],[-84.066,9.9547,1176.4133],[-84.0639,9.956,1178.0352],[-84.0574,9.9528,1192.634],[-84.0513,9.9532,1196.917],[-84.0442,9.9559,1209.5292],[-84.0357,9.9633,1257.447],[-84.0246,9.9671,1304.6365],[-84.0257,9.9683,1297.6151],[-84.035,9.9681,1261.7622],[-84.0335,9.9711,1268.8049],[-84.0224,9.9771,1329.7296],[-84.0232,9.9814,1301.3088],[-84.0213,9.9855,1320.1676],[-84.0233,9.9887,1321.6285],[-84.0189,9.9902,1312.2419],[-84.0196,9.9926,1307.3162],[-84.0157,9.9944,1321.7781],[-84.0131,9.9931,1323.0735],[-84.0143,9.997,1334.1748],[-84.0119,9.9974,1339.5692],[-84.0111,10.0012,1360.3456],[-84.0073,10.0,1360.9399],[-84.0045,10.0026,1378.8196],[-84.0023,10.0015,1392.4783],[-84.0023,10.019,1438.9561],[-83.9987,10.021,1449.8641],[-83.9936,10.0211,1467.4707],[-83.9885,10.031,1459.7607],[-83.9894,10.04,1512.1017],[-83.9864,10.0454,1512.1798],[-83.9875,10.0502,1540.6643],[-83.9862,10.0569,1439.9656],[-83.9847,10.0568,1452.9579],[-83.9866,10.0606,1285.8972],[-83.9837,10.0589,1300.4197],[-83.9812,10.0635,1227.0388],[-83.9832,10.0644,1146.2631],[-83.9777,10.0643,1080.7122],[-83.9751,10.0667,1077.876],[-83.9838,10.066,1170.1094],[-84.0005,10.0561,1417.3408],[-84.0071,10.0583,1496.7627],[-84.0104,10.0562,1545.3047],[-84.0143,10.0565,1559.5881],[-84.0209,10.06,1700.5745],[-84.0239,10.0636,1774.2385],[-84.0283,10.0601,2067.9856],[-84.0206,10.0527,1684.9454],[-84.0172,10.0514,1644.8571],[-84.0142,10.0473,1603.9785],[-84.0125,10.0395,1504.9236],[-84.0101,10.0369,1475.0737],[-84.011,10.026,1402.2075],[-84.0126,10.0215,1378.1382],[-84.0199,10.019,1365.8555],[-84.0197,10.0162,1355.3003],[-84.0231,10.0139,1337.4927],[-84.0255,9.9917,1289.5305],[-84.0317,9.992,1265.9135],[-84.0324,9.9899,1285.1143],[-84.0346,9.991,1256.9812],[-84.0398,9.9868,1242.9939],[-84.043,9.9872,1271.6384],[-84.0408,9.9846,1295.0713],[-84.0447,9.9824,1244.5283],[-84.0442,9.9805,1209.4556],[-84.046,9.9813,1234.4982],[-84.0482,9.9763,1212.4414],[-84.0542,9.9767,1191.5747],[-84.0521,9.9742,1178.6553],[-84.053,9.9725,1168.9568],[-84.0548,9.9727,1165.5992]]]]}}