{"type":"Feature","properties":{"GID_3":"CRI.3.7.5_1","GID_0":"CRI","country":"CostaRica","GID_1":"CRI.3_1","province":"Guanacaste","NL_NAME_1":"NA","GID_2":"CRI.3.7_1","county":"Liberia","NL_NAME_2":"NA","city":"Nacascolo","VARNAME_3":"NA","NL_NAME_3":"NA","TYPE_3":"Distrito","ENGTYPE_3":"District","CC_3":"4","HASC_3":"NA","name":"Nacascolo.city"},
"geometry":{"type": "MultiPolygon","coordinates": [[[[-85.7033,10.6083,0.0],[-85.7031,10.6083,0.0],[-85.703,10.6086,0.0],[-85.7033,10.6086,0.0],[-85.7033,10.6083,0.0]]],
[[[-85.7019,10.6105,0.0],[-85.7018,10.6105,0.0],[-85.7018,10.6107,0.0],[-85.7019,10.6107,0.0],[-85.7019,10.6105,0.0]]],
[[[-85.6918,10.641,77.7863],[-85.6963,10.6414,29.7655],[-85.6982,10.6394,0.0],[-85.695,10.6392,43.1834],[-85.6918,10.641,77.7863]]],
[[[-85.6864,10.6446,26.5577],[-85.6892,10.6456,0.0],[-85.6912,10.6419,8.3673],[-85.6869,10.6407,15.7097],[-85.6854,10.6443,3.7378],[-85.6864,10.6446,26.5577]]],
[[[-85.5782,10.5385,24.3273],[-85.5751,10.539,33.7959],[-85.569,10.5488,28.9874],[-85.5698,10.5502,28.9874],[-85.5781,10.5519,29.2425],[-85.5762,10.5624,31.1624],[-85.5793,10.5631,31.0337],[-85.5796,10.5745,38.4324],[-85.5814,10.5786,35.234],[-85.5804,10.5822,38.0864],[-85.572,10.5819,38.6568],[-85.5667,10.5937,54.8816],[-85.5581,10.6023,57.5551],[-85.555,10.6001,68.2756],[-85.55,10.5998,65.8649],[-85.5425,10.6061,77.438],[-85.5345,10.6079,77.5123],[-85.5627,10.6354,33.3579],[-85.5631,10.6379,30.9594],[-85.559,10.6446,42.8224],[-85.5552,10.6475,39.8364],[-85.556,10.6652,45.427],[-85.5489,10.6687,67.4486],[-85.5492,10.6737,63.4993],[-85.5439,10.6791,50.0005],[-85.5445,10.684,48.7381],[-85.5413,10.6854,115.4345],[-85.5416,10.6905,94.0282],[-85.5337,10.6985,54.6123],[-85.5314,10.7084,81.5861],[-85.5272,10.7095,53.7628],[-85.5298,10.7155,57.56],[-85.5256,10.72,59.1672],[-85.5286,10.7234,56.5398],[-85.5242,10.7263,53.8018],[-85.5278,10.7298,63.8875],[-85.5254,10.734,65.3413],[-85.5259,10.7359,62.7401],[-85.534,10.7388,67.9386],[-85.5398,10.748,71.0206],[-85.5429,10.7485,76.0452],[-85.5462,10.746,74.8887],[-85.5501,10.7537,77.3868],[-85.5445,10.7627,77.0319],[-85.5475,10.7638,88.8253],[-85.5493,10.7678,88.4542],[-85.5484,10.7752,89.0548],[-85.551,10.7795,85.77],[-85.5513,10.7843,88.0531],[-85.5499,10.7886,88.9672],[-85.5531,10.7903,86.4629],[-85.5505,10.794,87.8369],[-85.5509,10.8,88.9687],[-85.5484,10.8018,91.7875],[-85.5484,10.8064,89.631],[-85.545,10.815,96.2464],[-85.5424,10.8168,93.0172],[-85.5415,10.8212,96.3263],[-85.552,10.8275,100.4995],[-85.5544,10.8325,101.6276],[-85.5535,10.8372,106.2317],[-85.5567,10.8444,109.0186],[-85.5597,10.8459,107.5455],[-85.5598,10.8522,113.8905],[-85.568,10.8597,160.7933],[-85.5825,10.8513,210.1475],[-85.5862,10.851,220.4593],[-85.5901,10.8541,236.3017],[-85.5969,10.8544,254.9819],[-85.6092,10.8478,304.2367],[-85.6152,10.835,289.7132],[-85.6248,10.8388,297.4478],[-85.6256,10.8351,294.5607],[-85.6333,10.8327,290.8645],[-85.6384,10.8259,290.7112],[-85.6442,10.8221,286.9081],[-85.6433,10.812,246.4099],[-85.6409,10.8079,221.9396],[-85.6414,10.7983,89.7483],[-85.6522,10.8024,35.522],[-85.6582,10.803,26.0869],[-85.6646,10.8028,23.5602],[-85.6692,10.7991,12.9592],[-85.6793,10.8084,18.8553],[-85.6824,10.8038,19.8851],[-85.68,10.8003,2.4744],[-85.6766,10.8013,8.4829],[-85.679,10.7998,6.3549],[-85.6764,10.7954,1.4068],[-85.6728,10.7944,27.7056],[-85.6734,10.7919,5.9536],[-85.6741,10.7929,7.3008],[-85.6733,10.7944,3.2675],[-85.676,10.7943,1.4068],[-85.6785,10.7962,0.0],[-85.6743,10.7883,0.0],[-85.6645,10.7761,0.0],[-85.6591,10.7745,3.727],[-85.6596,10.7717,8.2903],[-85.6609,10.7742,6.4414],[-85.6626,10.7736,7.0194],[-85.658,10.7655,5.7052],[-85.657,10.759,0.0],[-85.6621,10.7476,86.6949],[-85.663,10.7375,0.0],[-85.6605,10.7325,107.4994],[-85.6618,10.7205,72.0447],[-85.6557,10.7009,0.0],[-85.6569,10.6949,0.0],[-85.6539,10.6862,41.9503],[-85.6529,10.677,4.3845],[-85.6554,10.6675,0.0],[-85.6582,10.664,9.1174],[-85.6762,10.6616,0.0],[-85.6754,10.6596,0.0],[-85.6708,10.6592,22.1755],[-85.6701,10.6564,53.6239],[-85.6744,10.6511,17.8248],[-85.6793,10.6522,0.0],[-85.6802,10.6489,35.2678],[-85.685,10.644,3.7378],[-85.6797,10.6418,0.0],[-85.6744,10.6427,8.2899],[-85.6715,10.6456,15.2248],[-85.6704,10.6423,14.5432],[-85.6758,10.6358,0.0],[-85.6803,10.6336,30.3872],[-85.6837,10.6354,0.0],[-85.6855,10.6306,0.0],[-85.6887,10.6317,0.0],[-85.6882,10.6294,14.1535],[-85.691,10.6271,0.0],[-85.6912,10.6243,0.0],[-85.6864,10.6239,25.7227],[-85.6851,10.621,14.574],[-85.6872,10.616,66.7167],[-85.6892,10.6154,7.9429],[-85.6881,10.6132,0.3095],[-85.6965,10.6122,0.0],[-85.6993,10.6104,0.0],[-85.6919,10.6055,0.0],[-85.6883,10.6104,0.0],[-85.6795,10.6113,6.2169],[-85.6765,10.6199,0.0],[-85.6738,10.6232,39.0315],[-85.6749,10.6278,0.0],[-85.6738,10.6313,10.7942],[-85.663,10.6358,35.4392],[-85.6551,10.6427,14.2188],[-85.6487,10.6426,11.1992],[-85.6343,10.6353,0.0],[-85.6294,10.6294,3.8999],[-85.6273,10.6237,31.9712],[-85.6265,10.6255,12.8879],[-85.6283,10.6315,11.167],[-85.6216,10.6319,19.2623],[-85.6188,10.6369,23.5856],[-85.6088,10.6369,144.5714],[-85.6139,10.6263,123.4084],[-85.6131,10.6201,84.3947],[-85.6107,10.6168,58.5815],[-85.5809,10.6151,31.1063],[-85.59,10.6036,36.6208],[-85.5884,10.5958,34.8951],[-85.5906,10.5892,40.2297],[-85.5864,10.5813,26.127],[-85.5906,10.5755,26.6917],[-85.5905,10.5666,32.4738],[-85.5937,10.563,30.3671],[-85.5891,10.5604,24.1916],[-85.5804,10.5404,17.4547],[-85.5782,10.5385,24.3273]]],
[[[-85.6835,10.7917,0.0],[-85.6829,10.7919,0.0],[-85.6829,10.7927,0.0],[-85.6835,10.7925,0.0],[-85.6835,10.7917,0.0]]]]}}