{"type": "Feature","bbox": [-83.8935,8.5043,-83.1627,9.2799],"geometry": {"type": "MultiPolygon","coordinates": [[[[-83.7403,8.6059,0.0],[-83.7398,8.6055,0.0],[-83.7395,8.6055,0.0],[-83.7399,8.6062,0.0],[-83.7403,8.6059,0.0]]],
[[[-83.7401,8.614,0.2336],[-83.7397,8.6135,0.1504],[-83.7388,8.615,0.0],[-83.74,8.6153,0.2336],[-83.7401,8.614,0.2336]]],
[[[-83.7421,8.6175,0.0],[-83.7418,8.6172,0.0],[-83.7415,8.6171,0.0],[-83.7418,8.6178,0.0],[-83.7421,8.6175,0.0]]],
[[[-83.7413,8.6179,0.0],[-83.7411,8.6175,0.0],[-83.7408,8.6176,0.0],[-83.7409,8.6181,0.0],[-83.7413,8.6179,0.0]]],
[[[-83.4862,8.676,10.8696],[-83.4817,8.6807,4.8131],[-83.482,8.684,4.0477],[-83.479,8.6855,4.9539],[-83.4819,8.6876,8.5874],[-83.4811,8.69,2.2403],[-83.4728,8.6896,6.7373],[-83.4722,8.6878,5.7502],[-83.4681,8.6929,2.7607],[-83.4702,8.6981,1.248],[-83.4726,8.6972,23.6847],[-83.4711,8.6999,0.0],[-83.4724,8.7015,4.0163],[-83.476,8.6988,0.0],[-83.4745,8.6965,13.901],[-83.4761,8.6978,1.2177],[-83.4771,8.6969,1.7346],[-83.4751,8.6931,21.9751],[-83.4762,8.6951,15.441],[-83.4822,8.6932,45.3976],[-83.4843,8.6974,32.4889],[-83.485,8.7107,13.0684],[-83.482,8.7142,33.9788],[-83.4818,8.7182,23.0672],[-83.479,8.721,6.506],[-83.4693,8.7197,6.7552],[-83.4687,8.723,6.6595],[-83.4654,8.7263,27.4946],[-83.4597,8.725,0.0],[-83.4555,8.7217,0.0],[-83.4448,8.725,23.1146],[-83.4385,8.7218,0.0],[-83.4386,8.7176,0.0],[-83.4331,8.7134,4.298],[-83.4277,8.7153,0.0],[-83.4248,8.7188,56.7183],[-83.4181,8.7195,37.2914],[-83.4166,8.7252,6.7117],[-83.4071,8.7315,0.0],[-83.4072,8.7335,0.0],[-83.4035,8.7367,10.2739],[-83.4008,8.7364,47.2285],[-83.3979,8.7331,0.0],[-83.3951,8.7362,13.4531],[-83.3935,8.7312,0.0],[-83.3911,8.7307,24.5167],[-83.3917,8.7329,25.9402],[-83.387,8.7348,11.3843],[-83.3833,8.7402,58.3175],[-83.38,8.74,0.0],[-83.3834,8.745,19.7707],[-83.3814,8.7466,8.9777],[-83.3746,8.744,25.881],[-83.3731,8.7351,0.0],[-83.3706,8.7376,33.6555],[-83.3675,8.7382,22.958],[-83.362799999999993,8.7373,33.5671],[-83.3545,8.7324,15.7645],[-83.3538,8.736,15.215],[-83.347,8.7362,12.6528],[-83.341,8.7286,0.0],[-83.331,8.7249,27.6569],[-83.3355,8.725,3.6411],[-83.3337,8.7193,0.0],[-83.3248,8.7224,2.5313],[-83.322,8.7272,19.249],[-83.3148,8.7288,40.6562],[-83.3081,8.7279,17.0992],[-83.3044,8.7256,14.2459],[-83.2993,8.7257,17.2528],[-83.2956,8.7298,7.0415],[-83.2977,8.7323,3.4222],[-83.2958,8.7388,8.6405],[-83.2936,8.7409,2.9351],[-83.2944,8.7435,21.6349],[-83.2915,8.7448,6.8289],[-83.2894,8.7437,8.1633],[-83.2876,8.7473,9.8062],[-83.2869,8.7499,8.8208],[-83.2883,8.7515,18.5732],[-83.2865,8.7534,10.178],[-83.2886,8.7551,40.4054],[-83.2848,8.7618,13.4315],[-83.2823,8.7628,23.1334],[-83.283,8.7607,8.4771],[-83.2798,8.7599,7.6424],[-83.2788,8.7628,9.3684],[-83.2774,8.7606,12.674],[-83.2741,8.7691,8.9611],[-83.2692,8.7659,10.4702],[-83.265,8.7659,9.477],[-83.2637,8.7684,21.3247],[-83.2635,8.7661,9.477],[-83.2613,8.7662,14.218],[-83.2612,8.7687,9.9506],[-83.2564,8.7669,36.8128],[-83.2544,8.7713,12.3444],[-83.2509,8.7701,8.5806],[-83.2484,8.7721,8.0312],[-83.2512,8.7746,18.8967],[-83.249,8.779,19.9195],[-83.2492,8.7758,16.0471],[-83.2473,8.7736,8.0312],[-83.2429,8.7762,19.4505],[-83.2424,8.7724,21.985],[-83.2364,8.7742,14.6435],[-83.2355,8.7727,32.2882],[-83.2331,8.7731,15.0891],[-83.2341,8.7663,13.7524],[-83.2327,8.7642,15.745],[-83.2288,8.764,24.0454],[-83.228,8.7661,17.4192],[-83.2249,8.7666,18.7104],[-83.224,8.7648,19.0941],[-83.2263,8.759,23.1009],[-83.2209,8.7571,19.213],[-83.2197,8.7539,26.2281],[-83.2164,8.7574,20.4431],[-83.2117,8.7513,24.0895],[-83.2076,8.7498,38.5772],[-83.2039,8.7444,33.72],[-83.1966,8.7454,54.7435],[-83.1903,8.7442,48.9385],[-83.187,8.737,64.5755],[-83.1836,8.7356,55.1705],[-83.1795,8.7379,65.4736],[-83.1757,8.745,95.3092],[-83.1748,8.7514,125.2577],[-83.1721,8.7529,173.5184],[-83.1728,8.7596,271.8357],[-83.171,8.7637,268.7404],[-83.173,8.7674,385.136],[-83.1739,8.7781,502.9691],[-83.1726,8.7794,543.457],[-83.171,8.7926,775.1277],[-83.1665,8.8004,1200.1307],[-83.1672,8.8041,1377.3396],[-83.1643,8.8073,1476.2955],[-83.1627,8.8142,1622.7148],[-83.1661,8.8117,1581.0704],[-83.1701,8.8166,1577.7339],[-83.1763,8.8203,1511.9767],[-83.1862,8.8434,1541.8477],[-83.1948,8.8492,1450.3744],[-83.197,8.8566,1320.4302],[-83.2094,8.866,1139.821],[-83.2157,8.8749,1046.718],[-83.2172,8.8745,1066.1643],[-83.2285,8.883,556.5452],[-83.2355,8.8842,986.4656],[-83.2368,8.891,1047.0105],[-83.2489,8.9043,821.7093],[-83.2476,8.9135,758.7633],[-83.2528,8.9178,732.2189],[-83.2593,8.9172,539.2631],[-83.2673,8.9197,319.0118],[-83.2715,8.9235,516.6696],[-83.2715,8.9262,610.3038],[-83.2766,8.9284,715.2755],[-83.2794,8.9319,787.0861],[-83.2823,8.929,674.1783],[-83.2924,8.9265,762.7585],[-83.2993,8.9339,620.1182],[-83.3125,8.9428,533.1801],[-83.3182,8.9448,497.0479],[-83.3307,8.9469,63.6985],[-83.3418,8.9406,41.9672],[-83.3485,8.944,56.8796],[-83.3566,8.9445,66.8321],[-83.3707,8.9546,28.0],[-83.3681,8.9644,381.2932],[-83.3685,8.9749,772.0183],[-83.3739,8.9806,933.5204],[-83.3795,8.9833,970.7762],[-83.3842,8.9829,933.0565],[-83.3855,8.9851,953.5739],[-83.39,8.9872,939.5471],[-83.396,8.9859,982.8671],[-83.397,8.988,983.7737],[-83.3993,8.9886,964.6034],[-83.3992,8.9925,829.8981],[-83.4008,8.9944,805.8732],[-83.4054,8.996,721.0706],[-83.4118,8.9955,632.2909],[-83.4151,8.9903,505.3609],[-83.413,8.9876,495.7391],[-83.4132,8.981,307.9438],[-83.4143,8.9773,184.2309],[-83.4168,8.9767,145.7921],[-83.4249,8.9807,451.5496],[-83.4262,8.9874,641.7894],[-83.4327,8.9919,1010.7648],[-83.4374,8.9899,1046.8861],[-83.4426,8.9906,1014.1053],[-83.4476,8.994,1004.037],[-83.4698,8.9969,781.4048],[-83.4717,8.9996,764.2035],[-83.4754,8.9999,785.3283],[-83.4743,9.0079,866.5291],[-83.4791,9.0117,863.7787],[-83.4876,9.0141,923.0272],[-83.4876,9.0156,907.7551],[-83.4926,9.0196,861.5951],[-83.497,9.0212,855.7487],[-83.494,9.027,862.1486],[-83.4981,9.0331,909.0631],[-83.5076,9.0345,833.6797],[-83.5159,9.0442,836.3261],[-83.5254,9.0457,914.6459],[-83.5316,9.0505,880.8818],[-83.5386,9.0481,818.3334],[-83.5484,9.0507,940.266],[-83.5551,9.0546,967.6757],[-83.56,9.0541,905.3607],[-83.5635,9.0582,894.9521],[-83.5623,9.0652,906.04],[-83.5519,9.0703,768.9849],[-83.5539,9.0745,750.8722],[-83.5492,9.08,884.6993],[-83.5492,9.0828,936.5425],[-83.5581,9.0857,959.8495],[-83.5628,9.0848,977.0967],[-83.5702,9.0866,972.8118],[-83.5801,9.0961,1080.052],[-83.5833,9.1023,1059.1885],[-83.6053,9.114,1015.7552],[-83.6057,9.118,996.4843],[-83.6138,9.1251,1118.1022],[-83.6199,9.1243,1093.4379],[-83.6259,9.1267,1115.0391],[-83.6356,9.1275,1144.3254],[-83.6474,9.1321,1128.4878],[-83.6546,9.1451,1043.9147],[-83.6734,9.1575,1027.1477],[-83.6774,9.1754,943.201],[-83.6717,9.1768,952.7809],[-83.6695,9.1821,1137.3225],[-83.675,9.1935,1083.4672],[-83.6814,9.1996,876.6317],[-83.6854,9.2085,963.6251],[-83.6896,9.2116,1052.6985],[-83.7025,9.2158,1104.5912],[-83.7055,9.2251,1130.1334],[-83.7095,9.2249,996.0801],[-83.7108,9.2206,960.8181],[-83.7229,9.2205,705.9133],[-83.7362,9.2229,269.0388],[-83.7352,9.2238,275.9937],[-83.7361,9.2282,323.8665],[-83.7411,9.2376,463.2725],[-83.7488,9.2443,793.1979],[-83.753,9.2422,804.2615],[-83.7574,9.244,839.2875],[-83.7606,9.2391,860.606],[-83.759,9.2353,778.6495],[-83.7555,9.2322,752.9825],[-83.7534,9.2274,763.7623],[-83.7544,9.224,765.3099],[-83.7524,9.2226,757.8814],[-83.7563,9.2176,695.6821],[-83.7613,9.2159,691.1572],[-83.7686,9.2163,728.2722],[-83.772,9.2201,643.3995],[-83.7739,9.2178,593.1927],[-83.7766,9.2217,549.6075],[-83.7804,9.2207,610.3345],[-83.7865,9.2242,617.5568],[-83.7948,9.2244,570.5634],[-83.802,9.2288,524.1702],[-83.8085,9.2285,533.5524],[-83.8149,9.2347,569.3769],[-83.8192,9.2424,516.8653],[-83.8319,9.2527,430.4532],[-83.837,9.2557,428.7531],[-83.8422,9.2564,421.1251],[-83.8459,9.2604,411.1419],[-83.8504,9.2695,295.436],[-83.853,9.2798,67.81],[-83.8552,9.2799,24.7816],[-83.859,9.2764,22.7967],[-83.8585,9.2725,54.0857],[-83.862799999999993,9.2595,6.0447],[-83.8695,9.2547,0.0],[-83.8563,9.2464,0.0],[-83.8508,9.2398,0.0699],[-83.845,9.2362,4.4609],[-83.841,9.2277,0.0],[-83.8421,9.2239,0.0],[-83.845,9.2223,7.7359],[-83.8441,9.2207,9.2911],[-83.8417,9.2229,16.4796],[-83.8389,9.2226,15.7499],[-83.834,9.2173,2.2706],[-83.8308,9.2181,56.6231],[-83.8231,9.2116,2.9844],[-83.8181,9.2134,6.1463],[-83.8141,9.2101,0.0],[-83.8106,9.2103,36.9816],[-83.8087,9.2063,25.0778],[-83.805,9.2041,2.0662],[-83.7952,9.2037,0.0],[-83.7904,9.2003,0.0],[-83.7893,9.1963,10.9988],[-83.7866,9.1957,23.9902],[-83.7854,9.197,1.1595],[-83.7792,9.1926,3.129],[-83.7673,9.1793,8.3872],[-83.759,9.1656,3.1148],[-83.7581,9.154,0.0],[-83.7614,9.1473,0.0],[-83.7567,9.151,0.0],[-83.748,9.1525,0.0],[-83.7361,9.1493,0.0],[-83.728,9.1447,5.3148],[-83.7268,9.14,0.0],[-83.7214,9.1321,12.1725],[-83.7192,9.1325,22.6009],[-83.7161,9.1305,28.4794],[-83.7056,9.1172,5.6375],[-83.6953,9.1117,1.7863],[-83.6934,9.1083,35.587],[-83.6942,9.1071,0.0],[-83.6866,9.0993,5.2102],[-83.6869,9.0964,30.6912],[-83.689,9.0953,0.0],[-83.6826,9.0948,0.0],[-83.679,9.0909,10.4111],[-83.6777,9.0868,7.8585],[-83.6797,9.0835,0.0],[-83.6705,9.0787,0.7551],[-83.6616,9.0617,0.3483],[-83.6593,9.0596,1.564],[-83.6568,9.0599,5.0794],[-83.6583,9.0628,1.4121],[-83.6576,9.0652,0.0],[-83.6546,9.0657,0.0],[-83.6569,9.0681,0.0],[-83.6555,9.0684,0.0],[-83.6472,9.0624,11.1725],[-83.6375,9.0507,15.5626],[-83.6309,9.0506,14.2019],[-83.629,9.0492,9.8573],[-83.6287,9.0466,22.8654],[-83.6252,9.0444,16.1616],[-83.6329,9.0411,0.0],[-83.6359,9.0462,0.0],[-83.6424,9.0487,4.434],[-83.6453,9.0473,5.8486],[-83.6454,9.0421,5.5904],[-83.6357,9.0243,10.111],[-83.6328,9.0141,2.3432],[-83.6303,8.9641,0.0],[-83.6259,8.9558,0.0],[-83.6206,8.9546,0.2913],[-83.624,8.9523,0.0],[-83.627,8.9471,0.0],[-83.6256,8.9355,0.0],[-83.6236,8.9303,0.0],[-83.6209,8.9287,0.0],[-83.6224,8.9257,0.0],[-83.6222,8.9178,2.949],[-83.6075,8.9222,1.0129],[-83.6086,8.9197,0.0],[-83.6067,8.9204,0.0],[-83.6077,8.9193,0.0],[-83.6041,8.9154,0.0],[-83.6072,8.9137,0.0],[-83.6095,8.9154,0.0],[-83.6106,8.9145,0.0],[-83.6066,8.9096,0.0],[-83.6077,8.9089,0.0],[-83.6056,8.9027,0.0],[-83.6045,8.9033,0.0],[-83.6044,8.9012,0.0],[-83.5939,8.8949,0.0],[-83.5922,8.8922,0.0],[-83.5922,8.8888,0.0],[-83.5947,8.8871,0.0],[-83.6114,8.8933,0.0],[-83.6151,8.8978,0.0],[-83.6186,8.8936,0.0],[-83.6183,8.8766,0.0],[-83.6164,8.8719,0.0],[-83.6132,8.8727,0.0],[-83.6042,8.8709,2.061],[-83.6009,8.8677,4.6647],[-83.5892,8.862,3.1253],[-83.5892,8.86,1.2401],[-83.5857,8.8577,2.5005],[-83.5864,8.8545,3.455],[-83.5804,8.8476,0.0],[-83.5821,8.8445,0.0],[-83.5871,8.8432,7.1707],[-83.59,8.8454,3.5724],[-83.5973,8.8457,0.0],[-83.6018,8.8344,0.0],[-83.6042,8.8339,0.0],[-83.6055,8.8356,0.0],[-83.6092,8.8268,4.6491],[-83.6125,8.8278,12.6894],[-83.6178,8.8257,8.2868],[-83.6196,8.8207,6.594],[-83.625,8.8205,0.0],[-83.6257,8.8228,1.9556],[-83.6334,8.8165,42.6239],[-83.6358,8.8175,3.7759],[-83.6365,8.8139,10.5844],[-83.639,8.8135,0.0],[-83.6405,8.8112,0.0],[-83.642,8.8053,106.3507],[-83.646,8.8019,112.856],[-83.646,8.7989,125.4029],[-83.6524,8.7942,32.2954],[-83.6509,8.7924,13.2609],[-83.6466,8.7936,4.1662],[-83.6388,8.7787,0.0],[-83.63,8.7812,22.5614],[-83.6254,8.7793,0.0],[-83.6248,8.7765,0.0],[-83.6249,8.7738,0.0],[-83.6271,8.7725,15.8013],[-83.6334,8.7718,21.101],[-83.6345,8.7742,0.0],[-83.6366,8.7745,0.9154],[-83.6475,8.7678,0.0],[-83.6435,8.7569,13.8475],[-83.6411,8.7375,0.0],[-83.6387,8.736,1.7473],[-83.6455,8.7345,43.7282],[-83.6494,8.7314,1.8021],[-83.6487,8.7165,0.0],[-83.6505,8.706,0.0],[-83.6539,8.6979,17.0913],[-83.6643,8.6909,14.6787],[-83.6708,8.6908,0.0],[-83.6754,8.6963,26.7544],[-83.6854,8.6932,39.2877],[-83.6913,8.6944,11.9567],[-83.6998,8.6886,45.9803],[-83.7034,8.6894,7.8007],[-83.7103,8.6852,1.9859],[-83.7115,8.678,29.9216],[-83.7159,8.6743,65.4781],[-83.7146,8.6702,13.2086],[-83.7163,8.6662,0.0],[-83.7143,8.6635,1.6825],[-83.7131,8.6563,6.5652],[-83.7144,8.6493,0.0],[-83.7197,8.6471,0.0],[-83.7223,8.6435,57.1692],[-83.7318,8.6426,0.0],[-83.7324,8.6384,21.5205],[-83.7298,8.6359,67.9572],[-83.7298,8.6304,20.1531],[-83.7317,8.6276,7.3874],[-83.7344,8.6275,0.0],[-83.7356,8.6225,1.6517],[-83.7396,8.6235,0.0],[-83.7352,8.6214,0.0],[-83.7365,8.6201,1.259],[-83.7354,8.6181,0.0],[-83.7356,8.606,0.0],[-83.7327,8.5932,3.2295],[-83.7232,8.5834,8.8701],[-83.7199,8.5828,0.0],[-83.7194,8.5856,36.8303],[-83.7169,8.5861,25.4807],[-83.7146,8.5825,2.7518],[-83.7093,8.5833,0.0],[-83.7017,8.5784,0.0],[-83.7031,8.5779,0.0],[-83.6615,8.5371,3.2391],[-83.653,8.5256,0.0],[-83.6513,8.5266,0.5103],[-83.6441,8.5245,18.6904],[-83.6431,8.522,13.0681],[-83.6446,8.5207,16.8639],[-83.6416,8.5221,18.3009],[-83.6392,8.5171,19.8208],[-83.6352,8.5172,14.2321],[-83.637,8.5145,13.1701],[-83.6339,8.5152,17.9902],[-83.6343,8.5136,20.6644],[-83.6293,8.5123,17.8092],[-83.6234,8.5045,26.4313],[-83.6209,8.5043,24.5724],[-83.61,8.5086,15.1647],[-83.6079,8.5113,16.1784],[-83.6192,8.5149,15.6444],[-83.6202,8.5181,22.8631],[-83.6183,8.5191,5.3401],[-83.6212,8.5191,9.5704],[-83.6226,8.5234,8.8517],[-83.6241,8.5238,18.029],[-83.6243,8.5222,9.0038],[-83.6292,8.5255,16.265],[-83.631,8.5251,27.3226],[-83.633,8.5289,11.871],[-83.6316,8.5309,17.8543],[-83.634,8.5353,18.9438],[-83.6302,8.5354,23.9352],[-83.63,8.5374,25.5578],[-83.6239,8.5347,15.1298],[-83.6238,8.5382,13.2115],[-83.6177,8.5402,4.5293],[-83.613,8.5485,5.0389],[-83.6062,8.5518,4.4859],[-83.6029,8.5569,4.1282],[-83.5961,8.5608,15.2801],[-83.6021,8.5687,24.2715],[-83.608,8.5729,25.6607],[-83.6173,8.575,19.3677],[-83.6193,8.5768,19.4724],[-83.6238,8.5754,23.7962],[-83.6269,8.5769,21.6037],[-83.6283,8.5819,25.4006],[-83.6322,8.5822,26.1759],[-83.6332,8.5874,37.4278],[-83.6436,8.5936,34.8916],[-83.644,8.5956,53.079],[-83.6419,8.597,61.8397],[-83.6399,8.6023,80.5902],[-83.6359,8.6012,75.531],[-83.6329,8.6065,83.4127],[-83.6299,8.6072,100.4383],[-83.6309,8.6098,108.3457],[-83.6279,8.6115,96.7203],[-83.6298,8.6135,156.5181],[-83.6284,8.6193,90.1989],[-83.6303,8.6204,140.755],[-83.6306,8.6233,130.594],[-83.6285,8.6257,105.4259],[-83.6287,8.6282,89.0256],[-83.6271,8.6295,84.8529],[-83.6213,8.6287,101.1339],[-83.619,8.6238,150.2503],[-83.6162,8.6266,140.359],[-83.6123,8.6252,177.6327],[-83.6101,8.6269,149.3679],[-83.6058,8.6238,165.5399],[-83.6053,8.621,195.9786],[-83.6011,8.6172,166.3828],[-83.6013,8.6134,187.7602],[-83.5949,8.6113,207.1141],[-83.591,8.6116,189.7009],[-83.5893,8.6137,202.537],[-83.5859,8.6117,212.4896],[-83.579,8.6186,291.338],[-83.5805,8.6252,370.7296],[-83.5851,8.6315,481.1558],[-83.5852,8.633,537.8994],[-83.5838,8.6328,494.1266],[-83.5733,8.6247,397.0558],[-83.5702,8.6141,393.1922],[-83.5683,8.6132,381.368],[-83.57,8.6096,382.9236],[-83.5726,8.6095,336.0217],[-83.5688,8.6056,237.2462],[-83.5685,8.6033,244.0685],[-83.5587,8.6009,192.5088],[-83.5567,8.5963,166.7699],[-83.5522,8.5945,149.6121],[-83.5523,8.5929,160.3933],[-83.5408,8.5932,139.3317],[-83.5401,8.5899,141.1241],[-83.5325,8.5901,136.6018],[-83.5288,8.5851,121.3943],[-83.5245,8.587,104.0609],[-83.5236,8.5857,104.0609],[-83.5195,8.5952,115.2301],[-83.515,8.5945,95.4507],[-83.5146,8.5968,123.1829],[-83.5125,8.5972,90.8781],[-83.5116,8.5955,70.5799],[-83.5087,8.5979,104.1931],[-83.5062,8.5977,93.4896],[-83.5,8.6049,63.0079],[-83.497,8.6042,41.6432],[-83.4952,8.6084,37.7393],[-83.4979,8.6109,38.3235],[-83.494,8.6138,34.4809],[-83.4951,8.6166,37.5273],[-83.4863,8.6185,31.0759],[-83.4776,8.627,28.1872],[-83.4799,8.6299,39.6816],[-83.4765,8.6328,26.8902],[-83.4772,8.6375,21.7063],[-83.4792,8.6402,22.1165],[-83.4831,8.6398,18.0919],[-83.4842,8.6412,30.3175],[-83.4847,8.6458,17.77],[-83.4827,8.6522,16.6835],[-83.4838,8.6565,14.3791],[-83.4814,8.6608,13.6532],[-83.4831,8.6654,9.3276],[-83.4809,8.6673,6.544],[-83.4822,8.6699,7.3586],[-83.4851,8.6714,5.3507],[-83.4846,8.6746,4.1858],[-83.4862,8.676,10.8696]]],
[[[-83.5873,8.8461,0.0],[-83.5867,8.8453,0.0],[-83.5859,8.8458,0.0],[-83.5871,8.8465,0.0],[-83.5873,8.8461,0.0]]],
[[[-83.6042,8.8457,0.0],[-83.6029,8.8433,0.0],[-83.6011,8.8461,0.0],[-83.6026,8.849,0.0],[-83.6042,8.8473,0.0],[-83.6042,8.8457,0.0]]],
[[[-83.8673,8.7159,0.0],[-83.8677,8.717,0.0],[-83.8722,8.7148,13.7405],[-83.8753,8.7158,0.0],[-83.8804,8.7137,0.0],[-83.8832,8.7151,0.0],[-83.8935,8.7108,0.0],[-83.8905,8.7092,3.8126],[-83.8893,8.7061,92.1822],[-83.8744,8.7018,0.0],[-83.8727,8.7046,88.2244],[-83.8702,8.7028,30.8727],[-83.8681,8.7052,9.3201],[-83.8682,8.7112,0.0],[-83.8661,8.7147,0.0],[-83.8673,8.7159,0.0]]],
[[[-83.7256,9.1051,6.7229],[-83.727,9.1057,0.629],[-83.728,9.1056,0.629],[-83.7254,9.1036,0.0],[-83.7256,9.1051,6.7229]]],
[[[-83.3365,8.7199,1.0362],[-83.3351,8.7211,0.7964],[-83.3362,8.7219,3.5221],[-83.3366,8.7217,3.5221],[-83.3365,8.7199,1.0362]]],
[[[-83.3345,8.7212,0.7964],[-83.3343,8.7211,0.7964],[-83.3344,8.7214,0.7964],[-83.3345,8.7214,0.7964],[-83.3345,8.7212,0.7964]]],
[[[-83.335,8.7217,0.7964],[-83.3349,8.7216,0.7964],[-83.3347,8.7217,0.7964],[-83.3348,8.7219,0.7964],[-83.335,8.7217,0.7964]]],
[[[-83.3898,8.7273,0.0],[-83.3896,8.7272,0.0],[-83.3896,8.7274,0.0],[-83.3897,8.7274,0.0],[-83.3898,8.7273,0.0]]],
[[[-83.3902,8.7292,0.0],[-83.3896,8.7289,0.0],[-83.3893,8.7295,0.0],[-83.39,8.7297,0.0],[-83.3902,8.7292,0.0]]],
[[[-83.5911,8.8508,0.0],[-83.5975,8.8517,0.7215],[-83.5967,8.8498,4.6497],[-83.5924,8.8484,0.0],[-83.5911,8.8508,0.0]]]]}
,"properties": {"GID_2": "CRI.6.9_1","GID_0": "CRI","country": "CostaRica","GID_1": "CRI.6_1","province": "Puntarenas","NL_NAME_1": "NA","county": "Osa","VARNAME_2": "NA","NL_NAME_2": "NA","TYPE_2": "Cantón","ENGTYPE_2": "Canton","CC_2": "5","HASC_2": "CR.PU.OS","name": "Osa.county","area_km2": 1939.604,"hist_schema_id": "Elevation0-9000","hist_area_km2": {"0": 425.649,"25": 338.345,"50": 97.779,"75": 96.418,"100": 99.605,"125": 98.352,"150": 87.981,"175": 80.52,"200": 66.648,"225": 50.324,"250": 40.998,"275": 37.06,"300": 32.493,"325": 32.324,"350": 29.685,"375": 28.009,"400": 25.516,"425": 22.205,"450": 20.34,"475": 17.952,"500": 17.952,"525": 16.023,"550": 14.767,"575": 14.871,"600": 14.535,"625": 12.608,"650": 11.686,"675": 11.434,"700": 9.947,"725": 9.465,"750": 9.319,"775": 9.005,"800": 7.497,"825": 6.89,"850": 6.22,"875": 5.194,"900": 5.319,"925": 4.125,"950": 2.89,"975": 2.638,"1000": 2.157,"1025": 2.052,"1050": 2.052,"1075": 1.466,"1100": 1.57,"1125": 1.131,"1150": 0.88,"1175": 0.314,"1200": 0.524,"1225": 0.503,"1250": 0.482,"1275": 0.566,"1300": 0.356,"1325": 0.44,"1350": 0.482,"1375": 0.272,"1400": 0.566,"1425": 0.608,"1450": 0.691,"1475": 0.838,"1500": 0.272,"1525": 0.356,"1550": 0.168,"1575": 0.189,"1600": 0.063,"1625": 0.021}}}