{"type": "Feature","bbox": [-84.0017,9.3705,-83.7348,9.5326],"geometry": {"type": "MultiPolygon","coordinates": [[[[-83.9018,9.3998,1024.4333],[-83.8903,9.4024,940.8315],[-83.8909,9.4114,863.6564],[-83.8894,9.4133,828.7855],[-83.8852,9.4133,754.1121],[-83.8818,9.4179,772.1906],[-83.8765,9.415,830.1205],[-83.8735,9.4159,842.9988],[-83.8724,9.414,865.8409],[-83.8612,9.4083,937.4069],[-83.8551,9.4121,1104.6428],[-83.8437,9.407,1123.0098],[-83.8403,9.4025,1100.9871],[-83.833,9.3991,1152.6139],[-83.8263,9.4089,1172.5291],[-83.8209,9.4112,1274.6008],[-83.8162,9.4081,1340.1678],[-83.8124,9.4018,1260.1421],[-83.8122,9.3956,1287.2673],[-83.8055,9.3888,1386.5367],[-83.8057,9.3861,1350.6794],[-83.808,9.3839,1326.0234],[-83.8006,9.3802,1190.5432],[-83.7893,9.3714,960.927],[-83.7864,9.3722,953.4163],[-83.7838,9.3705,902.5533],[-83.7793,9.3711,874.3502],[-83.7729,9.3757,864.0679],[-83.7668,9.3763,784.324],[-83.7614,9.3811,742.0306],[-83.7536,9.3793,698.8492],[-83.751,9.3802,679.4292],[-83.7494,9.3788,679.4292],[-83.7494,9.387,692.4225],[-83.742,9.3852,808.3968],[-83.7404,9.3877,826.9786],[-83.7348,9.3905,803.5281],[-83.736,9.3961,862.0423],[-83.7396,9.4012,885.5665],[-83.7472,9.405,853.7344],[-83.7463,9.4084,897.2812],[-83.7486,9.4126,990.5217],[-83.7558,9.417,1196.7052],[-83.7633,9.4181,1007.5755],[-83.7578,9.4236,1110.7799],[-83.7588,9.4257,1131.5587],[-83.7574,9.4278,1156.2019],[-83.7599,9.4299,1227.9668],[-83.7609,9.4355,1236.8524],[-83.7628,9.4374,1267.6511],[-83.7619,9.4399,1292.8384],[-83.7654,9.4494,1438.6544],[-83.7671,9.4506,1461.9808],[-83.7658,9.4528,1498.0861],[-83.7694,9.4613,1754.2578],[-83.7743,9.4581,1780.4583],[-83.7786,9.4601,1897.1671],[-83.7848,9.4566,1769.0605],[-83.7883,9.4571,1784.4969],[-83.7909,9.4555,1700.3904],[-83.7985,9.4565,1328.1875],[-83.8061,9.4612,848.3057],[-83.8032,9.467,885.218],[-83.8,9.4686,924.144],[-83.7966,9.4732,940.9319],[-83.7976,9.4764,957.0443],[-83.8021,9.4777,1017.7326],[-83.8023,9.4876,1214.9708],[-83.8076,9.49,1317.3182],[-83.8121,9.4869,1415.0319],[-83.8173,9.4863,1480.3436],[-83.8325,9.4939,1965.7113],[-83.8373,9.5035,2294.5305],[-83.8365,9.5148,2279.3733],[-83.834,9.52,2285.189],[-83.8371,9.5176,2157.5649],[-83.8438,9.5219,1896.5679],[-83.8482,9.5284,1743.3212],[-83.8485,9.5313,1576.5132],[-83.8505,9.5326,1498.9497],[-83.8546,9.5301,1508.2527],[-83.8573,9.5302,1449.4896],[-83.8625,9.5251,1402.396],[-83.8679,9.5269,1345.2632],[-83.8685,9.5231,1285.0596],[-83.8725,9.5195,1304.5247],[-83.8767,9.5201,1251.4612],[-83.875,9.5135,1129.0476],[-83.8837,9.5062,1020.1182],[-83.8849,9.503,1006.3943],[-83.8896,9.5021,952.9652],[-83.8913,9.5049,971.3811],[-83.8942,9.4992,879.6028],[-83.8993,9.4981,839.1416],[-83.9013,9.496,864.5424],[-83.9059,9.4972,793.2565],[-83.911,9.4952,713.2734],[-83.9158,9.4983,633.7705],[-83.9179,9.4976,665.7249],[-83.919,9.4945,602.9456],[-83.9175,9.4902,644.5789],[-83.925299999999993,9.4847,503.9048],[-83.9336,9.4855,467.6616],[-83.9365,9.4912,425.0494],[-83.9403,9.4903,420.1471],[-83.9437,9.4824,404.4595],[-83.945,9.4702,490.2014],[-83.9437,9.4679,356.748],[-83.9453,9.4556,313.7755],[-83.9418,9.452,352.8342],[-83.9454,9.4496,317.217],[-83.9444,9.4433,316.8995],[-83.947,9.4423,272.5237],[-83.9525,9.4316,229.3371],[-83.9625,9.4316,212.669],[-83.9665,9.4386,191.4388],[-83.965,9.4428,189.3731],[-83.9674,9.4468,278.9385],[-83.9654,9.4501,176.4832],[-83.9724,9.4526,190.6271],[-83.9759,9.4611,143.5768],[-83.9838,9.4648,174.2399],[-83.9859,9.4686,128.7939],[-83.9874,9.4647,191.7765],[-83.9948,9.4617,130.2759],[-83.9916,9.4556,112.7447],[-83.9967,9.4536,103.2936],[-83.9945,9.4468,92.4215],[-83.9971,9.4468,89.2891],[-83.9981,9.4504,103.2003],[-84.0016,9.4499,83.2523],[-84.0017,9.4432,284.5823],[-83.9981,9.4382,368.8584],[-83.9895,9.4334,607.5403],[-83.9827,9.433,662.734],[-83.9799,9.4211,517.4246],[-83.9741,9.4199,594.1414],[-83.9721,9.4168,602.9207],[-83.9681,9.4156,616.0134],[-83.9617,9.4096,732.0175],[-83.9654,9.402,709.7531],[-83.9617,9.396,765.238],[-83.9584,9.3973,769.5244],[-83.9541,9.3942,731.2786],[-83.9501,9.3958,742.4208],[-83.9456,9.3949,763.5074],[-83.9426,9.3886,670.2651],[-83.9364,9.3871,711.7712],[-83.9337,9.3882,727.8232],[-83.9329,9.3908,719.1678],[-83.9363,9.3966,740.432],[-83.9269,9.401,829.6292],[-83.9245,9.4038,919.188],[-83.922,9.403,890.0598],[-83.9093,9.4051,1164.6305],[-83.9018,9.3998,1024.4333]]]]}
,"properties": {"GID_3": "CRI.7.13.9_1","GID_0": "CRI","country": "CostaRica","GID_1": "CRI.7_1","province": "SanJosé","NL_NAME_1": "NA","GID_2": "CRI.7.13_1","county": "PérezZeledón","NL_NAME_2": "NA","city": "RioNuevo","VARNAME_3": "NA","NL_NAME_3": "NA","TYPE_3": "Distrito","ENGTYPE_3": "District","CC_3": "10","HASC_3": "NA","name": "Rio_Nuevo.city","area_km2": 241.9431,"hist_schema_id": "Elevation0-9000","hist_area_km2": {"75": 0.0418,"100": 0.6274,"125": 0.2928,"150": 0.5647,"175": 0.7947,"200": 0.8784,"225": 1.1503,"250": 1.5686,"275": 1.9451,"300": 1.8824,"325": 2.3425,"350": 2.9281,"375": 2.8863,"400": 3.0746,"425": 3.0955,"450": 3.2628,"475": 3.3046,"500": 4.4341,"525": 3.8903,"550": 4.0785,"575": 4.1831,"600": 4.455,"625": 5.1034,"650": 4.5596,"675": 5.3962,"700": 6.0447,"725": 6.2539,"750": 5.961,"775": 4.8734,"800": 4.706,"825": 5.5008,"850": 4.7269,"875": 5.3126,"900": 5.3753,"925": 4.9988,"950": 4.685,"975": 5.94,"1000": 4.9779,"1025": 5.0825,"1050": 4.8106,"1075": 5.7308,"1100": 5.2498,"1125": 4.957,"1150": 5.5007,"1175": 5.0614,"1200": 4.6431,"1225": 4.3294,"1250": 4.5385,"1275": 3.9529,"1300": 3.7228,"1325": 3.4927,"1350": 3.2417,"1375": 2.1541,"1400": 2.6141,"1425": 2.154,"1450": 2.3005,"1475": 2.2377,"1500": 2.0704,"1525": 1.9449,"1550": 1.7985,"1575": 2.0913,"1600": 2.1331,"1625": 1.4639,"1650": 1.6939,"1675": 1.6939,"1700": 1.3802,"1725": 1.2966,"1750": 1.5684,"1775": 1.0874,"1800": 0.9829,"1825": 0.9201,"1850": 0.7946,"1875": 0.8155,"1900": 0.6482,"1925": 0.711,"1950": 0.6064,"1975": 0.6692,"2000": 0.6273,"2025": 0.3973,"2050": 0.5646,"2075": 0.3346,"2100": 0.3973,"2125": 0.23,"2150": 0.2509,"2175": 0.1673,"2200": 0.23,"2225": 0.1464,"2250": 0.1046,"2275": 0.0836,"2300": 0.1464,"2325": 0.0209}}}