{"type":"Feature","properties":{"GID_3":"CRI.7.18.5_1","GID_0":"CRI","country":"CostaRica","GID_1":"CRI.7_1","province":"SanJosé","NL_NAME_1":"NA","GID_2":"CRI.7.18_1","county":"Tibás","NL_NAME_2":"NA","city":"SanJuan","VARNAME_3":"NA","NL_NAME_3":"NA","TYPE_3":"Distrito","ENGTYPE_3":"District","CC_3":"1","HASC_3":"NA","name":"San_Juan.city"},
"geometry":{"type": "MultiPolygon","coordinates": [[[[-84.0835,9.9705,1106.3051],[-84.0862,9.9667,1100.4502],[-84.0901,9.9661,1090.3325],[-84.0908,9.9626,1109.1207],[-84.0883,9.9585,1128.1342],[-84.0811,9.9572,1147.3336],[-84.0802,9.9492,1131.292],[-84.0785,9.951,1140.4025],[-84.0785,9.9543,1144.8478],[-84.0725,9.9593,1165.8544],[-84.0727,9.9622,1172.7898],[-84.0625,9.9618,1182.9839],[-84.0621,9.9646,1188.6294],[-84.056,9.9689,1167.7604],[-84.0551,9.9727,1165.5992],[-84.0576,9.9725,1160.8491],[-84.056,9.971,1152.8007],[-84.0577,9.9691,1167.7604],[-84.0604,9.9705,1201.031],[-84.0605,9.969,1173.2888],[-84.0639,9.9683,1153.2087],[-84.0646,9.9696,1164.4501],[-84.0676,9.9668,1170.5873],[-84.0759,9.9693,1141.6693],[-84.0764,9.9674,1111.3838],[-84.0791,9.9678,1125.3176],[-84.0794,9.9694,1121.3274],[-84.0835,9.9705,1106.3051]]]]}}