{"type":"Feature","properties":{"GID_3":"CRI.7.16.6_1","GID_0":"CRI","country":"CostaRica","GID_1":"CRI.7_1","province":"SanJosé","NL_NAME_1":"NA","GID_2":"CRI.7.16_1","county":"SantaAna","NL_NAME_2":"NA","city":"Uruca","VARNAME_3":"NA","NL_NAME_3":"NA","TYPE_3":"Distrito","ENGTYPE_3":"District","CC_3":"4","HASC_3":"NA","name":"Uruca.city"},
"geometry":{"type": "MultiPolygon","coordinates": [[[[-84.1891,9.8938,1456.3276],[-84.1856,9.8967,1430.4957],[-84.1886,9.9043,1252.7844],[-84.1887,9.9139,1143.913],[-84.1864,9.9156,1121.524],[-84.1832,9.9152,1002.949],[-84.1825,9.9169,997.6583],[-84.1842,9.9263,935.283],[-84.1874,9.9295,914.8118],[-84.195,9.9441,852.5658],[-84.2012,9.9475,830.006],[-84.2051,9.9457,830.7679],[-84.2097,9.9473,832.9728],[-84.21,9.9447,826.8669],[-84.2145,9.9429,809.546],[-84.2122,9.9403,833.7354],[-84.2085,9.9403,842.0195],[-84.205,9.9368,856.643],[-84.2052,9.9331,868.561],[-84.2014,9.9296,888.5239],[-84.1976,9.9213,944.163],[-84.1959,9.9088,1036.8926],[-84.1931,9.9066,1086.1641],[-84.191,9.9009,1173.3534],[-84.1883,9.8995,1268.8279],[-84.1891,9.8938,1456.3276]]]]}}