{"type": "Feature","bbox": [-84.1459,9.8477,-84.1004,9.8961],"geometry": {"type": "MultiPolygon","coordinates": [[[[-84.1351,9.8477,2375.7122],[-84.1338,9.8529,2059.8103],[-84.1223,9.8613,1723.4299],[-84.1148,9.8715,1525.1204],[-84.1004,9.8776,1477.9697],[-84.1019,9.8789,1430.4552],[-84.1048,9.8781,1458.9294],[-84.1053,9.8827,1353.0238],[-84.1095,9.8841,1332.5403],[-84.1072,9.8881,1279.3501],[-84.1111,9.8897,1262.8846],[-84.1146,9.8941,1276.121],[-84.1198,9.8961,1423.2869],[-84.1336,9.8816,1584.9631],[-84.1345,9.8782,1644.3242],[-84.1326,9.8704,1794.486],[-84.1371,9.8625,1957.6616],[-84.1459,9.8597,2338.8789],[-84.1389,9.8486,2348.4324],[-84.1351,9.8477,2375.7122]]]]}
,"properties": {"GID_3": "CRI.7.2.3_1","GID_0": "CRI","country": "CostaRica","GID_1": "CRI.7_1","province": "SanJosé","NL_NAME_1": "NA","GID_2": "CRI.7.2_1","county": "Alajuelita","NL_NAME_2": "NA","city": "SanAntonio","VARNAME_3": "NA","NL_NAME_3": "NA","TYPE_3": "Distrito","ENGTYPE_3": "District","CC_3": "3","HASC_3": "NA","name": "San_Antonio.city","area_km2": 10.193425,"hist_schema_id": "Elevation0-9000","hist_area_km2": {"1250": 0.020887,"1275": 0.104436,"1300": 0.167097,"1325": 0.125323,"1350": 0.271535,"1375": 0.146211,"1400": 0.355087,"1425": 0.292425,"1450": 0.396863,"1475": 0.355089,"1500": 0.35509,"1525": 0.459528,"1550": 0.438642,"1575": 0.313316,"1600": 0.375984,"1625": 0.37598,"1650": 0.292434,"1675": 0.229769,"1700": 0.438651,"1725": 0.208881,"1750": 0.271549,"1775": 0.334214,"1800": 0.208885,"1825": 0.208886,"1850": 0.522209,"1875": 0.334218,"1900": 0.271552,"1925": 0.292441,"1950": 0.271552,"1975": 0.229775,"2000": 0.250667,"2025": 0.062667,"2050": 0.188002,"2075": 0.104446,"2100": 0.062668,"2125": 0.146225,"2150": 0.104446,"2175": 0.083558,"2200": 0.041779,"2225": 0.083557,"2250": 0.062669,"2275": 0.146225,"2300": 0.062669,"2325": 0.041779,"2350": 0.02089,"2375": 0.041779,"2400": 0.020889}}}