{"type": "Feature","bbox": [-84.3621,10.0481,-84.2268,10.2763],"geometry": {"type": "MultiPolygon","coordinates": [[[[-84.3301,10.0849,941.8951],[-84.3297,10.0888,998.1381],[-84.3275,10.0901,963.1562],[-84.3283,10.0911,959.2026],[-84.3229,10.0995,1028.7285],[-84.3249,10.1059,1058.6688],[-84.3227,10.1085,1091.0835],[-84.3248,10.11,1092.483],[-84.325,10.1172,1184.744],[-84.3215,10.121,1229.4297],[-84.3199,10.1282,1271.6859],[-84.3167,10.1303,1308.4747],[-84.3173,10.1364,1358.6874],[-84.3106,10.1479,1463.2943],[-84.3057,10.1517,1485.5658],[-84.3051,10.1543,1560.9543],[-84.3007,10.1555,1557.197],[-84.3001,10.1582,1579.6759],[-84.2979,10.1596,1597.9331],[-84.2977,10.1621,1628.474],[-84.2946,10.1652,1642.2411],[-84.2947,10.1691,1736.8673],[-84.2885,10.1712,1746.4978],[-84.2813,10.1765,1845.1118],[-84.2768,10.1845,1972.4648],[-84.2707,10.1888,2191.3994],[-84.2678,10.1832,2314.7949],[-84.2646,10.1815,2313.7874],[-84.2588,10.1821,2310.4097],[-84.2509,10.1793,2483.3281],[-84.2429,10.18,2596.0103],[-84.2436,10.184,2568.7654],[-84.2398,10.1854,2555.8933],[-84.2335,10.1936,2400.6084],[-84.2268,10.2064,2439.0244],[-84.2268,10.2128,2612.1147],[-84.2351,10.2255,2037.5673],[-84.2356,10.2295,1940.4368],[-84.2409,10.2347,1792.548],[-84.242,10.2419,1634.7338],[-84.258,10.2494,1269.7969],[-84.2655,10.2594,1136.6506],[-84.2659,10.2612,1110.1469],[-84.2624,10.268,1049.5923],[-84.265,10.2724,914.5685],[-84.2648,10.2763,742.6636],[-84.2691,10.2684,1050.765],[-84.282,10.2617,1437.8441],[-84.2917,10.26,1483.0168],[-84.2943,10.2618,1530.7566],[-84.3063,10.2615,1658.5369],[-84.3128,10.2597,1802.1244],[-84.3174,10.2563,1917.1993],[-84.3218,10.2571,1897.6445],[-84.3256,10.2604,1928.0344],[-84.329,10.2603,2030.2036],[-84.3327,10.2637,2120.4121],[-84.3352,10.2582,2174.457],[-84.3412,10.2581,2168.583],[-84.3505,10.2474,2191.0676],[-84.3555,10.2465,2260.376],[-84.3526,10.2376,2225.5945],[-84.3509,10.2376,2203.2148],[-84.3491,10.2423,2224.2075],[-84.3479,10.2423,2188.5847],[-84.3451,10.2369,2202.5156],[-84.3412,10.235,2227.2095],[-84.3401,10.2325,2209.9365],[-84.3336,10.2298,2194.0217],[-84.3304,10.2237,2191.0776],[-84.3298,10.2179,2085.9407],[-84.3246,10.2096,1694.2915],[-84.315,10.2048,1531.4141],[-84.3217,10.1969,1648.9045],[-84.3207,10.1917,1724.7305],[-84.3266,10.1766,1942.9403],[-84.3277,10.1695,2042.8936],[-84.3338,10.1731,2069.4612],[-84.3349,10.169,1883.3146],[-84.3331,10.1623,1715.9427],[-84.3344,10.1581,1623.6986],[-84.3409,10.1574,1686.0486],[-84.3408,10.148,1480.3643],[-84.3485,10.1349,1318.7317],[-84.3472,10.1318,1291.8386],[-84.3528,10.1262,1213.3997],[-84.3521,10.1208,1179.3895],[-84.357,10.1148,1118.4658],[-84.3558,10.1098,1086.4216],[-84.3573,10.1068,1030.2372],[-84.3569,10.1015,1000.7717],[-84.3557,10.0999,1000.8527],[-84.3621,10.087,916.84],[-84.3592,10.0802,878.6591],[-84.3602,10.0776,875.9537],[-84.3568,10.0618,834.3839],[-84.3566,10.058,806.2918],[-84.3586,10.0556,812.9156],[-84.3576,10.0481,766.3811],[-84.3515,10.0619,811.2223],[-84.3498,10.0631,810.3202],[-84.3443,10.0625,821.3164],[-84.3422,10.0686,867.1523],[-84.3389,10.0694,873.9036],[-84.339,10.0722,873.5363],[-84.3303,10.0818,912.2006],[-84.3301,10.0849,941.8951]]]]}
,"properties": {"GID_2": "CRI.1.15_1","GID_0": "CRI","country": "CostaRica","GID_1": "CRI.1_1","province": "Alajuela","NL_NAME_1": "NA","county": "Sarchí","VARNAME_2": "ValverdeVega","NL_NAME_2": "NA","TYPE_2": "Cantón","ENGTYPE_2": "Canton","CC_2": "12","HASC_2": "CR.AL.VV","name": "Sarchí.county","area_km2": 137.2265,"hist_schema_id": "Elevation0-9000","hist_area_km2": {"750": 0.0626,"775": 0.0626,"800": 0.2296,"825": 0.2088,"850": 0.7098,"875": 0.9603,"900": 1.6909,"925": 1.7744,"950": 2.1292,"975": 2.2544,"1000": 1.9203,"1025": 1.6907,"1050": 1.461,"1075": 1.3358,"1100": 1.0853,"1125": 1.2731,"1150": 1.4818,"1175": 1.3774,"1200": 1.4608,"1225": 1.8364,"1250": 1.6068,"1275": 2.5875,"1300": 2.191,"1325": 2.6084,"1350": 2.5876,"1375": 3.443,"1400": 3.1718,"1425": 4.0899,"1450": 3.9021,"1475": 3.3387,"1500": 3.1091,"1525": 3.1509,"1550": 3.1926,"1575": 3.3595,"1600": 3.1091,"1625": 3.2969,"1650": 3.1926,"1675": 3.6934,"1700": 3.2551,"1725": 3.0465,"1750": 2.963,"1775": 3.0256,"1800": 2.9213,"1825": 2.7335,"1850": 2.7126,"1875": 2.5874,"1900": 2.3371,"1925": 2.9214,"1950": 2.9423,"1975": 3.297,"2000": 2.4623,"2025": 1.9198,"2050": 1.7319,"2075": 1.4815,"2100": 1.1894,"2125": 0.8138,"2150": 1.1059,"2175": 0.626,"2200": 1.5232,"2225": 1.0433,"2250": 0.5634,"2275": 0.6886,"2300": 0.8764,"2325": 0.4382,"2350": 0.6678,"2375": 0.5843,"2400": 0.8556,"2425": 0.5843,"2450": 0.48,"2475": 0.3965,"2500": 0.4173,"2525": 0.4173,"2550": 0.5008,"2575": 0.2504,"2600": 0.1461,"2625": 0.0835}}}