{"type": "Feature","bbox": [-83.0864,8.897,-82.8488,9.0966],"geometry": {"type": "MultiPolygon","coordinates": [[[[-82.971,9.0966,2535.9111],[-82.9711,9.0941,2498.0747],[-82.9686,9.0912,2424.2517],[-82.9718,9.0837,2270.5544],[-82.9731,9.0756,2124.5249],[-82.9703,9.0661,1999.9028],[-82.9722,9.0615,1902.4293],[-82.9721,9.0553,1754.0806],[-82.9747,9.0526,1697.3123],[-82.9714,9.0472,1645.4773],[-82.9746,9.0374,1461.6346],[-82.9773,9.034,1427.5609],[-82.9753,9.023,1347.6765],[-82.9768,9.0187,1294.0786],[-82.9789,9.0181,1258.4932],[-82.9825,9.0133,1158.6312],[-82.9856,9.0126,1127.4175],[-82.9935,9.0064,1027.6628],[-82.9981,8.9998,940.5883],[-83.0063,9.0006,906.5447],[-83.009,8.998,855.8285],[-83.0206,8.9763,694.1642],[-83.0203,8.9737,705.2469],[-83.0225,8.9727,632.2817],[-83.0235,8.9664,609.1807],[-83.0266,8.9673,597.8362],[-83.0341,8.9644,514.2783],[-83.039,8.965,483.7227],[-83.0467,8.9615,463.0292],[-83.0515,8.9661,408.8611],[-83.0633,8.9664,371.6818],[-83.0659,8.9645,370.1577],[-83.0749,8.9634,343.3566],[-83.0828,8.9562,312.4935],[-83.0864,8.9553,298.7798],[-83.0854,8.9538,298.7798],[-83.0771,8.9522,304.997],[-83.0694,8.9478,322.2256],[-83.0665,8.9443,319.0029],[-83.0615,8.9451,338.3943],[-83.062,8.9384,329.9698],[-83.0601,8.9358,331.1971],[-83.0567,8.9355,359.7461],[-83.0609,8.9307,352.8043],[-83.0563,8.9269,350.4893],[-83.0483,8.9287,356.7255],[-83.0392,8.9264,363.5721],[-83.0385,8.923,378.7658],[-83.0361,8.9215,383.3881],[-83.0402,8.9192,382.4542],[-83.041,8.917,394.2849],[-83.0401,8.9141,390.456],[-83.0362,8.9123,397.9731],[-83.0377,8.9055,414.8577],[-83.0309,8.9014,469.1187],[-83.0289,8.8983,437.0212],[-83.0251,8.897,453.5732],[-83.0147,8.9007,528.5283],[-83.0116,8.9001,477.7452],[-83.0095,8.9022,546.3771],[-83.0063,8.9011,487.8228],[-83.0054,8.9028,492.7337],[-83.0033,8.9021,489.3206],[-83.0028,8.904,511.8367],[-82.9927,8.8992,520.9303],[-82.9842,8.9014,696.0617],[-82.982,8.9039,810.3386],[-82.9769,8.9015,820.8453],[-82.9746,8.9035,827.7688],[-82.969,8.9017,873.0325],[-82.9624,8.9074,888.9534],[-82.9555,8.9095,902.4207],[-82.9449,8.9091,948.3589],[-82.9358,8.914,990.5139],[-82.933,8.9148,1001.5197],[-82.9307,8.9135,996.8002],[-82.9279,8.9156,1029.6223],[-82.9245,8.9126,1017.1659],[-82.9186,8.9135,1038.999],[-82.9141,8.9113,1054.4293],[-82.9111,8.9121,1059.3373],[-82.9103,8.9107,1062.8154],[-82.9074,8.9124,1089.9751],[-82.9022,8.9099,1113.9296],[-82.9018,8.9142,1090.5928],[-82.8982,8.9196,1167.3424],[-82.9016,8.9251,1096.9934],[-82.8934,8.9251,1128.0911],[-82.8871,8.9275,1175.6608],[-82.8827,8.9344,1194.0234],[-82.874,8.9314,1247.6719],[-82.8652,8.9316,1288.1727],[-82.8591,8.9295,1306.8024],[-82.8488,8.9334,1367.8928],[-82.8512,8.934,1349.3491],[-82.8518,8.9359,1286.71],[-82.8573,8.9365,1306.9661],[-82.8614,8.9397,1253.1329],[-82.8612,8.9434,1223.0853],[-82.8632,8.9449,1216.6891],[-82.869,8.9432,1198.6364],[-82.8739,8.9446,1183.1265],[-82.8773,8.9421,1167.5253],[-82.8827,8.944,1148.4353],[-82.8836,8.9459,1144.6583],[-82.8899,8.9458,1107.6313],[-82.901,8.9514,1098.2349],[-82.9093,8.9488,1036.026],[-82.9115,8.9517,1011.8743],[-82.9146,8.9512,981.5779],[-82.9109,8.9583,1037.4626],[-82.9109,8.9701,1171.204],[-82.903,8.9758,1223.0695],[-82.8986,8.9818,1294.2373],[-82.8904,8.9805,1350.7015],[-82.8857,8.995,1511.325],[-82.8871,9.0055,1645.801],[-82.8857,9.0116,1663.7521],[-82.8888,9.0173,1740.809],[-82.8915,9.0352,1932.0842],[-82.8913,9.0437,2032.8589],[-82.8891,9.0507,2178.2979],[-82.8956,9.0615,2409.8574],[-82.9107,9.0744,2967.7795],[-82.9112,9.0761,2998.8677],[-82.9076,9.0778,3038.229],[-82.9072,9.082,3106.811],[-82.9143,9.0828,3034.3579],[-82.9276,9.0744,2905.3352],[-82.9311,9.0789,2774.5461],[-82.9355,9.0785,2740.3657],[-82.939,9.0749,2708.353],[-82.9428,9.0771,2700.8569],[-82.9512,9.0908,2682.5955],[-82.9547,9.0915,2673.5527],[-82.9582,9.0899,2649.5986],[-82.971,9.0966,2535.9111]]]]}
,"properties": {"GID_3": "CRI.6.4.4_1","GID_0": "CRI","country": "CostaRica","GID_1": "CRI.6_1","province": "Puntarenas","NL_NAME_1": "NA","GID_2": "CRI.6.4_1","county": "CotoBrus","NL_NAME_2": "NA","city": "Pittier","VARNAME_3": "NA","NL_NAME_3": "NA","TYPE_3": "Distrito","ENGTYPE_3": "District","CC_3": "5","HASC_3": "NA","name": "Pittier.city","area_km2": 255.8945,"hist_schema_id": "Elevation0-9000","hist_area_km2": {"300": 0.4189,"325": 0.6912,"350": 1.1938,"375": 1.5708,"400": 2.4086,"425": 2.4715,"450": 3.0789,"475": 3.1836,"500": 3.9795,"525": 5.3619,"550": 3.7701,"575": 2.6809,"600": 3.3931,"625": 2.3458,"650": 2.3667,"675": 2.241,"700": 2.2201,"725": 2.7018,"750": 3.0998,"775": 3.8538,"800": 5.1524,"825": 5.5084,"850": 5.8854,"875": 7.4143,"900": 7.2676,"925": 5.6759,"950": 6.6812,"975": 6.0109,"1000": 6.1785,"1025": 5.3407,"1050": 5.7597,"1075": 5.3407,"1100": 6.1576,"1125": 5.5082,"1150": 4.6704,"1175": 3.9792,"1200": 3.3509,"1225": 3.4346,"1250": 2.9529,"1275": 2.7225,"1300": 2.6387,"1325": 2.534,"1350": 2.2827,"1375": 2.136,"1400": 2.4711,"1425": 1.9475,"1450": 2.3873,"1475": 2.3663,"1500": 2.0731,"1525": 2.0731,"1550": 2.0941,"1575": 1.6543,"1600": 2.0731,"1625": 1.6543,"1650": 1.8846,"1675": 1.8218,"1700": 1.9265,"1725": 1.8637,"1750": 1.7171,"1775": 2.0102,"1800": 2.0521,"1825": 1.7799,"1850": 1.8636,"1875": 1.9683,"1900": 1.9683,"1925": 1.6333,"1950": 1.9055,"1975": 1.4657,"2000": 1.382,"2025": 1.5285,"2050": 1.361,"2075": 1.5913,"2100": 1.4448,"2125": 1.4238,"2150": 1.4238,"2175": 1.2144,"2200": 1.1097,"2225": 1.2563,"2250": 1.005,"2275": 1.3191,"2300": 1.0678,"2325": 1.3819,"2350": 1.0678,"2375": 1.1725,"2400": 1.2772,"2425": 1.4028,"2450": 1.1516,"2475": 1.4237,"2500": 1.2144,"2525": 1.2562,"2550": 1.1934,"2575": 1.3609,"2600": 1.0887,"2625": 0.9631,"2650": 1.1306,"2675": 0.7537,"2700": 0.6072,"2725": 0.6072,"2750": 0.5653,"2775": 0.5862,"2800": 0.6491,"2825": 0.6072,"2850": 0.5234,"2875": 0.4816,"2900": 0.7537,"2925": 0.4816,"2950": 0.1884,"2975": 0.1675,"3000": 0.1256,"3025": 0.1256,"3050": 0.1466,"3100": 0.0419}}}