{"type":"Feature","properties":{"GID_3":"CRI.6.2.1_1","GID_0":"CRI","country":"CostaRica","GID_1":"CRI.6_1","province":"Puntarenas","NL_NAME_1":"NA","GID_2":"CRI.6.2_1","county":"BuenosAires","NL_NAME_2":"NA","city":"Biolley","VARNAME_3":"NA","NL_NAME_3":"NA","TYPE_3":"Distrito","ENGTYPE_3":"District","CC_3":"8","HASC_3":"NA","name":"Biolley.city"},
"geometry":{"type": "MultiPolygon","coordinates": [[[[-83.0368,9.1609,2587.272],[-83.0287,9.1552,2429.2466],[-83.0284,9.1526,2398.9321],[-83.0309,9.1478,2262.082],[-83.0361,9.1444,1956.5161],[-83.0419,9.1308,1669.8619],[-83.0466,9.1262,1559.9498],[-83.0465,9.1117,1414.0515],[-83.0494,9.1027,1370.6317],[-83.0557,9.0954,1218.8516],[-83.0544,9.0929,1193.1354],[-83.0506,9.0917,1121.3384],[-83.0508,9.0902,1099.0134],[-83.0607,9.0729,936.3705],[-83.0708,9.0633,840.2729],[-83.0749,9.0615,809.7231],[-83.0833,9.0517,710.2228],[-83.0808,9.0448,670.001],[-83.0826,9.0414,673.5973],[-83.0811,9.0382,654.5376],[-83.0854,9.0353,636.115],[-83.0895,9.0353,584.6926],[-83.0943,9.0258,530.1619],[-83.0942,9.0205,513.6572],[-83.1,9.0129,443.9981],[-83.103,9.0039,402.3398],[-83.108,8.9987,354.8101],[-83.1077,8.9933,332.6457],[-83.1095,8.9909,324.3132],[-83.1142,8.9894,315.5438],[-83.1157,8.986,299.252],[-83.1207,8.9824,261.8953],[-83.1231,8.9838,287.0479],[-83.1256,8.9828,246.8173],[-83.13,8.9857,230.7978],[-83.1369,8.9873,210.416],[-83.1407,8.9907,186.0807],[-83.1454,8.9915,175.2947],[-83.1434,8.9868,192.2767],[-83.1402,8.9854,193.4147],[-83.1361,8.978,194.1399],[-83.1317,8.9786,204.5778],[-83.1268,8.9726,222.4032],[-83.1264,8.9688,223.297],[-83.122,8.9662,245.657],[-83.1181,8.9662,233.0644],[-83.1145,8.9596,257.164],[-83.1107,8.9597,257.0263],[-83.1041,8.9631,263.9205],[-83.0993,8.9613,274.8742],[-83.0965,8.9571,280.0217],[-83.0924,8.9571,292.3862],[-83.0903,8.9535,310.5134],[-83.0828,8.9562,312.4935],[-83.0749,8.9634,343.3566],[-83.0659,8.9645,370.1577],[-83.0633,8.9664,371.6818],[-83.0515,8.9661,408.8611],[-83.0467,8.9615,463.0292],[-83.039,8.965,483.7227],[-83.0341,8.9644,514.2783],[-83.0266,8.9673,597.8362],[-83.0235,8.9664,609.1807],[-83.0225,8.9727,632.2817],[-83.0203,8.9737,705.2469],[-83.0206,8.9763,694.1642],[-83.009,8.998,855.8285],[-83.0063,9.0006,906.5447],[-82.9981,8.9998,940.5883],[-82.9935,9.0064,1027.6628],[-82.9856,9.0126,1127.4175],[-82.9825,9.0133,1158.6312],[-82.9766,9.0191,1233.4178],[-82.9753,9.023,1347.6765],[-82.9773,9.034,1427.5609],[-82.9746,9.0374,1461.6346],[-82.9714,9.0472,1645.4773],[-82.9747,9.0526,1697.3123],[-82.9721,9.0553,1754.0806],[-82.9722,9.0615,1902.4293],[-82.9703,9.0661,1999.9028],[-82.9731,9.0768,2124.5249],[-82.9687,9.092,2424.2517],[-82.9711,9.0941,2498.0747],[-82.971,9.0966,2535.9111],[-82.9759,9.0943,2545.2605],[-82.9779,9.0959,2552.1555],[-82.9786,9.1033,2540.9043],[-82.9814,9.1064,2542.2371],[-82.9813,9.113,2517.3193],[-82.9895,9.1167,2515.6567],[-82.9874,9.1244,2566.4089],[-82.9966,9.127,2519.2668],[-82.9927,9.1357,2506.1216],[-82.9941,9.1425,2551.4341],[-82.996,9.1444,2569.5369],[-82.9916,9.1546,2687.2788],[-82.9969,9.1586,2692.9514],[-83.0028,9.1559,2653.9094],[-83.0074,9.1559,2634.7886],[-83.016,9.1589,2549.698],[-83.0195,9.1583,2558.3284],[-83.0332,9.1617,2573.3921],[-83.0368,9.1609,2587.272]]]]}}