{"type":"Feature","properties":{"GID_3":"CRI.3.9.4_1","GID_0":"CRI","country":"CostaRica","GID_1":"CRI.3_1","province":"Guanacaste","NL_NAME_1":"NA","GID_2":"CRI.3.9_1","county":"Nicoya","NL_NAME_2":"NA","city":"Nosara","VARNAME_3":"NA","NL_NAME_3":"NA","TYPE_3":"Distrito","ENGTYPE_3":"District","CC_3":"6","HASC_3":"NA","name":"Nosara.city"},
"geometry":{"type": "MultiPolygon","coordinates": [[[[-85.5672,9.9779,705.4645],[-85.5663,9.9817,547.0363],[-85.5677,9.985,382.5476],[-85.5719,9.9871,263.6476],[-85.5733,9.9911,148.928],[-85.5777,9.993,72.9019],[-85.5771,10.0018,87.867],[-85.5826,10.0119,234.912],[-85.5887,10.0148,85.1518],[-85.587,10.0168,87.1876],[-85.589,10.0301,144.3387],[-85.5879,10.0331,146.0396],[-85.583,10.0354,183.9765],[-85.5814,10.0411,189.0738],[-85.584,10.0489,306.04],[-85.5892,10.0531,435.3724],[-85.5886,10.0559,570.8468],[-85.5925,10.0573,472.2486],[-85.5952,10.0569,338.6938],[-85.5973,10.0537,296.026],[-85.6033,10.0531,257.4047],[-85.6055,10.0554,206.5425],[-85.6146,10.0525,175.6358],[-85.6191,10.056,187.0392],[-85.6241,10.0555,176.6656],[-85.6239,10.0529,174.9301],[-85.6274,10.0487,158.1193],[-85.6271,10.0458,175.1114],[-85.6294,10.0446,153.1965],[-85.6268,10.0414,148.4193],[-85.6285,10.0396,178.5733],[-85.626,10.0386,136.3694],[-85.6287,10.0373,184.5756],[-85.6283,10.0352,125.4573],[-85.6303,10.0364,162.8242],[-85.6313,10.0336,128.618],[-85.6339,10.0331,112.0698],[-85.6366,10.0264,194.1242],[-85.6346,10.0205,105.8241],[-85.6386,10.0194,167.7878],[-85.636,10.0156,144.6327],[-85.6397,10.0174,109.8067],[-85.6412,10.0156,83.0831],[-85.6405,10.0124,69.9611],[-85.6431,10.0169,63.0249],[-85.6445,10.0118,136.606],[-85.6472,10.0157,145.5461],[-85.6492,10.0095,67.7782],[-85.6511,10.0106,64.171],[-85.6604,10.0095,60.4855],[-85.6608,10.0115,43.3042],[-85.6623,10.0117,43.3042],[-85.6591,10.0054,71.5745],[-85.6624,10.006,46.5883],[-85.6653,10.001,125.682],[-85.6609,10.0022,62.0549],[-85.6606,9.9993,44.8222],[-85.6623,9.9992,30.6796],[-85.6631,9.9958,36.1961],[-85.6673,9.9939,27.5196],[-85.6717,9.9956,27.4769],[-85.6736,9.9947,12.7727],[-85.6697,9.9922,35.2238],[-85.6714,9.9892,21.2079],[-85.6717,9.9826,28.3546],[-85.6769,9.9867,16.6148],[-85.6777,9.9834,35.4352],[-85.6803,9.9833,28.8761],[-85.6814,9.987,8.3649],[-85.6903,9.992,4.7225],[-85.6968,9.9867,0.6342],[-85.6875,9.9762,5.6487],[-85.6803,9.9634,16.5918],[-85.679,9.9636,31.5747],[-85.6808,9.9612,18.4487],[-85.6779,9.9586,0.0],[-85.6746,9.9515999999999991,6.2217],[-85.6752,9.9495,3.2633],[-85.6773,9.949,0.0],[-85.6707,9.9428,1.4664],[-85.6623,9.9286,2.2904],[-85.6621,9.9122,8.5353],[-85.6643,9.9087,34.4257],[-85.6702,9.9071,0.0],[-85.6688,9.9039,18.1667],[-85.6664,9.9025,0.0],[-85.6574,9.9029,0.0],[-85.6522,9.8989,0.0],[-85.6502,9.8999,0.0],[-85.6527,9.9024,3.1919],[-85.6522,9.9053,0.0],[-85.6459,9.9084,0.0],[-85.6274,9.9053,14.3124],[-85.615,9.9132,22.8753],[-85.6124,9.9117,19.317],[-85.6073,9.9129,26.443],[-85.5971,9.911,28.6712],[-85.5962,9.9168,31.0021],[-85.5942,9.9195,47.5644],[-85.5951,9.9221,73.0644],[-85.5926,9.9241,103.5789],[-85.5944,9.9279,80.0307],[-85.5899,9.9338,148.8377],[-85.5907,9.9379,199.392],[-85.5891,9.9398,179.5475],[-85.5917,9.9474,263.1303],[-85.5908,9.9518,317.7013],[-85.588,9.9543,478.9205],[-85.5853,9.9661,277.2019],[-85.5841,9.9681,308.3036],[-85.5783,9.9695,359.7476],[-85.5723,9.9777,531.3434],[-85.5672,9.9779,705.4645]]]]}}