{"type":"Feature","properties":{"GID_3":"CRI.1.11.2_1","GID_0":"CRI","country":"CostaRica","GID_1":"CRI.1_1","province":"Alajuela","NL_NAME_1":"NA","GID_2":"CRI.1.11_1","county":"SanCarlos","NL_NAME_2":"NA","city":"Buenavista","VARNAME_3":"NA","NL_NAME_3":"NA","TYPE_3":"Distrito","ENGTYPE_3":"District","CC_3":"3","HASC_3":"NA","name":"Buenavista.city"},
"geometry":{"type": "MultiPolygon","coordinates": [[[[-84.5177,10.2494,459.9016],[-84.4325,10.2704,1004.34],[-84.4383,10.2719,936.1187],[-84.4398,10.2752,899.9146],[-84.4491,10.2814,781.8502],[-84.4574,10.2824,738.1765],[-84.4573,10.2849,686.406],[-84.4597,10.2856,659.9895],[-84.4621,10.2891,682.502],[-84.4632,10.295,615.3751],[-84.4745,10.3111,446.2706],[-84.4771,10.3124,450.1761],[-84.4763,10.3139,439.4031],[-84.4776,10.3156,419.6176],[-84.5177,10.2494,459.9016]]]]}}