{"type":"Feature","properties":{"GID_3":"CRI.1.4.2_1","GID_0":"CRI","country":"CostaRica","GID_1":"CRI.1_1","province":"Alajuela","NL_NAME_1":"NA","GID_2":"CRI.1.4_1","county":"Grecia","NL_NAME_2":"NA","city":"Grecia","VARNAME_3":"NA","NL_NAME_3":"NA","TYPE_3":"Distrito","ENGTYPE_3":"District","CC_3":"1","HASC_3":"NA","name":"Grecia.city"},
"geometry":{"type": "MultiPolygon","coordinates": [[[[-84.306,10.0576,880.7682],[-84.3031,10.0638,911.2078],[-84.2979,10.0668,965.6344],[-84.2994,10.0681,958.2605],[-84.2932,10.0708,985.1329],[-84.2921,10.0784,1010.221],[-84.2955,10.076599999999999,1045.3691],[-84.2952,10.0784,1045.3888],[-84.2978,10.0805,1026.7552],[-84.3046,10.0812,1023.9365],[-84.3078,10.0777,1017.2888],[-84.3116,10.0796,978.7057],[-84.3191,10.079,953.1279],[-84.3203,10.0769,963.9358],[-84.3299,10.0718,910.1537],[-84.3324,10.0691,906.6559],[-84.333,10.0655,879.5239],[-84.3351,10.0643,871.9207],[-84.3331,10.0618,887.6741],[-84.3314,10.0625,898.04],[-84.328,10.0607,891.4106],[-84.327,10.0584,904.0939],[-84.3223,10.063,899.7244],[-84.3209,10.0573,881.1827],[-84.3109,10.0603,934.1605],[-84.3081,10.0627,985.7034],[-84.3056,10.0601,909.6539],[-84.306,10.0576,880.7682]]]]}}