{"type": "Feature","id": "1330","bbox": [-87.11767,5.51508,-82.71936,10.33198],"geometry": {"type": "MultiPolygon","coordinates": [[[[-87.09903,5.51602,0.0],[-87.07852,5.52066,382.302],[-87.06554,5.53461,303.9165],[-87.06461,5.54759,0.0],[-87.06461,5.55785,0.0],[-87.07852,5.55508,0.0],[-87.09252,5.5467,0.0],[-87.1046,5.53742,0.0],[-87.11767,5.51508,0.0],[-87.09903,5.51602,0.0]]],
[[[-83.87031,8.70178,3.3059],[-83.86911,8.71359,54.911],[-83.88346,8.71299,0.0],[-83.89662,8.70649,0.0],[-83.89063,8.70118,6.5835],[-83.87808,8.69882,35.1277],[-83.87031,8.70178,3.3059]]],
[[[-85.08385,9.97492,3.7403],[-85.14452,9.99934,4.3035],[-85.16739,10.0194,4.5172],[-85.1674,10.0194,4.5172],[-85.17751,9.98699,15.4971],[-85.18337,9.97882,23.0505],[-85.20534,9.9736,44.5817],[-85.21032,9.97148,58.2067],[-85.23614,9.95676,122.4909],[-85.24079,9.95546,140.1725],[-85.24283,9.9565,148.719],[-85.24471,9.95815,182.0674],[-85.24626,9.95986,240.0486],[-85.24807,9.96146,285.855],[-85.25487,9.96079,410.496],[-85.26531,9.95753,470.1193],[-85.28993,9.94575,614.9294],[-85.2991,9.93738,559.8729],[-85.30329,9.92968,620.844],[-85.30158,9.92394,621.3628],[-85.29822,9.91939,666.7689],[-85.2944,9.91604,540.4454],[-85.29016,9.91392,501.1301],[-85.28593,9.91325,452.1162],[-85.2766,9.91449,337.3529],[-85.27337,9.91454,346.9435],[-85.27032,9.91443,359.5175],[-85.26143,9.91283,250.8135],[-85.25898,9.91175,240.4013],[-85.25466,9.90927,191.4246],[-85.25218,9.90823,200.3795],[-85.24939,9.90761,142.1347],[-85.23993,9.90772,120.3404],[-85.2342,9.90648,92.3398],[-85.22753,9.90276,92.3902],[-85.21983,9.90012,74.2434],[-85.21748,9.89893,73.3124],[-85.21557,9.89733,77.315],[-85.2113,9.89144,62.4837],[-85.2058,9.88648,57.088],[-85.20309,9.88229,93.2644],[-85.202,9.87991,68.9425],[-85.20066,9.87774,59.7779],[-85.19864,9.87304,65.2623],[-85.19777,9.8671,38.0951],[-85.19632,9.86152,38.2991],[-85.195,9.85945,37.4422],[-85.19291,9.858,45.5066],[-85.19035,9.85712,58.82],[-85.17573,9.85371,29.1422],[-85.17384,9.8518,32.3993],[-85.1734,9.84937,40.3881],[-85.17635,9.84322,69.5551],[-85.18014,9.83294,66.5901],[-85.1904,9.7946,25.6305],[-85.19066,9.78845,68.3251],[-85.18926,9.78431,21.2829],[-85.18645,9.78111,39.986],[-85.18601,9.77883,37.6615],[-85.18694,9.77697,19.3731],[-85.19265,9.77243,23.1222],[-85.19467,9.76938,24.6617],[-85.19684,9.76504,12.9621],[-85.19968,9.75636,15.1316],[-85.20185,9.75217,14.463],[-85.20425,9.74953,8.1895],[-85.20683,9.74783,9.2444],[-85.20975,9.7454,17.0659],[-85.21619,9.73222,8.9263],[-85.21864,9.73067,15.1987],[-85.22074,9.73026,11.4022],[-85.22663,9.72757,0.0],[-85.22918,9.72494,0.0],[-85.2293,9.72482,0.0],[-85.22912,9.72439,0.0],[-85.14578,9.61262,0.0],[-85.11783,9.55545,0.0],[-85.11046,9.55545,0.0],[-85.0985,9.57107,152.1737],[-85.08934,9.58857,0.0],[-85.06749,9.65738,57.1371],[-85.06261,9.66531,79.754],[-85.03893,9.67727,0.0],[-85.03527,9.6824,38.0477],[-85.02982,9.68374,0.0],[-84.99743,9.69941,0.0],[-84.99498,9.70327,0.0],[-85.01037,9.7226,0.0],[-85.0148,9.73078,7.2199],[-85.0076,9.74409,10.7785],[-84.99096,9.74274,0.0],[-84.95958,9.72736,0.0],[-84.95547,9.73513,48.3751],[-84.95035,9.75357,0.0],[-84.94591,9.76089,49.8094],[-84.92235,9.7742,0.0],[-84.91861,9.77827,0.0],[-84.91202,9.79584,115.1224],[-84.8966,9.8061,0.0],[-84.87869,9.81354,0.0],[-84.86461,9.82294,0.0],[-84.86461,9.82917,3.9701],[-84.90062,9.82807,61.794],[-84.91808,9.83002,0.0],[-84.93285,9.83662,9.3754],[-84.92077,9.84894,0.0],[-84.91308,9.85432,1.9041],[-84.90494,9.85708,0.0],[-84.91808,9.86953,0.0],[-84.93017,9.8863,0.0],[-84.93106,9.9007,62.5411],[-84.91112,9.90546,0.0],[-84.91112,9.91169,0.0],[-84.9226,9.92145,63.1857],[-84.94778,9.93716,0.0],[-84.95958,9.94648,0.0],[-84.97757,9.93879,0.0],[-84.99669,9.93928,3.2818],[-85.01452,9.94497,0.0],[-85.05313,9.96695,6.5012],[-85.06908,9.97342,0.7652],[-85.0762,9.97065,1.3753],[-85.08385,9.97492,3.7403]]],
[[[-85.14513,10.10346,7.2783],[-85.11046,10.10346,0.0],[-85.11046,10.1103,0.0],[-85.13996,10.11921,0.0],[-85.17186,10.12458,17.4845],[-85.18029,10.12401,28.7128],[-85.19913,10.11774,0.0],[-85.18529,10.09243,13.8285],[-85.17614,10.08324,11.7895],[-85.1588,10.07616,13.3746],[-85.14184,10.07416,19.8557],[-85.12483,10.07563,0.0],[-85.10949,10.07929,0.0],[-85.09732,10.08364,0.0],[-85.09732,10.08983,78.4166],[-85.1079,10.08954,46.1519],[-85.11604,10.0917,8.1294],[-85.12157,10.09638,0.0],[-85.13134,10.0987,5.4183],[-85.13565,10.09846,11.787],[-85.14513,10.10346,7.2783]]],
[[[-84.74955,10.26671,1534.8361],[-84.75604,10.2709,1356.2828],[-84.75784,10.27245,1309.3503],[-84.76425,10.2801,1406.4998],[-84.78663,10.31534,1638.3229],[-84.80226,10.32785,1721.823],[-84.80668,10.32981,1718.3329],[-84.81239,10.33167,1622.967],[-84.8174,10.33198,1499.1895],[-84.82492,10.33167,1435.3549],[-84.82918,10.33079,1381.292],[-84.83252,10.32971,1394.9503],[-84.83843,10.32567,1301.5973],[-84.84709,10.31653,1171.7755],[-84.85081,10.31343,1267.814],[-84.85988,10.30878,1050.5973],[-84.86582,10.3048,947.9001],[-84.87024,10.3003,844.4187],[-84.87298,10.29627,832.8279],[-84.87481,10.29286,735.5724],[-84.87543,10.28991,744.7823],[-84.87543,10.28697,779.5188],[-84.87489,10.28433,774.4769],[-84.87373,10.28216,694.6292],[-84.87228,10.2802,626.2219],[-84.86492,10.27348,518.9254],[-84.8636,10.27152,558.7109],[-84.86285,10.26888,555.7424],[-84.86249,10.26625,576.9605],[-84.86295,10.26356,600.4631],[-84.86763,10.25033,403.6654],[-84.86988,10.23111,528.4485],[-84.87089,10.22811,413.4626],[-84.87698,10.2155,347.5039],[-84.87791,10.21209,336.4864],[-84.87794,10.2094,256.4884],[-84.87714,10.20692,261.6686],[-84.87618,10.20475,234.4141],[-84.87481,10.20269,224.9625],[-84.87164,10.19907,273.0648],[-84.87024,10.19617,267.8644],[-84.86954,10.1924,274.378],[-84.87009,10.18517,210.8306],[-84.87174,10.18176,278.1042],[-84.87381,10.17912,316.6508],[-84.89298,10.1709,285.9127],[-84.89734,10.16806,229.1192],[-84.91541,10.15235,142.9926],[-84.92011,10.14667,101.6755],[-84.9228,10.14222,117.2542],[-84.92362,10.13613,97.3079],[-84.9237,10.13303,69.5555],[-84.92264,10.12729,79.2454],[-84.91887,10.11659,68.3693],[-84.91835,10.11277,66.2013],[-84.91993,10.11122,47.618],[-84.92233,10.11101,52.4606],[-84.92504,10.11163,62.4631],[-84.92758,10.11246,49.5154],[-84.93685,10.11737,83.5263],[-84.94471,10.12331,72.6824],[-84.94838,10.12693,92.392],[-84.96057,10.14212,132.4772],[-84.96804,10.14853,82.3097],[-84.97005,10.14998,51.1338],[-84.97925,10.15494,75.4281],[-84.98421,10.15685,64.7836],[-84.98716,10.15747,77.4827],[-84.99039,10.15762,84.3938],[-84.99437,10.157,42.7221],[-84.99948,10.15545,21.5733],[-85.00109,10.15514,25.165],[-85.00351,10.15499,27.3795],[-85.00618,10.15561,19.8235],[-85.0085,10.15659,86.2067],[-85.01059,10.15804,28.6966],[-85.01437,10.16114,11.2488],[-85.01656,10.16217,35.3944],[-85.0192,10.16279,46.7128],[-85.02196,10.16274,12.7126],[-85.02762,10.16165,30.1052],[-85.03387,10.16103,6.9243],[-85.03708,10.16114,6.6924],[-85.04015,10.16165,8.8112],[-85.04837,10.16181,18.101],[-85.06839,10.15587,6.0238],[-85.06857,10.15582,6.0238],[-85.06835,10.15567,6.0238],[-85.0703,10.14887,21.33],[-85.0762,10.13825,3.8858],[-85.06737,10.13142,0.0],[-85.06168,10.13227,2.9255],[-85.05736,10.13601,10.2591],[-85.05236,10.13825,0.5672],[-85.04605,10.13614,0.0],[-85.03576,10.12674,0.0],[-85.01391,10.11599,0.0],[-84.97289,10.07795,0.0],[-84.95617,10.06936,4.0085],[-84.96097,10.06489,23.8534],[-84.95202,10.05545,0.0],[-84.93932,10.04694,0.0],[-84.93285,10.04548,1.4493],[-84.92825,10.04011,0.0],[-84.8981,10.01533,0.0],[-84.87426,10.00263,0.0],[-84.84854,9.99396,0.0],[-84.8201,9.98896,21.667],[-84.78824,9.98745,10.1543],[-84.78824,9.98062,0.0],[-84.82291,9.98086,0.0],[-84.83865,9.97915,1.497],[-84.85094,9.97439,0.0],[-84.85094,9.96695,0.0],[-84.76232,9.97565,2.5379],[-84.73363,9.96695,5.9798],[-84.7388,9.9523,36.0694],[-84.73428,9.94257,86.5929],[-84.70971,9.92255,0.6165],[-84.72378,9.8996,15.2987],[-84.72594,9.88447,0.0],[-84.70971,9.87759,4.3612],[-84.69839,9.86884,8.1859],[-84.65795,9.80927,0.0],[-84.64236,9.79377,5.5308],[-84.63455,9.78339,13.4348],[-84.63121,9.77143,9.6375],[-84.63443,9.75703,0.0],[-84.64147,9.74612,0.0],[-84.64847,9.7377,0.0],[-84.65526,9.72077,8.4311],[-84.67247,9.7038,0.0],[-84.67837,9.69257,0.0],[-84.67809,9.68354,0.0],[-84.67553,9.67329,0.0],[-84.67443,9.66238,0.0],[-84.67837,9.65103,50.1736],[-84.66271,9.65168,0.0],[-84.65994,9.64492,0.0],[-84.66137,9.63447,0.0],[-84.65795,9.62434,0.0],[-84.64721,9.6177,0.0],[-84.6361,9.61335,0.0],[-84.62731,9.60672,0.0],[-84.62377,9.59296,16.1526],[-84.61657,9.57807,0.0],[-84.5795,9.55435,0.0],[-84.56298,9.54116,0.0],[-84.56509,9.54841,9.3496],[-84.56656,9.55142,12.1826],[-84.56912,9.55545,8.8255],[-84.55541,9.55239,3.6683],[-84.55069,9.54287,4.0248],[-84.54674,9.53107,0.0],[-84.53502,9.52131,34.6652],[-84.5216,9.51931,0.0],[-84.50829,9.522,0.0],[-84.49547,9.52603,0.0],[-84.48351,9.5281,0.0],[-84.45792,9.52603,6.6685],[-84.32421,9.48908,1.4369],[-84.29886,9.48713,5.0656],[-84.27269,9.48159,0.0],[-84.23143,9.45755,0.0],[-84.20543,9.45303,1.7252],[-84.21866,9.46255,0.0],[-84.2246,9.46499,0.0],[-84.23339,9.4667,1.344],[-84.23339,9.47346,3.2111],[-84.20836,9.46499,0.0],[-84.18224,9.44221,0.0],[-84.16796,9.41621,0.0],[-84.1787,9.39777,0.0],[-84.16153,9.39472,0.0],[-84.15225,9.38532,0.0],[-84.14407,9.37885,0.0],[-84.13036,9.38471,0.0],[-84.12662,9.3769,18.6072],[-84.12194,9.37263,0.8007],[-84.11632,9.37259,0.0],[-84.10985,9.37726,17.0318],[-84.10363,9.37726,19.9824],[-84.00744,9.33975,7.6435],[-83.99511,9.33023,0.0],[-83.91808,9.29475,9.4981],[-83.83951,9.22028,0.0],[-83.81713,9.2145,59.2201],[-83.7869,9.19925,67.601],[-83.76488,9.17719,10.6022],[-83.7672,9.15139,0.0],[-83.7272,9.14431,5.3148],[-83.70092,9.11787,18.4471],[-83.68045,9.08413,4.2957],[-83.65799,9.0552,0.0],[-83.65115,9.06196,0.0],[-83.63476,9.04409,0.0],[-83.62987,9.03535,0.0],[-83.60338,8.96638,4.7564],[-83.61339,8.95808,20.9034],[-83.62039,8.95083,10.0215],[-83.62552,8.94265,0.3428],[-83.63003,8.93167,0.0],[-83.62658,8.92825,0.0],[-83.61962,8.92426,7.9539],[-83.61791,8.91901,4.5778],[-83.63003,8.91177,0.0],[-83.61828,8.91096,0.0],[-83.61295,8.90778,0.0],[-83.60949,8.90314,0.0],[-83.60338,8.89814,0.0],[-83.58898,8.89053,0.0],[-83.58141,8.88496,3.2487],[-83.57543,8.87763,5.7851],[-83.58768,8.878,14.2988],[-83.59704,8.88089,5.4757],[-83.61636,8.89069,0.0],[-83.61388,8.87324,0.0],[-83.60208,8.8638,1.2208],[-83.5891,8.85676,0.0],[-83.58288,8.84663,0.0],[-83.58764,8.83535,5.2999],[-83.59903,8.82754,7.0481],[-83.62381,8.81558,124.5302],[-83.63781,8.79885,88.4414],[-83.64257,8.78189,0.0],[-83.63866,8.77228,0.0],[-83.62694,8.77774,0.0],[-83.61539,8.79011,0.0],[-83.60794,8.79605,0.0],[-83.59708,8.79702,0.0],[-83.57543,8.79446,5.2385],[-83.57543,8.78828,23.4367],[-83.60001,8.78205,12.8388],[-83.62747,8.7674,115.6854],[-83.64257,8.74954,0.0],[-83.63003,8.73367,145.1486],[-83.63659,8.72675,7.9023],[-83.66092,8.68985,34.4106],[-83.66784,8.68293,39.2745],[-83.67101,8.68891,35.1951],[-83.67593,8.6918,37.3923],[-83.68668,8.68769,81.1985],[-83.70238,8.67841,85.1357],[-83.70946,8.67036,119.3886],[-83.7399,8.62381,0.0],[-83.73681,8.59272,0.0],[-83.73058,8.58881,4.4972],[-83.71011,8.58051,0.0],[-83.7058,8.57941,0.0],[-83.70023,8.57034,0.0],[-83.61327,8.49002,0.0],[-83.5889,8.45856,0.0],[-83.57559,8.44497,0.0],[-83.56115,8.43818,0.0],[-83.54418,8.43826,0.0],[-83.48294,8.44562,0.0],[-83.46243,8.44269,22.337],[-83.40477,8.41767,0.0],[-83.40477,8.43195,13.3824],[-83.39647,8.42459,23.7725],[-83.38866,8.4195,6.041],[-83.36937,8.41092,17.6824],[-83.38296,8.4125,1.7176],[-83.38663,8.41413,1.7379],[-83.3911,8.41767,3.5865],[-83.39725,8.41767,0.0],[-83.38089,8.40412,0.0],[-83.34642,8.3876,0.0],[-83.30984,8.37592,0.0],[-83.28738,8.37674,0.0],[-83.27636,8.40156,0.0],[-83.27371,8.43793,0.0],[-83.27982,8.47293,15.0933],[-83.29491,8.49343,11.2302],[-83.29491,8.50027,6.0977],[-83.28885,8.50703,0.0],[-83.28685,8.51716,0.0],[-83.28738,8.54182,2.6774],[-83.29971,8.53437,8.8491],[-83.31237,8.54507,8.9129],[-83.32547,8.56098,17.2111],[-83.33922,8.56916,3.6168],[-83.35424,8.57107,6.6179],[-83.39159,8.5823,14.3226],[-83.40477,8.58902,9.8821],[-83.41275,8.59846,20.5916],[-83.43326,8.63052,2.9798],[-83.4379,8.64643,14.3696],[-83.47301,8.69888,13.5444],[-83.47924,8.69888,0.0],[-83.47912,8.69843,0.0],[-83.48668,8.69269,136.9764],[-83.48172,8.71259,5.0942],[-83.46825,8.71747,0.0],[-83.43517,8.71255,0.0],[-83.42166,8.71516,0.0],[-83.41751,8.72126,0.0],[-83.41629,8.7283,64.7327],[-83.41153,8.73367,82.2416],[-83.4014,8.73371,0.0],[-83.39481,8.72895,0.0],[-83.38952,8.72809,0.0],[-83.38366,8.73981,58.3175],[-83.36693,8.73428,0.0],[-83.34586,8.72993,0.0],[-83.3317,8.72207,7.0941],[-83.3358,8.70572,0.0],[-83.32901,8.7062,113.4894],[-83.32217,8.70572,68.2523],[-83.32836,8.6846,41.3833],[-83.31908,8.66958,0.0],[-83.28738,8.65107,0.0],[-83.27318,8.65847,104.3553],[-83.25931,8.65131,0.0],[-83.24759,8.63723,0.0],[-83.24026,8.62381,0.0],[-83.22476,8.62686,0.0],[-83.20397,8.62446,0.0],[-83.18578,8.62519,109.706],[-83.17821,8.63748,23.8495],[-83.17138,8.63748,0.3615],[-83.16405,8.62564,0.0],[-83.15172,8.61286,0.0],[-83.13724,8.6022,0.0],[-83.12357,8.59646,0.0],[-83.12357,8.58902,87.4156],[-83.15331,8.57718,46.7176],[-83.1577,8.57941,0.0],[-83.1588,8.5928,8.4093],[-83.16173,8.60073,19.1581],[-83.17138,8.61697,0.0],[-83.17821,8.61697,0.0],[-83.18017,8.61135,0.0],[-83.18175,8.60786,0.0],[-83.18505,8.60269,0.0],[-83.16515,8.56375,0.0],[-83.1577,8.55549,0.0],[-83.14342,8.55024,0.0],[-83.11425,8.55178,34.3592],[-83.10245,8.54804,52.7141],[-83.11815,8.53815,16.5939],[-83.1306,8.53449,4.0189],[-83.13773,8.52932,20.6887],[-83.1372,8.51455,0.0],[-83.1317,8.5032,0.0],[-83.09903,8.46271,0.0],[-83.09268,8.44668,18.2247],[-83.0996,8.43134,19.571],[-83.11046,8.41804,6.8037],[-83.11608,8.40778,8.406],[-83.12149,8.40493,10.777],[-83.15087,8.36929,0.0],[-83.11685,8.33613,7.1928],[-82.99258,8.24641,0.0],[-82.9685,8.22122,0.0],[-82.90038,8.10505,18.2787],[-82.89761,8.0928,28.8735],[-82.90213,8.07746,11.451],[-82.9097,8.06061,22.9944],[-82.91124,8.04536,0.0],[-82.89763,8.03475,0.0],[-82.89137,8.05755,91.3513],[-82.88641,8.10219,83.3852],[-82.93909,8.21684,82.4479],[-82.94367,8.24857,81.8889],[-82.95051,8.25883,148.6397],[-82.96801,8.26797,168.5951],[-82.97713,8.26924,415.6347],[-82.98919,8.26446,367.0638],[-82.99552,8.26482,184.9964],[-83.0011,8.26924,148.8615],[-83.01077,8.28337,388.5804],[-83.01607,8.289,332.1821],[-83.04407,8.30536,54.3249],[-83.05325,8.3151,185.6414],[-83.05211,8.32763,487.4764],[-83.0433,8.33474,512.006],[-82.99777,8.36016,451.227],[-82.95351,8.4021,66.0194],[-82.92478,8.41675,40.6136],[-82.89651,8.42535,17.3717],[-82.87041,8.43812,20.8021],[-82.8483,8.46517,25.9207],[-82.83892,8.49462,55.7367],[-82.83597,8.52976,115.5769],[-82.84186,8.59948,288.5555],[-82.8498,8.62986,499.2775],[-82.86222,8.6557,453.6721],[-82.87894,8.67906,598.4116],[-82.91034,8.71391,971.4186],[-82.91922,8.72707,1092.2158],[-82.92416,8.7412,1149.6117],[-82.92297,8.75616,1133.2407],[-82.91488,8.76479,1112.7454],[-82.88512,8.78319,1013.2491],[-82.87579,8.79391,1013.6025],[-82.87563,8.80753,970.0799],[-82.88357,8.81238,934.6409],[-82.88832,8.81693,906.9801],[-82.87858,8.82977,975.8869],[-82.86693,8.83807,984.5164],[-82.76378,8.87995,1401.9734],[-82.73386,8.89799,1807.4457],[-82.72016,8.92024,2341.2175],[-82.71936,8.92152,2427.1116],[-82.72334,8.93093,2205.7544],[-82.74913,8.97408,2166.4868],[-82.7627,8.98299,2219.4722],[-82.80817,8.99837,2383.679],[-82.85409,9.03198,2452.3687],[-82.87656,9.04193,2265.3516],[-82.88243,9.04534,2335.6123],[-82.88687,9.05149,2294.0217],[-82.88969,9.05937,2394.1997],[-82.89328,9.06694,2618.7764],[-82.90023,9.07206,2852.4373],[-82.90946,9.07201,2767.896],[-82.93938,9.05958,2709.6375],[-82.93952,9.07064,2530.2366],[-82.94023,9.07123,2530.2366],[-82.9495,9.07893,2600.4797],[-82.95266,9.081,2584.7603],[-82.96883,9.08606,2447.448],[-82.98581,9.10286,2486.9473],[-82.9909,9.11025,2425.5942],[-82.99715,9.12751,2515.9688],[-83.00247,9.13583,2390.5364],[-83.00661,9.13836,2340.8501],[-83.01286,9.14125,2314.3223],[-83.0473,9.15076,2272.4893],[-83.050299999999993,9.15252,2287.0818],[-83.05309,9.155,2364.6343],[-83.05611,9.16016,2450.5994],[-83.05748,9.16389,2585.4385],[-83.06839,9.21763,3055.7725],[-83.07195,9.22745,2871.2881],[-83.07428,9.23179,2820.1479],[-83.07575,9.23375,2851.2192],[-83.07756,9.23541,2866.8015],[-83.07963,9.23696,2829.1414],[-83.11544,9.25711,2154.8716],[-83.11939,9.25995,2053.8145],[-83.1266,9.26677,2399.4985],[-83.16567,9.31685,2916.8005],[-83.17001,9.31809,2939.719],[-83.17657,9.31881,2873.8081],[-83.19807,9.31726,2323.1624],[-83.21192,9.31473,2387.7646],[-83.21533,9.31473,2552.8557],[-83.22063,9.31566,2258.4792],[-83.22771,9.31778,2314.6597],[-83.24334,9.32568,2005.5707],[-83.25287,9.33204,1830.8308],[-83.25768,9.33452,1842.0256],[-83.27615,9.34062,2190.7483],[-83.28127,9.34289,2043.2373],[-83.28357,9.34429,2148.8594],[-83.28584,9.34537,2275.2017],[-83.30434,9.36129,2608.6777],[-83.30873,9.36418,2499.1599],[-83.31346,9.36656,2480.4458],[-83.3168,9.36672,2446.5603],[-83.32114,9.36594,2273.3955],[-83.32845,9.36212,2409.208],[-83.33214,9.35974,2709.1553],[-83.33473,9.35726,2817.6726],[-83.34641,9.34103,2537.3877],[-83.34806,9.33933,2395.9834],[-83.3523,9.33793,2388.1309],[-83.371,9.33617,2520.2268],[-83.37658,9.33483,2360.9417],[-83.38031,9.33307,2255.8159],[-83.38385,9.32946,2183.5698],[-83.38571,9.32801,2093.2898],[-83.38795,9.32667,2023.1775],[-83.39012,9.32646,2080.5303],[-83.39237,9.32739,2267.0669],[-83.39501,9.33514,2581.3054],[-83.39563,9.3384,2848.3267],[-83.3964,9.34103,2854.1462],[-83.40005,9.34413,2875.8071],[-83.40328,9.3461,2873.1426],[-83.4294,9.35369,2604.5786],[-83.45126,9.33096,1916.2133],[-83.45394,9.32718,1789.3696],[-83.45684,9.32202,1736.5754],[-83.46356,9.29768,1133.8705],[-83.46609,9.29194,1024.3214],[-83.46836,9.28796,963.6409],[-83.49572,9.25752,622.759],[-83.49898,9.25267,586.1969],[-83.49983,9.25008,579.684],[-83.50965,9.19965,370.9585],[-83.50944,9.19696,428.209],[-83.50818,9.19499,475.6662],[-83.50603,9.19375,498.2185],[-83.4973,9.192,448.1264],[-83.49503,9.19086,433.6164],[-83.49317,9.18921,458.5148],[-83.49162,9.18745,448.2365],[-83.4897,9.186,422.1756],[-83.48743,9.18518,390.8597],[-83.48474,9.18518,389.5788],[-83.48213,9.18564,355.6497],[-83.47958,9.18559,337.8684],[-83.47784,9.1843,320.8503],[-83.47673,9.18213,322.9374],[-83.47601,9.17949,327.9731],[-83.47462,9.17742,319.9585],[-83.47312,9.17339,333.7966],[-83.4719,9.16781,338.5812],[-83.47131,9.15593,359.2365],[-83.47322,9.14973,310.6094],[-83.48089,9.13577,506.5076],[-83.48252,9.13071,592.4974],[-83.48314,9.12642,717.075],[-83.48027,9.10348,647.5615],[-83.48097,9.09826,671.7287],[-83.48229,9.09464,558.3591],[-83.4842,9.09288,522.457],[-83.48629,9.09154,517.0437],[-83.48846,9.0905,509.5319],[-83.49162,9.08844,435.554],[-83.49521,9.08508,372.6618],[-83.50601,9.07009,498.1227],[-83.50782,9.06828,564.5569],[-83.50988,9.06699,641.8395],[-83.51224,9.06632,562.0699],[-83.51485,9.06606,445.2221],[-83.51751,9.06663,453.2521],[-83.52035,9.06746,460.1973],[-83.52474,9.07004,505.4167],[-83.52639,9.07164,613.8369],[-83.53089,9.07697,679.8106],[-83.53513,9.08007,737.5767],[-83.53761,9.08105,715.1253],[-83.54112,9.08136,724.5748],[-83.54371,9.08131,851.5318],[-83.55216,9.08007,685.7997],[-83.56306,9.07934,640.2088],[-83.56536,9.08038,626.8845],[-83.65615,9.13862,960.0903],[-83.663,9.14663,868.541],[-83.66564,9.15045,932.2573],[-83.66675,9.15262,998.095],[-83.67429,9.17835,883.0305],[-83.67484,9.18094,898.4473],[-83.67509,9.18363,900.064],[-83.67863,9.18962,836.2211],[-83.7014,9.21737,1123.2468],[-83.71527,9.23055,900.6932],[-83.72504,9.2352,462.8388],[-83.72773,9.23597,432.808],[-83.73057,9.23644,481.5054],[-83.7332,9.23644,587.7375],[-83.73646,9.23597,535.4947],[-83.73938,9.2352,403.0729],[-83.74204,9.23417,453.0575],[-83.74434,9.23293,557.4264],[-83.74617,9.23148,633.8474],[-83.75493,9.21949,716.4009],[-83.75664,9.21763,695.6821],[-83.7585,9.21613,636.7616],[-83.76098,9.21536,577.3849],[-83.76377,9.21494,600.6068],[-83.77124,9.21691,665.8318],[-83.82095,9.23907,472.8746],[-83.82782,9.24522,181.677],[-83.83152,9.24946,287.5118],[-83.83423,9.25349,414.7966],[-83.83909,9.26321,309.3272],[-83.84547,9.28331,52.1772],[-83.8471,9.29432,358.4748],[-83.84723,9.30041,370.6332],[-83.84594,9.31023,286.8172],[-83.84953,9.31659,251.5271],[-83.85614,9.32532,127.2373],[-83.88849,9.35778,469.1022],[-83.88955,9.36026,468.2249],[-83.89374,9.37958,732.8244],[-83.89526,9.38351,859.2889],[-83.90242,9.39622,752.5073],[-83.90575,9.39974,874.285],[-83.90883,9.40201,909.136],[-83.91159,9.40253,970.8867],[-83.91469,9.40253,981.5273],[-83.91751,9.40211,961.8915],[-83.92012,9.40129,780.8857],[-83.92237,9.40025,676.7456],[-83.92451,9.39891,696.7797],[-83.92632,9.39736,706.5012],[-83.92802,9.3956,627.3602],[-83.92934,9.39333,646.1628],[-83.94472,9.39819,685.2764],[-84.01024,9.44144,113.157],[-84.033,9.4634,487.8043],[-84.04936,9.49451,251.6589],[-84.07109,9.50428,283.6681],[-84.07484,9.51048,142.8452],[-84.0728,9.51544,178.7648],[-84.07013,9.52004,222.1155],[-84.06938,9.52428,239.3979],[-84.06936,9.53027,193.3495],[-84.0714,9.54278,346.7032],[-84.07344,9.5482,495.7698],[-84.07566,9.55187,679.2128],[-84.07809,9.55332,856.2762],[-84.08323,9.55518,821.254],[-84.0923,9.55652,735.3253],[-84.10535,9.55626,556.4348],[-84.11442,9.55471,528.2936],[-84.11907,9.55564,362.7374],[-84.12672,9.55838,451.0172],[-84.13432,9.5652,579.0668],[-84.13783,9.56934,564.5856],[-84.13954,9.57301,577.3772],[-84.13977,9.57606,503.4125],[-84.13923,9.58246,729.3131],[-84.13731,9.59084,1031.8746],[-84.13698,9.59476,1195.9866],[-84.13729,9.59941,1427.7706],[-84.13941,9.60727,1495.417],[-84.14212,9.61166,1464.2389],[-84.1455,9.6144,1476.6147],[-84.14791,9.61523,1667.4663],[-84.1569,9.61626,1642.5063],[-84.20165,9.61228,429.858],[-84.21659,9.61352,620.1231],[-84.22961,9.6191,627.1768],[-84.26521,9.61822,181.1124],[-84.27586,9.62008,187.3427],[-84.27743,9.62158,206.0124],[-84.28418,9.62996,78.4724],[-84.28805,9.63269,86.4621],[-84.2933,9.63745,68.6608],[-84.30813,9.63879,83.9508],[-84.35084,9.63657,334.8385],[-84.37709,9.63161,282.2573],[-84.38877,9.63182,309.7146],[-84.39448,9.63068,206.8301],[-84.39696,9.62902,135.926],[-84.39712,9.62649,146.3873],[-84.39363,9.6067,128.6993],[-84.39417,9.60076,170.4624],[-84.3951,9.59823,103.8703],[-84.3973,9.59518,158.5592],[-84.40084,9.59177,83.5135],[-84.41213,9.58277,63.5692],[-84.41484,9.58019,62.1957],[-84.41626,9.57812,66.854],[-84.42233,9.56603,56.0489],[-84.42505,9.56355,49.2986],[-84.42815,9.56221,50.4015],[-84.43086,9.56185,44.4623],[-84.43378,9.5621,49.626],[-84.43621,9.56293,38.4],[-84.43843,9.56417,39.9689],[-84.44034,9.56588,49.0214],[-84.44507,9.5712,66.2125],[-84.44727,9.57265,59.2119],[-84.44965,9.57368,49.1524],[-84.45269,9.57399,47.5484],[-84.45574,9.57394,66.2172],[-84.47132,9.56991,62.4959],[-84.47535,9.56986,103.4549],[-84.47784,9.57022,84.7274],[-84.48494,9.57306,50.0053],[-84.51582,9.56805,102.1719],[-84.5261,9.56929,11.7824],[-84.52925,9.57146,11.4192],[-84.53638,9.57807,10.6046],[-84.54259,9.58639,24.7593],[-84.547,9.59569,133.3155],[-84.54972,9.60319,52.62],[-84.55631,9.63641,427.3734],[-84.55706,9.63869,435.2585],[-84.57925,9.67729,573.1769],[-84.58163,9.68318,565.439],[-84.58194,9.68628,598.4554],[-84.58121,9.70561,547.3676],[-84.58364,9.71765,492.6924],[-84.59132,9.74287,205.4151],[-84.59163,9.7455,256.9786],[-84.5915,9.74824,220.5027],[-84.59072,9.75062,352.0968],[-84.58938,9.75263,439.7186],[-84.58744,9.75419,492.1698],[-84.58504,9.75548,460.3165],[-84.58225,9.7563,558.686],[-84.5763,9.75703,669.0909],[-84.55711,9.75599,576.9217],[-84.55403,9.75636,612.4865],[-84.55129,9.75703,622.1493],[-84.54886,9.75806,634.4862],[-84.5469,9.7594,595.0592],[-84.54491,9.76194,556.8973],[-84.54328,9.76592,468.0536],[-84.54181,9.77418,281.679],[-84.54235,9.77971,228.7058],[-84.54318,9.78359,157.7395],[-84.54806,9.79279,298.6673],[-84.55383,9.80075,346.7107],[-84.55553,9.80271,358.1956],[-84.55928,9.80612,298.0723],[-84.56326,9.80912,99.2232],[-84.57044,9.81304,20.0646],[-84.57997,9.81733,14.4093],[-84.57106,9.82452,150.1362],[-84.59279,9.85315,115.3507],[-84.60178,9.86007,82.9733],[-84.61374,9.86245,52.626],[-84.62677,9.86317,56.1397],[-84.6433,9.86762,32.6695],[-84.66421,9.87588,7.704],[-84.67108,9.88064,9.3869],[-84.67441,9.88436,1.9507],[-84.67297,9.88963,4.1828],[-84.67304,9.89552,6.7915],[-84.67255,9.89826,9.4079],[-84.67085,9.90048,19.3448],[-84.66924,9.90198,19.3448],[-84.66219,9.90508,46.85],[-84.64369,9.93386,177.4926],[-84.63599,9.94125,159.1066],[-84.62491,9.94461,183.3645],[-84.57571,9.97634,317.2318],[-84.56,9.98254,237.4117],[-84.55507,9.98513,268.3226],[-84.55176,9.98812,263.1357],[-84.55088,9.99029,312.6411],[-84.5501,9.99774,329.5959],[-84.56279,10.0183,407.9125],[-84.56997,10.02171,410.3328],[-84.57246,10.02068,370.8887],[-84.58034,10.01463,384.8566],[-84.58806,10.01252,396.0699],[-84.59139,10.01262,385.1752],[-84.59351,10.01324,386.4634],[-84.59444,10.01469,374.2713],[-84.59581,10.01779,384.9897],[-84.59643,10.02016,417.108],[-84.60269,10.02978,355.2985],[-84.61904,10.04921,301.6039],[-84.6271,10.06223,321.5159],[-84.64346,10.08228,399.6711],[-84.64938,10.09122,454.0146],[-84.66043,10.1138,667.4773],[-84.66493,10.12977,1021.9032],[-84.66113,10.15494,1326.6431],[-84.66152,10.15871,1318.9174],[-84.6626,10.16429,1306.6304],[-84.66816,10.17431,1312.2528],[-84.66896,10.1784,1318.3778],[-84.66896,10.18207,1320.6104],[-84.6632,10.20449,1417.3563],[-84.6602,10.21188,1340.5629],[-84.64963,10.231,1115.7069],[-84.6485,10.23607,1097.5107],[-84.64888,10.23979,1120.9934],[-84.65046,10.24149,1194.7711],[-84.65648,10.24614,1227.2056],[-84.66051,10.25178,1343.9363],[-84.66607,10.26728,1410.6251],[-84.68392,10.27875,1594.0208],[-84.69154,10.27984,1532.6222],[-84.69415,10.27891,1471.5057],[-84.69645,10.27787,1498.311],[-84.70299,10.274,1393.3113],[-84.71668,10.27007,1743.9385],[-84.73573,10.26671,1725.6626],[-84.74392,10.26635,1610.9735],[-84.74955,10.26671,1534.8361]]]]}
,"properties": {"ISO3166-1-Alpha-3": "CRI","country": "Costa Rica","fill": "#F00","name": "Puntarenas","area_km2": 11177.117,"hist_schema_id": "Elevation0-9000","hist_area_km2": {"0": 1232.156,"25": 1353.307,"50": 563.699,"75": 478.978,"100": 451.454,"125": 419.742,"150": 396.902,"175": 358.183,"200": 320.772,"225": 284.557,"250": 252.877,"275": 233.226,"300": 217.191,"325": 215.878,"350": 199.229,"375": 201.661,"400": 187.293,"425": 183.544,"450": 169.404,"475": 151.187,"500": 134.979,"525": 127.834,"550": 115.196,"575": 111.62,"600": 103.143,"625": 94.061,"650": 95.628,"675": 89.943,"700": 84.873,"725": 85.382,"750": 81.424,"775": 78.371,"800": 77.345,"825": 71.187,"850": 67.589,"875": 64.363,"900": 69.098,"925": 70.856,"950": 70.441,"975": 67.195,"1000": 61.518,"1025": 55.192,"1050": 57.895,"1075": 59.487,"1100": 59.996,"1125": 59.156,"1150": 52.665,"1175": 46.926,"1200": 45.961,"1225": 45.668,"1250": 38.776,"1275": 40.052,"1300": 37.684,"1325": 39.272,"1350": 35.525,"1375": 35.797,"1400": 33.497,"1425": 31.804,"1450": 30.048,"1475": 28.584,"1500": 28.04,"1525": 27.14,"1550": 25.927,"1575": 24.441,"1600": 23.12,"1625": 21.385,"1650": 21.093,"1675": 21.197,"1700": 20.989,"1725": 19.731,"1750": 19.501,"1775": 18.292,"1800": 17.793,"1825": 17.522,"1850": 16.454,"1875": 17.229,"1900": 16.747,"1925": 15.198,"1950": 16.727,"1975": 15.324,"2000": 14.528,"2025": 14.779,"2050": 14.11,"2075": 14.152,"2100": 13.105,"2125": 12.183,"2150": 11.283,"2175": 10.404,"2200": 9.797,"2225": 9.817,"2250": 8.875,"2275": 8.457,"2300": 8.184,"2325": 8.205,"2350": 7.493,"2375": 7.075,"2400": 6.342,"2425": 5.505,"2450": 5.923,"2475": 5.128,"2500": 4.291,"2525": 4.5,"2550": 3.788,"2575": 3.851,"2600": 3.37,"2625": 3.328,"2650": 3.244,"2675": 2.972,"2700": 2.721,"2725": 2.449,"2750": 2.448,"2775": 1.884,"2800": 2.03,"2825": 1.863,"2850": 1.465,"2875": 1.57,"2900": 1.277,"2925": 1.088,"2950": 0.565,"2975": 0.398,"3000": 0.419,"3025": 0.481,"3050": 0.356,"3075": 0.23}}}