{"type":"Feature","properties":{"GID_1":"CRI.6_1","GID_0":"CRI","country":"CostaRica","province":"Puntarenas","VARNAME_1":"NA","NL_NAME_1":"NA","TYPE_1":"Provincia","ENGTYPE_1":"Province","CC_1":"6","HASC_1":"CR.PU","ISO_1":"CR-P","name":"Puntarenas.province"},
"geometry":{"type": "MultiPolygon","coordinates": [[[[-87.1018,5.509,0.0],[-87.1015,5.5086,0.0],[-87.1012,5.5092,0.0],[-87.1015,5.5093,0.0],[-87.1018,5.509,0.0]]],
[[[-87.1006,5.5129,0.0],[-87.0997,5.5131,0.0],[-87.0997,5.5134,0.0],[-87.1001,5.5135,0.0],[-87.1006,5.5129,0.0]]],
[[[-87.0282,5.532,0.0],[-87.0282,5.5319,0.0],[-87.0281,5.5319,0.0],[-87.028,5.5319,0.0],[-87.0282,5.532,0.0]]],
[[[-87.049,5.5173,0.0],[-87.049,5.5172,0.0],[-87.0489,5.5171,0.0],[-87.0489,5.5173,0.0],[-87.049,5.5173,0.0]]],
[[[-87.0361,5.5217,0.0],[-87.0361,5.5215,0.0],[-87.0352,5.5214,0.0],[-87.0357,5.5218,0.0],[-87.0361,5.5217,0.0]]],
[[[-87.0919,5.5139,73.2427],[-87.0918,5.5139,73.2427],[-87.0919,5.514,73.2427],[-87.0919,5.5139,73.2427]]],
[[[-87.093,5.5156,0.0],[-87.093,5.5155,0.0],[-87.0928,5.5156,100.7622],[-87.0929,5.5157,100.7622],[-87.093,5.5156,0.0]]],
[[[-87.0932,5.5141,0.0],[-87.0931,5.514,0.0],[-87.093,5.514,0.0],[-87.0931,5.5141,0.0],[-87.0932,5.5141,0.0]]],
[[[-87.0687,5.5038,0.0],[-87.0679,5.5042,-0.0226],[-87.0687,5.5051,0.0],[-87.069,5.5041,0.0],[-87.0687,5.5038,0.0]]],
[[[-87.0567,5.5058,0.0],[-87.0565,5.5056,0.0],[-87.0563,5.5059,0.0],[-87.0565,5.506,0.0],[-87.0567,5.5058,0.0]]],
[[[-87.0856,5.5076,0.0],[-87.0856,5.5074,0.0],[-87.0853,5.5077,0.0],[-87.0856,5.5076,0.0]]],
[[[-87.0545,5.5089,0.0],[-87.0542,5.5089,0.0],[-87.0542,5.5092,0.0],[-87.0549,5.509,0.0],[-87.0545,5.5089,0.0]]],
[[[-87.0895,5.5127,35.3975],[-87.0894,5.5126,35.3975],[-87.0893,5.5126,35.3975],[-87.0894,5.5127,35.3975],[-87.0895,5.5127,35.3975]]],
[[[-87.0551,5.5134,0.0],[-87.0548,5.5131,0.0],[-87.0549,5.5134,0.0],[-87.0551,5.5134,0.0]]],
[[[-87.0938,5.5135,0.0],[-87.0937,5.5135,0.0],[-87.0937,5.5136,0.0],[-87.0938,5.5135,0.0]]],
[[[-87.0464,5.5627,0.0901],[-87.0478,5.5626,0.0941],[-87.0481,5.559,0.8775],[-87.047,5.5596,0.0],[-87.0464,5.5627,0.0901]]],
[[[-87.048,5.556,0.6476],[-87.0507,5.5565,-0.0157],[-87.0497,5.5521,105.5295],[-87.0529,5.5501,80.7593],[-87.0577,5.551,0.0],[-87.0599,5.549,15.6647],[-87.062,5.5497,9.2504],[-87.062,5.5483,8.321],[-87.0567,5.5465,11.1207],[-87.0565,5.5425,9.4494],[-87.0586,5.5438,0.0],[-87.0603,5.5417,29.4942],[-87.0654,5.5413,23.9336],[-87.0695,5.5416,37.7467],[-87.0711,5.5433,1.3088],[-87.0746,5.5407,10.9822],[-87.0794,5.5412,6.9491],[-87.0825,5.5396,32.9659],[-87.0845,5.5351,270.2872],[-87.091,5.5315,10.8356],[-87.0889,5.5291,63.4731],[-87.0918,5.5265,15.8502],[-87.0904,5.5259,148.0653],[-87.0908,5.5235,222.0409],[-87.0942,5.5214,0.0],[-87.0945,5.5192,5.2625],[-87.0914,5.518,133.0052],[-87.0918,5.5148,73.2427],[-87.0888,5.5132,80.1924],[-87.0847,5.5085,192.9783],[-87.0848,5.5063,0.0],[-87.0835,5.507,49.0286],[-87.0834,5.5055,49.0286],[-87.0799,5.5042,71.3389],[-87.0794,5.5008,0.0],[-87.0741,5.4986,0.0],[-87.0721,5.5046,20.6121],[-87.0686,5.5079,126.4303],[-87.0669,5.5124,47.4823],[-87.064,5.5104,0.0],[-87.0618,5.511,4.2263],[-87.0567,5.5132,0.0],[-87.0514,5.5187,0.0],[-87.0447,5.5184,0.0],[-87.0434,5.5223,70.196],[-87.0412,5.5225,17.8754],[-87.0399,5.5249,94.4736],[-87.0361,5.5256,78.9386],[-87.034,5.5243,21.6503],[-87.0301,5.5273,0.0],[-87.0305,5.5292,5.7402],[-87.0286,5.5319,0.0],[-87.0276,5.5325,17.3085],[-87.028,5.537,13.4965],[-87.0332,5.5496,9.9125],[-87.0371,5.551,6.2571],[-87.043,5.5477,15.4408],[-87.0461,5.5497,44.7638],[-87.0449,5.5535,0.0],[-87.048,5.556,0.6476]]],
[[[-87.0837,5.5371,61.878],[-87.0838,5.5371,61.878],[-87.0838,5.537,188.9843],[-87.0837,5.5371,61.878]]],
[[[-87.0296,5.5417,2.4044],[-87.0296,5.5414,2.4044],[-87.0293,5.5414,2.4044],[-87.0293,5.5417,2.4044],[-87.0296,5.5417,2.4044]]],
[[[-87.0623,5.5437,0.0],[-87.0622,5.5437,0.0],[-87.0621,5.5438,0.0],[-87.0622,5.5438,0.0],[-87.0623,5.5437,0.0]]],
[[[-87.031,5.5453,0.0],[-87.0311,5.5452,0.0],[-87.0308,5.5452,0.0],[-87.0309,5.5453,0.0],[-87.031,5.5453,0.0]]],
[[[-87.0821,5.5475,0.0],[-87.082,5.5472,0.0],[-87.0818,5.5472,0.0],[-87.0819,5.5475,0.0],[-87.0821,5.5475,0.0]]],
[[[-87.0318,5.5476,55.9032],[-87.0317,5.5475,55.9032],[-87.0317,5.5476,55.9032],[-87.0318,5.5476,55.9032]]],
[[[-87.0355,5.5513,6.2571],[-87.0355,5.5512,6.2571],[-87.0352,5.5513,0.0],[-87.0353,5.5514,0.0],[-87.0355,5.5513,6.2571]]],
[[[-87.0539,5.5543,0.0483],[-87.0533,5.5542,0.0],[-87.0545,5.5553,0.0483],[-87.0545,5.5543,0.0483],[-87.0539,5.5543,0.0483]]],
[[[-87.0327,5.5506,0.0],[-87.0329,5.5502,9.9125],[-87.0327,5.5498,9.9125],[-87.0319,5.5507,0.0],[-87.0327,5.5506,0.0]]],
[[[-87.0642,5.5508,0.0],[-87.0642,5.5507,0.0],[-87.0641,5.5507,0.0],[-87.0641,5.5508,0.0],[-87.0642,5.5508,0.0]]],
[[[-84.121,9.3458,0.0],[-84.1211,9.346,0.0],[-84.1213,9.3459,0.0],[-84.1212,9.3456,0.0],[-84.121,9.3458,0.0]]],
[[[-83.7253,9.1047,6.7229],[-83.727,9.1057,0.629],[-83.728,9.1056,0.629],[-83.7256,9.1036,0.0],[-83.7253,9.1047,6.7229]]],
[[[-83.3901,8.7296,0.0],[-83.39,8.729,0.0],[-83.3893,8.7291,0.0],[-83.3894,8.7296,0.0],[-83.3901,8.7296,0.0]]],
[[[-83.5874,8.8465,0.0],[-83.5867,8.8453,0.0],[-83.586,8.8456,0.0],[-83.5861,8.846,0.0],[-83.5874,8.8465,0.0]]],
[[[-83.6042,8.8473,0.0],[-83.6029,8.8433,0.0],[-83.6012,8.8468,0.0],[-83.6026,8.849,0.0],[-83.6042,8.8473,0.0]]],
[[[-83.5909,8.8494,0.0],[-83.5909,8.8508,0.0],[-83.5975,8.8517,0.7215],[-83.5964,8.8497,4.6497],[-83.5924,8.8484,0.0],[-83.5909,8.8494,0.0]]],
[[[-83.7401,8.6146,0.2336],[-83.7397,8.6135,0.1504],[-83.7388,8.615,0.0],[-83.7399,8.6153,0.2336],[-83.7401,8.6146,0.2336]]],
[[[-83.8667,8.7161,0.0],[-83.8692,8.7167,0.0],[-83.8724,8.7148,13.7405],[-83.8753,8.7158,0.0],[-83.8804,8.7137,0.0],[-83.8832,8.7151,0.0],[-83.8935,8.7108,0.0],[-83.8905,8.7092,3.8126],[-83.8893,8.7061,92.1822],[-83.8744,8.7018,0.0],[-83.8727,8.7046,88.2244],[-83.8702,8.7028,30.8727],[-83.8681,8.7052,9.3201],[-83.8667,8.7161,0.0]]],
[[[-83.7417,8.6177,0.0],[-83.7421,8.6175,0.0],[-83.7416,8.6171,0.0],[-83.7415,8.6175,0.0],[-83.7417,8.6177,0.0]]],
[[[-83.7409,8.6181,0.0],[-83.7413,8.618,0.0],[-83.7409,8.6175,0.0],[-83.7408,8.6177,0.0],[-83.7409,8.6181,0.0]]],
[[[-83.3345,8.7214,0.7964],[-83.3346,8.7213,0.7964],[-83.3344,8.721,0.7964],[-83.3343,8.7213,0.7964],[-83.3345,8.7214,0.7964]]],
[[[-83.3897,8.7274,0.0],[-83.3898,8.7273,0.0],[-83.3897,8.7272,0.0],[-83.3896,8.7274,0.0],[-83.3897,8.7274,0.0]]],
[[[-83.3366,8.7208,3.5221],[-83.3361,8.7198,1.0362],[-83.3351,8.7211,0.7964],[-83.3364,8.7219,3.5221],[-83.3366,8.7208,3.5221]]],
[[[-83.3348,8.7219,0.7964],[-83.335,8.7218,0.7964],[-83.3349,8.7216,0.7964],[-83.3347,8.7217,0.7964],[-83.3348,8.7219,0.7964]]],
[[[-84.1213,9.3477,0.0],[-84.1216,9.3479,0.0],[-84.1215,9.3472,0.0],[-84.1213,9.3473,0.0],[-84.1213,9.3477,0.0]]],
[[[-84.123,9.3509,0.0],[-84.1223,9.3497,0.0],[-84.1219,9.3497,0.0],[-84.1225,9.351,0.0],[-84.123,9.3509,0.0]]],
[[[-84.1226,9.353,1.9216],[-84.1224,9.3524,1.9216],[-84.1213,9.3519,0.0],[-84.1214,9.3535,1.3021],[-84.1226,9.353,1.9216]]],
[[[-84.1164,9.3662,0.0],[-84.1155,9.3648,0.0],[-84.1156,9.3678,0.0],[-84.1162,9.3676,0.0],[-84.1164,9.3662,0.0]]],
[[[-84.1514,9.3706,0.0],[-84.1521,9.3702,-0.119],[-84.1512,9.3701,-0.119],[-84.151,9.371,0.0],[-84.1514,9.3706,0.0]]],
[[[-84.1564,9.3717,0.0],[-84.1551,9.3732,-0.1379],[-84.1551,9.375,3.8553],[-84.1564,9.3741,3.8553],[-84.1564,9.3717,0.0]]],
[[[-84.1435,9.3761,0.0],[-84.1439,9.3757,0.0],[-84.1432,9.3753,0.0],[-84.1431,9.3756,0.0],[-84.1435,9.3761,0.0]]],
[[[-84.1494,9.3719,0.0147],[-84.1493,9.3707,0.0147],[-84.1484,9.3705,0.0147],[-84.1484,9.3711,0.0147],[-84.1494,9.3719,0.0147]]],
[[[-84.1675,9.3815,0.025],[-84.1665,9.3802,0.0],[-84.166,9.3801,0.0],[-84.1676,9.3831,0.0489],[-84.1675,9.3815,0.025]]],
[[[-84.1554,9.3838,0.0],[-84.1557,9.3826,0.0],[-84.1554,9.383,0.0],[-84.1552,9.3845,0.0],[-84.1554,9.3838,0.0]]],
[[[-84.1545,9.3863,0.0],[-84.1546,9.3865,0.0],[-84.1549,9.3864,0.0],[-84.1546,9.3861,0.0],[-84.1545,9.3863,0.0]]],
[[[-84.1821,9.3927,0.0],[-84.1824,9.3922,0.0],[-84.1816,9.3916,0.0],[-84.1812,9.3925,0.0],[-84.1821,9.3927,0.0]]],
[[[-84.5336,9.5106,0.0],[-84.5338,9.5106,0.0],[-84.5339,9.5104,0.0],[-84.5337,9.5104,0.0],[-84.5336,9.5106,0.0]]],
[[[-84.5326,9.5116,0.0],[-84.5329,9.5115,0.0],[-84.5329,9.5112,0.0],[-84.5324,9.5114,0.0],[-84.5326,9.5116,0.0]]],
[[[-84.5354,9.5168,0.0],[-84.536,9.5153,0.0],[-84.5359,9.5151,0.0],[-84.5348,9.5173,0.0],[-84.5354,9.5168,0.0]]],
[[[-84.5255,9.5165,0.0],[-84.5256,9.5163,0.0],[-84.5254,9.5161,0.0],[-84.5253,9.5163,0.0],[-84.5255,9.5165,0.0]]],
[[[-83.1623,8.5695,0.0],[-83.1627,8.5693,0.0],[-83.1627,8.5691,0.0],[-83.1617,8.5695,0.0],[-83.1623,8.5695,0.0]]],
[[[-83.1587,8.5795,0.0],[-83.158,8.5788,0.0],[-83.1573,8.5789,0.0],[-83.1586,8.5799,0.0],[-83.1587,8.5795,0.0]]],
[[[-83.1454,8.6011,0.0],[-83.1458,8.6004,0.0],[-83.1443,8.6011,0.0],[-83.1447,8.6014,0.0],[-83.1454,8.6011,0.0]]],
[[[-83.7401,8.6063,0.0],[-83.7403,8.6059,0.0],[-83.7395,8.6055,0.0],[-83.7395,8.6058,0.0],[-83.7401,8.6063,0.0]]],
[[[-82.8287,8.6294,809.1246],[-82.83,8.6361,897.0344],[-82.8349,8.6389,855.203],[-82.8344,8.6418,849.6771],[-82.8363,8.6465,836.6581],[-82.8444,8.6567,840.9385],[-82.8544,8.663,732.4053],[-82.859,8.6725,654.7578],[-82.8587,8.6762,772.2891],[-82.8644,8.679,848.1141],[-82.8626,8.688,865.6415],[-82.8656,8.6902,876.5529],[-82.8677,8.6971,865.2558],[-82.8704,8.6989,891.3657],[-82.8806,8.6973,890.2349],[-82.8811,8.6999,883.9617],[-82.8869,8.7048,910.4711],[-82.887,8.7067,912.2679],[-82.897,8.7156,964.0042],[-82.9006,8.7228,1065.3276],[-82.901,8.7308,1092.3254],[-82.9044,8.7361,1124.3048],[-82.9064,8.7372,1116.5831],[-82.909,8.7359,1124.8015],[-82.9131,8.7409,1156.8671],[-82.9161,8.7417,1163.9792],[-82.92,8.7517,1165.9044],[-82.9157,8.7518,1132.1422],[-82.9088,8.7574,1118.2634],[-82.909,8.7589,1118.983],[-82.9148,8.7596,1152.6013],[-82.9156,8.7638,1112.7454],[-82.9189,8.7656,1146.0854],[-82.9135,8.7672,1118.2406],[-82.914,8.77,1151.884],[-82.9092,8.7741,1111.8123],[-82.906,8.7748,1118.1754],[-82.9004,8.773,1087.3723],[-82.8988,8.7746,1091.949],[-82.8948,8.7714,1075.2103],[-82.8921,8.7724,1070.5764],[-82.8902,8.7788,1029.3884],[-82.8949,8.7832,1022.078],[-82.8904,8.7859,999.8944],[-82.8883,8.7931,955.574],[-82.8656,8.8048,983.5416],[-82.8623,8.8181,986.094],[-82.8706,8.816,941.2824],[-82.8713,8.8184,945.8517],[-82.8778,8.82,1017.0197],[-82.8764,8.8229,1002.2936],[-82.8807,8.8226,989.9832],[-82.8818,8.826,995.0587],[-82.8834,8.8265,987.6738],[-82.8837,8.8295,1002.9636],[-82.8829,8.832,987.3571],[-82.8692,8.8436,1015.1235],[-82.8674,8.8469,1043.0488],[-82.8625,8.8494,1036.0411],[-82.8622,8.8523,1043.376],[-82.8566,8.8527,1043.9291],[-82.8548,8.8561,1084.1437],[-82.8495,8.8539,1064.5328],[-82.8391,8.8563,1099.7954],[-82.834,8.8558,1097.5391],[-82.8235,8.8589,1133.1255],[-82.8129,8.8651,1191.254],[-82.8093,8.8724,1227.1652],[-82.799,8.8773,1224.6433],[-82.7888,8.8777,1271.1367],[-82.7843,8.8756,1294.5573],[-82.7803,8.8758,1319.8036],[-82.7737,8.8786,1360.7051],[-82.7698,8.8823,1334.0553],[-82.7608,8.8851,1464.3187],[-82.7591,8.8889,1564.6052],[-82.7539,8.8921,1642.4546],[-82.7473,8.8992,1947.7122],[-82.7489,8.9022,2016.9094],[-82.7487,8.9065,2103.8494],[-82.7252,8.9171,2350.291],[-82.7205,8.9207,2421.8389],[-82.7122,8.9225,2406.3442],[-82.7166,8.9487,2245.8977],[-82.727,8.9551,2105.0708],[-82.7294,8.9597,2172.6724],[-82.7356,8.9617,2160.415],[-82.742,8.9664,2254.2417],[-82.7365,8.977,2334.1379],[-82.7414,8.9852,2340.4941],[-82.7444,8.9857,2365.5784],[-82.7507,8.9923,2447.564],[-82.7638,8.9985,2502.491],[-82.7656,8.9974,2476.6953],[-82.7708,8.9997,2589.9111],[-82.7741,9.0037,2548.1226],[-82.7777,9.0031,2539.4231],[-82.7823,9.0054,2567.6199],[-82.7852,9.0036,2578.3062],[-82.7996,9.0034,2658.0107],[-82.8053,9.0096,2756.4229],[-82.8035,9.0142,2783.4316],[-82.815,9.0196,2951.6228],[-82.8138,9.0234,2935.6858],[-82.8184,9.0305,3122.2483],[-82.8233,9.0304,3100.354],[-82.8239,9.0334,3032.5564],[-82.83,9.0356,2915.8452],[-82.8356,9.0338,2912.0657],[-82.8401,9.0399,2822.9521],[-82.8446,9.0404,2818.2468],[-82.8443,9.0429,2815.5452],[-82.8465,9.042,2804.7942],[-82.8507,9.0464,2889.5259],[-82.855,9.046,2959.6528],[-82.8577,9.0507,2957.5986],[-82.8569,9.0533,2945.3445],[-82.8588,9.0537,2896.3315],[-82.8586,9.0564,2917.564],[-82.8632,9.056,2839.9695],[-82.8639,9.0578,2828.5693],[-82.8682,9.0544,2857.1326],[-82.8705,9.0556,2846.5879],[-82.8707,9.0574,2835.5842],[-82.875,9.0579,2789.354],[-82.8784,9.0612,2902.0803],[-82.8795,9.07,3063.4565],[-82.8823,9.0707,3006.1489],[-82.8871,9.0798,3037.3782],[-82.8875,9.0877,3231.8477],[-82.8928,9.089,3240.4541],[-82.9061,9.0821,3109.907],[-82.9143,9.0828,3034.3579],[-82.9276,9.0744,2905.3352],[-82.9311,9.0789,2774.5461],[-82.9355,9.0785,2740.3657],[-82.939,9.0749,2708.353],[-82.9428,9.0771,2700.8569],[-82.9512,9.0908,2682.5955],[-82.9547,9.0915,2673.5527],[-82.9582,9.0899,2649.5986],[-82.9709,9.0966,2535.9111],[-82.975,9.0944,2537.4448],[-82.9772,9.095,2545.2605],[-82.9786,9.1033,2540.9043],[-82.9814,9.1064,2542.2371],[-82.9813,9.113,2517.3193],[-82.9895,9.1167,2515.6567],[-82.9874,9.1244,2566.4089],[-82.9966,9.127,2519.2668],[-82.9927,9.1357,2506.1216],[-82.9941,9.1425,2551.4341],[-82.996,9.1444,2569.5369],[-82.9916,9.1546,2687.2788],[-82.9969,9.1586,2692.9514],[-83.0028,9.1559,2653.9094],[-83.0074,9.1559,2634.7886],[-83.016,9.1589,2549.698],[-83.0195,9.1583,2558.3284],[-83.0332,9.1617,2573.3921],[-83.038,9.16,2607.6716],[-83.0405,9.1615,2593.0266],[-83.0459,9.1603,2656.4497],[-83.057,9.1685,2695.0059],[-83.065,9.1769,2714.0642],[-83.0673,9.183,2726.9438],[-83.067,9.1894,2820.8835],[-83.0578,9.194,2958.8386],[-83.0568,9.2,2951.6846],[-83.0629,9.2043,2947.7688],[-83.0669,9.2106,2993.4902],[-83.0702,9.212,2956.0496],[-83.0768,9.22,3011.4695],[-83.0758,9.224,2913.3003],[-83.0791,9.2285,2820.4551],[-83.0797,9.2338,2862.4094],[-83.0733,9.2368,2917.6943],[-83.0717,9.2427,3041.1147],[-83.0733,9.2499,2933.4497],[-83.0843,9.2556,2850.25],[-83.0917,9.2538,2775.6321],[-83.0983,9.2563,2715.5496],[-83.1024,9.2592,2658.7715],[-83.1029,9.263,2669.8181],[-83.1102,9.2654,2474.1086],[-83.1132,9.2717,2542.2441],[-83.1166,9.2749,2632.9465],[-83.1342,9.2762,2870.1426],[-83.1344,9.282,2868.5815],[-83.1452,9.2896,2709.8936],[-83.1449,9.2926,2753.5835],[-83.1515,9.2949,2710.0452],[-83.1533,9.2981,2749.2266],[-83.1574,9.3,2813.0581],[-83.1572,9.3031,2825.666],[-83.1644,9.3077,2794.3628],[-83.1685,9.3193,2973.5278],[-83.178,9.3268,3039.5366],[-83.1885,9.3227,2853.7576],[-83.1973,9.3236,2648.6606],[-83.2068,9.3207,2612.4326],[-83.2241,9.3205,2539.1023],[-83.229,9.3268,2337.0916],[-83.2358,9.3296,2316.8306],[-83.2374,9.3343,2308.134],[-83.2416,9.3393,2259.5161],[-83.257,9.3416,2288.5042],[-83.2619,9.3454,2306.8022],[-83.2687,9.3477,2553.7327],[-83.2719,9.3523,2619.3503],[-83.279,9.3557,2682.3594],[-83.2874,9.3553,2809.812],[-83.2909,9.3634,2865.0378],[-83.2991,9.3685,3063.042],[-83.3029,9.3746,3253.5603],[-83.3075,9.3769,3169.8997],[-83.3121,9.3826,3138.0564],[-83.3163,9.3837,3068.4788],[-83.325,9.3838,2921.7578],[-83.3276,9.3815,2978.7834],[-83.3323,9.3833,3071.0977],[-83.3347,9.3742,3007.6841],[-83.3386,9.371,2923.3059],[-83.342,9.3707,2909.8491],[-83.3448,9.3669,2989.3137],[-83.3435,9.363,2964.2166],[-83.3445,9.3572,2934.5342],[-83.3515,9.3508,3021.624],[-83.3553,9.3523,2980.4551],[-83.3667,9.3461,2738.2881],[-83.3754,9.3478,2844.3062],[-83.3783,9.3464,2873.9646],[-83.3857,9.3464,2898.6494],[-83.3939,9.3424,2852.0791],[-83.3986,9.3372,2883.6736],[-83.4007,9.3425,2882.6934],[-83.4006,9.3478,2886.0408],[-83.4036,9.3485,2848.3943],[-83.4055,9.3527,2895.2544],[-83.4155,9.3574,2910.7375],[-83.4183,9.3631,3003.1462],[-83.4233,9.3669,3004.0991],[-83.4298,9.367,3087.2498],[-83.4324,9.3633,3051.041],[-83.4384,9.3595,2919.8081],[-83.4463,9.3497,2825.8704],[-83.4544,9.3435,2176.0417],[-83.4578,9.3332,1761.6602],[-83.4574,9.3304,1664.5776],[-83.468,9.3159,1328.4781],[-83.4764,9.2911,964.8685],[-83.491,9.2673,688.1262],[-83.4967,9.2636,639.0241],[-83.5061,9.2619,591.7708],[-83.51,9.253,526.4],[-83.5096,9.2485,502.2415],[-83.5122,9.2435,486.3514],[-83.511,9.2408,484.1239],[-83.5127,9.2369,465.5559],[-83.5121,9.2331,472.3994],[-83.5134,9.2293,458.7016],[-83.5154,9.2281,494.9586],[-83.5153,9.2243,455.7936],[-83.5235,9.2165,395.8536],[-83.5227,9.2138,425.2052],[-83.5258,9.2107,391.1442],[-83.5228,9.2079,381.9664],[-83.5194,9.2144,387.6186],[-83.517,9.2152,375.58],[-83.5143,9.2115,425.9901],[-83.517,9.2063,411.9434],[-83.5133,9.2003,399.7525],[-83.5036,9.202,355.6808],[-83.4899,9.1925,364.7641],[-83.4882,9.1941,350.075],[-83.4897,9.1963,345.3218],[-83.4866,9.1998,341.7033],[-83.4815,9.1948,360.3953],[-83.4834,9.1907,337.8242],[-83.4817,9.1866,355.6497],[-83.4739,9.1818,318.5993],[-83.4781,9.1713,304.9514],[-83.4768,9.1676,304.7737],[-83.474,9.1669,298.2941],[-83.4738,9.1635,303.1413],[-83.4705,9.1594,332.8488],[-83.4721,9.155,293.0554],[-83.4711,9.1521,284.7436],[-83.4739,9.1491,299.4706],[-83.4762,9.1514,300.6053],[-83.4805,9.1517,323.5845],[-83.4795,9.1488,383.7841],[-83.4831,9.1437,365.5006],[-83.4815,9.138,458.5597],[-83.4826,9.1327,559.3615],[-83.4739,9.1259,792.0508],[-83.4734,9.1192,833.2758],[-83.4792,9.114,918.4052],[-83.4817,9.1149,868.9272],[-83.486,9.1087,799.4675],[-83.489,9.1076,790.1364],[-83.4905,9.1025,652.3328],[-83.4989,9.1003,558.2002],[-83.5046,9.0932,458.9899],[-83.5099,9.0922,448.4993],[-83.5108,9.0897,467.1324],[-83.5029,9.0843,379.3962],[-83.5031,9.0829,376.2875],[-83.5074,9.0807,423.4373],[-83.5067,9.0778,413.5937],[-83.5137,9.0749,398.1493],[-83.5167,9.0769,420.8607],[-83.5211,9.077,460.4283],[-83.5284,9.0819,484.0186],[-83.5333,9.079,691.2534],[-83.5419,9.0786,840.2908],[-83.5474,9.0806,883.9892],[-83.5501,9.0834,937.5177],[-83.5581,9.0857,959.8495],[-83.5621,9.0847,977.0967],[-83.5697,9.0863,998.3342],[-83.5801,9.0961,1080.052],[-83.5833,9.1023,1059.1885],[-83.6053,9.114,1015.7552],[-83.6057,9.118,996.4843],[-83.6135,9.1249,1118.1022],[-83.6206,9.1244,1093.4379],[-83.6259,9.1267,1115.0391],[-83.639,9.1283,1119.7294],[-83.6466,9.1316,1120.0549],[-83.6546,9.1451,1043.9147],[-83.672,9.1557,989.667],[-83.6769,9.169,957.7785],[-83.6774,9.1754,943.201],[-83.6726,9.1761,952.7809],[-83.6702,9.1787,975.2001],[-83.6695,9.1821,1137.3225],[-83.6721,9.1884,1096.8877],[-83.6769,9.196,1053.1859],[-83.6814,9.1996,876.6317],[-83.6854,9.2085,963.6251],[-83.6896,9.2116,1052.6985],[-83.7025,9.2158,1104.5912],[-83.7055,9.2251,1130.1334],[-83.7095,9.2249,996.0801],[-83.7108,9.2206,960.8181],[-83.7229,9.2205,705.9133],[-83.7362,9.2229,269.0388],[-83.7352,9.2238,275.9937],[-83.7361,9.2282,323.8665],[-83.7411,9.2376,463.2725],[-83.7458,9.241,709.2167],[-83.7469,9.2435,759.3428],[-83.7498,9.2441,820.9194],[-83.753,9.2422,804.2615],[-83.7574,9.244,839.2875],[-83.7606,9.2383,809.9199],[-83.7555,9.2322,752.9825],[-83.7534,9.2274,763.7623],[-83.7544,9.224,765.3099],[-83.7526,9.2221,757.8814],[-83.7569,9.2174,695.6821],[-83.7676,9.216,720.3828],[-83.7715,9.22,681.0681],[-83.7741,9.2179,593.1927],[-83.7766,9.2217,549.6075],[-83.7804,9.2207,610.3345],[-83.7865,9.2242,617.5568],[-83.7958,9.2247,570.5634],[-83.802,9.2288,524.1702],[-83.8095,9.2289,566.2468],[-83.8192,9.2424,516.8653],[-83.8332,9.2535,430.4532],[-83.8422,9.2564,421.1251],[-83.8486,9.2655,362.829],[-83.8556,9.2876,57.1845],[-83.8579,9.2905,33.5066],[-83.855,9.2931,49.8634],[-83.8568,9.2962,98.6678],[-83.8565,9.3004,100.5805],[-83.8546,9.302,81.1572],[-83.8587,9.3033,92.1053],[-83.8601,9.308,70.1845],[-83.8558,9.3104,176.333],[-83.8539,9.3244,82.4573],[-83.8499,9.325,92.4629],[-83.8455,9.33,149.3384],[-83.8472,9.3344,109.995],[-83.8405,9.3371,120.7295],[-83.8416,9.3429,121.9156],[-83.8478,9.342,167.8382],[-83.8515,9.3398,190.2168],[-83.8606,9.3432,171.1943],[-83.8641,9.3429,171.5961],[-83.8705,9.3482,240.9156],[-83.8698,9.3543,238.7977],[-83.8778,9.3602,313.4935],[-83.8907,9.3622,418.6846],[-83.8915,9.3673,478.3674],[-83.8874,9.3749,586.4018],[-83.8914,9.3828,908.9004],[-83.8953,9.3868,1032.8584],[-83.8976,9.3868,999.0389],[-83.902,9.4002,1024.4333],[-83.9093,9.4051,1164.6305],[-83.922,9.403,890.0598],[-83.9245,9.4038,919.188],[-83.9269,9.401,829.6292],[-83.9357,9.3972,757.1702],[-83.9362,9.3953,727.9974],[-83.9329,9.3908,719.1678],[-83.9337,9.3882,727.8232],[-83.9364,9.3871,711.7712],[-83.9426,9.3886,670.2651],[-83.9456,9.3949,763.5074],[-83.9501,9.3958,742.4208],[-83.9541,9.3942,731.2786],[-83.9584,9.3973,769.5244],[-83.9617,9.396,765.238],[-83.9654,9.402,709.7531],[-83.9617,9.4096,732.0175],[-83.9681,9.4156,616.0134],[-83.9721,9.4168,602.9207],[-83.9741,9.4199,594.1414],[-83.9799,9.4211,517.4246],[-83.9827,9.433,662.734],[-83.9895,9.4334,607.5403],[-83.9981,9.4382,368.8584],[-84.0017,9.4432,284.5823],[-84.0012,9.4498,83.2523],[-84.0187,9.4593,609.8338],[-84.0271,9.461,598.8013],[-84.0331,9.4709,557.4243],[-84.0437,9.4769,256.1719],[-84.0514,9.4843,375.6417],[-84.0529,9.4888,423.5836],[-84.0553,9.4897,413.4379],[-84.0594,9.4951,414.5662],[-84.0642,9.4992,444.7342],[-84.0747,9.5027,343.4726],[-84.0787,9.5131,84.1878],[-84.0799,9.5115,101.0775],[-84.0831,9.5115,69.827],[-84.0839,9.5096,88.8361],[-84.0873,9.51,81.1673],[-84.0844,9.5142,70.752],[-84.0736,9.5185,149.6738],[-84.0739,9.5234,166.0119],[-84.0693,9.5304,193.3495],[-84.0718,9.5345,202.0572],[-84.072,9.5527,684.3438],[-84.0761,9.5581,975.4578],[-84.0719,9.571,1213.3929],[-84.075,9.5666,1004.8929],[-84.0828,9.5636,722.8255],[-84.0921,9.568,494.7343],[-84.0992,9.569,447.4162],[-84.1064,9.5635,400.9312],[-84.1091,9.5638,383.8582],[-84.11,9.5616,356.5192],[-84.1188,9.56,341.1114],[-84.1204,9.555,265.0345],[-84.1241,9.5579,318.9205],[-84.1264,9.5663,379.2853],[-84.1291,9.57,395.1192],[-84.136,9.572,479.2133],[-84.143,9.5803,583.187],[-84.1393,9.5898,853.1245],[-84.142,9.6005,1304.2773],[-84.1337,9.6,1528.2179],[-84.1309,9.6047,1646.8828],[-84.1306,9.6088,1717.55],[-84.1392,9.6215,1652.9818],[-84.1482,9.623,2091.584],[-84.1503,9.6294,2119.8896],[-84.158,9.6282,1758.126],[-84.1606,9.6258,1661.7566],[-84.1815,9.6242,1029.5085],[-84.191,9.6173,814.291],[-84.2001,9.6183,622.2842],[-84.2033,9.6204,598.3173],[-84.2084,9.6196,613.5396],[-84.2107,9.6216,674.7206],[-84.2173,9.6207,904.943],[-84.2226,9.6272,863.1903],[-84.2268,9.6282,898.6487],[-84.2387,9.6226,610.6184],[-84.2435,9.6236,565.6714],[-84.2464,9.6271,633.0018],[-84.2572,9.6281,239.8834],[-84.2593,9.627,182.2507],[-84.266,9.6308,117.6605],[-84.284,9.6296,72.8934],[-84.2882,9.6381,61.6104],[-84.2924,9.6342,58.5984],[-84.2939,9.6351,58.5984],[-84.2954,9.6338,57.2729],[-84.2971,9.6346,50.9464],[-84.2951,9.6467,60.8109],[-84.3036,9.6499,66.1192],[-84.305,9.6466,129.4634],[-84.3042,9.644,185.3834],[-84.3091,9.6416,179.5399],[-84.3122,9.6428,262.951],[-84.3247,9.6365,294.9835],[-84.3344,9.641,320.6898],[-84.3369,9.6377,355.9603],[-84.3368,9.635,305.6382],[-84.3416,9.6358,353.7876],[-84.3411,9.6335,343.8181],[-84.3457,9.6306,339.2141],[-84.3502,9.6397,321.0067],[-84.357,9.6375,314.409],[-84.3594,9.6387,308.426],[-84.361,9.6361,307.9844],[-84.3599,9.6328,304.9639],[-84.3622,9.6317,284.3255],[-84.3659,9.6316,268.3275],[-84.3692,9.6349,274.7458],[-84.3687,9.6374,274.4519],[-84.372,9.6348,279.8544],[-84.3754,9.6359,266.562],[-84.3758,9.6396,270.0469],[-84.3768,9.6354,258.256],[-84.3786,9.6341,258.256],[-84.3803,9.6355,257.7839],[-84.3843,9.6336,253.8798],[-84.3857,9.6355,237.0772],[-84.3848,9.6369,245.1371],[-84.3877,9.6386,230.8167],[-84.3963,9.6368,130.8739],[-84.3982,9.6351,139.1641],[-84.3964,9.6321,163.2377],[-84.3969,9.6249,141.7057],[-84.394,9.6211,130.1186],[-84.3977,9.6168,119.062],[-84.3981,9.6136,115.5324],[-84.3962,9.6053,116.0515],[-84.3943,9.6048,95.1769],[-84.3918,9.6002,96.605],[-84.394,9.5972,103.8703],[-84.3972,9.5968,114.4572],[-84.3991,9.5927,113.3501],[-84.3985,9.5894,79.6745],[-84.401,9.5896,71.1819],[-84.4024,9.5873,89.0477],[-84.4018,9.5828,66.9801],[-84.4047,9.5834,68.4575],[-84.4052,9.5815,75.1676],[-84.4078,9.5813,63.7809],[-84.4097,9.5833,65.7696],[-84.4143,9.5833,60.3003],[-84.4155,9.5798,62.1957],[-84.4128,9.5799,67.7267],[-84.4146,9.5777,57.6715],[-84.4128,9.5746,60.5624],[-84.415,9.5751,56.6446],[-84.4143,9.5727,56.928],[-84.418,9.5721,76.2693],[-84.4174,9.569,69.8719],[-84.4234,9.5693,53.9623],[-84.4227,9.5621,47.6808],[-84.4264,9.566,83.7882],[-84.4281,9.5649,48.965],[-84.4246,9.5593,51.0647],[-84.4284,9.5586,41.1853],[-84.4294,9.5605,53.0687],[-84.4305,9.5565,47.5321],[-84.4318,9.5595,39.2924],[-84.4366,9.5626,62.0372],[-84.4348,9.5648,37.9727],[-84.4383,9.5651,39.9689],[-84.4342,9.5693,88.5199],[-84.4398,9.5689,35.4642],[-84.4392,9.5722,42.6184],[-84.442,9.5729,35.9909],[-84.4417,9.5756,30.9696],[-84.4452,9.5755,36.1379],[-84.4447,9.5777,36.6261],[-84.4495,9.5757,32.879],[-84.4513,9.578,40.4511],[-84.4534,9.5771,45.9055],[-84.4571,9.5821,51.1428],[-84.4621,9.5765,60.0715],[-84.4621,9.5723,29.952],[-84.4639,9.57,31.901],[-84.4645,9.5731,30.8708],[-84.4696,9.5761,56.8173],[-84.4723,9.5743,53.2741],[-84.4728,9.5719,35.0136],[-84.4747,9.5743,42.0717],[-84.4784,9.5734,46.9404],[-84.4819,9.5768,23.8175],[-84.4839,9.5752,75.8189],[-84.4846,9.5696,38.9423],[-84.4899,9.5724,41.2708],[-84.4948,9.57,61.0144],[-84.503,9.573,19.8665],[-84.5076,9.5708,26.9591],[-84.511,9.5725,24.1422],[-84.521,9.5726,10.7115],[-84.5272,9.576,19.639],[-84.5301,9.5746,6.3577],[-84.5312,9.5769,10.3323],[-84.5294,9.5793,10.5771],[-84.5345,9.5829,16.6164],[-84.5354,9.5816,15.662],[-84.5388,9.5861,19.691],[-84.5436,9.5849,29.9415],[-84.5455,9.5863,32.8555],[-84.5496,9.5932,61.0296],[-84.5512,9.5996,48.5772],[-84.5518,9.6037,83.0529],[-84.5498,9.6105,142.9242],[-84.5513,9.6191,256.4583],[-84.5543,9.6223,379.2617],[-84.5557,9.6267,360.3883],[-84.5614,9.625,447.0688],[-84.5644,9.6276,492.9547],[-84.5636,9.6312,521.021],[-84.5654,9.6356,559.6918],[-84.5719,9.6441,736.5175],[-84.5739,9.652,779.5305],[-84.5723,9.6542,772.2749],[-84.5807,9.6655,680.4201],[-84.5801,9.6719,703.0172],[-84.5855,9.6837,582.9604],[-84.5827,9.6894,647.2791],[-84.5846,9.6909,597.0493],[-84.5847,9.6938,595.2454],[-84.5834,9.711,481.7388],[-84.5894,9.7233,369.7526],[-84.5897,9.7324,304.8277],[-84.592,9.736,254.4673],[-84.5927,9.7433,205.4151],[-84.5903,9.744,263.7917],[-84.583,9.7411,431.5844],[-84.5779,9.7419,432.1167],[-84.5773,9.7399,451.4787],[-84.5749,9.7407,444.1587],[-84.5749,9.7391,430.4667],[-84.5728,9.7382,429.0248],[-84.5661,9.747,448.3126],[-84.5659,9.7587,483.7428],[-84.5543,9.7558,612.4865],[-84.552,9.757,633.149],[-84.5491,9.7652,458.6871],[-84.5388,9.7771,172.1194],[-84.5414,9.7816,141.6597],[-84.544,9.7821,178.9834],[-84.5499,9.7779,169.0559],[-84.5501,9.7802,137.0959],[-84.552,9.7798,170.1395],[-84.5581,9.7841,145.1663],[-84.5574,9.788,142.8127],[-84.5585,9.7898,78.1334],[-84.5616,9.7901,62.7061],[-84.563,9.7925,80.9913],[-84.5609,9.7936,60.6195],[-84.5676,9.8053,50.7889],[-84.5676,9.81,36.1133],[-84.578,9.8091,10.1207],[-84.583,9.8061,6.3504],[-84.58,9.8112,9.4368],[-84.5828,9.8173,7.5],[-84.5815,9.8242,9.8556],[-84.5714,9.8295,14.7402],[-84.5675,9.827,57.035],[-84.5605,9.8325,21.9742],[-84.56,9.8369,25.903199999999998],[-84.5637,9.8388,14.7952],[-84.563,9.8419,14.6458],[-84.5744,9.8459,177.4723],[-84.5801,9.8411,175.9821],[-84.5865,9.8401,183.0336],[-84.5916,9.8411,177.0993],[-84.5952,9.8474,142.5808],[-84.5999,9.8492,123.4461],[-84.5985,9.8517,130.4181],[-84.5955,9.853,111.2862],[-84.5967,9.8578,91.1674],[-84.5996,9.8575,92.6298],[-84.6006,9.8596,98.0583],[-84.6027,9.8598,82.9733],[-84.603,9.862,82.0572],[-84.6133,9.8623,56.9471],[-84.6153,9.8607,45.1598],[-84.6184,9.8622,47.3498],[-84.6292,9.8622,36.1594],[-84.638,9.8661,31.8264],[-84.6407,9.8647,27.1264],[-84.6429,9.8659,26.503],[-84.6455,9.8649,22.0075],[-84.6466,9.8663,16.7217],[-84.6476,9.8652,22.2717],[-84.6473,9.8701,20.6383],[-84.6559,9.8728,13.1252],[-84.6595,9.8763,11.1425],[-84.6611,9.875,13.9945],[-84.6646,9.8756,7.704],[-84.6647,9.8772,12.3291],[-84.6696,9.8771,14.0321],[-84.6708,9.8788,14.1928],[-84.6745,9.8773,32.3031],[-84.6771,9.8785,32.1729],[-84.678,9.8752,25.3791],[-84.6809,9.8747,29.6057],[-84.6788,9.877,29.3833],[-84.6809,9.8776,24.2288],[-84.6789,9.8794,17.7995],[-84.6823,9.8841,5.125],[-84.683,9.8878,8.5955],[-84.6844,9.8859,7.5],[-84.685,9.8877,6.8165],[-84.6888,9.8864,7.465],[-84.6838,9.894,7.6897],[-84.6857,9.8948,11.1748],[-84.6845,9.8974,5.2762],[-84.6869,9.8967,8.1972],[-84.6862,9.8996,5.8048],[-84.6871,9.9011,5.5537],[-84.6883,9.9002,6.0638],[-84.689,9.9027,5.0914],[-84.6871,9.9045,5.2924],[-84.6875,9.9065,7.8745],[-84.6822,9.9091,7.7035],[-84.6801,9.9078,7.8972],[-84.6813,9.9065,5.7509],[-84.6804,9.905,6.0527],[-84.6796,9.907,6.236],[-84.6766,9.9075,9.4253],[-84.6767,9.909,6.8891],[-84.6752,9.9087,9.4253],[-84.6741,9.911,7.3458],[-84.6712,9.9118,19.7584],[-84.6713,9.9147,7.7335],[-84.6656,9.9188,10.6144],[-84.6677,9.9226,8.3489],[-84.6647,9.921,9.5057],[-84.6636,9.9225,10.0907],[-84.6652,9.925,11.0433],[-84.6604,9.9255,18.1381],[-84.658,9.9291,13.7112],[-84.6579,9.931,15.5598],[-84.6614,9.9302,10.7962],[-84.662,9.9333,11.7879],[-84.6531,9.9351,40.2454],[-84.6528,9.9406,19.3974],[-84.6495,9.9444,35.6406],[-84.6395,9.9404,39.9961],[-84.6364,9.9454,84.025],[-84.637,9.9472,40.4134],[-84.6327,9.9501,54.7408],[-84.63,9.9491,69.4067],[-84.6151,9.9522,108.1837],[-84.6161,9.9551,88.7693],[-84.6151,9.9571,140.9701],[-84.6112,9.9559,166.4997],[-84.6085,9.9593,118.6955],[-84.6069,9.9587,146.7811],[-84.6048,9.9667,144.7332],[-84.6016,9.9706,166.8212],[-84.599,9.9688,142.7398],[-84.597,9.9732,158.5342],[-84.5962,9.9711,160.1529],[-84.5921,9.9722,195.5752],[-84.5897,9.9794,187.3604],[-84.5845,9.9785,214.814],[-84.5841,9.9805,196.1388],[-84.5815,9.9803,216.6595],[-84.5807,9.9822,218.801],[-84.5775,9.9817,223.7191],[-84.5775,9.9831,210.3175],[-84.5737,9.9835,246.4142],[-84.571,9.9868,212.4305],[-84.5706,9.9832,228.5334],[-84.5691,9.9834,231.3234],[-84.5686,9.9816,251.983],[-84.5623,9.984,246.0286],[-84.5601,9.9815,243.0468],[-84.5585,9.9851,238.9099],[-84.5565,9.9838,248.5626],[-84.553,9.9874,263.1357],[-84.554,9.9939,304.022],[-84.5566,9.9961,294.9696],[-84.5565,10.0044,331.4847],[-84.5595,10.0063,343.8029],[-84.5614,10.0099,349.1182],[-84.5609,10.0128,372.2104],[-84.5641,10.016,394.6144],[-84.5632,10.0292,499.2104],[-84.5659,10.029,501.1389],[-84.5663,10.0215,450.8945],[-84.5735,10.02,358.593],[-84.5927,10.0351,385.6655],[-84.6002,10.0375,476.2622],[-84.6026,10.044,328.883],[-84.6094,10.0461,211.9896],[-84.617,10.0456,205.1248],[-84.618,10.0434,187.8416],[-84.6246,10.0476,197.7219],[-84.6282,10.0574,248.9196],[-84.6287,10.064,253.207],[-84.632,10.0686,320.7137],[-84.6315,10.0711,283.8504],[-84.6376,10.0774,358.3862],[-84.6438,10.0808,362.3822],[-84.6452,10.0858,369.7516],[-84.648,10.0871,425.666],[-84.6481,10.0945,431.403],[-84.6505,10.0967,493.0444],[-84.6508,10.0995,509.6495],[-84.6538,10.1016,506.6967],[-84.6572,10.1092,563.8717],[-84.66,10.1108,574.5187],[-84.664,10.1216,683.7521],[-84.6712,10.1282,854.1971],[-84.6705,10.1299,854.2616],[-84.6735,10.1399,966.894],[-84.6653,10.1464,1144.5824],[-84.6653,10.1524,1244.5791],[-84.6702,10.1558,1296.7183],[-84.6651,10.163,1294.5901],[-84.6658,10.1642,1303.7632],[-84.6637,10.1654,1295.572],[-84.6651,10.1656,1310.2708],[-84.6643,10.1699,1297.4496],[-84.6685,10.1757,1311.2739],[-84.6786,10.1742,1312.6361],[-84.6836,10.1763,1320.7731],[-84.6683,10.1926,1406.25],[-84.6643,10.1949,1424.4158],[-84.6615,10.1993,1434.2388],[-84.6644,10.206,1408.3896],[-84.6603,10.2119,1340.5629],[-84.6615,10.2152,1215.7974],[-84.66,10.2173,1220.6163],[-84.6608,10.2235,1329.313],[-84.6628,10.226,1282.5096],[-84.6566,10.2341,1309.582],[-84.6586,10.2377,1334.9828],[-84.6572,10.2433,1324.3933],[-84.6701,10.2607,1426.5669],[-84.6705,10.2677,1500.3685],[-84.6745,10.2715,1576.9556],[-84.6737,10.279,1636.0317],[-84.6774,10.2823,1647.5254],[-84.6811,10.2837,1620.8993],[-84.6827,10.2823,1613.0177],[-84.6854,10.2843,1574.0261],[-84.6939,10.2785,1525.8175],[-84.6977,10.2673,1620.5488],[-84.7006,10.2659,1652.7791],[-84.7022,10.263,1658.8921],[-84.7081,10.2635,1711.4702],[-84.7141,10.2671,1731.2617],[-84.7227,10.2684,1783.2162],[-84.7212,10.2613,1753.6302],[-84.7242,10.2555,1770.8799],[-84.7285,10.255,1739.3477],[-84.731,10.2507,1765.2646],[-84.7379,10.2534,1723.3949],[-84.7449,10.2524,1671.8589],[-84.7483,10.2551,1658.4614],[-84.7551,10.2552,1653.4807],[-84.7658,10.2625,1724.4861],[-84.7639,10.2687,1705.0774],[-84.7662,10.2699,1667.0482],[-84.7669,10.2796,1506.7072],[-84.7707,10.2801,1482.7244],[-84.782,10.2912,1539.0178],[-84.7832,10.2984,1555.2336],[-84.786,10.3014,1605.3621],[-84.7866,10.308,1621.0212],[-84.7933,10.3172,1799.291],[-84.794,10.3232,1782.2069],[-84.7967,10.3256,1756.2903],[-84.8035,10.3257,1787.1707],[-84.805,10.3309,1740.3914],[-84.8153,10.3305,1535.6705],[-84.8276,10.3372,1495.3516],[-84.8374,10.3302,1346.7035],[-84.8412,10.319,1189.6539],[-84.8434,10.3167,1173.667],[-84.8447,10.3113,1044.3134],[-84.8432,10.3035,926.0832],[-84.8438,10.294,852.0042],[-84.8466,10.2886,787.9995],[-84.855,10.2843,653.3212],[-84.8586,10.2843,643.6165],[-84.8631,10.2811,548.3046],[-84.8659,10.2698,483.2977],[-84.8723,10.2613,427.1826],[-84.8706,10.248,360.7672],[-84.8726,10.2414,351.6284],[-84.8768,10.2376,340.4999],[-84.8789,10.2276,296.6824],[-84.8869,10.2228,283.5602],[-84.8891,10.2187,327.1068],[-84.8895,10.2124,256.9124],[-84.8873,10.2118,253.88],[-84.8784,10.2019,221.5322],[-84.8744,10.2002,242.0032],[-84.8749,10.1883,187.709],[-84.885,10.1813,175.6884],[-84.8905,10.1798,170.9599],[-84.8937,10.1816,156.235],[-84.899,10.1805,185.2022],[-84.9007,10.1781,148.8068],[-84.9043,10.179,149.4558],[-84.9089,10.1744,129.3054],[-84.9118,10.1743,153.068],[-84.9127,10.1683,131.7878],[-84.9167,10.1628,119.1979],[-84.92,10.1633,115.7069],[-84.926,10.1593,111.27],[-84.9288,10.1594,103.8778],[-84.9326,10.1539,93.9673],[-84.9306,10.1519,84.3178],[-84.9317,10.1493,85.6477],[-84.9272,10.1471,71.9514],[-84.9298,10.1401,74.5617],[-84.927,10.138,73.8057],[-84.9248,10.1312,58.4267],[-84.9256,10.128,69.9457],[-84.9281,10.1286,51.0195],[-84.9291,10.1272,68.9398],[-84.924,10.1198,61.7236],[-84.9271,10.1149,42.4121],[-84.9243,10.1155,48.5281],[-84.9197,10.1091,37.7464],[-84.9203,10.1093,56.4432],[-84.9216,10.1115,48.8053],[-84.929,10.1148,47.6661],[-84.9396,10.1146,81.2108],[-84.949,10.119,82.1075],[-84.9717,10.1393,51.5674],[-84.9773,10.1397,39.9487],[-84.9798,10.1415,40.6078],[-84.9812,10.1485,47.9312],[-84.9835,10.1507,52.1277],[-85.0039,10.1605,48.0192],[-85.0044,10.1652,24.6214],[-85.0023,10.1694,17.9851],[-85.0043,10.1736,19.1764],[-85.0097,10.1795,30.5675],[-85.0256,10.1865,33.1656],[-85.029,10.1924,86.7343],[-85.0263,10.1989,38.3312],[-85.0278,10.2008,31.5174],[-85.0306,10.1974,35.3731],[-85.0349,10.1964,29.0643],[-85.036,10.1925,27.0998],[-85.0398,10.1912,22.3689],[-85.0366,10.1878,24.5073],[-85.0382,10.1823,13.5318],[-85.0356,10.1821,10.9107],[-85.0366,10.1803,11.8339],[-85.0343,10.1767,11.7534],[-85.0357,10.1746,25.5351],[-85.0346,10.1719,13.9107],[-85.0317,10.1689,10.6185],[-85.0316,10.1704,10.6185],[-85.0275,10.1693,22.7125],[-85.0279,10.1652,16.8779],[-85.0299,10.1627,18.9966],[-85.0277,10.1593,12.8818],[-85.0394,10.1594,10.8616],[-85.0415,10.1635,9.2121],[-85.0426,10.1606,16.236],[-85.0485,10.1597,8.7878],[-85.0582,10.1669,4.8428],[-85.058,10.1643,10.7568],[-85.0605,10.166,8.6175],[-85.0607,10.1627,16.7948],[-85.0623,10.1621,20.4541],[-85.067,10.1672,7.6118],[-85.0685,10.1643,12.9928],[-85.0664,10.1591,29.7216],[-85.0691,10.1583,5.2586],[-85.0738,10.1599,8.0752],[-85.076,10.1578,19.8707],[-85.0759,10.1551,8.0055],[-85.0708,10.152,21.0847],[-85.0698,10.1491,4.2383],[-85.0723,10.1441,8.1929],[-85.0781,10.144,2.3185],[-85.0793,10.1425,0.8148],[-85.0779,10.1368,1.1613],[-85.0755,10.1352,0.0],[-85.0626,10.135,6.4225],[-85.0625,10.1332,0.8807],[-85.0588,10.1332,2.1617],[-85.0502,10.1407,9.0912],[-85.046,10.1409,3.6486],[-85.0435,10.1374,0.0],[-85.0364,10.1332,4.7326],[-85.0255,10.1314,0.909],[-85.0242,10.128,0.0],[-85.0163,10.1244,5.8383],[-85.0138,10.1172,25.5113],[-85.0089,10.1142,3.1322],[-85.0032,10.1029,1.4825],[-84.9872,10.0972,19.4586],[-84.984,10.0947,0.0],[-84.9723,10.0918,0.0],[-84.9632,10.0851,0.0],[-84.959,10.0781,5.4582],[-84.9584,10.07,1.4674],[-84.9569,10.0685,0.0],[-84.9589,10.0672,1.1645],[-84.966,10.0688,0.0],[-84.9684,10.0668,3.0848],[-84.9677,10.0643,1.7294],[-84.9575,10.063,0.0],[-84.9534,10.0588,3.6498],[-84.9448,10.0642,7.8982],[-84.9457,10.0607,0.9041],[-84.9427,10.0596,2.5],[-84.9423,10.058,9.3562],[-84.9449,10.0603,0.7247],[-84.9461,10.0592,0.7247],[-84.9429,10.0561,2.8352],[-84.941,10.0574,9.3562],[-84.9356,10.0511,9.137],[-84.9292,10.0399,0.0],[-84.9277,10.0403,4.1535],[-84.9279,10.0382,0.0],[-84.9257,10.0365,0.0],[-84.9236,10.0389,2.906],[-84.9201,10.0385,0.0],[-84.9208,10.0353,0.0],[-84.9107,10.0312,2.4183],[-84.9084,10.0274,1.7368],[-84.8986,10.0266,10.7495],[-84.8955,10.021,8.5968],[-84.8916,10.0201,5.3024],[-84.8895,10.0159,3.7863],[-84.8855,10.0143,6.7273],[-84.8842,10.0111,1.5218],[-84.8788,10.0074,3.4593],[-84.8747,10.008,5.345],[-84.8663,10.003,2.7037],[-84.8634,10.0044,16.3848],[-84.8623,10.0012,2.6504],[-84.8568,10.0002,0.0],[-84.8558,9.9975,1.6581],[-84.8527,9.9956,1.7557],[-84.8454,9.9951,3.3132],[-84.8423,9.9931,2.345],[-84.8416,9.9907,5.5619],[-84.8402,9.9898,0.0],[-84.8404,9.9916,5.5619],[-84.8388,9.9912,9.9193],[-84.8342,9.9864,1.3565],[-84.827,9.989,14.7516],[-84.8245,9.988,15.2735],[-84.827,9.9873,11.8102],[-84.8245,9.9859,11.0711],[-84.8186,9.9851,0.0],[-84.8062,9.9872,18.3095],[-84.7949,9.9823,0.0],[-84.7853,9.9822,6.8574],[-84.783,9.9866,6.352],[-84.7826,9.993,6.6551],[-84.7798,9.9955,9.6867],[-84.7715,9.9953,10.1207],[-84.7672,9.9935,8.9935],[-84.7681,9.9916,10.3916],[-84.7686,9.9931,9.0894],[-84.7676,9.9936,8.9935],[-84.7702,9.994,10.1207],[-84.7717,9.9949,10.1207],[-84.7808,9.9941,6.5663],[-84.7821,9.9837,4.3215],[-84.7842,9.9816,1.6402],[-84.8102,9.9817,5.0207],[-84.8146,9.9829,1.4693],[-84.8247,9.9789,0.3825],[-84.8307,9.9803,5.1725],[-84.8361,9.9799,3.5479],[-84.8427,9.9769,4.5683],[-84.8508,9.9775,0.0],[-84.8522,9.9765,0.0],[-84.8511,9.9753,0.0],[-84.8454,9.9737,0.0],[-84.8325,9.9743,2.2672],[-84.8081,9.9801,0.0],[-84.7819,9.9796,1.8286],[-84.7593,9.9752,0.0],[-84.7429,9.9702,5.0558],[-84.7391,9.9677,4.6578],[-84.7387,9.9552,38.1982],[-84.741,9.952,0.0],[-84.7406,9.9494,33.6138],[-84.7359,9.9458,0.0],[-84.7355,9.9406,7.3616],[-84.7185,9.9288,0.0],[-84.7125,9.9176,2.0427],[-84.7153,9.9115,6.1554],[-84.7225,9.9068,25.8757],[-84.7257,9.9002,0.0],[-84.7294,9.9002,33.8628],[-84.7293,9.8948,24.7095],[-84.731,9.8932,5.6761],[-84.7229,9.8873,27.0393],[-84.7219,9.8839,46.0125],[-84.7053,9.8744,12.2324],[-84.6953,9.8636,12.195],[-84.6983,9.8635,0.0],[-84.6987,9.8619,0.0],[-84.6952,9.86,7.1343],[-84.698,9.8592,3.7437],[-84.7007,9.8604,2.7702],[-84.7012,9.8579,1.2187],[-84.6874,9.8501,4.3607],[-84.6769,9.84,11.679],[-84.6744,9.836,5.4402],[-84.6763,9.8356,0.0],[-84.675299999999993,9.8339,0.0],[-84.6646,9.8237,1.1475],[-84.6503,9.8053,6.3546],[-84.6409,9.7867,1.2109],[-84.6367,9.7855,0.0],[-84.6367,9.7819,8.6472],[-84.6393,9.7837,0.0],[-84.6409,9.7818,0.0],[-84.6344,9.7726,0.0],[-84.6293,9.7693,9.7283],[-84.6306,9.7668,0.0],[-84.6267,9.7545,7.6248],[-84.6307,9.75,5.2608],[-84.6322,9.7395,3.7906],[-84.6391,9.7366,28.0192],[-84.6454,9.7299,53.5274],[-84.6468,9.7294,30.3447],[-84.6479,9.7309,0.0],[-84.6503,9.7295,31.0345],[-84.652,9.7223,9.833],[-84.6554,9.7216,8.4311],[-84.6582,9.7176,25.1956],[-84.6606,9.7065,65.5895],[-84.6621,9.7051,12.3196],[-84.6667,9.7051,31.2669],[-84.6682,9.7005,20.9363],[-84.6749,9.6964,29.5621],[-84.6735,9.6925,3.0121],[-84.6757,9.6889,2.87],[-84.6729,9.685,35.8115],[-84.6744,9.6824,0.0],[-84.6685,9.6727,22.0171],[-84.6696,9.6669,55.062],[-84.6721,9.6657,13.4757],[-84.6719,9.6595,28.0048],[-84.6791,9.658,23.7894],[-84.6797,9.6548,5.4972],[-84.6784,9.6535,34.935],[-84.6806,9.6518,13.4473],[-84.6776,9.6491,0.9934],[-84.6769,9.6503,0.0],[-84.6752,9.6491,0.0],[-84.6743,9.6513,13.6481],[-84.6703,9.6504,0.0],[-84.6693,9.6521,79.8854],[-84.6662,9.6509,1.0837],[-84.6627,9.6527,5.5651],[-84.6568,9.6497,1.6789],[-84.6578,9.6489,1.6789],[-84.6552,9.6431,0.0],[-84.6554,9.6383,0.0],[-84.6584,9.6343,15.0761],[-84.6633,9.6314,0.0],[-84.6551,9.6268,0.0],[-84.6505,9.6218,0.0],[-84.6432,9.6226,10.7111],[-84.642,9.6261,13.1132],[-84.6426,9.6238,31.0879],[-84.6398,9.6206,2.9552],[-84.6312,9.614,1.44],[-84.6243,9.6059,0.941],[-84.6231,9.6076,10.4381],[-84.6228,9.6069,6.8663],[-84.6235,9.6048,1.7696],[-84.6204,9.5968,4.7021],[-84.6254,9.5915,34.7883],[-84.6198,9.5834,0.0],[-84.6181,9.5837,13.6368],[-84.6178,9.5813,7.3721],[-84.6021,9.5732,2.6643],[-84.565,9.5466,0.0],[-84.5411,9.527,2.623],[-84.5358,9.519,2.7086],[-84.5285,9.5187,0.1541],[-84.5186,9.5233,0.0],[-84.5098,9.5238,24.8541],[-84.4985,9.5279,6.4151],[-84.4851,9.5303,1.0204],[-84.4827,9.5283,0.0],[-84.4734,9.5285,0.0],[-84.4721,9.5271,0.0],[-84.4548,9.5242,4.2202],[-84.4266,9.5148,0.0],[-84.4196,9.5145,2.432],[-84.4183,9.513,0.0],[-84.4073,9.5099,4.5057],[-84.3962,9.5086,0.0],[-84.3896,9.5059,2.6353],[-84.363,9.5002,3.6536],[-84.3391,9.4926,1.0538],[-84.302,9.4871,5.0492],[-84.2612,9.4753,0.0],[-84.2518,9.476,2.3017],[-84.2501,9.4773,0.0],[-84.2515,9.479,0.0],[-84.2499,9.4808,3.9874],[-84.2482,9.4796,2.3425],[-84.248,9.473,1.9683],[-84.2445,9.4696,0.0],[-84.2219,9.4588,0.889],[-84.1808,9.4443,6.1258],[-84.1778,9.4406,3.3079],[-84.1701,9.436,5.6422],[-84.1656,9.4299,0.0],[-84.167,9.4252,9.5954],[-84.1702,9.4248,1.8866],[-84.1693,9.4219,0.0],[-84.1663,9.4212,31.2124],[-84.1686,9.4194,37.2683],[-84.1652,9.4169,0.0],[-84.1645,9.4154,20.4888],[-84.1659,9.4146,0.0],[-84.1637,9.4131,0.0],[-84.1666,9.412,26.0813],[-84.1655,9.4088,10.8326],[-84.1635,9.4076,0.0],[-84.1646,9.4031,22.2874],[-84.1672,9.4008,0.0],[-84.1688,9.4026,0.0],[-84.1727,9.4026,0.0],[-84.1763,9.3993,13.099],[-84.1759,9.3944,4.3795],[-84.1754,9.3957,22.5904],[-84.1729,9.3947,2.2993],[-84.1643,9.3971,42.0787],[-84.1542,9.3941,13.297],[-84.1488,9.3903,0.0],[-84.148,9.3866,0.0],[-84.1466,9.3864,0.0],[-84.1459,9.3816,1.225],[-84.1494,9.3808,0.1991],[-84.1473,9.3766,1.0306],[-84.1443,9.3771,4.3647],[-84.1458,9.3796,0.0],[-84.1436,9.3819,13.8643],[-84.1396,9.3802,14.6381],[-84.1386,9.377,0.0],[-84.1371,9.3786,24.6204],[-84.1351,9.3774,13.4069],[-84.1344,9.38,9.027],[-84.1364,9.3812,9.758],[-84.1344,9.3827,0.0],[-84.1353,9.3848,0.0],[-84.13,9.3868,38.3752],[-84.1233,9.3699,0.7029],[-84.1229,9.3742,25.0617],[-84.1177,9.3743,18.2126],[-84.1168,9.3788,4.6698],[-84.1147,9.3779,10.2983],[-84.1156,9.3759,0.0],[-84.0938,9.3731,3.6001],[-84.0295,9.3446,0.25],[-84.0003,9.3366,0.0],[-83.9976,9.3341,4.3021],[-83.9569,9.3168,0.0],[-83.9326,9.3024,2.4002],[-83.9279,9.3025,2.077],[-83.9244,9.2968,0.0],[-83.9183,9.2934,0.0],[-83.9172,9.2944,6.8949],[-83.9167,9.2913,2.628],[-83.9075,9.2841,5.1188],[-83.904,9.2839,0.0],[-83.9006,9.279,9.941],[-83.8674,9.2529,1.5357],[-83.8563,9.2464,0.0],[-83.8501,9.2391,0.0699],[-83.8463,9.2376,12.7138],[-83.8412,9.2294,0.0],[-83.8415,9.2249,26.8842],[-83.845,9.2223,7.7359],[-83.8441,9.2207,9.2911],[-83.8417,9.2229,16.4796],[-83.8389,9.2226,15.7499],[-83.834,9.2173,2.2706],[-83.8308,9.2181,56.6231],[-83.8231,9.2116,2.9844],[-83.8181,9.2134,6.1463],[-83.8141,9.2101,0.0],[-83.8106,9.2103,36.9816],[-83.8087,9.2063,25.0778],[-83.805,9.2041,2.0662],[-83.7952,9.2037,0.0],[-83.7904,9.2003,0.0],[-83.7893,9.1963,10.9988],[-83.7866,9.1957,23.9902],[-83.7854,9.197,1.1595],[-83.7792,9.1926,3.129],[-83.7673,9.1793,8.3872],[-83.759,9.1656,3.1148],[-83.7581,9.154,0.0],[-83.7614,9.1473,0.0],[-83.7567,9.151,0.0],[-83.748,9.1525,0.0],[-83.7361,9.1493,0.0],[-83.728,9.1447,5.3148],[-83.7268,9.14,0.0],[-83.7214,9.1321,12.1725],[-83.7192,9.1325,22.6009],[-83.7161,9.1305,28.4794],[-83.7056,9.1172,5.6375],[-83.6953,9.1117,1.7863],[-83.6934,9.1083,35.587],[-83.6942,9.1071,0.0],[-83.6866,9.0993,5.2102],[-83.6869,9.0964,30.6912],[-83.689,9.0953,0.0],[-83.6826,9.0948,0.0],[-83.679,9.0909,10.4111],[-83.6777,9.0868,7.8585],[-83.6797,9.0835,0.0],[-83.6705,9.0787,0.7551],[-83.6616,9.0617,0.3483],[-83.6593,9.0596,1.564],[-83.6568,9.0599,5.0794],[-83.6583,9.0628,1.4121],[-83.6576,9.0652,0.0],[-83.6546,9.0657,0.0],[-83.6569,9.0681,0.0],[-83.6555,9.0684,0.0],[-83.6472,9.0624,11.1725],[-83.6375,9.0507,15.5626],[-83.6295,9.0499,9.8573],[-83.6287,9.0466,22.8654],[-83.6252,9.0444,16.1616],[-83.6294,9.0416,0.0],[-83.6329,9.0411,0.0],[-83.6353,9.0458,0.0],[-83.6424,9.0487,4.434],[-83.645,9.0479,5.8486],[-83.6455,9.0438,6.1013],[-83.6357,9.0243,10.111],[-83.6328,9.0141,2.3432],[-83.6303,8.9641,0.0],[-83.6259,8.9558,0.0],[-83.6206,8.9546,0.2913],[-83.624,8.9523,0.0],[-83.627,8.9471,0.0],[-83.6256,8.9355,0.0],[-83.6236,8.9303,0.0],[-83.6209,8.9287,0.0],[-83.6224,8.9257,0.0],[-83.6222,8.9178,2.949],[-83.6075,8.9222,1.0129],[-83.6086,8.9197,0.0],[-83.6067,8.9204,0.0],[-83.6077,8.9193,0.0],[-83.6041,8.9154,0.0],[-83.6072,8.9137,0.0],[-83.6095,8.9154,0.0],[-83.6106,8.9145,0.0],[-83.6066,8.9096,0.0],[-83.6077,8.9089,0.0],[-83.6056,8.9027,0.0],[-83.6045,8.9033,0.0],[-83.6044,8.9012,0.0],[-83.5939,8.8949,0.0],[-83.5922,8.8922,0.0],[-83.5922,8.8888,0.0],[-83.5947,8.8871,0.0],[-83.6114,8.8933,0.0],[-83.6151,8.8978,0.0],[-83.6186,8.8936,0.0],[-83.6183,8.8766,0.0],[-83.6164,8.8719,0.0],[-83.6132,8.8727,0.0],[-83.6042,8.8709,2.061],[-83.6009,8.8677,4.6647],[-83.5892,8.862,3.1253],[-83.5892,8.86,1.2401],[-83.5857,8.8577,2.5005],[-83.5864,8.8545,3.455],[-83.5804,8.8471,0.0],[-83.5821,8.8445,0.0],[-83.5871,8.8432,7.1707],[-83.59,8.8454,3.5724],[-83.5973,8.8457,0.0],[-83.6018,8.8344,0.0],[-83.6042,8.8339,0.0],[-83.6055,8.8356,0.0],[-83.6092,8.8268,4.6491],[-83.6125,8.8278,12.6894],[-83.6178,8.8257,8.2868],[-83.6196,8.8207,6.594],[-83.6244,8.8203,39.4634],[-83.6254,8.8229,0.0],[-83.6268,8.8223,1.9556],[-83.6334,8.8165,42.6239],[-83.6358,8.8175,3.7759],[-83.6365,8.8139,10.5844],[-83.6396,8.8128,0.0],[-83.642,8.8053,106.3507],[-83.646,8.8019,112.856],[-83.646,8.7989,125.4029],[-83.6524,8.7938,32.2954],[-83.6509,8.7924,13.2609],[-83.6466,8.7936,4.1662],[-83.6388,8.7787,0.0],[-83.63,8.7812,22.5614],[-83.6272,8.7804,0.0],[-83.6254,8.7793,0.0],[-83.6249,8.7738,0.0],[-83.6319,8.7715,21.101],[-83.6366,8.7745,0.9154],[-83.6475,8.7678,0.0],[-83.6435,8.7569,13.8475],[-83.6411,8.7375,0.0],[-83.6387,8.736,1.7473],[-83.6455,8.7345,43.7282],[-83.6494,8.7314,1.8021],[-83.6491,8.7122,0.0],[-83.6539,8.6979,17.0913],[-83.6658,8.6906,0.0],[-83.6708,8.6908,0.0],[-83.6754,8.6963,26.7544],[-83.6854,8.6932,39.2877],[-83.6913,8.6944,11.9567],[-83.6998,8.6886,45.9803],[-83.7034,8.6894,7.8007],[-83.7075,8.6876,24.6413],[-83.7103,8.6852,1.9859],[-83.7115,8.678,29.9216],[-83.7158,8.6751,65.4781],[-83.7146,8.6696,13.2086],[-83.7163,8.6662,0.0],[-83.7143,8.6635,1.6825],[-83.7131,8.6563,6.5652],[-83.7144,8.6493,0.0],[-83.7197,8.6471,0.0],[-83.7223,8.6435,57.1692],[-83.7318,8.6426,0.0],[-83.7324,8.6384,21.5205],[-83.7298,8.6359,67.9572],[-83.7298,8.6304,20.1531],[-83.7317,8.6276,7.3874],[-83.7344,8.6275,0.0],[-83.7356,8.6225,1.6517],[-83.7396,8.6235,0.0],[-83.7352,8.6214,0.0],[-83.7365,8.6201,1.259],[-83.7354,8.6181,0.0],[-83.7356,8.606,0.0],[-83.7338,8.6027,35.2861],[-83.7348,8.5993,0.0],[-83.7333,8.5947,18.3192],[-83.7266,8.586,0.0],[-83.7213,8.5827,7.3308],[-83.7193,8.5835,0.0],[-83.7191,8.5859,36.8303],[-83.7169,8.5861,25.4807],[-83.7146,8.5825,2.7518],[-83.7093,8.5833,0.0],[-83.7017,8.5783,0.0],[-83.7031,8.578,0.0],[-83.6615,8.5371,3.2391],[-83.6531,8.5257,0.0],[-83.652,8.5261,0.5103],[-83.6524,8.5242,0.0],[-83.6503,8.5219,0.0],[-83.6215,8.4997,0.0],[-83.6104,8.492,0.0],[-83.6097,8.4931,2.788],[-83.593,8.4712,0.0],[-83.5935,8.467,0.0],[-83.5903,8.4659,13.6171],[-83.5911,8.4641,1.3882],[-83.5894,8.459,5.2999],[-83.571,8.4504,0.0],[-83.5687,8.4483,0.0],[-83.5702,8.4433,0.0],[-83.5685,8.4414,0.0],[-83.5657,8.4402,0.0],[-83.5618,8.4421,22.3448],[-83.5453,8.4396,0.0],[-83.5408,8.4433,0.0],[-83.513,8.4484,0.0],[-83.4783,8.4454,0.0],[-83.4491,8.4386,0.0],[-83.4239,8.4296,3.9569],[-83.3793,8.4094,0.0],[-83.3189,8.3862,6.7961],[-83.3009,8.3765,0.0],[-83.2914,8.3744,4.1203],[-83.2872,8.3799,39.1507],[-83.2828,8.3819,0.0],[-83.2782,8.387,13.867],[-83.2797,8.3914,5.4615],[-83.2782,8.3946,14.0511],[-83.2811,8.3989,5.9908],[-83.2799,8.404,0.0],[-83.2811,8.4095,6.3055],[-83.2795,8.413,0.0],[-83.2803,8.4167,4.611],[-83.2738,8.4251,2.6217],[-83.2724,8.4297,3.1517],[-83.2739,8.4336,10.4001],[-83.2775,8.4362,0.0],[-83.2837,8.4454,0.0],[-83.2839,8.4477,0.0],[-83.2797,8.4567,0.0],[-83.2711,8.4651,0.0],[-83.2758,8.4736,0.0],[-83.2776,8.4805,0.0],[-83.284,8.4845,0.0],[-83.292,8.5001,0.0],[-83.285,8.5324,0.0],[-83.2852,8.5419,1.3816],[-83.2869,8.5425,0.0],[-83.2903,8.5397,0.6257],[-83.2912,8.5367,0.0],[-83.2896,8.5352,3.9348],[-83.2909,8.5347,3.2356],[-83.2946,8.5354,7.0747],[-83.2991,8.5399,4.492],[-83.3043,8.5415,0.0],[-83.3057,8.5401,8.4213],[-83.3074,8.5445,0.6326],[-83.3104,8.5453,6.2645],[-83.3139,8.5491,3.92],[-83.3134,8.5507,2.15],[-83.3222,8.5619,8.6417],[-83.3234,8.5666,9.8565],[-83.3268,8.5691,0.0],[-83.3354,8.5686,6.614],[-83.3397,8.5723,0.0],[-83.3526,8.5766,3.987],[-83.3743,8.575,6.5353],[-83.3776,8.5804,9.7375],[-83.3773,8.584,1.5093],[-83.3795,8.5822,9.3677],[-83.3795,8.5853,5.8084],[-83.3863,8.5843,1.2259],[-83.3904,8.5865,6.5884],[-83.3919,8.5889,3.6697],[-83.3992,8.5928,0.0],[-83.4104,8.6061,4.1222],[-83.4132,8.6068,8.0866],[-83.4164,8.6125,0.502],[-83.4268,8.6183,3.5409],[-83.4281,8.6214,0.0],[-83.4274,8.6262,0.0],[-83.4307,8.6274,3.1497],[-83.4345,8.6336,7.6484],[-83.4366,8.6342,7.147],[-83.4329,8.6469,3.2429],[-83.4344,8.6505,12.1817],[-83.4327,8.6523,5.4226],[-83.4344,8.6586,6.6056],[-83.4429,8.6673,0.0],[-83.446,8.6663,6.5968],[-83.4464,8.6681,8.2695],[-83.443,8.669,0.0],[-83.4496,8.6752,6.7125],[-83.4513,8.6747,2.042],[-83.4507,8.6719,5.6028],[-83.4541,8.6716,8.3423],[-83.453,8.6723,6.4323],[-83.4509,8.6722,4.0246],[-83.4518,8.6755,0.0],[-83.4563,8.6774,5.1083],[-83.4564,8.6813,1.1337],[-83.4587,8.682,5.7131],[-83.4572,8.6831,3.7957],[-83.4581,8.6855,0.0],[-83.4611,8.687,2.8812],[-83.4645,8.6865,1.0226],[-83.4678,8.6812,3.5557],[-83.4663,8.6879,3.057],[-83.4701,8.698,1.248],[-83.4726,8.6972,23.6847],[-83.4711,8.6999,0.0],[-83.4721,8.7014,4.0163],[-83.476,8.6988,0.0],[-83.4745,8.6965,13.901],[-83.4761,8.6978,1.2177],[-83.4771,8.6969,1.7346],[-83.4751,8.6931,21.9751],[-83.4762,8.6951,15.441],[-83.4822,8.6932,45.3976],[-83.4843,8.6974,32.4889],[-83.485,8.7107,13.0684],[-83.482,8.7142,33.9788],[-83.4811,8.7192,30.6864],[-83.4783,8.7211,6.506],[-83.4693,8.7197,6.7552],[-83.4687,8.723,6.6595],[-83.4654,8.7263,27.4946],[-83.4597,8.725,0.0],[-83.4555,8.7217,0.0],[-83.444,8.7248,46.0831],[-83.4429,8.7229,9.1796],[-83.4385,8.7218,0.0],[-83.4386,8.7176,0.0],[-83.4331,8.7134,4.298],[-83.4277,8.7153,0.0],[-83.4248,8.7188,56.7183],[-83.4181,8.7195,37.2914],[-83.4166,8.7252,6.7117],[-83.4071,8.7315,0.0],[-83.4072,8.7335,0.0],[-83.4035,8.7367,10.2739],[-83.4008,8.7364,47.2285],[-83.3979,8.7331,0.0],[-83.3951,8.7362,13.4531],[-83.3935,8.7312,0.0],[-83.3911,8.7307,24.5167],[-83.3917,8.7329,25.9402],[-83.387,8.7348,11.3843],[-83.3833,8.7402,58.3175],[-83.38,8.74,0.0],[-83.3833,8.7448,19.7707],[-83.3818,8.7466,8.9777],[-83.3746,8.744,25.881],[-83.3731,8.7351,0.0],[-83.3706,8.7376,33.6555],[-83.3675,8.7382,22.958],[-83.362799999999993,8.7373,33.5671],[-83.3545,8.7324,15.7645],[-83.3538,8.736,15.215],[-83.3474,8.7363,12.6528],[-83.341,8.7286,0.0],[-83.3309,8.7247,27.6569],[-83.3355,8.725,3.6411],[-83.3335,8.7218,0.7964],[-83.3335,8.7174,0.0],[-83.3357,8.7142,0.0],[-83.334,8.7138,4.4452],[-83.3331,8.7162,5.4509],[-83.3328,8.7144,1.8835],[-83.3302,8.715,0.7215],[-83.3251,8.7184,7.2357],[-83.3226,8.7154,9.6443],[-83.3266,8.7159,1.1893],[-83.3256,8.7146,7.3161],[-83.3294,8.7128,2.1955],[-83.3313,8.7095,24.2209],[-83.3296,8.7054,15.2519],[-83.3331,8.702,6.4155],[-83.3267,8.6897,9.6209],[-83.3274,8.6861,0.0],[-83.3307,8.6852,32.4093],[-83.3292,8.6806,39.7202],[-83.322,8.6773,8.1625],[-83.3202,8.6737,0.0],[-83.307,8.6732,0.0],[-83.305,8.6681,0.0],[-83.3007,8.6667,0.0],[-83.299,8.6642,7.116],[-83.2947,8.6533,0.0],[-83.2911,8.6576,9.4189],[-83.2866,8.6583,3.3415],[-83.2846,8.6569,0.0],[-83.2779,8.6597,3.89],[-83.2755,8.6595,68.2753],[-83.2721,8.6562,6.7841],[-83.2625,8.6576,19.4229],[-83.2539,8.6566,0.0],[-83.2471,8.6375,0.0],[-83.2441,8.6326,3.2603],[-83.2372,8.6268,0.0],[-83.2357,8.6318,45.0506],[-83.2329,8.6333,2.8219],[-83.2355,8.6346,50.3664],[-83.2344,8.6392,6.1392],[-83.2257,8.6413,10.4725],[-83.2176,8.6362,8.8672],[-83.2174,8.6319,0.0],[-83.2129,8.6282,0.0],[-83.2058,8.631,57.9554],[-83.2043,8.6267,0.0],[-83.1983,8.6285,0.0],[-83.1956,8.6255,9.3581],[-83.1829,8.6217,0.0],[-83.1774,8.6255,48.5554],[-83.1771,8.631,32.8636],[-83.1743,8.6347,5.5178],[-83.1775,8.635,25.8283],[-83.1766,8.6393,0.0],[-83.1838,8.6404,6.0283],[-83.1843,8.6391,6.0283],[-83.1875,8.6418,6.7432],[-83.1862,8.6417,12.1935],[-83.1843,8.6409,8.2682],[-83.1839,8.643,10.8765],[-83.1817,8.6414,0.0],[-83.177,8.6414,2.0228],[-83.1774,8.6443,12.78],[-83.175299999999993,8.6436,4.2591],[-83.1762,8.6456,9.9263],[-83.1744,8.6432,0.0],[-83.1719,8.6428,4.4267],[-83.1712,8.639,0.6747],[-83.1684,8.6362,0.0],[-83.1643,8.6357,69.0497],[-83.1545,8.6235,0.0],[-83.1413,8.6133,5.0576],[-83.1403,8.6093,0.0],[-83.135,8.6039,9.7016],[-83.1352,8.6004,0.0],[-83.1311,8.6028,10.83],[-83.1273,8.601,5.7611],[-83.1229,8.6011,9.625],[-83.1242,8.6006,3.4997],[-83.1232,8.5941,5.0729],[-83.13,8.591,0.0],[-83.1309,8.5891,2.6279],[-83.1388,8.5907,0.0],[-83.1385,8.5845,2.4075],[-83.1401,8.5828,10.7723],[-83.1429,8.5835,4.8895],[-83.1424,8.5816,16.0632],[-83.1441,8.5832,4.8895],[-83.145,8.581,17.9776],[-83.1465,8.5833,0.4891],[-83.1485,8.5802,30.8896],[-83.1538,8.5793,8.5866],[-83.1558,8.577,5.982],[-83.1602,8.5781,3.3212],[-83.1597,8.5795,0.0],[-83.162,8.5798,4.6082],[-83.1598,8.5814,2.7581],[-83.1656,8.5837,0.0],[-83.1603,8.5826,7.5507],[-83.1574,8.5799,0.0],[-83.1541,8.581,0.0],[-83.1556,8.5841,2.5378],[-83.1638,8.5853,4.126],[-83.1596,8.5876,19.8496],[-83.16,8.5928,8.4093],[-83.1552,8.5954,26.5028],[-83.1596,8.5992,16.6781],[-83.1591,8.6013,3.0073],[-83.1612,8.6012,19.1581],[-83.1608,8.6031,22.6453],[-83.1565,8.6051,9.065],[-83.1571,8.6066,50.6286],[-83.1544,8.6082,6.4576],[-83.1518,8.608,0.0],[-83.1519,8.6092,0.0],[-83.1545,8.6103,5.7798],[-83.1592,8.6072,7.6442],[-83.1633,8.6077,5.2371],[-83.165,8.6089,67.5734],[-83.1652,8.615,6.9075],[-83.1671,8.6158,0.0],[-83.1724,8.6126,8.6267],[-83.1739,8.6077,2.1681],[-83.1782,8.6059,0.0],[-83.1796,8.6077,0.0],[-83.179,8.6102,1.1346],[-83.1747,8.6129,0.0],[-83.1759,8.6146,0.5686],[-83.1779,8.6134,1.2715],[-83.173,8.6189,0.0],[-83.168,8.6214,0.0],[-83.1708,8.6233,2.0617],[-83.1694,8.6233,2.0617],[-83.1706,8.6252,0.6709],[-83.1726,8.6241,2.6519],[-83.1807,8.61,0.0],[-83.1756,8.5923,0.0],[-83.1732,8.5916,0.0],[-83.168,8.5862,0.0],[-83.1591,8.5709,3.0661],[-83.151,8.5657,6.4468],[-83.1424,8.5568,0.9328],[-83.1396,8.5563,29.1371],[-83.1417,8.554,10.1531],[-83.1363,8.5495,6.3722],[-83.1383,8.5466,0.0],[-83.1381,8.5405,6.0167],[-83.14,8.5412,6.0167],[-83.1419,8.5366,0.0],[-83.1436,8.5369,8.1135],[-83.1464,8.5456,2.2794],[-83.1511,8.5482,0.916],[-83.1516,8.5471,0.916],[-83.1456,8.5375,7.4012],[-83.1374,8.5174,8.0473],[-83.1135,8.4914,2.0359],[-83.1045,8.4784,6.9591],[-83.0971,8.4655,7.884],[-83.0917,8.4509,17.3061],[-83.0923,8.4478,13.6499],[-83.1023,8.4389,6.6852],[-83.1047,8.4333,5.355],[-83.1058,8.4243,2.5191],[-83.1106,8.4149,18.7851],[-83.1192,8.4074,1.6527],[-83.1316,8.4034,0.0],[-83.1338,8.3983,14.2688],[-83.1381,8.3957,0.0],[-83.1423,8.3855,0.0],[-83.1453,8.3824,2.4714],[-83.1445,8.3725,2.7637],[-83.1465,8.3672,0.0],[-83.1372,8.3556,22.0244],[-83.1273,8.3483,25.555],[-83.1216,8.3402,0.0],[-83.1087,8.331,120.1217],[-83.0468,8.2959,0.0],[-83.0251,8.2776,0.0],[-82.9919,8.2584,0.0],[-82.9739,8.2389,0.0],[-82.9711,8.2327,0.0],[-82.9626,8.223,8.1155],[-82.9613,8.2178,0.0],[-82.9569,8.2145,0.0],[-82.9519,8.2061,1.5594],[-82.9492,8.2051,3.2214],[-82.9504,8.205,3.2214],[-82.9377,8.1858,0.0],[-82.9272,8.1644,16.5486],[-82.9226,8.1466,0.0],[-82.9172,8.1399,15.4364],[-82.9139,8.1305,0.0],[-82.9039,8.1153,0.0],[-82.9002,8.1,7.7671],[-82.9015,8.0837,0.0],[-82.9061,8.0766,4.7264],[-82.9137,8.0775,0.0],[-82.9123,8.0733,0.0],[-82.9128,8.0715,9.5735],[-82.9151,8.0712,1.6454],[-82.9138,8.0635,1.6711],[-82.9162,8.0587,0.0],[-82.9071,8.0432,9.5847],[-82.9007,8.0396,14.8755],[-82.8961,8.0479,46.492],[-82.8906,8.0516,154.2032],[-82.8916,8.0541,163.1534],[-82.8944,8.0538,150.9895],[-82.8966,8.0602,149.7068],[-82.892,8.0741,61.5953],[-82.8878,8.0789,63.3475],[-82.8888,8.0934,72.8969],[-82.8927,8.1041,89.4726],[-82.8872,8.1051,117.4747],[-82.8861,8.1086,183.9245],[-82.8883,8.1088,186.3197],[-82.89,8.1109,170.9206],[-82.8892,8.114,218.8376],[-82.8931,8.1153,87.74],[-82.9009,8.129,144.4102],[-82.9012,8.1329,167.3139],[-82.9042,8.1364,135.0457],[-82.9031,8.1388,230.2953],[-82.9076,8.1418,101.747],[-82.9086,8.1447,152.6929],[-82.9101,8.1574,115.5192],[-82.9095,8.1626,198.1183],[-82.9078,8.164,169.6086],[-82.9099,8.1684,85.647],[-82.903,8.1753,175.5511],[-82.9127,8.1778,102.0035],[-82.9108,8.1948,126.7648],[-82.9119,8.1975,135.9903],[-82.9152,8.1971,142.623],[-82.9177,8.1939,168.6349],[-82.9214,8.2016,185.4579],[-82.925,8.2029,201.9603],[-82.9273,8.2089,190.9199],[-82.931,8.211,194.2825],[-82.9352,8.2094,205.8597],[-82.9364,8.2104,131.3689],[-82.9366,8.2151,132.0717],[-82.9329,8.2202,175.3443],[-82.9337,8.2254,118.2229],[-82.9315,8.2281,102.722],[-82.9318,8.2361,83.4502],[-82.9285,8.2416,82.4483],[-82.9301,8.2452,92.6768],[-82.9387,8.2516,143.1363],[-82.9382,8.2624,192.0327],[-82.9422,8.2722,242.7838],[-82.9482,8.2698,258.0056],[-82.9485,8.2678,247.3682],[-82.9523,8.2678,219.2275],[-82.9563,8.2799,317.7726],[-82.9605,8.2805,266.5878],[-82.963,8.2782,218.0895],[-82.9681,8.2791,314.009],[-82.9757,8.2891,463.604],[-82.9808,8.2859,365.127],[-82.9861,8.2727,504.1408],[-82.9907,8.2713,499.0193],[-82.9998,8.2888,575.7319],[-83.0043,8.2891,617.9932],[-83.003,8.2953,631.3292],[-83.014,8.3027,619.694],[-83.0242,8.3046,652.5013],[-83.0254,8.3081,605.5317],[-83.0227,8.3116,635.1311],[-83.0271,8.3141,587.9625],[-83.0272,8.3164,584.8198],[-83.0326,8.3133,528.6893],[-83.0375,8.3185,442.1262],[-83.0455,8.3155,374.7139],[-83.0463,8.3216,449.2226],[-83.0516,8.3308,486.5054],[-83.0519,8.3345,499.4122],[-83.0468,8.3369,515.8751],[-83.0478,8.3419,495.6825],[-83.0276,8.3522,480.1946],[-83.0189,8.3506,447.3479],[-83.016,8.3553,357.4207],[-83.0104,8.3543,405.2287],[-83.0072,8.3556,422.8044],[-83.0017,8.3603,598.1462],[-83.0008,8.3647,410.4216],[-82.9941,8.369,244.5698],[-82.9897,8.3772,347.3041],[-82.9837,8.3729,370.6675],[-82.976,8.3837,314.1689],[-82.9699,8.3863,188.0397],[-82.9672,8.3942,99.2875],[-82.9618,8.3965,80.5447],[-82.961,8.4033,65.8033],[-82.955,8.4072,57.5557],[-82.9542,8.4133,47.2875],[-82.9357,8.4239,41.8111],[-82.9309,8.4352,40.7141],[-82.9141,8.4288,28.2308],[-82.8682,8.4396,19.3833],[-82.8396,8.4801,41.4964],[-82.8315,8.5055,67.7708],[-82.8337,8.5082,67.831],[-82.8332,8.5241,108.6101],[-82.8384,8.5324,126.6119],[-82.839,8.5444,117.4839],[-82.8351,8.552,132.1474],[-82.8285,8.5571,175.4408],[-82.8223,8.5671,259.444],[-82.8252,8.5713,266.0558],[-82.824,8.5745,275.7786],[-82.8261,8.5803,324.5951],[-82.8332,8.5923,555.1176],[-82.8268,8.6007,675.0012],[-82.8287,8.6052,666.5026],[-82.8382,8.6134,595.9692],[-82.8371,8.6153,587.131],[-82.8311,8.6142,603.989],[-82.8286,8.6161,610.2429],[-82.8287,8.6294,809.1246]]],
[[[-84.522,9.5201,0.0],[-84.5219,9.5198,0.0],[-84.5217,9.5205,0.0],[-84.5221,9.5204,0.0],[-84.522,9.5201,0.0]]],
[[[-84.5169,9.5212,0.0],[-84.5168,9.5209,0.0],[-84.5166,9.5208,0.0],[-84.5167,9.5215,0.0],[-84.5169,9.5212,0.0]]],
[[[-84.5149,9.5211,0.0],[-84.5146,9.5207,0.0],[-84.5145,9.5218,0.0],[-84.5147,9.5217,0.0],[-84.5149,9.5211,0.0]]],
[[[-84.5138,9.5221,0.0],[-84.5137,9.5219,0.0],[-84.5135,9.5222,0.0],[-84.5137,9.5222,0.0],[-84.5138,9.5221,0.0]]],
[[[-85.1108,9.5401,0.0],[-85.1121,9.544,0.4773],[-85.1137,9.5425,0.0],[-85.1135,9.5379,0.0],[-85.1119,9.5371,0.3196],[-85.1108,9.5401,0.0]]],
[[[-84.5164,9.5221,0.0],[-84.5162,9.5218,0.0],[-84.5161,9.5229,0.0],[-84.5164,9.5227,0.0],[-84.5164,9.5221,0.0]]],
[[[-84.6477,9.6199,0.0],[-84.6482,9.6193,0.0],[-84.6482,9.6191,0.0],[-84.6477,9.6192,0.0],[-84.6477,9.6199,0.0]]],
[[[-84.6455,9.6212,0.0],[-84.6456,9.6209,0.0],[-84.6454,9.6209,0.0],[-84.6453,9.6212,0.0],[-84.6455,9.6212,0.0]]],
[[[-84.6539,9.6233,0.0],[-84.654,9.6232,0.0],[-84.6539,9.623,0.0],[-84.6538,9.6232,0.0],[-84.6539,9.6233,0.0]]],
[[[-84.6531,9.6207,0.0],[-84.6532,9.6209,0.0],[-84.6534,9.6208,0.0],[-84.6533,9.6206,0.0],[-84.6531,9.6207,0.0]]],
[[[-84.6672,9.627,0.0],[-84.6676,9.6266,0.0],[-84.6668,9.6265,0.0],[-84.6669,9.6268,0.0],[-84.6672,9.627,0.0]]],
[[[-84.6683,9.6268,0.0],[-84.6684,9.6267,0.0],[-84.6684,9.6265,0.0],[-84.6682,9.6266,0.0],[-84.6683,9.6268,0.0]]],
[[[-84.6691,9.6268,0.0],[-84.6693,9.6268,0.0],[-84.6693,9.6265,0.0],[-84.6691,9.6265,0.0],[-84.6691,9.6268,0.0]]],
[[[-84.6687,9.6277,14.8159],[-84.6653,9.6309,14.8503],[-84.6738,9.6301,15.116],[-84.6767,9.6265,18.3136],[-84.6752,9.626,18.3136],[-84.6687,9.6277,14.8159]]],
[[[-84.681,9.6465,0.0],[-84.6805,9.6463,0.0],[-84.68,9.6475,0.0],[-84.6806,9.6475,0.0],[-84.681,9.6465,0.0]]],
[[[-84.6788,9.6485,0.0],[-84.679,9.6482,0.0],[-84.6789,9.6481,0.0],[-84.6787,9.6482,0.0],[-84.6788,9.6485,0.0]]],
[[[-84.6796,9.6494,0.0],[-84.6793,9.6492,0.0],[-84.6795,9.6498,0.0],[-84.6797,9.6497,0.0],[-84.6796,9.6494,0.0]]],
[[[-84.6835,9.6563,0.0],[-84.6838,9.6557,0.0],[-84.6837,9.6555,0.0],[-84.6828,9.6566,0.0],[-84.6835,9.6563,0.0]]],
[[[-84.9179,9.7849,0.0],[-84.9181,9.785,19.058],[-84.9183,9.7846,19.058],[-84.9181,9.7847,19.058],[-84.9179,9.7849,0.0]]],
[[[-84.8903,9.7819,0.1788],[-84.8903,9.7814,0.1788],[-84.8896,9.782,0.1788],[-84.8898,9.7821,0.0],[-84.8903,9.7819,0.1788]]],
[[[-85.0307,9.674,0.0],[-85.0308,9.6742,0.0],[-85.031,9.674,0.0],[-85.0309,9.6739,0.0],[-85.0307,9.674,0.0]]],
[[[-85.0323,9.6744,0.0],[-85.0325,9.6745,0.0],[-85.0326,9.6741,0.0],[-85.0323,9.6742,0.0],[-85.0323,9.6744,0.0]]],
[[[-84.8986,9.7671,0.0],[-84.8988,9.767,0.0],[-84.8985,9.7668,0.0],[-84.8984,9.767,0.0],[-84.8986,9.7671,0.0]]],
[[[-84.8933,9.7727,13.3403],[-84.8963,9.7738,0.0],[-84.9016,9.7717,0.0],[-84.8951,9.7635,0.0],[-84.8907,9.7641,0.0],[-84.8904,9.7668,0.0],[-84.8886,9.767,0.0],[-84.8864,9.7706,36.4984],[-84.8838,9.7701,0.7035],[-84.8868,9.7731,5.4507],[-84.8878,9.772,43.4881],[-84.8933,9.7727,13.3403]]],
[[[-84.8822,9.7707,0.0],[-84.8825,9.7701,0.0732],[-84.8819,9.7693,0.0732],[-84.8817,9.7706,0.0],[-84.8822,9.7707,0.0]]],
[[[-84.8808,9.7707,0.0],[-84.8809,9.7708,0.0],[-84.8811,9.7705,0.0],[-84.8808,9.7705,0.0],[-84.8808,9.7707,0.0]]],
[[[-84.8988,9.7818,10.716],[-84.9002,9.7849,7.2215],[-84.904,9.7836,0.0],[-84.9032,9.7794,30.4299],[-84.9054,9.7774,8.9344],[-84.9029,9.7735,0.0],[-84.8975,9.7764,8.0316],[-84.8988,9.7818,10.716]]],
[[[-84.8486,9.8229,17.7917],[-84.8514,9.8244,0.0],[-84.8526,9.8232,20.8386],[-84.8592,9.8235,27.2803],[-84.8651,9.8193,0.0],[-84.8627,9.8164,0.0],[-84.86,9.816,0.0],[-84.8606,9.8176,51.828],[-84.8489,9.8212,24.0869],[-84.8476,9.8222,0.0],[-84.8486,9.8229,17.7917]]],
[[[-84.8351,9.825,28.4633],[-84.8421,9.8261,0.0],[-84.8423,9.8234,0.0],[-84.8378,9.8214,13.6699],[-84.8327,9.8231,20.8018],[-84.8277,9.8207,29.3964],[-84.8236,9.8228,4.0551],[-84.8336,9.8253,28.4633],[-84.8351,9.825,28.4633]]],
[[[-84.9107,9.8419,0.0],[-84.9105,9.8418,0.0],[-84.9106,9.8422,0.0],[-84.9108,9.842,0.0],[-84.9107,9.8419,0.0]]],
[[[-84.8894,9.8404,0.0],[-84.8874,9.8432,13.4718],[-84.8895,9.8456,0.0],[-84.8964,9.8404,0.0],[-84.895,9.8394,2.9296],[-84.8906,9.8414,9.0365],[-84.8894,9.8404,0.0]]],
[[[-84.9172,9.8473,2.379],[-84.9177,9.8467,0.0],[-84.9158,9.8476,0.0],[-84.9163,9.8477,2.379],[-84.9172,9.8473,2.379]]],
[[[-84.9182,9.8505,0.0],[-84.9182,9.8502,0.0],[-84.918,9.8502,0.0],[-84.918,9.8505,0.0],[-84.9182,9.8505,0.0]]],
[[[-84.9133,9.8533,0.0],[-84.9132,9.8537,0.0],[-84.9133,9.8537,0.0],[-84.9135,9.8534,0.0],[-84.9133,9.8533,0.0]]],
[[[-84.8673,9.8498,15.351],[-84.8704,9.8525,0.0],[-84.8721,9.8513,17.4809],[-84.8768,9.8524,0.0],[-84.8788,9.85,9.2317],[-84.8811,9.8512,0.0],[-84.8828,9.8498,8.4878],[-84.883,9.8451,0.0],[-84.8805,9.8412,13.3953],[-84.8901,9.839,0.0],[-84.89,9.8372,10.2838],[-84.8842,9.8369,0.0],[-84.8778,9.8397,13.5434],[-84.8735,9.8397,0.0],[-84.8714,9.8412,0.0],[-84.8753,9.8429,2.0406],[-84.8731,9.8434,0.0],[-84.8764,9.8451,2.3304],[-84.8649,9.8505,0.0],[-84.8673,9.8498,15.351]]],
[[[-84.8644,9.849,8.0187],[-84.8625,9.8477,6.7226],[-84.8613,9.8478,4.0902],[-84.8624,9.8492,8.0187],[-84.8644,9.849,8.0187]]],
[[[-84.9179,9.8664,0.0],[-84.918,9.8667,5.0845],[-84.9181,9.8666,5.0845],[-84.9182,9.8664,5.0845],[-84.9179,9.8664,0.0]]],
[[[-84.9117,9.8692,0.0],[-84.9128,9.8686,0.0],[-84.9132,9.868,0.0],[-84.912,9.8686,0.0],[-84.9117,9.8692,0.0]]],
[[[-84.9103,9.8693,0.0],[-84.9112,9.8685,0.0],[-84.9092,9.8692,0.0],[-84.909,9.8701,0.0],[-84.9096,9.8702,0.0],[-84.9103,9.8693,0.0]]],
[[[-84.908,9.8718,0.0],[-84.9086,9.871,0.0],[-84.9076,9.8715,0.0],[-84.908,9.8718,0.0]]],
[[[-84.9227,9.8890999999999991,10.2441],[-84.928,9.8912,6.2741],[-84.928,9.8877,4.6928],[-84.9231,9.883,0.0],[-84.9216,9.8887,0.0],[-84.9227,9.8890999999999991,10.2441]]],
[[[-84.88,9.9111,8.9882],[-84.8768,9.9115,7.4222],[-84.8791,9.9128,6.4889],[-84.8816,9.9107,0.0],[-84.88,9.9111,8.9882]]],
[[[-84.9212,9.8825,5.8112],[-84.9202,9.8815,0.0],[-84.9172,9.8817,0.0],[-84.9208,9.8833,5.8112],[-84.9212,9.8825,5.8112]]],
[[[-84.9211,9.8844,0.0],[-84.9201,9.8841,0.0],[-84.918,9.8853,0.0],[-84.9199,9.885,0.0],[-84.9211,9.8844,0.0]]],
[[[-84.9462,10.0618,0.9041],[-84.9464,10.0616,0.9041],[-84.9461,10.0613,0.9041],[-84.9459,10.0614,0.9041],[-84.9462,10.0618,0.9041]]],
[[[-84.9751,10.0661,0.0],[-84.9743,10.0667,0.0],[-84.9754,10.0677,0.0],[-84.9763,10.0666,0.0],[-84.9751,10.0661,0.0]]],
[[[-84.977,10.0696,0.0],[-84.9786,10.0698,0.0],[-84.9791,10.0693,0.0],[-84.9782,10.0686,0.0],[-84.977,10.0696,0.0]]],
[[[-84.9975,10.0935,0.0],[-84.9961,10.093,0.0],[-84.996,10.0955,0.0],[-84.9974,10.0945,0.0],[-84.9975,10.0935,0.0]]],
[[[-85.1208,10.1017,3.6298],[-85.1215,10.1054,0.0],[-85.1175,10.104,3.586],[-85.1165,10.1011,0.0],[-85.1047,10.1071,0.0],[-85.1166,10.1098,4.5037],[-85.1257,10.1147,9.8576],[-85.1399,10.1176,4.1459],[-85.146,10.1214,0.0],[-85.1502,10.1196,7.7492],[-85.1506,10.1211,12.2946],[-85.1621,10.126,0.0],[-85.1796,10.1251,28.7128],[-85.1871,10.1197,10.0832],[-85.1907,10.119,0.0],[-85.194,10.1205,0.0],[-85.1977,10.1141,13.0672],[-85.1964,10.1105,7.1351],[-85.1902,10.105,0.0],[-85.1892,10.099,9.3471],[-85.1827,10.0842,4.4673],[-85.1729,10.0781,2.831],[-85.1575,10.0737,0.0],[-85.1349,10.0741,5.8189],[-85.1242,10.0787,0.0],[-85.1084,10.0816,0.0],[-85.0975,10.0875,52.4503],[-85.0938,10.0949,22.6936],[-85.1012,10.0983,3.0593],[-85.1012,10.097,21.1636],[-85.1086,10.0937,8.088],[-85.1143,10.094,0.0],[-85.115,10.0922,1.729],[-85.1203,10.0918,8.3438],[-85.1195,10.0926,0.0],[-85.1212,10.0931,7.1447],[-85.1226,10.0967,6.5391],[-85.1208,10.1017,3.6298]]],
[[[-84.9006,9.923,9.8519],[-84.8988,9.9228,0.0],[-84.9023,9.9262,0.0],[-84.9027,9.9237,0.0],[-84.9006,9.923,9.8519]]],
[[[-84.9134,9.9275,0.0],[-84.9138,9.9272,0.0],[-84.913,9.9268,0.0],[-84.9129,9.927,0.0],[-84.9134,9.9275,0.0]]],
[[[-84.9252,9.928,0.0],[-84.9254,9.9277,0.0],[-84.925,9.9274,0.0],[-84.9249,9.9274,0.0],[-84.9252,9.928,0.0]]],
[[[-84.9228,9.9278,0.0],[-84.9232,9.9275,0.0],[-84.9225,9.9272,0.0],[-84.9224,9.9275,0.0],[-84.9228,9.9278,0.0]]],
[[[-84.924,9.9276,0.0],[-84.9242,9.9277,0.0],[-84.9245,9.9275,0.0],[-84.9242,9.9273,0.0],[-84.924,9.9276,0.0]]],
[[[-85.0693,9.9696,0.0],[-85.069,9.9691,0.0],[-85.0683,9.9693,0.0],[-85.0683,9.9698,0.0],[-85.0693,9.9696,0.0]]],
[[[-85.0679,9.9691,0.0],[-85.0678,9.9678,0.0],[-85.0673,9.9676,0.0],[-85.0672,9.9688,0.0],[-85.0679,9.9691,0.0]]],
[[[-85.0763,9.9732,0.0],[-85.0762,9.9735,0.0],[-85.0771,9.9744,0.0],[-85.077,9.9737,0.0],[-85.0763,9.9732,0.0]]],
[[[-85.0608,9.9749,0.0],[-85.0606,9.9756,0.0],[-85.0616,9.9757,0.0],[-85.0614,9.9748,0.0],[-85.0608,9.9749,0.0]]],
[[[-85.0612,9.9741,0.0],[-85.062,9.9735,0.0],[-85.062,9.9732,0.0],[-85.0611,9.973,0.0],[-85.0612,9.9741,0.0]]],
[[[-85.0617,9.9745,0.0],[-85.0634,9.9756,0.0],[-85.0647,9.9736,0.0],[-85.0629,9.9735,0.0],[-85.0617,9.9745,0.0]]],
[[[-84.9232,9.934,0.0],[-84.9237,9.9338,0.0],[-84.9234,9.9334,0.0],[-84.9232,9.9336,0.0],[-84.9232,9.934,0.0]]],
[[[-84.9248,9.9342,0.0],[-84.9251,9.9343,0.0],[-84.9247,9.9337,0.0],[-84.9245,9.9339,0.0],[-84.9248,9.9342,0.0]]],
[[[-84.8933,9.9509,5.9629],[-84.9015,9.9543,0.0],[-84.9098,9.9526,0.0],[-84.9109,9.9511,0.0],[-84.9076,9.9501,0.0],[-84.9029,9.9522,17.2404],[-84.9023,9.9488,0.0],[-84.9059,9.944,4.0347],[-84.9085,9.9447,10.487],[-84.9122,9.9431,20.1813],[-84.9169,9.9456,0.0],[-84.9202,9.9451,0.0],[-84.9211,9.9435,0.0],[-84.9185,9.9414,0.0],[-84.9183,9.9351,0.0],[-84.9065,9.9307,9.8388],[-84.8952,9.9324,0.0],[-84.8909,9.9372,0.0],[-84.8964,9.9413,6.2713],[-84.8979,9.9453,3.9514],[-84.8962,9.95,4.3105],[-84.8933,9.9509,5.9629]]],
[[[-85.0012,9.995,14.807],[-85.0049,9.9945,9.9752],[-85.0101,9.9964,7.0027],[-85.0134,9.9932,4.3988],[-85.0024,9.9926,17.4571],[-84.9957,9.9872,22.2369],[-84.9786,9.981,1.7893],[-84.9672,9.9811,40.7015],[-84.9643,9.9795,0.0],[-84.9615,9.9811,60.8832],[-84.9591,9.9806,8.4592],[-84.9601,9.9863,0.0],[-84.9669,9.9846,33.8082],[-84.9693,9.9854,18.9511],[-84.9704,9.9886,5.2759],[-84.9734,9.9874,0.0],[-84.9767,9.9895,6.0843],[-84.9882,9.9907,9.9374],[-84.9896,9.9926,5.7971],[-84.9888,9.9952,19.0762],[-84.9962,9.9935,23.4457],[-85.0012,9.995,14.807]]],
[[[-85.0461,10.0058,0.0],[-85.0506,10.006,0.0],[-85.0405,9.9998,6.1286],[-85.0283,9.9966,2.1824],[-85.0218,9.9957,10.7815],[-85.0184,9.9981,0.0],[-85.0208,10.0005,0.0],[-85.0461,10.0058,0.0]]],
[[[-85.063,9.9807,0.0],[-85.0631,9.9811,0.0],[-85.0641,9.9813,0.0],[-85.0633,9.9805,0.0],[-85.063,9.9807,0.0]]],
[[[-85.0746,9.9813,0.0],[-85.0749,9.9805,0.0],[-85.0735,9.9816,0.0],[-85.0742,9.9819,0.0],[-85.0746,9.9813,0.0]]],
[[[-85.0598,9.9927,5.2521],[-85.0661,9.9928,13.3992],[-85.0712,9.995,0.0],[-85.0709,9.9922,0.0],[-85.0741,9.9918,30.8211],[-85.0766,9.9889,0.0],[-85.0847,9.9895,0.0],[-85.0799,9.985,3.2691],[-85.0801,9.9837,0.0],[-85.0771,9.9836,0.0],[-85.0765,9.9874,16.7484],[-85.0755,9.986,3.1879],[-85.073,9.9861,11.1128],[-85.0727,9.9847,2.9427],[-85.0756,9.9847,0.0],[-85.0715,9.9816,0.0],[-85.0734,9.9807,0.0],[-85.0694,9.9794,0.0],[-85.0708,9.9811,0.0],[-85.0694,9.9816,1.5697],[-85.0671,9.9782,0.0],[-85.0668,9.9802,0.0],[-85.0658,9.9784,0.0],[-85.0644,9.9796,0.0],[-85.0676,9.9812,4.0354],[-85.0655,9.9827,11.5109],[-85.0646,9.981,0.0],[-85.0636,9.9827,7.6401],[-85.062,9.9808,0.0],[-85.0616,9.9819,1.2943],[-85.0559,9.9797,0.0],[-85.0419,9.9814,15.404],[-85.0503,9.9895,2.6068],[-85.0598,9.9927,5.2521]]],
[[[-85.0691,9.9778,0.0],[-85.0729,9.9766,0.0],[-85.0697,9.9727,0.7652],[-85.0677,9.9734,0.0],[-85.0704,9.9746,0.6226],[-85.0702,9.976,2.9322],[-85.0687,9.9752,0.0],[-85.0679,9.9763,0.0],[-85.0697,9.9767,1.323],[-85.0691,9.9778,0.0]]],
[[[-85.0709,9.9793,0.0],[-85.0738,9.9803,0.8971],[-85.0743,9.9787,0.0],[-85.0728,9.9783,0.0],[-85.0742,9.9774,0.0],[-85.0702,9.9787,0.5005],[-85.0709,9.9793,0.0]]],
[[[-85.0596,9.9782,0.0],[-85.0613,9.98,0.0],[-85.0626,9.979,0.0],[-85.0592,9.9778,0.0],[-85.0596,9.9782,0.0]]],
[[[-85.0651,9.9783,0.0],[-85.0658,9.9772,0.0],[-85.0631,9.9794,0.0],[-85.0639,9.9796,0.0],[-85.0651,9.9783,0.0]]],
[[[-85.0816,9.5963,1.2661],[-85.0813,9.5952,1.1273],[-85.0801,9.5934,0.0],[-85.0806,9.5965,1.2661],[-85.0816,9.5963,1.2661]]],
[[[-85.2294,9.7336,0.0],[-85.2315,9.7339,0.0],[-85.2218,9.7236,3.1532],[-85.2167,9.7143,0.0],[-85.2147,9.7056,2.2508],[-85.2106,9.7017,0.0],[-85.2035,9.69,2.092],[-85.2034,9.6821,12.7869],[-85.1961,9.6681,0.0],[-85.1868,9.6614,9.641],[-85.1777,9.6495,2.0724],[-85.1514,9.6243,0.0],[-85.1462,9.6154,3.7033],[-85.1448,9.6155,8.2772],[-85.1445,9.6126,0.0],[-85.1469,9.6094,0.0],[-85.1457,9.6069,0.0],[-85.143,9.6063,5.0196],[-85.1444,9.6039,0.0],[-85.1424,9.5992,0.0],[-85.1442,9.5969,9.4796],[-85.1431,9.5947,8.6464],[-85.1442,9.5929,12.3305],[-85.1412,9.5804,0.0],[-85.1386,9.5812,5.0133],[-85.1356,9.5785,7.6372],[-85.1365,9.5765,0.0],[-85.1345,9.5774,7.6372],[-85.1329,9.5762,4.248],[-85.1334,9.5731,1.6099],[-85.1312,9.5721,11.9785],[-85.1256,9.5753,0.0],[-85.1217,9.5734,0.0],[-85.1142,9.5651,0.0],[-85.1169,9.56,0.0],[-85.1108,9.5584,0.0],[-85.1114,9.5621,91.2234],[-85.1068,9.5674,7.0848],[-85.1024,9.5694,48.331],[-85.0962,9.5676,0.0],[-85.0912,9.571,0.0],[-85.0925,9.5859,0.0],[-85.0888,9.5904,4.4233],[-85.0844,9.5999,0.0],[-85.0845,9.6049,0.0],[-85.0779,9.6156,5.4629],[-85.0779,9.6284,2.2156],[-85.0739,9.6331,0.0],[-85.073,9.6445,10.224],[-85.0689,9.6491,12.3955],[-85.0678,9.6536,4.6426],[-85.0581,9.66,2.6819],[-85.0554,9.6663,0.0],[-85.042,9.6715,1.1364],[-85.0405,9.6748,0.4715],[-85.0384,9.6753,0.0],[-85.0393,9.6781,0.0],[-85.0371,9.6808,0.0],[-85.0307,9.6841,7.2151],[-85.0074,9.69,2.5417],[-85.0039,9.6953,0.0],[-84.9988,9.6988,6.9749],[-84.9983,9.7025,31.6972],[-84.9948,9.7053,0.8351],[-85.0007,9.7128,7.6067],[-85.0144,9.7134,17.6092],[-85.0161,9.7155,0.0],[-85.0169,9.7236,0.952],[-85.0148,9.732,7.2199],[-85.0087,9.7407,4.8671],[-85.0008,9.7464,0.0],[-84.993,9.7482,0.0],[-84.9912,9.7471,0.0],[-84.992,9.7457,0.0],[-84.9859,9.7434,0.0],[-84.9869,9.7407,0.0],[-84.9784,9.7399,13.5359],[-84.9761,9.736,9.3838],[-84.9764,9.7335,5.9995],[-84.9737,9.7308,0.0],[-84.9693,9.7312,54.7234],[-84.9639,9.7283,0.0],[-84.9611,9.7294,79.1915],[-84.9588,9.7265,0.0],[-84.955,9.7276,17.7776],[-84.9535,9.7286,0.0],[-84.9539,9.731,68.5884],[-84.9503,9.7329,0.0],[-84.953,9.7355,30.4902],[-84.9513,9.7381,11.0788],[-84.952,9.7418,12.8425],[-84.956,9.7474,40.9874],[-84.9531,9.7528,81.0656],[-84.9543,9.7565,23.0264],[-84.951,9.7593,32.6191],[-84.9476,9.7584,0.0],[-84.9472,9.7601,36.6917],[-84.9429,9.7613,17.3982],[-84.936,9.757,0.0],[-84.9339,9.7571,0.0],[-84.9324,9.7622,101.2813],[-84.929,9.7636,8.6308],[-84.9308,9.7734,40.3019],[-84.9189,9.7848,19.058],[-84.9248,9.7835,41.6444],[-84.924,9.792,0.0],[-84.9188,9.7949,47.1473],[-84.9078,9.7958,45.8415],[-84.901,9.7983,4.9154],[-84.9038,9.8022,34.5236],[-84.9006,9.811,2.7554],[-84.8971,9.8146,1.234],[-84.8803,9.8127,9.592],[-84.8775,9.8163,11.9127],[-84.8796,9.8164,23.4512],[-84.8802,9.8186,3.8832],[-84.8769,9.8224,89.8751],[-84.8749,9.8239,124.8275],[-84.8717,9.8227,28.506],[-84.8683,9.8236,0.0],[-84.8638,9.8292,0.0],[-84.8652,9.8304,3.9701],[-84.8684,9.8284,40.0223],[-84.8713,9.831,0.0],[-84.8956,9.8342,0.0],[-84.8992,9.8309,22.9421],[-84.9111,9.8271,0.0],[-84.9145,9.8244,3.4043],[-84.9177,9.8273,0.0],[-84.9206,9.8249,8.2206],[-84.9212,9.8256,8.8774],[-84.9195,9.8273,0.0],[-84.922,9.8276,4.4463],[-84.9227,9.8293,1.1345],[-84.9245,9.8287,5.9265],[-84.9246,9.8306,1.8684],[-84.9322,9.8357,6.1064],[-84.9344,9.8353,13.514099999999999],[-84.9293,9.8395,3.3142],[-84.9297,9.8408,7.3629],[-84.9235,9.8431,1.4679],[-84.9228,9.8457,4.0718],[-84.9242,9.8468,7.0767],[-84.9229,9.8509,11.3929],[-84.9191,9.8531,23.683],[-84.9166,9.8521,5.8585],[-84.9121,9.8554,1.9041],[-84.9103,9.8532,0.0],[-84.9061,9.8528,6.9302],[-84.9091,9.8549,3.5952],[-84.9096,9.8586,0.0],[-84.9146,9.8589,4.2885],[-84.9161,9.8613,9.0098],[-84.9204,9.861,15.9793],[-84.9214,9.8645,0.0],[-84.9197,9.8669,5.0845],[-84.9227,9.8717,2.6822],[-84.9332,9.8751,23.9687],[-84.9345,9.8784,10.0796],[-84.9359,9.8777,10.0796],[-84.9378,9.8805,3.3938],[-84.9353,9.8892,0.0],[-84.9334,9.8903,0.0],[-84.9328,9.8976,16.65],[-84.9325,9.8975,16.65],[-84.9317,9.8961,0.0],[-84.9276,9.9013,14.3057],[-84.9224,9.9012,13.9108],[-84.9142,9.904,21.1092],[-84.9208,9.9158,8.069],[-84.9194,9.9211,9.6504],[-84.9213,9.9254,7.9101],[-84.9307,9.9252,10.2829],[-84.9346,9.9268,11.2254],[-84.936,9.9286,0.0],[-84.9335,9.9321,0.0],[-84.9353,9.9313,3.4729],[-84.9378,9.9334,7.0777],[-84.9506,9.9358,0.0],[-84.9568,9.9386,9.0332],[-84.9593,9.9418,10.0847],[-84.9641,9.9376,1.0223],[-84.9716,9.9413,0.0],[-84.9747,9.9382,13.211],[-84.9782,9.9388,0.0],[-84.981,9.9361,3.6119],[-84.9848,9.9384,5.8052],[-84.9905,9.9369,5.6126],[-84.9981,9.9401,3.2818],[-85.0013,9.9375,1.8402],[-85.0077,9.9379,3.8995],[-85.0209,9.949,3.6883],[-85.0239,9.959,1.6716],[-85.0298,9.9598,2.3981],[-85.0394,9.9638,2.177],[-85.0518,9.9758,0.0],[-85.0587,9.9753,0.0],[-85.0575,9.9716,3.5109],[-85.0597,9.9751,0.0],[-85.0613,9.9722,0.0],[-85.0659,9.9726,0.0],[-85.0669,9.9709,0.0],[-85.0639,9.9689,6.1695],[-85.0646,9.9678,4.7679],[-85.0722,9.9663,6.2557],[-85.0736,9.9671,0.7413],[-85.0713,9.9676,0.0],[-85.069,9.9711,0.0],[-85.0715,9.97,1.1056],[-85.0714,9.9714,0.0],[-85.0747,9.972,1.3753],[-85.0769,9.9686,1.2675],[-85.0792,9.9751,1.6646],[-85.0735,9.975,0.0],[-85.0785,9.9793,0.0],[-85.0949,9.9703,3.692],[-85.0955,9.9724,6.2129],[-85.0989,9.9743,0.0],[-85.1022,9.9753,3.6827],[-85.1047,9.9742,3.2045],[-85.1145,9.9799,2.9018],[-85.117,9.9754,6.7929],[-85.121,9.9792,4.1021],[-85.1206,9.9798,4.1021],[-85.1177,9.9781,2.7219],[-85.1159,9.9823,1.7811],[-85.119,9.9915,0.0],[-85.1229,9.9926,0.0],[-85.1255,9.9904,11.4682],[-85.1278,9.9918,1.9516],[-85.1298,9.9896,4.1736],[-85.1346,9.9916,4.8978],[-85.1534,10.0106,0.0],[-85.1616,10.0167,5.4489],[-85.1663,10.0113,8.6988],[-85.1704,10.0096,13.4227],[-85.1687,10.0081,13.1326],[-85.1688,10.0045,14.002],[-85.1616,9.9958,9.2192],[-85.161,9.9878,18.8569],[-85.1689,9.9803,18.5728],[-85.1724,9.9802,25.0873],[-85.1812,9.9765,26.4281],[-85.1802,9.976,26.4281],[-85.1813,9.973,28.2871],[-85.1856,9.9719,28.3865],[-85.1862,9.9702,34.2539],[-85.1906,9.9708,32.3571],[-85.1957,9.9689,40.8925],[-85.1977,9.9693,47.3335],[-85.1987,9.971,43.6944],[-85.2032,9.9692,50.1964],[-85.2047,9.9709,51.9277],[-85.2126,9.9721,63.0156],[-85.2167,9.9711,76.8406],[-85.2184,9.9723,64.7322],[-85.222,9.969,73.9953],[-85.2276,9.9673,93.5474],[-85.2371,9.9675,140.7245],[-85.2432,9.972,306.9982],[-85.2481,9.9727,459.4419],[-85.252,9.9656,518.2605],[-85.2544,9.9641,548.5371],[-85.2631,9.9625,537.2181],[-85.2681,9.9633,651.3799],[-85.2713,9.9584,795.8284],[-85.2731,9.9512,995.1221],[-85.2695,9.9461,787.0747],[-85.2713,9.943,720.5995],[-85.2683,9.9373,549.6493],[-85.2706,9.934,504.6681],[-85.2747,9.9327,473.4096],[-85.2779,9.9264,459.5071],[-85.2779,9.9229,429.56],[-85.2797,9.9217,360.3728],[-85.2772,9.9159,345.0684],[-85.2729,9.9158,307.3156],[-85.2721,9.9191,336.5098],[-85.2674,9.9153,307.9204],[-85.2642,9.9174,317.2091],[-85.2654,9.9139,283.6902],[-85.2619,9.9151,222.16],[-85.2587,9.9125,162.6419],[-85.2563,9.9143,167.5511],[-85.2509,9.909,142.5204],[-85.2468,9.9079,119.9109],[-85.2422,9.9103,109.5485],[-85.2392,9.91,112.1441],[-85.2376,9.9061,96.3387],[-85.2318,9.907,92.3243],[-85.2315,9.9036,89.4267],[-85.2285,9.9007,82.0144],[-85.2271,9.9006,82.0144],[-85.2272,9.9029,92.3902],[-85.2231,9.8994,79.7264],[-85.2237,9.9008,78.8667],[-85.2215,9.9026,74.6297],[-85.2166,9.9018,73.5586],[-85.2166,9.894,71.6305],[-85.2146,9.8901,60.309],[-85.2129,9.8882,58.7945],[-85.209,9.8905,62.1938],[-85.2106,9.8857,62.2462],[-85.2045,9.8856,57.088],[-85.2062,9.8831,51.6439],[-85.2043,9.8825,54.4626],[-85.2042,9.8764,47.2029],[-85.2001,9.8744,43.9213],[-85.2003,9.8686,43.8975],[-85.1969,9.867,46.5546],[-85.1982,9.8609,47.4313],[-85.1931,9.8599,36.167],[-85.1908,9.8562,54.2486],[-85.1836,9.8569,34.6119],[-85.1825,9.8534,35.9258],[-85.1759,9.8546,28.2271],[-85.1789,9.8461,51.1247],[-85.1814,9.8447,29.3235],[-85.1852,9.8455,31.2958],[-85.1862,9.8437,29.2867],[-85.1865,9.8401,27.3988],[-85.1841,9.8415,25.313],[-85.1835,9.8375,24.0856],[-85.1865,9.8351,38.3088],[-85.19,9.8359,32.474],[-85.1858,9.8319,34.3144],[-85.1889,9.8254,27.9938],[-85.1874,9.8201,28.9692],[-85.1845,9.8177,29.2418],[-85.1877,9.8165,32.6643],[-85.1889,9.8128,25.5194],[-85.1933,9.8136,21.3595],[-85.1889,9.8077,37.6148],[-85.1898,9.8035,26.5257],[-85.1935,9.8038,29.6437],[-85.1951,9.8021,23.0024],[-85.1932,9.7994,28.2709],[-85.195,9.7951,24.208],[-85.1902,9.7932,30.3161],[-85.1918,9.7894,19.5252],[-85.1945,9.7882,30.3118],[-85.194,9.7869,39.3438],[-85.1892,9.7812,28.4763],[-85.1865,9.7829,22.696],[-85.1838,9.7878,15.4028],[-85.1832,9.7836,20.061],[-85.18,9.7818,29.399],[-85.1847,9.7794,20.2734],[-85.188,9.7753,31.96],[-85.1929,9.7758,38.8989],[-85.199,9.7689,17.4509],[-85.1978,9.7637,7.7442],[-85.2008,9.7616,10.9877],[-85.1976,9.7576,14.6981],[-85.1987,9.7553,16.394],[-85.2035,9.755,7.7621],[-85.2036,9.7472,20.9715],[-85.2055,9.7477,7.4643],[-85.2068,9.7456,10.7618],[-85.2119,9.7463,8.2809],[-85.2103,9.7436,7.4646],[-85.2123,9.7411,7.3904],[-85.2192,9.7427,7.4776],[-85.2173,9.7369,9.4455],[-85.2179,9.7304,4.0799],[-85.2158,9.7293,3.7468],[-85.216,9.7274,4.2561],[-85.2259,9.73,2.0115],[-85.2294,9.7336,0.0]]]]}}