{"type": "Feature","bbox": [-85.4961,9.8502,-85.3903,10.0002],"geometry": {"type": "MultiPolygon","coordinates": [[[[-85.4688,9.9963,687.5385],[-85.4729,9.9937,658.7062],[-85.473,9.9867,604.2321],[-85.4745,9.9846,692.2679],[-85.474,9.9825,740.3305],[-85.4697,9.9795,753.9031],[-85.469,9.9761,726.9713],[-85.4624,9.9673,548.5108],[-85.464,9.9636,567.9706],[-85.4637,9.9582,569.7375],[-85.4658,9.9546,644.5276],[-85.4605,9.9505,574.7463],[-85.4627,9.945,558.4613],[-85.4669,9.9436,497.215],[-85.4675,9.9318,616.4572],[-85.4735,9.9254,588.3224],[-85.4737,9.9225,586.475],[-85.4709,9.918,564.0616],[-85.4667,9.9156,456.2],[-85.4655,9.9131,482.7404],[-85.4672,9.9088,402.4171],[-85.4637,9.902,398.8932],[-85.4647,9.8995,377.1774],[-85.4679,9.8977,329.8749],[-85.4694,9.892,314.6783],[-85.4743,9.8886,297.0531],[-85.4749,9.8856,290.616],[-85.4807,9.8885,238.1857],[-85.4866,9.8883,182.3411],[-85.4874,9.8813,90.3931],[-85.4954,9.8769,25.9619],[-85.4961,9.8723,21.596],[-85.4858,9.8697,5.1977],[-85.4832,9.8636,7.9839],[-85.486,9.8622,0.0],[-85.4864,9.8593,5.4795],[-85.4799,9.8574,25.1545],[-85.4745,9.8544,18.583],[-85.4745,9.8529,5.8531],[-85.4701,9.8525,18.0961],[-85.468,9.8502,2.6543],[-85.4634,9.8508,36.0595],[-85.4598,9.8596,7.4373],[-85.4569,9.8611,21.8954],[-85.4535,9.8599,4.6071],[-85.4547,9.8646,2.0154],[-85.4535,9.8701,14.2322],[-85.4569,9.8714,9.1747],[-85.4574,9.8735,11.7013],[-85.4523,9.8732,28.1818],[-85.4495,9.8759,12.5015],[-85.4526,9.8779,8.0052],[-85.4527,9.8807,13.9075],[-85.4476,9.8792,10.8433],[-85.4451,9.88,17.4881],[-85.447,9.8822,14.0334],[-85.4449,9.8851,12.7062],[-85.4465,9.8868,13.7029],[-85.4456,9.8879,22.7372],[-85.4426,9.8874,39.9474],[-85.4406,9.8836,30.2685],[-85.4387,9.8842,17.9892],[-85.4363,9.8885,25.1959],[-85.4383,9.8904,22.4861],[-85.4385,9.8941,19.4482],[-85.4366,9.8971,72.776],[-85.4306,9.897,35.7643],[-85.4309,9.9036,31.7669],[-85.4284,9.9072,46.417],[-85.4258,9.9073,39.4852],[-85.4217,9.9117,37.0595],[-85.4199,9.91,37.0305],[-85.4179,9.9109,37.3978],[-85.4147,9.9092,42.3205],[-85.4103,9.9126,51.3004],[-85.4065,9.9089,42.3786],[-85.3985,9.9125,52.9138],[-85.3952,9.9118,48.4655],[-85.3939,9.9088,49.3295],[-85.3917,9.9087,68.6092],[-85.3903,9.9125,56.1055],[-85.3987,9.931,552.3818],[-85.4082,9.9314,555.9163],[-85.4226,9.9354,257.4561],[-85.4222,9.9405,106.596],[-85.4184,9.9447,146.3793],[-85.4204,9.9483,208.0789],[-85.4204,9.9544,386.3962],[-85.4265,9.965,287.5071],[-85.4293,9.9662,246.1777],[-85.4359,9.9622,178.7189],[-85.4398,9.9622,136.812],[-85.4324,9.9717,351.91],[-85.4245,9.9746,545.0961],[-85.432,9.9801,223.3103],[-85.4311,9.9881,310.9452],[-85.4289,9.9905,421.1259],[-85.4307,9.9914,426.1818],[-85.4318,9.9974,298.1223],[-85.4431,9.9993,204.9556],[-85.4438,9.9961,204.5805],[-85.4482,9.9939,184.4641],[-85.4511,9.9997,210.7887],[-85.46,10.0002,357.5388],[-85.4688,9.9963,687.5385]]]]}
,"properties": {"GID_3": "CRI.3.5.5_1","GID_0": "CRI","country": "CostaRica","GID_1": "CRI.3_1","province": "Guanacaste","NL_NAME_1": "NA","GID_2": "CRI.3.5_1","county": "Hojancha","NL_NAME_2": "NA","city": "PuertoCarrillo","VARNAME_3": "NA","NL_NAME_3": "NA","TYPE_3": "Distrito","ENGTYPE_3": "District","CC_3": "3","HASC_3": "NA","name": "Puerto_Carrillo.city","area_km2": 76.77228,"hist_schema_id": "Elevation0-9000","hist_area_km2": {"0": 1.08619,"25": 5.5562,"50": 6.16163,"75": 5.53486,"100": 5.15882,"125": 5.30491,"150": 5.01235,"175": 4.49009,"200": 4.40655,"225": 4.55266,"250": 4.26027,"275": 3.61285,"300": 3.34141,"325": 3.15336,"350": 2.7566,"375": 2.58949,"400": 1.69152,"425": 1.3574,"450": 1.12768,"475": 1.21122,"500": 0.91884,"525": 0.77267,"550": 0.71002,"575": 0.54295,"600": 0.50117,"625": 0.2297,"650": 0.29234,"675": 0.16706,"700": 0.06264,"725": 0.10441,"750": 0.04176,"775": 0.06264}}}