{"type":"Feature","properties":{"GID_3":"CRI.2.2.1_1","GID_0":"CRI","country":"CostaRica","GID_1":"CRI.2_1","province":"Cartago","NL_NAME_1":"NA","GID_2":"CRI.2.2_1","county":"Cartago","NL_NAME_2":"NA","city":"Aguacaliente","VARNAME_3":"SanFrancisco","NL_NAME_3":"NA","TYPE_3":"Distrito","ENGTYPE_3":"District","CC_3":"5","HASC_3":"NA","name":"Aguacaliente.city"},
"geometry":{"type": "MultiPolygon","coordinates": [[[[-83.9162,9.8523,1395.5247],[-83.9236,9.8562,1415.3037],[-83.9272,9.8523,1392.6555],[-83.9294,9.8522,1392.7896],[-83.9311,9.848,1381.3821],[-83.9289,9.848,1382.194],[-83.9306,9.8447,1370.4927],[-83.9254,9.8431,1358.3365],[-83.9238,9.8396,1340.058],[-83.9298,9.8393,1359.1921],[-83.9337,9.8415,1368.2844],[-83.9386,9.8396,1371.4756],[-83.9395,9.8357,1388.6661],[-83.9422,9.836,1393.8071],[-83.9431,9.8313,1383.0585],[-83.9463,9.8284,1383.2664],[-83.9455,9.8242,1384.6479],[-83.9477,9.8154,1450.8385],[-83.9463,9.8109,1480.6921],[-83.9449,9.8106,1480.6921],[-83.9426,9.7995,1788.2771],[-83.9393,9.7985,1757.0642],[-83.9374,9.7911,1620.2568],[-83.9321,9.7856,1369.0844],[-83.9327,9.7845,1375.1108],[-83.7865,9.6065,3117.9766],[-83.7716,9.6046,3078.2607],[-83.8984,9.8054,1304.6351],[-83.8987,9.8172,1502.254],[-83.8894,9.8157,1305.6542],[-83.8855,9.8184,1175.9839],[-83.8886,9.8259,1202.7563],[-83.892,9.8276,1210.9655],[-83.8936,9.833,1271.5317],[-83.902,9.8338,1301.8621],[-83.9023,9.8362,1305.7405],[-83.904,9.8341,1305.8494],[-83.9137,9.8347,1317.736],[-83.9105,9.8385,1320.855],[-83.912,9.8434,1328.5043],[-83.9154,9.8462,1351.5531],[-83.9162,9.8523,1395.5247]]]]}}