{"type": "Feature","bbox": [-83.7129,9.3884,-83.4783,9.5844],"geometry": {"type": "MultiPolygon","coordinates": [[[[-83.7034,9.5543,2915.0815],[-83.7084,9.5538,2997.8933],[-83.7124,9.5507,2891.1633],[-83.7107,9.5466,2824.2747],[-83.7127,9.545,2816.9587],[-83.7107,9.5421,2790.8718],[-83.7129,9.5394,2751.3855],[-83.7109,9.5378,2731.9766],[-83.7103,9.5312,2732.4353],[-83.706,9.5334,2669.2664],[-83.7039,9.5299,2676.3657],[-83.6995,9.5296,2512.7612],[-83.6982,9.528,2535.7065],[-83.7045,9.525,2504.7122],[-83.7075,9.5204,2377.9563],[-83.7095,9.5206,2499.0298],[-83.7108,9.5143,2385.7021],[-83.7075,9.5076,2271.7021],[-83.7089,9.5061,2385.1685],[-83.7058,9.5011,2230.2756],[-83.7013,9.499,2205.6848],[-83.6992,9.4946,2173.7407],[-83.6943,9.4952,2168.0757],[-83.6944,9.4937,2179.1543],[-83.6903,9.4909,2107.9934],[-83.6887,9.4862,2017.1292],[-83.6804,9.4808,1944.0466],[-83.6795,9.4757,1961.6041],[-83.6833,9.4698,1847.0134],[-83.6825,9.4679,1857.2257],[-83.685,9.466,1784.0646],[-83.684,9.4586,1723.5724],[-83.6797,9.4501,1555.3031],[-83.6806,9.4483,1500.7856],[-83.6793,9.444,1464.4406],[-83.682,9.4396,1487.696],[-83.6827,9.4306,1434.9938],[-83.6694,9.4195,960.876],[-83.6687,9.4109,910.166],[-83.6719,9.407,877.7918],[-83.6712,9.4045,861.2444],[-83.6729,9.4019,859.3384],[-83.6799,9.3961,817.1235],[-83.6705,9.3884,748.3559],[-83.6675,9.3926,762.0195],[-83.6676,9.3993,781.1974],[-83.6662,9.402,786.0493],[-83.6586,9.4072,823.828],[-83.6542,9.4131,874.8229],[-83.6428,9.4197,920.8378],[-83.6391,9.4192,943.17],[-83.6335,9.414,1042.2069],[-83.6303,9.4085,1094.0771],[-83.6211,9.4041,1159.489],[-83.6169,9.4075,1274.1289],[-83.6172,9.4092,1294.8525],[-83.61,9.4112,1458.5176],[-83.6067,9.414,1556.2876],[-83.5991,9.4104,1663.71],[-83.5934,9.4131,1652.1265],[-83.585,9.4114,1726.6436],[-83.5825,9.4183,1852.7556],[-83.567,9.4224,2133.9653],[-83.5575,9.4277,2391.6707],[-83.5551,9.4331,2702.8337],[-83.5486,9.4341,2746.3623],[-83.5438,9.4324,2796.3535],[-83.5404,9.429,2828.3386],[-83.5362,9.4282,2927.9753],[-83.5284,9.4226,3031.5588],[-83.5229,9.4274,3039.8853],[-83.5142,9.4239,3141.3516],[-83.5106,9.4158,3126.4631],[-83.5068,9.4139,3128.7939],[-83.5062,9.4072,3242.2114],[-83.4994,9.412,3194.2346],[-83.5014,9.4176,3196.4756],[-83.4992,9.4254,3236.666],[-83.4826,9.4298,3422.7075],[-83.4798,9.4372,3370.6423],[-83.4808,9.4436,3448.4155],[-83.4783,9.45,3469.2507],[-83.4811,9.4577,3665.7141],[-83.4817,9.4658,3550.175],[-83.4837,9.4683,3531.2427],[-83.4837,9.4729,3675.1558],[-83.4867,9.4765,3710.4033],[-83.4895,9.4849,3753.5232],[-83.4968,9.4881,3736.1807],[-83.5009,9.4945,3691.5249],[-83.5041,9.4947,3715.709],[-83.5058,9.4967,3692.6262],[-83.5089,9.4962,3704.5322],[-83.5143,9.5025,3672.3599],[-83.5347,9.51,3589.7314],[-83.5454,9.5249,3263.9644],[-83.5465,9.529,3286.5312],[-83.55,9.5322,3311.7939],[-83.5563,9.5305,3278.9866],[-83.5614,9.5334,3228.8274],[-83.5715,9.5346,3164.6665],[-83.5933,9.545,2938.7666],[-83.5962,9.5524,2992.1633],[-83.6064,9.552,2896.8015],[-83.6111,9.5566,3028.7295],[-83.6188,9.5577,3131.2102],[-83.6298,9.569,3295.8555],[-83.6296,9.5753,3335.0413],[-83.6354,9.5812,3327.9302],[-83.6471,9.5844,3253.7456],[-83.6534,9.5837,3232.8362],[-83.663,9.5745,3083.2964],[-83.6654,9.5673,2989.3496],[-83.6711,9.5596,2884.8794],[-83.6836,9.5511,2830.981],[-83.6894,9.5531,2830.7769],[-83.6985,9.5522,2812.7544],[-83.7034,9.5543,2915.0815]]]]}
,"properties": {"GID_3": "CRI.7.13.10_1","GID_0": "CRI","country": "CostaRica","GID_1": "CRI.7_1","province": "SanJosé","NL_NAME_1": "NA","GID_2": "CRI.7.13_1","county": "PérezZeledón","NL_NAME_2": "NA","city": "Rivas","VARNAME_3": "NA","NL_NAME_3": "NA","TYPE_3": "Distrito","ENGTYPE_3": "District","CC_3": "4","HASC_3": "NA","name": "Rivas.city","area_km2": 311.6365,"hist_schema_id": "Elevation0-9000","hist_area_km2": {"750": 0.1883,"775": 0.3765,"800": 0.3347,"825": 1.004,"850": 1.3178,"875": 1.1504,"900": 1.0458,"925": 1.6105,"950": 1.3177,"975": 1.3804,"1000": 1.4641,"1025": 1.4013,"1050": 1.715,"1075": 1.8615,"1100": 1.8614,"1125": 1.7778,"1150": 2.5935,"1175": 2.1961,"1200": 2.1751,"1225": 2.2588,"1250": 2.2797,"1275": 2.7607,"1300": 2.6143,"1325": 3.0117,"1350": 2.677,"1375": 3.66,"1400": 3.4717,"1425": 3.5345,"1450": 3.4717,"1475": 3.5345,"1500": 3.8063,"1525": 3.7226,"1550": 3.6389,"1575": 3.7644,"1600": 3.3462,"1625": 4.099,"1650": 3.9944,"1675": 3.6807,"1700": 4.1825,"1725": 4.0989,"1750": 3.3669,"1775": 4.0989,"1800": 3.7224,"1825": 4.1616,"1850": 3.5342,"1875": 3.6387,"1900": 4.057,"1925": 3.4923,"1950": 4.0987,"1975": 3.3041,"2000": 3.6387,"2025": 3.4295,"2050": 3.5968,"2075": 3.8687,"2100": 3.7013,"2125": 3.7014,"2150": 3.9104,"2175": 3.4085,"2200": 3.2831,"2225": 3.7849,"2250": 3.1576,"2275": 3.5758,"2300": 3.4085,"2325": 3.2622,"2350": 3.3039,"2375": 3.5758,"2400": 3.0948,"2425": 3.3666,"2450": 3.5757,"2475": 3.4084,"2500": 3.0947,"2525": 3.4712,"2550": 3.3247,"2575": 3.513,"2600": 3.1365,"2625": 3.1784,"2650": 3.0738,"2675": 3.0947,"2700": 3.283,"2725": 3.0947,"2750": 3.0738,"2775": 3.0111,"2800": 2.342,"2825": 2.6765,"2850": 2.4883,"2875": 2.342,"2900": 1.9447,"2925": 2.1956,"2950": 1.5892,"2975": 2.2166,"3000": 2.0911,"3025": 1.8821,"3050": 2.2794,"3075": 1.8821,"3100": 2.5723,"3125": 2.886,"3150": 2.154,"3175": 2.3632,"3200": 2.154,"3225": 2.1121,"3250": 1.5475,"3275": 1.5893,"3300": 1.3802,"3325": 1.3384,"3350": 1.1712,"3375": 1.694,"3400": 1.3594,"3425": 1.1084,"3450": 1.5267,"3475": 1.5267,"3500": 1.6103,"3525": 1.4848,"3550": 1.5685,"3575": 1.4639,"3600": 1.4221,"3625": 1.3593,"3650": 1.2757,"3675": 1.1293,"3700": 0.8574,"3725": 0.5856,"3750": 0.1673,"3775": 0.0418}}}