{"type": "Feature","bbox": [-83.7226,9.8469,-83.6387,9.9326],"geometry": {"type": "MultiPolygon","coordinates": [[[[-83.7078,9.8568,645.6248],[-83.6923,9.8571,650.5635],[-83.6864,9.8558,623.4188],[-83.6765,9.8569,605.5373],[-83.6702,9.855,608.0345],[-83.6656,9.8486,587.5883],[-83.6622,9.8469,651.0016],[-83.6513,9.8483,582.2333],[-83.6423,9.8574,578.3153],[-83.6475,9.8594,575.5],[-83.6496,9.8675,578.4095],[-83.6468,9.8694,580.8242],[-83.6474,9.8647,579.7124],[-83.6446,9.8638,575.5],[-83.6436,9.8725,572.2429],[-83.6402,9.8717,575.2866],[-83.6387,9.8737,556.4952],[-83.6489,9.8799,586.1151],[-83.6462,9.8838,596.3398],[-83.6511,9.8857,553.1039],[-83.6512,9.8873,540.255],[-83.6455,9.8907,574.338],[-83.6485,9.8949,510.2556],[-83.6506,9.8923,549.8677],[-83.6521,9.8965,533.9682],[-83.6506,9.9018,506.6454],[-83.6549,9.902,599.7333],[-83.6556,9.9047,588.5929],[-83.6572,9.9015,584.5493],[-83.6608,9.9032,579.1486],[-83.6619,9.902,605.3207],[-83.6676,9.9052,593.2177],[-83.6706,9.9119,611.307],[-83.6786,9.9162,635.6452],[-83.6783,9.9207,663.508],[-83.6821,9.9238,685.4788],[-83.6953,9.9192,754.4803],[-83.7051,9.9302,826.4023],[-83.7166,9.9307,898.1453],[-83.7221,9.9326,944.5817],[-83.7226,9.8802,918.7258],[-83.7178,9.8712,815.4249],[-83.7165,9.8717,815.4249],[-83.7152,9.8664,752.8764],[-83.7078,9.8568,645.6248]]]]}
,"properties": {"GID_3": "CRI.2.8.12_1","GID_0": "CRI","country": "CostaRica","GID_1": "CRI.2_1","province": "Cartago","NL_NAME_1": "NA","GID_2": "CRI.2.8_1","county": "Turrialba","NL_NAME_2": "NA","city": "Turrialba","VARNAME_3": "NA","NL_NAME_3": "NA","TYPE_3": "Distrito","ENGTYPE_3": "District","CC_3": "1","HASC_3": "NA","name": "Turrialba.city","area_km2": 56.33305,"hist_schema_id": "Elevation0-9000","hist_area_km2": {"500": 0.02089,"525": 0.12532,"550": 0.52218,"575": 3.88533,"600": 7.81197,"625": 4.1983,"650": 3.02866,"675": 2.69443,"700": 2.4647,"725": 1.9634,"750": 2.46473,"775": 1.81722,"800": 1.42033,"825": 1.65007,"850": 1.4621,"875": 1.60831,"900": 1.44121,"925": 1.46208,"950": 1.50384,"975": 1.79626,"1000": 1.52474,"1025": 1.44118,"1050": 1.92159,"1075": 1.39942,"1100": 1.19055,"1125": 1.37856,"1150": 1.39944,"1175": 1.42034,"1200": 1.27412,"1225": 0.04178}}}