{"type": "Feature","bbox": [-83.8291,9.8711,-83.786,9.9225],"geometry": {"type": "MultiPolygon","coordinates": [[[[-83.7944,9.9225,1619.7124],[-83.7933,9.92,1640.667],[-83.7993,9.9179,1647.0413],[-83.802,9.912,1630.9642],[-83.807,9.91,1632.7667],[-83.8072,9.9078,1610.3248],[-83.8103,9.9052,1591.907],[-83.812,9.9054,1613.4194],[-83.8117,9.9026,1608.1149],[-83.8137,9.902,1634.6017],[-83.8126,9.9007,1583.3738],[-83.8169,9.8981,1571.6062],[-83.8191,9.8926,1600.7727],[-83.8247,9.8927,1624.4148],[-83.8257,9.8896,1624.3494],[-83.8291,9.8886,1622.1904],[-83.8287,9.8851,1583.6941],[-83.8239,9.8769,1500.5725],[-83.8036,9.8711,1120.5361],[-83.7939,9.8754,1154.1462],[-83.7887,9.8815,1209.1713],[-83.7882,9.8859,1238.5131],[-83.786,9.8875,1261.4023],[-83.7885,9.8984,1313.9224],[-83.787,9.9078,1416.537],[-83.7891,9.9092,1460.7532],[-83.7894,9.9196,1564.8936],[-83.7944,9.9225,1619.7124]]]]}
,"properties": {"GID_3": "CRI.2.1.2_1","GID_0": "CRI","country": "CostaRica","GID_1": "CRI.2_1","province": "Cartago","NL_NAME_1": "NA","GID_2": "CRI.2.1_1","county": "Alvarado","NL_NAME_2": "NA","city": "Cervantes","VARNAME_3": "NA","NL_NAME_3": "NA","TYPE_3": "Distrito","ENGTYPE_3": "District","CC_3": "2","HASC_3": "NA","name": "Cervantes.city","area_km2": 15.31016,"hist_schema_id": "Elevation0-9000","hist_area_km2": {"1125": 0.10444,"1150": 0.14622,"1175": 0.22977,"1200": 0.33421,"1225": 0.31332,"1250": 0.48042,"1275": 0.45952,"1300": 0.71017,"1325": 0.71017,"1350": 1.19056,"1375": 0.83548,"1400": 0.87725,"1425": 0.77281,"1450": 0.9608,"1475": 0.91903,"1500": 1.31588,"1525": 1.14878,"1550": 1.00255,"1575": 1.25319,"1600": 0.89812,"1625": 0.45949,"1650": 0.18797}}}