{"type":"Feature","properties":{"GID_3":"CRI.3.2.2_1","GID_0":"CRI","country":"CostaRica","GID_1":"CRI.3_1","province":"Guanacaste","NL_NAME_1":"NA","GID_2":"CRI.3.2_1","county":"Bagaces","NL_NAME_2":"NA","city":"LaFortuna","VARNAME_3":"NA","NL_NAME_3":"NA","TYPE_3":"Distrito","ENGTYPE_3":"District","CC_3":"2","HASC_3":"NA","name":"La_Fortuna.city"},
"geometry":{"type": "MultiPolygon","coordinates": [[[[-85.195,10.7498,616.8831],[-85.1962,10.7474,608.9387],[-85.1955,10.7411,621.9749],[-85.2018,10.7238,562.5297],[-85.2045,10.7205,560.1727],[-85.213,10.7172,553.632],[-85.2166,10.7123,548.04],[-85.2136,10.7092,557.8746],[-85.2155,10.7052,529.5286],[-85.2118,10.6996,500.1093],[-85.2107,10.6862,432.6902],[-85.207,10.6808,425.9364],[-85.2097,10.6794,412.2426],[-85.2087,10.6759,420.4096],[-85.2188,10.6711,477.4829],[-85.2259,10.6718,434.2306],[-85.2286,10.6698,422.9938],[-85.2334,10.6692,423.2233],[-85.2251,10.6573,346.8519],[-85.2267,10.6477,323.8099],[-85.2254,10.6425,293.1993],[-85.221,10.6424,275.9921],[-85.2211,10.64,268.4744],[-85.218,10.6379,253.0341],[-85.2203,10.6309,242.8479],[-85.2196,10.6286,247.1838],[-85.2153,10.6263,229.2789],[-85.2093,10.617,209.4902],[-85.2101,10.6134,213.5266],[-85.2079,10.6096,238.4532],[-85.2114,10.6062,193.6556],[-85.2111,10.6014,187.5403],[-85.2029,10.5968,181.6018],[-85.2031,10.5945,184.7216],[-85.2007,10.5918,176.1489],[-85.1997,10.6062,195.3726],[-85.2014,10.6128,212.2869],[-85.2007,10.6162,214.9502],[-85.1989,10.6171,214.2016],[-85.2012,10.6304,279.3384],[-85.1973,10.6323,322.989],[-85.1901,10.6269,297.4161],[-85.187,10.6218,260.8868],[-85.1871,10.619,258.3358],[-85.1852,10.6194,255.3072],[-85.186,10.6175,256.4474],[-85.1796,10.6118,243.4276],[-85.1805,10.6075,236.8561],[-85.1773,10.6025,232.3008],[-85.1782,10.6,226.795],[-85.1747,10.5991,224.6071],[-85.1782,10.5973,220.307],[-85.1761,10.5883,202.1533],[-85.1635,10.5722,156.8573],[-85.1616,10.5652,134.3059],[-85.1597,10.5639,143.057],[-85.1595,10.5599,123.1885],[-85.1553,10.5531,116.9981],[-85.1522,10.5527,110.952],[-85.1554,10.5451,108.5332],[-85.1538,10.5427,114.8439],[-85.1572,10.5421,94.5656],[-85.1544,10.5399,116.8825],[-85.1564,10.5362,87.6171],[-85.1534,10.5325,74.1331],[-85.1493,10.5345,78.2255],[-85.15,10.5366,79.5374],[-85.1463,10.538,105.7775],[-85.1452,10.5416,92.4277],[-85.1412,10.5426,92.8515],[-85.1397,10.5478,108.2245],[-85.1409,10.5497,112.2155],[-85.1364,10.5539,106.8308],[-85.1377,10.5576,107.8104],[-85.136,10.5582,139.0873],[-85.1347,10.5698,131.0014],[-85.1325,10.5707,138.2029],[-85.1332,10.5743,166.584],[-85.1357,10.5753,154.0216],[-85.1349,10.577,157.3226],[-85.137,10.5777,152.2101],[-85.135,10.5789,169.3973],[-85.1337,10.5923,179.2659],[-85.1314,10.5959,195.4772],[-85.1349,10.596,187.42],[-85.1328,10.5983,192.5289],[-85.1337,10.5999,202.9999],[-85.1316,10.6047,217.8274],[-85.1352,10.6076,219.0708],[-85.1364,10.6107,231.9854],[-85.1348,10.6118,231.8567],[-85.1341,10.6209,288.6954],[-85.1356,10.6318,338.6751],[-85.1297,10.6476,487.4575],[-85.1328,10.6534,548.0107],[-85.132,10.673,904.748],[-85.1307,10.6762,910.461],[-85.128,10.6751,963.4034],[-85.1223,10.6773,1021.6276],[-85.1244,10.685,928.3934],[-85.1223,10.6919,1044.625],[-85.1244,10.7146,1469.1948],[-85.1294,10.719,1486.7452],[-85.1283,10.7256,1528.1484],[-85.1295,10.733,1492.1792],[-85.1376,10.7397,1581.001],[-85.1397,10.7451,1758.3635],[-85.1419,10.7451,1749.9263],[-85.1446,10.7478,1818.5824],[-85.1554,10.7468,1834.9299],[-85.1696,10.7479,1206.4172],[-85.181,10.7458,877.2153],[-85.195,10.7498,616.8831]]]]}}