{"type":"Feature","properties":{"GID_3":"CRI.1.9.4_1","GID_0":"CRI","country":"CostaRica","GID_1":"CRI.1_1","province":"Alajuela","NL_NAME_1":"NA","GID_2":"CRI.1.9_1","county":"Palmares","NL_NAME_2":"NA","city":"LaGranja","VARNAME_3":"NA","NL_NAME_3":"NA","TYPE_3":"Distrito","ENGTYPE_3":"District","CC_3":"7","HASC_3":"NA","name":"La_Granja.city"},
"geometry":{"type": "MultiPolygon","coordinates": [[[[-84.45,10.0702,1151.9417],[-84.4533,10.0597,1196.8634],[-84.4594,10.0531,1247.929],[-84.46,10.0431,1395.9534],[-84.455,10.0413,1232.36],[-84.4487,10.0424,1124.1143],[-84.4372,10.0478,1027.4406],[-84.4385,10.0563,1022.1315],[-84.4417,10.0582,1021.5546],[-84.4408,10.0609,1024.777],[-84.4449,10.0638,1052.0613],[-84.4496,10.0647,1110.5326],[-84.4485,10.0682,1108.697],[-84.45,10.0702,1151.9417]]]]}}