{"type":"Feature","properties":{"GID_3":"CRI.1.10.2_1","GID_0":"CRI","country":"CostaRica","GID_1":"CRI.1_1","province":"Alajuela","NL_NAME_1":"NA","GID_2":"CRI.1.10_1","county":"Poás","NL_NAME_2":"NA","city":"SabanaRedonda","VARNAME_3":"NA","NL_NAME_3":"NA","TYPE_3":"Distrito","ENGTYPE_3":"District","CC_3":"5","HASC_3":"NA","name":"Sabana_Redonda.city"},
"geometry":{"type": "MultiPolygon","coordinates": [[[[-84.2242,10.1848,2656.4053],[-84.2307,10.1981,2309.5],[-84.2292,10.1737,2498.0112],[-84.2271,10.1672,2401.605],[-84.2233,10.1645,2300.5918],[-84.2238,10.1613,2225.8586],[-84.2207,10.1508,2078.6982],[-84.2263,10.138,1736.4087],[-84.2248,10.1292,1629.082],[-84.2314,10.113,1403.0876],[-84.2305,10.1108,1420.3188],[-84.2268,10.11,1425.621],[-84.2205,10.1147,1421.6586],[-84.2204,10.1114,1399.7832],[-84.2179,10.109,1355.3052],[-84.22,10.1011,1287.9321],[-84.2163,10.103,1303.8417],[-84.2125,10.1076,1394.4899],[-84.2087,10.1086,1422.6382],[-84.2082,10.1146,1474.1118],[-84.204,10.1183,1504.224],[-84.2015,10.1248,1559.4438],[-84.1999,10.1252,1559.4438],[-84.1957,10.1423,1791.0084],[-84.1983,10.1559,1902.8113],[-84.2081,10.167,2176.2656],[-84.2135,10.1706,2354.7759],[-84.2197,10.1794,2526.1562],[-84.223,10.1811,2593.5601],[-84.2242,10.1848,2656.4053]]]]}}