{"type": "Feature","bbox": [-83.5162,9.484,-82.869,10.0664],"geometry": {"type": "MultiPolygon","coordinates": [[[[-83.489,9.4851,3753.5232],[-83.4891,9.484,3753.5232],[-83.4799,9.4859,3630.542],[-83.4792,9.4893,3669.9233],[-83.4813,9.493,3581.3069],[-83.4822,9.502,3684.9155],[-83.4773,9.5059,3645.0723],[-83.4756,9.5154,3590.4863],[-83.4693,9.5214,3576.5391],[-83.4699,9.5257,3592.1968],[-83.4732,9.5269,3550.1162],[-83.4767,9.5366,3563.2222],[-83.4716,9.5423,3347.7495],[-83.4705,9.5498,3216.5159],[-83.4573,9.5584,2849.4441],[-83.4411,9.5629,2574.7607],[-83.438,9.5619,2531.5239],[-83.4285,9.5634,2547.8389],[-83.4231,9.5671,2586.8516],[-83.424,9.5718,2555.0156],[-83.421,9.5753,2549.1594],[-83.4171,9.5757,2544.1521],[-83.4155,9.5808,2541.8325],[-83.4126,9.5829,2558.7224],[-83.4112,9.5897,2474.0664],[-83.4043,9.5983,2580.843],[-83.3927,9.6037,2655.335],[-83.378,9.6016,2289.8325],[-83.3683,9.6111,1995.2932],[-83.3652,9.6196,2107.074],[-83.3527,9.6213,2232.0159],[-83.3505,9.6231,2242.7148],[-83.3444,9.6235,2236.6189],[-83.3411,9.6256,2182.9143],[-83.3398,9.6303,2053.2749],[-83.3428,9.6362,2046.8043],[-83.3373,9.6481,2103.4138],[-83.3322,9.6503,2183.3394],[-83.3294,9.6615,2374.2236],[-83.3272,9.6643,2265.9575],[-83.3219,9.6653,2158.0564],[-83.3209,9.6687,1988.0449],[-83.3149,9.6722,2140.2251],[-83.3059,9.6679,1873.2749],[-83.303,9.6696,1838.8093],[-83.2978,9.6666,1736.7595],[-83.2907,9.6673,1744.3385],[-83.2836,9.6656,1751.8687],[-83.2732,9.6683,1967.3708],[-83.2698,9.6733,1963.5643],[-83.2655,9.6699,1778.1304],[-83.2553,9.668,1682.2439],[-83.2532,9.6696,1634.7587],[-83.2423,9.6668,1489.0082],[-83.2388,9.6695,1504.8137],[-83.2336,9.6671,1315.863],[-83.2239,9.6687,1198.3511],[-83.216,9.664,1416.4484],[-83.2121,9.664,1442.6588],[-83.2086,9.6578,1528.8756],[-83.2033,9.6571,1394.1807],[-83.1987,9.6584,1470.257],[-83.1886,9.6532,1276.6875],[-83.1856,9.6538,1262.5999],[-83.1838,9.6507,1231.6343],[-83.1714,9.6468,1171.9574],[-83.1705,9.6423,1268.7104],[-83.1674,9.6413,1378.4929],[-83.1656,9.6429,1322.9807],[-83.16,9.6384,877.7256],[-83.1554,9.6383,823.7781],[-83.1537,9.6362,790.2731],[-83.1494,9.6392,716.0104],[-83.1407,9.6384,883.9318],[-83.1365,9.6401,1009.3648],[-83.1309,9.6339,936.8544],[-83.1353,9.619,814.9814],[-83.1338,9.6181,796.2911],[-83.1306,9.6179,768.8741],[-83.1296,9.6193,708.671],[-83.1255,9.617,722.2779],[-83.1197,9.6165,739.5392],[-83.1122,9.6218,658.4228],[-83.105,9.6221,680.9972],[-83.0954,9.6257,592.7081],[-83.0914,9.6293,684.0348],[-83.0836,9.6269,656.592],[-83.0767,9.6227,625.7957],[-83.0687,9.6224,663.5526],[-83.0584,9.6146,667.2245],[-83.0531,9.6188,653.8074],[-83.0489,9.6189,600.1528],[-83.0457,9.6233,530.2686],[-83.0402,9.6234,635.1609],[-83.0362,9.6253,566.0596],[-83.0338,9.6285,545.5794],[-83.0305,9.6285,549.0761],[-83.0266,9.6248,492.4001],[-83.0272,9.6205,466.2221],[-83.0234,9.6164,422.1322],[-83.0237,9.6124,370.8742],[-83.0172,9.6105,388.3639],[-83.0138,9.6137,389.1455],[-83.0048,9.6109,435.1219],[-82.9943,9.6129,388.3413],[-82.9883,9.6178,367.1369],[-82.9708,9.6223,417.301],[-82.9688,9.6223,412.0944],[-82.9592,9.6131,484.8157],[-82.9524,9.6125,479.4654],[-82.9493,9.6178,528.1459],[-82.9399,9.6211,598.1854],[-82.9309,9.6299,532.974],[-82.923,9.6343,475.4135],[-82.9201,9.6494,480.3488],[-82.9227,9.6519,463.4536],[-82.9257,9.6611,427.4563],[-82.9234,9.67,497.4857],[-82.9213,9.6697,481.2967],[-82.9193,9.667,452.5499],[-82.9188,9.6708,461.4057],[-82.9168,9.6708,432.2028],[-82.9158,9.668,421.3506],[-82.9121,9.666,417.7666],[-82.9125,9.6629,427.3053],[-82.9097,9.6627,422.4481],[-82.9088,9.6596,421.5066],[-82.901,9.6555,463.4599],[-82.8964,9.6622,457.5252],[-82.8902,9.6634,413.6264],[-82.8889,9.6672,330.6171],[-82.8913,9.6734,344.4674],[-82.8958,9.677,249.8666],[-82.9016,9.6857,187.3043],[-82.9042,9.6859,210.319],[-82.9076,9.6949,192.4496],[-82.9099,9.694,217.0306],[-82.9139,9.6955,255.1183],[-82.9223,9.7045,185.0179],[-82.9222,9.7078,248.7697],[-82.9257,9.7086,202.583],[-82.9274,9.7107,225.4561],[-82.9268,9.7154,231.5661],[-82.9334,9.719,404.7293],[-82.925,9.7244,229.3111],[-82.9217,9.7345,123.3319],[-82.9185,9.7339,120.4695],[-82.9122,9.7359,82.415],[-82.9093,9.7396,58.3153],[-82.9033,9.7425,43.6178],[-82.9032,9.7463,42.0076],[-82.9,9.7502,35.7215],[-82.9041,9.7533,56.6016],[-82.9034,9.7574,32.1665],[-82.9059,9.7568,46.0891],[-82.9068,9.7583,31.6768],[-82.9042,9.759,23.3744],[-82.9043,9.7614,20.8251],[-82.8993,9.7647,15.8784],[-82.8968,9.764,19.162],[-82.8961,9.7676,14.4982],[-82.8923,9.7666,13.8599],[-82.8901,9.7631,14.8195],[-82.8802,9.7598,14.6789],[-82.8727,9.7628,8.7802],[-82.869,9.7603,9.3203],[-82.8913,9.7907,0.0],[-82.8934,9.7892,6.2281],[-82.8931,9.7905,3.5816],[-82.895,9.79,6.2281],[-82.8934,9.791,3.5816],[-82.8944,9.7923,0.8271],[-82.8968,9.7912,2.0519],[-82.8958,9.794,0.9747],[-82.8998,9.7965,8.2955],[-82.9043,9.8038,5.7183],[-82.9043,9.8052,5.7183],[-82.9017,9.8029,13.1933],[-82.9024,9.8063,7.0794],[-82.917,9.8236,1.1961],[-82.9198,9.8249,8.469],[-82.9193,9.8263,3.0598],[-82.9333,9.8437,1.2612],[-82.9366,9.8455,9.826],[-82.9364,9.848,3.3783],[-82.9576,9.8749,0.0],[-82.9613,9.8766,8.2842],[-82.9609,9.8788,0.0],[-82.9668,9.887,0.8397],[-82.9818,9.9061,6.1887],[-82.9858,9.9086,4.1072],[-82.9865,9.9125,0.0],[-82.9982,9.928,3.1802],[-83.0006,9.9282,3.0168],[-83.0031,9.9344,1.0574],[-83.0219,9.9585,0.4648],[-83.03,9.9737,1.6013],[-83.031,9.9874,2.7654],[-83.0357,9.9869,3.7912],[-83.0349,9.9877,4.58],[-83.0286,9.9898,1.4083],[-83.0267,9.9872,0.0],[-83.0275,9.9898,1.4083],[-83.0257,9.9907,3.8232],[-83.0239,9.9886,0.0],[-83.0251,9.9872,0.0],[-83.0228,9.9889,0.3796],[-83.0253,9.9909,3.8232],[-83.0238,9.9915,3.0242],[-83.0203,9.9896,0.2304],[-83.0202,9.9879,0.0],[-83.0199,9.9898,0.2304],[-83.0281,9.9957,2.9344],[-83.025,10.001,0.7543],[-83.0274,10.003,0.4572],[-83.0317,10.003,1.2361],[-83.0356,10.0069,3.6262],[-83.0389,10.0068,3.1053],[-83.0423,10.0094,0.0],[-83.0463,10.0093,7.2511],[-83.0459,10.0106,0.0],[-83.0494,10.0116,8.522],[-83.059,10.0084,11.5154],[-83.062,10.0088,1.6169],[-83.0637,10.0099,1.6169],[-83.0631,10.0138,2.961],[-83.0647,10.0149,14.4281],[-83.0672,10.0106,7.1763],[-83.0691,10.0127,7.6299],[-83.0736,10.0129,8.5522],[-83.0778,10.0109,0.0],[-83.0796,10.012,0.0],[-83.0775,10.0078,0.0],[-83.0783,10.0009,0.0],[-83.0803,10.0067,0.0],[-83.0799,10.0024,0.0],[-83.0787,10.0006,0.0],[-83.0871,10.0002,4.3211],[-83.098,10.0032,3.4877],[-83.1079,10.0102,5.9107],[-83.1385,10.0464,6.4752],[-83.1529,10.0664,1.3146],[-83.1599,10.0623,4.6024],[-83.1515,10.0482,10.2377],[-83.1511,10.0412,3.33],[-83.1633,10.0387,10.2755],[-83.1645,10.0354,10.8423],[-83.1679,10.0356,3.7882],[-83.1724,10.0332,3.7691],[-83.1739,10.0299,6.0578],[-83.1802,10.0258,8.293],[-83.1858,10.0258,11.3111],[-83.1918,10.0217,20.1974],[-83.1941,10.0174,12.096],[-83.1952,10.0201,14.4262],[-83.197,10.0193,13.2297],[-83.1996,10.0212,16.9711],[-83.2039,10.0188,12.8457],[-83.2081,10.0194,22.6745],[-83.2113,10.0153,13.7851],[-83.2098,10.0147,16.4027],[-83.2115,10.0092,19.7882],[-83.2098,10.0042,31.2817],[-83.2106,10.0016,26.0683],[-83.2072,10.0009,20.5237],[-83.2014,9.991,26.4817],[-83.1968,9.9894,48.3234],[-83.1961,9.9851,72.2273],[-83.1903,9.9849,54.1404],[-83.1882,9.9814,62.2732],[-83.191,9.9779,54.3617],[-83.1963,9.9785,67.6395],[-83.1999,9.9742,83.1102],[-83.2017,9.9739,83.1102],[-83.2009,9.9708,89.2919],[-83.2041,9.9643,114.512],[-83.2034,9.9515,225.0078],[-83.206,9.9479,288.5883],[-83.2056,9.9433,325.1607],[-83.1957,9.9322,387.0579],[-83.2006,9.9221,360.3969],[-83.2039,9.9211,349.7904],[-83.2049,9.918,371.0587],[-83.2078,9.9169,378.1137],[-83.2086,9.9148,420.93],[-83.2061,9.9082,500.4781],[-83.2013,9.9054,463.9691],[-83.1998,9.8989,443.982],[-83.2007,9.8947,444.4309],[-83.2045,9.8906,453.0402],[-83.2121,9.8859,521.0506],[-83.2279,9.8894,679.7684],[-83.2306,9.8874,707.6414],[-83.2298,9.885,721.4813],[-83.2339,9.8803,717.066],[-83.241,9.8782,762.1828],[-83.24,9.8702,1052.4169],[-83.244,9.8621,1022.108],[-83.2419,9.8574,1127.9594],[-83.2433,9.8543,1276.1511],[-83.2353,9.8432,1643.0367],[-83.2358,9.8409,1605.7092],[-83.2428,9.8336,1812.2281],[-83.243,9.8272,1695.6034],[-83.2472,9.8252,1733.3701],[-83.2509,9.8264,1817.5406],[-83.2574,9.8212,1646.3733],[-83.2617,9.8203,1486.1373],[-83.2642,9.8161,1419.4209],[-83.2698,9.8129,1216.2566],[-83.27,9.8096,1128.9397],[-83.2769,9.8017,962.649],[-83.2843,9.8027,887.3834],[-83.2902,9.8002,841.059],[-83.2935,9.8019,804.7595],[-83.2954,9.7992,776.7926],[-83.2998,9.8005,746.4941],[-83.3021,9.7997,709.0911],[-83.3029,9.7977,664.4285],[-83.3108,9.8019,619.6677],[-83.3147,9.8019,603.6817],[-83.3185,9.8048,580.3212],[-83.3193,9.8108,545.8149],[-83.3223,9.812,578.4715],[-83.3224,9.8146,527.4935],[-83.3266,9.8166,518.5951],[-83.3282,9.8198,510.1329],[-83.3319,9.8208,547.1428],[-83.3311,9.8274,569.9413],[-83.336,9.8326,450.6669],[-83.3386,9.833,447.6321],[-83.3363,9.8303,457.1037],[-83.3363,9.8231,474.8091],[-83.3404,9.8213,511.2071],[-83.3463,9.8103,514.9507],[-83.3556,9.8022,551.8942],[-83.3566,9.7966,514.1466],[-83.3674,9.7856,534.4299],[-83.3686,9.7808,583.3624],[-83.3781,9.7739,556.7697],[-83.3831,9.7676,606.59],[-83.397,9.7417,635.029],[-83.4047,9.7368,691.1974],[-83.4079,9.73,660.1652],[-83.4104,9.7288,736.9778],[-83.4109,9.7256,674.6644],[-83.4292,9.7067,726.3571],[-83.4293,9.6994,737.065],[-83.4268,9.6915,791.4656],[-83.4272,9.6846,827.7598],[-83.4287,9.6782,791.5378],[-83.4331,9.6718,816.8909],[-83.4407,9.6649,855.7419],[-83.4424,9.66,924.4965],[-83.4468,9.6533,915.7955],[-83.4496,9.6522,918.8438],[-83.4513,9.6482,967.8444],[-83.4575,9.6474,1006.007],[-83.4634,9.6429,1070.9387],[-83.4681,9.6329,1057.6592],[-83.4736,9.6323,1133.1042],[-83.4821,9.6283,1115.2428],[-83.4914,9.6136,1228.4158],[-83.4939,9.6129,1209.8806],[-83.5027,9.603,1269.157],[-83.5116,9.5975,1307.1112],[-83.5114,9.5941,1469.9213],[-83.5068,9.5895,1559.9727],[-83.5045,9.5837,1676.7437],[-83.5078,9.575,1900.8062],[-83.5133,9.5676,2242.9932],[-83.5144,9.561,2417.6628],[-83.5131,9.5569,2382.1411],[-83.5162,9.5531,2413.2241],[-83.5138,9.5407,2602.8218],[-83.5155,9.5356,2661.1104],[-83.5073,9.5298,2800.7739],[-83.5032,9.5299,2857.4468],[-83.4962,9.5215,3114.1948],[-83.4947,9.5104,3322.9141],[-83.4865,9.4988,3486.8706],[-83.4886,9.495,3503.9116],[-83.4875,9.4917,3496.6694],[-83.489,9.4851,3753.5232]]],
[[[-82.8933,9.7917,3.5816],[-82.8924,9.7924,0.0],[-82.8945,9.7951,9.446],[-82.8944,9.7935,0.8271],[-82.8933,9.7917,3.5816]]],
[[[-82.8974,9.7966,0.4529],[-82.8962,9.797,2.7604],[-82.9006,9.8044,0.0],[-82.9008,9.8031,3.2298],[-82.8974,9.7966,0.4529]]],
[[[-83.0106,9.9939,14.1641],[-83.0111,9.9958,0.0],[-83.0135,9.9949,5.2852],[-83.0116,9.9923,11.3185],[-83.0106,9.9939,14.1641]]],
[[[-83.0764,10.0177,0.0],[-83.0758,10.0175,0.0],[-83.0767,10.0183,0.0],[-83.0768,10.018,0.0],[-83.0764,10.0177,0.0]]]]}
,"properties": {"GID_2": "CRI.5.2_1","GID_0": "CRI","country": "CostaRica","GID_1": "CRI.5_1","province": "Limón","NL_NAME_1": "NA","county": "Limón","VARNAME_2": "NA","NL_NAME_2": "NA","TYPE_2": "Cantón","ENGTYPE_2": "Canton","CC_2": "1","HASC_2": "CR.LI.LI","name": "Limón.county","area_km2": 1776.533,"hist_schema_id": "Elevation0-9000","hist_area_km2": {"0": 98.325,"25": 157.916,"50": 79.17,"75": 76.103,"100": 66.31,"125": 60.901,"150": 53.758,"175": 46.007,"200": 39.614,"225": 35.707,"250": 34.831,"275": 28.584,"300": 27.372,"325": 27.247,"350": 25.889,"375": 26.579,"400": 25.284,"425": 23.571,"450": 21.21,"475": 19.956,"500": 16.759,"525": 17.261,"550": 18.138,"575": 17.574,"600": 16.091,"625": 15.777,"650": 15.547,"675": 14.084,"700": 15.484,"725": 14.773,"750": 14.544,"775": 13.645,"800": 12.997,"825": 12.015,"850": 12.078,"875": 11.472,"900": 11.388,"925": 12.35,"950": 11.973,"975": 11.723,"1000": 12.37,"1025": 11.806,"1050": 12.663,"1075": 12.83,"1100": 13.102,"1125": 13.98,"1150": 12.852,"1175": 12.914,"1200": 12.12,"1225": 13.395,"1250": 13.583,"1275": 12.58,"1300": 13.897,"1325": 13.562,"1350": 13.27,"1375": 12.413,"1400": 12.622,"1425": 12.936,"1450": 12.351,"1475": 12.163,"1500": 12.204,"1525": 10.867,"1550": 10.951,"1575": 10.449,"1600": 9.425,"1625": 10.429,"1650": 8.945,"1675": 10.199,"1700": 8.757,"1725": 8.109,"1750": 8.214,"1775": 7.921,"1800": 8.025,"1825": 7.566,"1850": 7.44,"1875": 6.813,"1900": 6.772,"1925": 5.873,"1950": 5.309,"1975": 5.434,"2000": 5.016,"2025": 4.222,"2050": 4.243,"2075": 3.7,"2100": 3.658,"2125": 2.843,"2150": 2.508,"2175": 2.007,"2200": 1.568,"2225": 1.756,"2250": 1.965,"2275": 2.174,"2300": 1.944,"2325": 2.425,"2350": 2.112,"2375": 1.798,"2400": 2.132,"2425": 2.237,"2450": 1.923,"2475": 1.798,"2500": 1.652,"2525": 1.359,"2550": 1.234,"2575": 1.317,"2600": 1.045,"2625": 1.443,"2650": 1.024,"2675": 1.087,"2700": 1.045,"2725": 1.045,"2750": 1.045,"2775": 0.92,"2800": 1.129,"2825": 0.711,"2850": 0.836,"2875": 0.795,"2900": 0.565,"2925": 0.857,"2950": 0.878,"2975": 0.565,"3000": 0.836,"3025": 0.585,"3050": 0.857,"3075": 0.502,"3100": 0.627,"3125": 0.627,"3150": 0.669,"3175": 0.69,"3200": 0.627,"3225": 0.502,"3250": 0.355,"3275": 0.606,"3300": 0.46,"3325": 0.544,"3350": 0.585,"3375": 0.565,"3400": 0.669,"3425": 0.523,"3450": 0.606,"3475": 0.899,"3500": 1.171,"3525": 0.753,"3550": 0.732,"3575": 0.774,"3600": 0.314,"3625": 0.23,"3650": 0.188,"3675": 0.084,"3700": 0.146,"3725": 0.063,"3775": 0.042}}}