{"type": "Feature","bbox": [-85.2041,10.331,-85.1065,10.4196],"geometry": {"type": "MultiPolygon","coordinates": [[[[-85.2034,10.3352,7.5418],[-85.201,10.3347,6.2273],[-85.2009,10.3322,16.5317],[-85.1987,10.331,19.4618],[-85.192,10.3315,5.9965],[-85.186,10.3344,5.3961],[-85.18,10.3334,5.5936],[-85.1704,10.3384,7.2778],[-85.1591,10.3352,12.1126],[-85.151,10.3443,14.7272],[-85.143,10.3478,14.3223],[-85.1337,10.3474,15.5539],[-85.1334,10.356,15.7793],[-85.1264,10.3621,18.1731],[-85.1293,10.3752,22.2099],[-85.119,10.3762,26.8635],[-85.1172,10.3744,28.0472],[-85.1126,10.3834,33.2034],[-85.1149,10.3887,37.1171],[-85.112799999999993,10.3907,40.0262],[-85.1139,10.3932,37.5573],[-85.1122,10.394,38.2359],[-85.1126,10.3969,40.9458],[-85.107,10.4049,48.257],[-85.1065,10.4083,53.2646],[-85.1106,10.4129,55.2536],[-85.1073,10.4184,55.1708],[-85.12,10.4196,44.3691],[-85.1297,10.4109,30.98],[-85.1365,10.4107,28.1755],[-85.1397,10.4071,26.2591],[-85.1431,10.4074,23.9772],[-85.145,10.4114,21.152],[-85.1526,10.4145,20.5173],[-85.1579,10.4129,20.2749],[-85.163,10.4089,15.8909],[-85.1731,10.395,10.8579],[-85.1733,10.3905,9.9583],[-85.179,10.3783,9.6239],[-85.1798,10.3807,10.1178],[-85.1867,10.3764,11.4097],[-85.1908,10.3685,9.2755],[-85.1932,10.371,16.4987],[-85.1974,10.3701,9.7399],[-85.1955,10.3608,5.727],[-85.2017,10.357,7.3789],[-85.2041,10.3527,6.9725],[-85.2035,10.3506,6.3315],[-85.1998,10.3505,5.6652],[-85.1987,10.345,13.5693],[-85.2034,10.341,7.4223],[-85.2034,10.3352,7.5418]]]]}
,"properties": {"GID_3": "CRI.3.3.1_1","GID_0": "CRI","country": "CostaRica","GID_1": "CRI.3_1","province": "Guanacaste","NL_NAME_1": "NA","GID_2": "CRI.3.3_1","county": "Cañas","NL_NAME_2": "NA","city": "Bebedero","VARNAME_3": "NA","NL_NAME_3": "NA","TYPE_3": "Distrito","ENGTYPE_3": "District","CC_3": "4","HASC_3": "NA","name": "Bebedero.city","area_km2": 58.41655,"hist_schema_id": "Elevation0-9000","hist_area_km2": {"0": 21.75353,"25": 32.22117,"50": 4.27501,"75": 0.16684}}}