{"type": "Feature","bbox": [-83.7782,10.2554,-83.57,10.4625],"geometry": {"type": "MultiPolygon","coordinates": [[[[-83.5777,10.3517,236.4464],[-83.5705,10.3649,125.058],[-83.57,10.3691,115.5278],[-83.5748,10.375,137.5517],[-83.5737,10.3817,118.4101],[-83.5756,10.3845,161.9734],[-83.581,10.4614,16.178],[-83.5863,10.4604,15.5587],[-83.5877,10.4615,17.5367],[-83.5944,10.4571,18.6172],[-83.6025,10.4575,20.6163],[-83.6042,10.4598,18.7406],[-83.614,10.4597,23.9869],[-83.6138,10.4625,21.2155],[-83.6165,10.4591,22.7316],[-83.6184,10.4597,24.239],[-83.6192,10.4567,20.9559],[-83.628,10.4594,24.5119],[-83.6316,10.4572,25.3057],[-83.6302,10.4557,27.0458],[-83.6328,10.4537,24.5619],[-83.6297,10.4489,26.5343],[-83.6319,10.4417,27.4139],[-83.6352,10.4416,29.5237],[-83.6369,10.4442,27.4011],[-83.6384,10.4436,27.4961],[-83.6395,10.446,28.3737],[-83.6439,10.4476,30.3455],[-83.6457,10.4457,30.1343],[-83.6449,10.4443,30.7379],[-83.6485,10.4441,27.1292],[-83.6523,10.4379,30.199],[-83.6552,10.437,31.7533],[-83.6558,10.4394,33.8116],[-83.6574,10.4394,33.5763],[-83.6578,10.4347,35.5624],[-83.6673,10.4322,33.3439],[-83.6675,10.4289,32.1255],[-83.6687,10.4289,32.1255],[-83.668,10.4265,35.6854],[-83.6641,10.422,34.715],[-83.6654,10.419,36.2874],[-83.6617,10.4149,35.5664],[-83.6656,10.4158,36.96],[-83.665,10.4112,36.7949],[-83.669,10.4079,35.8282],[-83.669,10.4033,37.969],[-83.6709,10.4002,37.2458],[-83.6708,10.3913,39.4861],[-83.6746,10.3894,41.7114],[-83.6709,10.3866,42.9509],[-83.6711,10.3852,42.8046],[-83.6746,10.3852,42.8488],[-83.6743,10.3822,45.5699],[-83.6803,10.3816,42.5574],[-83.6815,10.3784,44.7396],[-83.6862,10.3754,43.6183],[-83.686,10.3732,44.8389],[-83.6907,10.3687,47.4075],[-83.6888,10.3678,47.5342],[-83.6887,10.3635,46.085],[-83.6958,10.3586,46.567],[-83.6959,10.3514,50.4338],[-83.6975,10.3508,50.4338],[-83.6971,10.3479,50.2859],[-83.7015,10.3411,56.4587],[-83.7038,10.3419,57.8787],[-83.7049,10.339,59.8146],[-83.7094,10.3393,61.3965],[-83.713,10.3372,63.3491],[-83.7143,10.339,58.2158],[-83.7163,10.3375,58.6259],[-83.7167,10.3345,55.686],[-83.7183,10.3343,56.4278],[-83.7194,10.3367,54.4457],[-83.7237,10.3333,58.3898],[-83.7264,10.3345,59.8927],[-83.7281,10.3324,61.7174],[-83.7313,10.3326,66.6169],[-83.7434,10.3259,72.0009],[-83.7477,10.3192,76.914],[-83.7477,10.3088,83.456],[-83.7508,10.315,83.3927],[-83.7505,10.3098,84.9409],[-83.7523,10.309,81.9035],[-83.7528,10.3021,92.7296],[-83.7565,10.299,92.0439],[-83.7588,10.2938,94.3368],[-83.7648,10.2904,102.0877],[-83.77,10.2781,122.0448],[-83.7737,10.2764,118.9124],[-83.7734,10.2729,122.4265],[-83.7766,10.269,132.3397],[-83.7782,10.2559,163.6855],[-83.7528,10.2554,134.579],[-83.7504,10.2566,126.2085],[-83.7484,10.2591,122.7221],[-83.7481,10.2628,119.0569],[-83.7393,10.2714,101.1586],[-83.7318,10.2721,94.8882],[-83.7298,10.2746,93.1374],[-83.7261,10.2745,87.5283],[-83.7178,10.2807,84.3717],[-83.7134,10.2949,69.3604],[-83.7113,10.2939,62.2831],[-83.7085,10.2961,66.8733],[-83.7071,10.2953,65.0334],[-83.7015,10.2975,62.1767],[-83.7002,10.2996,62.8022],[-83.696,10.2979,56.7342],[-83.6953,10.2992,54.1774],[-83.6923,10.2983,55.7641],[-83.6873,10.3001,52.9065],[-83.6806,10.2953,50.4587],[-83.6766,10.2958,48.8031],[-83.6754,10.293,48.9053],[-83.6678,10.2933,47.6013],[-83.6688,10.2914,48.6153],[-83.6675,10.2907,48.6153],[-83.6673,10.3534,50.4372],[-83.6637,10.3538,44.5688],[-83.6629,10.3526,43.5385],[-83.6617,10.3538,42.0214],[-83.6502,10.3542,40.7138],[-83.6474,10.3569,40.0408],[-83.6391,10.3587,39.9009],[-83.6313,10.3566,37.6808],[-83.6266,10.3594,39.5302],[-83.6193,10.3565,33.8159],[-83.6102,10.3607,46.3183],[-83.6025,10.3613,25.0019],[-83.5956,10.3706,29.3159],[-83.5927,10.3704,25.5974],[-83.595,10.3686,26.0605],[-83.5919,10.3646,25.1889],[-83.5896,10.3643,28.132],[-83.5899,10.3619,25.9371],[-83.5877,10.3612,29.6615],[-83.5876,10.358,33.8574],[-83.584,10.354,102.6661],[-83.5807,10.3514,191.5238],[-83.5777,10.3517,236.4464]]]]}
,"properties": {"GID_3": "CRI.5.4.7_1","GID_0": "CRI","country": "CostaRica","GID_1": "CRI.5_1","province": "Limón","NL_NAME_1": "NA","GID_2": "CRI.5.4_1","county": "Pococí","NL_NAME_2": "NA","city": "Roxana","VARNAME_3": "NA","NL_NAME_3": "NA","TYPE_3": "Distrito","ENGTYPE_3": "District","CC_3": "4","HASC_3": "NA","name": "Roxana.city","area_km2": 177.4648,"hist_schema_id": "Elevation0-9000","hist_area_km2": {"0": 0.417,"25": 81.4108,"50": 51.4965,"75": 22.7787,"100": 13.059,"125": 6.0081,"150": 2.0861,"175": 0.0626,"200": 0.0626,"225": 0.0626,"250": 0.0209}}}