{"type":"Feature","properties":{"GID_2":"CRI.3.8_1","GID_0":"CRI","country":"CostaRica","GID_1":"CRI.3_1","province":"Guanacaste","NL_NAME_1":"NA","county":"Nandayure","VARNAME_2":"NA","NL_NAME_2":"NA","TYPE_2":"Cantón","ENGTYPE_2":"Canton","CC_2":"9","HASC_2":"CR.GU.NA","name":"Nandayure.county"},
"geometry":{"type": "MultiPolygon","coordinates": [[[[-85.2302,9.9024,89.9753],[-85.2321,9.9048,87.367],[-85.2318,9.907,92.3243],[-85.2376,9.9061,96.3387],[-85.2392,9.91,112.1441],[-85.2422,9.9103,109.5485],[-85.2468,9.9079,119.9109],[-85.2509,9.909,142.5204],[-85.2563,9.9143,167.5511],[-85.2587,9.9125,162.6419],[-85.2619,9.9151,222.16],[-85.2654,9.9139,283.6902],[-85.2642,9.9174,317.2091],[-85.2674,9.9153,307.9204],[-85.2721,9.9191,336.5098],[-85.2729,9.9158,307.3156],[-85.2772,9.9159,345.0684],[-85.2797,9.9217,360.3728],[-85.2779,9.9229,429.56],[-85.2779,9.9264,459.5071],[-85.2747,9.9327,473.4096],[-85.2706,9.934,504.6681],[-85.2683,9.9373,549.6493],[-85.2713,9.943,720.5995],[-85.2695,9.9461,787.0747],[-85.273,9.9507,995.1221],[-85.2713,9.9584,795.8284],[-85.2681,9.9633,651.3799],[-85.2631,9.9625,537.2181],[-85.2531,9.9648,525.2573],[-85.2481,9.9727,459.4419],[-85.2432,9.972,306.9982],[-85.2371,9.9675,140.7245],[-85.2276,9.9673,93.5474],[-85.222,9.969,73.9953],[-85.2184,9.9723,64.7322],[-85.2167,9.9711,76.8406],[-85.2126,9.9721,63.0156],[-85.2047,9.9709,51.9277],[-85.2032,9.9692,50.1964],[-85.1987,9.971,43.6944],[-85.1957,9.9689,40.8925],[-85.1906,9.9708,32.3571],[-85.1862,9.9702,34.2539],[-85.1856,9.9719,28.3865],[-85.1813,9.973,28.2871],[-85.1802,9.976,26.4281],[-85.1812,9.9765,26.4281],[-85.1673,9.9814,20.8048],[-85.1636,9.9867,16.9621],[-85.1611,9.9876,18.8569],[-85.1614,9.9947,11.5113],[-85.1688,10.0045,14.002],[-85.1687,10.0081,13.1326],[-85.1704,10.0093,13.4227],[-85.1661,10.0115,8.6988],[-85.1633,10.0161,4.9648],[-85.1644,10.0166,4.9648],[-85.1636,10.0199,4.8384],[-85.169,10.0221,6.7717],[-85.1687,10.0245,0.0],[-85.1707,10.0268,3.4492],[-85.1691,10.0279,6.5562],[-85.169,10.0341,0.0],[-85.1671,10.0377,4.0207],[-85.1627,10.036,12.216],[-85.1592,10.0305,12.5969],[-85.1545,10.0313,0.0],[-85.15,10.0401,0.0],[-85.1523,10.049,0.0],[-85.1548,10.0498,0.0],[-85.1589,10.0473,0.0],[-85.1701,10.0463,4.4366],[-85.1789,10.0524,0.0],[-85.182,10.0618,5.5331],[-85.1866,10.0664,2.3556],[-85.1921,10.0633,4.2274],[-85.1894,10.0585,21.14],[-85.1902,10.0552,17.0533],[-85.202,10.0555,20.2841],[-85.2059,10.053,15.7915],[-85.21,10.0557,24.7844],[-85.2141,10.0529,18.7513],[-85.2169,10.0543,10.0372],[-85.215,10.0564,13.2449],[-85.2163,10.0578,11.8004],[-85.2148,10.0585,9.6661],[-85.2164,10.0601,8.4882],[-85.2174,10.0582,11.8004],[-85.222,10.0595,8.4826],[-85.23,10.0645,15.9016],[-85.2294,10.0672,13.7052],[-85.2315,10.0687,15.2552],[-85.2307,10.0723,12.8829],[-85.2357,10.0722,11.7939],[-85.2345,10.0753,11.7355],[-85.2361,10.076,15.2444],[-85.2405,10.0747,11.5173],[-85.2427,10.0763,10.7499],[-85.2428,10.0744,13.4279],[-85.2454,10.0728,12.5894],[-85.2468,10.0771,13.5345],[-85.2476,10.0722,18.8973],[-85.2532,10.0691,15.8232],[-85.2521,10.0646,11.5749],[-85.2552,10.061,12.9334],[-85.2581,10.0622,13.2895],[-85.2607,10.0591,15.3004],[-85.2662,10.0595,27.4714],[-85.2692,10.057,23.8509],[-85.273,10.0631,21.516],[-85.2774,10.0594,21.002],[-85.2782,10.0651,22.824],[-85.285,10.0651,26.7977],[-85.2864,10.0592,27.3265],[-85.2928,10.0632,31.5172],[-85.294,10.0627,31.5172],[-85.2925,10.0609,26.7603],[-85.2938,10.0604,35.6631],[-85.3005,10.0633,32.225],[-85.3005,10.068,53.1012],[-85.3088,10.0669,62.7778],[-85.311,10.0719,35.6114],[-85.3125,10.0727,65.551],[-85.314,10.0706,38.4888],[-85.3171,10.0736,34.4224],[-85.3262,10.0684,63.4458],[-85.326,10.0659,67.8121],[-85.3229,10.0676,72.552],[-85.3224,10.0631,94.437],[-85.3207,10.0621,95.5946],[-85.3201,10.0552,85.0715],[-85.3223,10.0512,106.6643],[-85.3159,10.0482,104.294],[-85.3158,10.0455,116.8975],[-85.316,10.0435,121.938],[-85.323,10.0411,153.0554],[-85.3223,10.0377,175.1069],[-85.3247,10.0319,189.3998],[-85.326,10.0303,197.9749],[-85.328,10.0308,235.2444],[-85.3275,10.029,198.6756],[-85.3296,10.029,275.5954],[-85.3295,10.0267,261.6589],[-85.3259,10.0269,221.3577],[-85.3235,10.0253,222.5463],[-85.3264,10.024,255.0693],[-85.3243,10.022,255.4266],[-85.3262,10.0201,266.6828],[-85.3239,10.0174,260.4522],[-85.3261,10.0142,260.364],[-85.3262,10.0095,259.8418],[-85.3279,10.0087,268.4193],[-85.3271,10.0063,268.2111],[-85.3331,10.0052,281.8507],[-85.3358,10.0093,296.2249],[-85.3423,10.0056,332.0708],[-85.3498,10.0066,342.1782],[-85.351,10.0056,356.1673],[-85.355,10.0091,425.6197],[-85.3649,10.0103,561.4299],[-85.3694,10.0084,608.4268],[-85.3715,10.0048,649.1333],[-85.3763,10.004,721.7222],[-85.3764,10.001,738.6008],[-85.3671,9.995,606.1738],[-85.3571,9.9984,527.4819],[-85.3517,9.9968,508.0869],[-85.3508,9.9887,491.7639],[-85.3479,9.9868,471.7216],[-85.3482,9.9807,399.6416],[-85.3543,9.9761,368.2514],[-85.3538,9.9739,370.6733],[-85.3569,9.9743,380.6156],[-85.3579,9.9696,301.2311],[-85.3615,9.9647,248.6676],[-85.3574,9.9618,190.8686],[-85.3546,9.9561,158.2692],[-85.3549,9.9475,126.8765],[-85.3497,9.944,106.6253],[-85.343,9.9437,90.9784],[-85.3419,9.9411,95.5522],[-85.3394,9.9426,82.3975],[-85.3387,9.9379,83.4981],[-85.3419,9.9369,75.6121],[-85.3424,9.9336,79.4221],[-85.3497,9.9312,73.317],[-85.3486,9.9278,62.6946],[-85.3498,9.9263,69.6294],[-85.3534,9.9273,72.2982],[-85.3587,9.9229,65.3434],[-85.3641,9.9223,61.2954],[-85.3635,9.9196,62.0719],[-85.3665,9.9199,60.3437],[-85.3686,9.918,76.3441],[-85.3685,9.9157,61.2815],[-85.3723,9.9146,56.5641],[-85.3724,9.9133,58.1293],[-85.3703,9.9131,63.7406],[-85.3757,9.9102,61.2252],[-85.3835,9.9123,68.2506],[-85.3871,9.9105,52.6657],[-85.39,9.9126,56.1055],[-85.3911,9.909,54.4134],[-85.3933,9.9086,57.6872],[-85.3952,9.9118,48.4655],[-85.3985,9.9125,52.9138],[-85.4058,9.9088,42.3786],[-85.4103,9.9126,51.3004],[-85.4147,9.9092,42.3205],[-85.4179,9.9109,37.3978],[-85.4199,9.91,37.0305],[-85.4213,9.9117,37.0595],[-85.4236,9.9108,37.8061],[-85.4252,9.9077,39.4852],[-85.4284,9.9072,46.417],[-85.4308,9.904,32.8551],[-85.4306,9.897,35.7643],[-85.4374,9.8965,35.8181],[-85.439,9.8923,44.378],[-85.4363,9.8885,25.1959],[-85.4387,9.8842,17.9892],[-85.4406,9.8836,30.2685],[-85.4426,9.8874,39.9474],[-85.4456,9.8879,22.7372],[-85.4465,9.8868,13.7029],[-85.4449,9.8851,12.7062],[-85.447,9.8822,14.0334],[-85.4451,9.88,17.4881],[-85.4476,9.8792,10.8433],[-85.4527,9.8807,13.9075],[-85.4526,9.8779,8.0052],[-85.4495,9.8759,12.5015],[-85.4523,9.8732,28.1818],[-85.456,9.8741,23.6656],[-85.4575,9.8728,11.7013],[-85.4536,9.8704,14.2322],[-85.4547,9.8641,2.0154],[-85.4529,9.8617,0.0],[-85.4438,9.8622,11.2777],[-85.4302,9.8591,5.8658],[-85.4266,9.8571,1.631],[-85.425299999999993,9.8526,51.538],[-85.4133,9.8517,12.3945],[-85.4038,9.8475,29.9222],[-85.4033,9.851,0.0],[-85.3998,9.8527,5.0846],[-85.3933,9.8516,2.2822],[-85.3898,9.8491,24.3917],[-85.3799,9.8482,0.0],[-85.3687,9.8404,0.0],[-85.3655,9.8414,4.4514],[-85.3596,9.8395,2.9185],[-85.3418,9.8298,1.7477],[-85.3332,9.8226,0.9489],[-85.3322,9.8237,0.9489],[-85.3312,9.8226,5.6143],[-85.3322,9.8191,0.0],[-85.3356,9.8173,18.8402],[-85.3345,9.8159,26.6898],[-85.3285,9.8155,31.1552],[-85.3234,9.8173,42.4022],[-85.2999,9.8045,0.0],[-85.2978,9.805,0.0],[-85.2974,9.8032,0.0],[-85.2781,9.7895,0.0],[-85.2679,9.7773,0.0],[-85.2634,9.7745,2.7059],[-85.2658,9.773,0.0],[-85.2676,9.7676,54.3481],[-85.2724,9.7651,0.0],[-85.2756,9.7599,0.0],[-85.2675,9.7585,0.0],[-85.2619,9.7556,0.6315],[-85.2465,9.7464,1.233],[-85.2259,9.73,2.0115],[-85.217,9.7271,5.8189],[-85.2155,9.7286,4.2561],[-85.2179,9.7304,4.0799],[-85.2173,9.7369,9.4455],[-85.2192,9.7427,7.4776],[-85.2123,9.7411,7.3904],[-85.2103,9.7436,7.4646],[-85.2119,9.7463,8.2809],[-85.2068,9.7456,10.7618],[-85.2055,9.7477,7.4643],[-85.2036,9.7472,20.9715],[-85.2035,9.755,7.7621],[-85.1987,9.7553,16.394],[-85.1976,9.7576,14.6981],[-85.2008,9.7616,10.9877],[-85.1978,9.7637,7.7442],[-85.199,9.7689,17.4509],[-85.1929,9.7758,38.8989],[-85.188,9.7753,31.96],[-85.1847,9.7794,20.2734],[-85.18,9.7818,29.399],[-85.1832,9.7836,20.061],[-85.1838,9.7878,15.4028],[-85.1865,9.7829,22.696],[-85.1892,9.7812,28.4763],[-85.194,9.7869,39.3438],[-85.1945,9.7882,30.3118],[-85.1918,9.7894,19.5252],[-85.1902,9.7932,30.3161],[-85.195,9.7951,24.208],[-85.1932,9.7994,28.2709],[-85.1951,9.8021,23.0024],[-85.1935,9.8038,29.6437],[-85.1898,9.8035,26.5257],[-85.1889,9.8077,37.6148],[-85.1933,9.8136,21.3595],[-85.1889,9.8128,25.5194],[-85.1877,9.8165,32.6643],[-85.1845,9.8177,29.2418],[-85.1874,9.8201,28.9692],[-85.1889,9.8254,27.9938],[-85.1858,9.8319,34.3144],[-85.19,9.8359,32.474],[-85.1865,9.8351,38.3088],[-85.1835,9.8375,24.0856],[-85.1841,9.8415,25.313],[-85.1865,9.8401,27.3988],[-85.1862,9.8437,29.2867],[-85.1852,9.8455,31.2958],[-85.1814,9.8447,29.3235],[-85.1789,9.8461,51.1247],[-85.1759,9.8546,28.2271],[-85.1825,9.8534,35.9258],[-85.1836,9.8569,34.6119],[-85.1908,9.8562,54.2486],[-85.1931,9.8599,36.167],[-85.1982,9.8609,47.4313],[-85.1969,9.867,46.5546],[-85.2003,9.8686,43.8975],[-85.2001,9.8744,43.9213],[-85.2042,9.8764,47.2029],[-85.2043,9.8825,54.4626],[-85.2062,9.8831,51.6439],[-85.2045,9.8856,57.088],[-85.2106,9.8857,62.2462],[-85.209,9.8905,62.1938],[-85.2129,9.8882,58.7945],[-85.2146,9.8901,60.309],[-85.2166,9.894,71.6305],[-85.2166,9.9018,73.5586],[-85.2215,9.9026,74.6297],[-85.2237,9.9008,78.8667],[-85.2231,9.8994,79.7264],[-85.2264,9.9027,93.4147],[-85.2279,9.9023,92.3902],[-85.2274,9.9005,82.0144],[-85.2302,9.9024,89.9753]]]]}}