{"type": "Feature","bbox": [-84.8976,10.8056,-84.7145,11.0471],"geometry": {"type": "MultiPolygon","coordinates": [[[[-84.7719,10.8357,48.7804],[-84.7697,10.8383,40.1878],[-84.7752,10.8392,48.1838],[-84.7735,10.8412,43.647],[-84.7755,10.8431,43.3012],[-84.773,10.8453,49.2176],[-84.7733,10.849,42.6343],[-84.7749,10.8495,42.4055],[-84.7733,10.852,42.3483],[-84.776,10.8547,40.8348],[-84.7742,10.858,42.8971],[-84.776,10.8614,43.2098],[-84.7761,10.8665,43.5472],[-84.778,10.8667,45.6707],[-84.776,10.8701,50.4412],[-84.7727,10.8688,52.4796],[-84.7734,10.8717,52.4601],[-84.7712,10.8732,49.3704],[-84.7721,10.8751,44.429],[-84.7698,10.8771,39.3351],[-84.7695,10.8798,54.5119],[-84.7672,10.8803,44.3387],[-84.768,10.885,47.1967],[-84.766,10.8857,50.0258],[-84.7654,10.889099999999999,44.6504],[-84.7675,10.8902,50.1965],[-84.763,10.8923,47.4143],[-84.7644,10.8961,47.7462],[-84.7608,10.8944,49.1793],[-84.7599,10.8967,52.2754],[-84.762,10.898,45.8374],[-84.7611,10.8986,42.196],[-84.7579,10.8956,47.567],[-84.7556,10.8975,46.4089],[-84.7522,10.8962,41.0021],[-84.7511,10.8987,42.6687],[-84.7493,10.8982,42.6687],[-84.7494,10.9011,45.5019],[-84.746,10.9017,43.5266],[-84.7472,10.9039,48.6961],[-84.7445,10.9042,41.0863],[-84.7428,10.9075,45.8821],[-84.7418,10.9051,40.3164],[-84.7398,10.9073,44.653],[-84.7345,10.9059,37.031],[-84.7325,10.9111,46.5272],[-84.7276,10.9095,48.9016],[-84.7277,10.911,45.4781],[-84.7304,10.9118,45.3041],[-84.7312,10.9148,40.3478],[-84.7276,10.9146,41.4422],[-84.7279,10.9204,38.2884],[-84.724,10.9233,39.8506],[-84.7258,10.9263,36.9761],[-84.7267,10.925,39.2017],[-84.7272,10.9259,39.2772],[-84.7238,10.9287,41.2555],[-84.7254,10.9313,42.7444],[-84.7286,10.9313,39.6279],[-84.7309,10.9359,40.1821],[-84.7284,10.9397,39.074],[-84.7303,10.941,41.9486],[-84.73,10.9441,44.1589],[-84.7331,10.9442,42.3051],[-84.7357,10.9466,39.9897],[-84.7358,10.949,48.4087],[-84.7381,10.9487,38.4281],[-84.7375,10.9522,44.8369],[-84.7404,10.9497,40.7832],[-84.745,10.9521,40.857],[-84.7448,10.955,41.751],[-84.7466,10.9564,38.3765],[-84.745,10.9595,39.9104],[-84.7452,10.9639,38.4352],[-84.7431,10.9646,38.7645],[-84.7465,10.9673,40.1947],[-84.7426,10.9732,38.974],[-84.7393,10.9729,36.6735],[-84.7412,10.9758,37.9326],[-84.7393,10.9789,35.3989],[-84.7316,10.9817,39.4676],[-84.731,10.9835,36.8389],[-84.7336,10.9851,39.4621],[-84.7294,10.9852,39.3374],[-84.7319,10.9888,38.4778],[-84.7272,10.9883,40.437],[-84.7257,10.9894,42.1934],[-84.728,10.9913,38.3459],[-84.7223,10.9912,35.0844],[-84.7198,10.997,39.0659],[-84.7216,11.0014,39.2446],[-84.7195,11.0029,42.4479],[-84.7169,11.001,35.0883],[-84.7158,11.0019,36.7853],[-84.716,11.0046,37.0825],[-84.7201,11.0056,37.3136],[-84.7145,11.0101,38.4696],[-84.7156,11.014099999999999,36.9267],[-84.7185,11.0162,34.0741],[-84.7167,11.0186,38.2881],[-84.7211,11.0193,36.0803],[-84.7189,11.0225,38.8262],[-84.7184,11.028,35.1708],[-84.7279,11.0361,36.134],[-84.7358,11.0351,35.2425],[-84.7379,11.0436,36.8302],[-84.7419,11.0471,33.9281],[-84.8822,10.9613,32.81],[-84.8806,10.9568,32.6028],[-84.8812,10.9416,32.9759],[-84.885,10.9348,32.45],[-84.8849,10.93,33.794],[-84.8869,10.9292,34.2271],[-84.8877,10.9197,34.0569],[-84.8865,10.9141,34.9288],[-84.8912,10.9064,34.975],[-84.891,10.9037,34.9055],[-84.8871,10.9001,36.4364],[-84.8889,10.8955,38.3446],[-84.885,10.8904,40.0946],[-84.8891,10.885,37.1199],[-84.8924,10.8725,42.2566],[-84.8905,10.8701,41.2998],[-84.8899,10.8648,42.9109],[-84.8863,10.8631,46.2366],[-84.8842,10.8583,46.8219],[-84.8859,10.8527,47.0873],[-84.8847,10.8479,47.8606],[-84.8867,10.8436,47.7042],[-84.8904,10.8445,47.6527],[-84.8928,10.8415,44.7598],[-84.8906,10.8392,54.4521],[-84.8976,10.8273,67.2716],[-84.8879,10.8149,83.1804],[-84.8814,10.8122,73.4699],[-84.8788,10.8089,54.1136],[-84.8752,10.8106,50.8852],[-84.8688,10.8056,57.8501],[-84.8632,10.8084,46.2255],[-84.8562,10.8082,49.5628],[-84.854,10.8103,50.8887],[-84.8508,10.8107,48.5409],[-84.8431,10.8188,46.6323],[-84.8407,10.8187,42.9639],[-84.8383,10.8217,51.3295],[-84.8325,10.8235,42.7712],[-84.8324,10.8296,45.6369],[-84.8351,10.8319,40.0572],[-84.8342,10.8364,39.4622],[-84.8292,10.8415,38.1341],[-84.8149,10.8506,37.5389],[-84.8077,10.8523,39.2293],[-84.8026,10.8503,43.4167],[-84.8004,10.8515,41.2175],[-84.7994,10.85,41.8205],[-84.8021,10.849,43.4167],[-84.8024,10.8468,45.6073],[-84.7941,10.8476,36.6795],[-84.79,10.8418,40.301],[-84.7889,10.8453,46.3179],[-84.7867,10.8425,47.871],[-84.7872,10.8376,43.7065],[-84.784,10.8397,52.4151],[-84.7841,10.8368,50.7311],[-84.7809,10.8365,51.5217],[-84.7815,10.8336,50.7533],[-84.7803,10.8321,50.7533],[-84.7743,10.8342,46.0921],[-84.7735,10.8364,48.7804],[-84.7719,10.8357,48.7804]]]]}
,"properties": {"GID_3": "CRI.1.6.1_1","GID_0": "CRI","country": "CostaRica","GID_1": "CRI.1_1","province": "Alajuela","NL_NAME_1": "NA","GID_2": "CRI.1.6_1","county": "LosChiles","NL_NAME_2": "NA","city": "CañoNegro","VARNAME_3": "NA","NL_NAME_3": "NA","TYPE_3": "Distrito","ENGTYPE_3": "District","CC_3": "2","HASC_3": "NA","name": "Caño_Negro.city","area_km2": 302.0677,"hist_schema_id": "Elevation0-9000","hist_area_km2": {"25": 103.0761,"50": 193.6192,"75": 5.2891,"100": 0.0833}}}