{"type":"Feature","properties":{"GID_3":"CRI.7.4.1_1","GID_0":"CRI","country":"CostaRica","GID_1":"CRI.7_1","province":"SanJosé","NL_NAME_1":"NA","GID_2":"CRI.7.4_1","county":"Curridabat","NL_NAME_2":"NA","city":"Curridabat","VARNAME_3":"NA","NL_NAME_3":"NA","TYPE_3":"Distrito","ENGTYPE_3":"District","CC_3":"1","HASC_3":"NA","name":"Curridabat.city"},
"geometry":{"type": "MultiPolygon","coordinates": [[[[-84.0414,9.9299,1215.9099],[-84.0456,9.9279,1210.3352],[-84.0507,9.9188,1181.8638],[-84.0495,9.9157,1181.6356],[-84.0525,9.9146,1172.4695],[-84.0493,9.9049,1171.207],[-84.0456,9.9042,1171.6295],[-84.0451,9.907,1172.296],[-84.0416,9.9093,1181.3444],[-84.0319,9.9071,1204.8651],[-84.0318,9.9036,1201.2357],[-84.0275,9.9026,1207.0756],[-84.026,9.9117,1225.67],[-84.0294,9.914,1217.6731],[-84.0172,9.9269,1297.5347],[-84.0259,9.9269,1263.0273],[-84.0276,9.9261,1251.189],[-84.0275,9.9245,1254.946],[-84.0347,9.923,1217.2817],[-84.0414,9.9299,1215.9099]]]]}}