{"type":"Feature","properties":{"GID_3":"CRI.6.11.13_1","GID_0":"CRI","country":"CostaRica","GID_1":"CRI.6_1","province":"Puntarenas","NL_NAME_1":"NA","GID_2":"CRI.6.11_1","county":"Puntarenas","NL_NAME_2":"NA","city":"MonteVerde","VARNAME_3":"NA","NL_NAME_3":"NA","TYPE_3":"Distrito","ENGTYPE_3":"District","CC_3":"9","HASC_3":"NA","name":"Monte_Verde.city"},
"geometry":{"type": "MultiPolygon","coordinates": [[[[-84.7941,10.3205,1780.2399],[-84.794,10.3232,1782.2069],[-84.7965,10.3255,1765.7534],[-84.8035,10.3257,1787.1707],[-84.805,10.3309,1740.3914],[-84.8153,10.3305,1535.6705],[-84.8262,10.3373,1484.8562],[-84.8367,10.3309,1355.7454],[-84.8446,10.312,1044.3134],[-84.8432,10.3035,926.0832],[-84.8439,10.2935,813.9033],[-84.8472,10.2877,787.9995],[-84.8586,10.2843,643.6165],[-84.8631,10.2811,548.3046],[-84.8659,10.2698,483.2977],[-84.8723,10.2613,427.1826],[-84.8706,10.248,360.7672],[-84.8718,10.2449,345.8287],[-84.8601,10.2499,445.2625],[-84.8491,10.2477,572.0029],[-84.8446,10.2539,719.8721],[-84.8446,10.2585,790.411],[-84.8387,10.2585,833.3187],[-84.8377,10.2548,749.5609],[-84.8348,10.2543,630.7313],[-84.8318,10.2588,723.7286],[-84.8281,10.2603,679.0813],[-84.8225,10.2708,708.6354],[-84.8103,10.2743,822.8275],[-84.8069,10.2739,844.9519],[-84.8021,10.2773,987.9753],[-84.7999,10.2766,975.8998],[-84.7975,10.28,1007.1848],[-84.7883,10.28,1131.098],[-84.7797,10.2759,1392.3479],[-84.776,10.2798,1442.981],[-84.7707,10.2801,1482.7244],[-84.782,10.2912,1539.0178],[-84.7832,10.2984,1555.2336],[-84.786,10.3014,1605.3621],[-84.7866,10.308,1621.0212],[-84.7903,10.3119,1699.9851],[-84.7941,10.3205,1780.2399]]]]}}