{"type":"Feature","properties":{"GID_2":"CRI.1.13_1","GID_0":"CRI","country":"CostaRica","GID_1":"CRI.1_1","province":"Alajuela","NL_NAME_1":"NA","county":"SanRamón","VARNAME_2":"NA","NL_NAME_2":"NA","TYPE_2":"Cantón","ENGTYPE_2":"Canton","CC_2":"2","HASC_2":"CR.AL.SR","name":"San_Ramón.county"},
"geometry":{"type": "MultiPolygon","coordinates": [[[[-84.4556,10.0053,1305.6779],[-84.4551,10.009,1382.3976],[-84.4637,10.011,1396.1577],[-84.465,10.0144,1418.2007],[-84.47,10.016,1383.4479],[-84.4688,10.0176,1353.0833],[-84.4687,10.029,1465.6659],[-84.4641,10.0354,1410.7258],[-84.4639,10.0399,1415.2766],[-84.46,10.0431,1395.9534],[-84.4594,10.0531,1247.929],[-84.4511,10.0639,1140.573],[-84.4467,10.0798,1189.4824],[-84.4391,10.0811,1204.4509],[-84.4338,10.0854,993.5214],[-84.4343,10.092,1014.5054],[-84.436,10.0934,964.186],[-84.4368,10.0983,1011.3226],[-84.4439,10.1024,1029.5078],[-84.4395,10.1109,1043.1287],[-84.434,10.1146,1108.4814],[-84.4345,10.1228,1123.6786],[-84.4252,10.128,1174.6877],[-84.4145,10.1297,1236.6603],[-84.4226,10.1414,1342.1432],[-84.4322,10.1682,1283.7384],[-84.4347,10.1688,1269.0898],[-84.4376,10.1671,1242.1256],[-84.4426,10.1695,1219.3213],[-84.4443,10.1729,1211.8995],[-84.4521,10.1748,1169.3037],[-84.4579,10.1818,1116.9443],[-84.4651,10.1852,1055.9534],[-84.4663,10.1882,1043.8234],[-84.4684,10.1878,1023.3721],[-84.4686,10.192,1002.1396],[-84.4729,10.1933,986.3183],[-84.4721,10.2021,936.3942],[-84.4746,10.2038,931.9286],[-84.4732,10.2053,911.4093],[-84.4768,10.2071,876.6558],[-84.4765,10.2119,875.2084],[-84.4808,10.2149,924.2209],[-84.4795,10.2168,869.9152],[-84.4852,10.2199,822.1372],[-84.4875,10.2192,828.6165],[-84.4913,10.2245,788.7538],[-84.4942,10.2247,809.7515],[-84.4937,10.2268,769.2289],[-84.4967,10.2289,712.0437],[-84.5067,10.2317,648.0089],[-84.5071,10.2336,629.8375],[-84.5106,10.2325,672.1784],[-84.511,10.2352,639.3092],[-84.5144,10.2342,632.347],[-84.5175,10.2359,595.6564],[-84.5149,10.2395,659.0201],[-84.5183,10.2453,501.6942],[-84.5193,10.2607,426.6448],[-84.5174,10.2637,442.9541],[-84.5174,10.2679,433.6331],[-84.5184,10.2734,402.3391],[-84.5217,10.2778,393.3367],[-84.5222,10.2882,382.8693],[-84.5249,10.2942,421.5869],[-84.5239,10.3094,250.68],[-84.525,10.3134,242.8936],[-84.5231,10.3197,228.3427],[-84.524,10.3228,221.5321],[-84.5195,10.3294,198.6745],[-84.5178,10.3394,179.698],[-84.5204,10.3468,167.1869],[-84.52,10.359,154.9866],[-84.5231,10.366,153.5321],[-84.5271,10.3671,150.0584],[-84.5284,10.3745,174.4364],[-84.5321,10.3729,139.7129],[-84.5309,10.369,161.1787],[-84.5337,10.367,176.0073],[-84.5317,10.3638,157.8834],[-84.5367,10.3566,169.404],[-84.5482,10.3536,192.6431],[-84.5593,10.3434,236.9235],[-84.5776,10.3328,304.6105],[-84.581,10.3296,328.3979],[-84.5833,10.3227,383.5934],[-84.5879,10.3203,387.8616],[-84.5917,10.3144,431.8891],[-84.5993,10.3096,491.3821],[-84.6151,10.3119,540.5146],[-84.6187,10.3104,581.7247],[-84.6233,10.3109,591.9791],[-84.6294,10.316,719.0573],[-84.6357,10.3268,1017.3559],[-84.6325,10.3366,1184.4523],[-84.6341,10.3441,1087.5936],[-84.6312,10.3549,757.8319],[-84.6335,10.3604,520.9066],[-84.6292,10.3656,393.5868],[-84.6256,10.3656,336.8588],[-84.6185,10.3692,335.4556],[-84.6059,10.3683,306.9737],[-84.6025,10.3658,310.9302],[-84.5915,10.3672,251.1629],[-84.5856,10.3718,236.3352],[-84.5789,10.3722,228.2301],[-84.5717,10.3765,198.3717],[-84.5695,10.3806,195.013],[-84.5537,10.3941,142.9277],[-84.5534,10.4083,124.3994],[-84.5578,10.4163,106.9881],[-84.5576,10.4272,89.98],[-84.5519,10.4356,86.4658],[-84.5459,10.4354,79.5788],[-84.5453,10.4365,77.4702],[-84.550299999999993,10.4424,84.3031],[-84.5537,10.4436,83.719],[-84.5537,10.4425,83.719],[-84.5554,10.445,85.3886],[-84.5591,10.4455,90.6015],[-84.5585,10.4477,92.5034],[-84.5569,10.4473,88.1478],[-84.5572,10.4489,90.3345],[-84.5612,10.4476,88.7141],[-84.564,10.4493,95.5794],[-84.5644,10.4473,91.043],[-84.5626,10.4455,92.2851],[-84.5666,10.4452,95.2389],[-84.5702,10.4401,95.3156],[-84.5765,10.4401,99.1061],[-84.5768,10.4414,101.471],[-84.5822,10.4384,112.6558],[-84.582,10.4403,100.4826],[-84.5833,10.4394,100.0804],[-84.5837,10.4407,105.0695],[-84.5822,10.4424,105.4934],[-84.5847,10.4421,109.4351],[-84.5882,10.4445,110.5819],[-84.5931,10.4433,114.344],[-84.5968,10.4468,116.7565],[-84.6053,10.4424,134.1619],[-84.6102,10.4471,142.6008],[-84.6156,10.4494,154.3902],[-84.6178,10.4488,158.6379],[-84.6211,10.4539,180.8923],[-84.6268,10.4572,195.1667],[-84.6288,10.4558,221.1771],[-84.6306,10.4566,222.5655],[-84.6347,10.4532,236.3767],[-84.6449,10.454,276.2066],[-84.6503,10.4502,343.3911],[-84.6527,10.4375,471.7319],[-84.6564,10.4293,599.7999],[-84.665,10.4185,958.5203],[-84.6681,10.4105,1131.0447],[-84.6885,10.443,1087.5],[-84.7215,10.3767,1451.9059],[-84.7216,10.3809,1295.8982],[-84.7266,10.3873,1125.0646],[-84.7272,10.3917,1019.0863],[-84.7318,10.3952,958.8158],[-84.7355,10.3948,936.6478],[-84.7405,10.3982,885.7352],[-84.7474,10.3991,854.4509],[-84.7494,10.4075,723.8023],[-84.7536,10.4134,669.8727],[-84.7516,10.4178,637.1149],[-84.7519,10.4221,618.1642],[-84.7477,10.4301,552.7806],[-84.7475,10.434,540.0],[-84.7481,10.4317,542.0821],[-84.7505,10.4351,540.0],[-84.7522,10.4351,540.0],[-84.7524,10.4328,540.0],[-84.7588,10.4307,543.0991],[-84.7599,10.4326,540.0],[-84.7637,10.4321,540.0],[-84.7659,10.4287,540.0],[-84.7672,10.4123,583.3141],[-84.7718,10.4063,608.0601],[-84.7745,10.3958,662.2812],[-84.7814,10.3851,742.9058],[-84.7792,10.3797,794.5483],[-84.7712,10.3744,835.0398],[-84.7716,10.3697,866.9445],[-84.7695,10.3675,915.6339],[-84.7685,10.3575,975.9213],[-84.7664,10.3546,1001.7781],[-84.7677,10.3513,1065.6277],[-84.7743,10.3502,1181.3214],[-84.7739,10.3478,1228.8982],[-84.7762,10.3466,1356.3674],[-84.7772,10.3401,1502.8086],[-84.7788,10.3396,1509.538],[-84.781,10.3319,1606.873],[-84.7878,10.3214,1718.0234],[-84.7941,10.3205,1780.2399],[-84.7933,10.3172,1799.291],[-84.7866,10.308,1621.0212],[-84.786,10.3014,1605.3621],[-84.7832,10.2984,1555.2336],[-84.782,10.2912,1539.0178],[-84.7707,10.2801,1482.7244],[-84.7669,10.2796,1506.7072],[-84.7662,10.2699,1667.0482],[-84.7639,10.2687,1705.0774],[-84.7658,10.2625,1724.4861],[-84.7551,10.2552,1653.4807],[-84.7483,10.2551,1658.4614],[-84.7449,10.2524,1671.8589],[-84.7379,10.2534,1723.3949],[-84.7317,10.2504,1766.9492],[-84.7285,10.255,1739.3477],[-84.7237,10.2562,1770.8799],[-84.7211,10.2616,1753.6302],[-84.7227,10.2684,1783.2162],[-84.7141,10.2671,1731.2617],[-84.7081,10.2635,1711.4702],[-84.7022,10.263,1658.8921],[-84.7006,10.2659,1652.7791],[-84.6977,10.2673,1620.5488],[-84.6947,10.2777,1525.8175],[-84.687,10.2835,1576.0757],[-84.6843,10.2843,1614.459],[-84.6827,10.2823,1613.0177],[-84.6808,10.2837,1620.8993],[-84.6738,10.2792,1636.0317],[-84.6745,10.2715,1576.9556],[-84.6705,10.2677,1500.3685],[-84.6701,10.2607,1426.5669],[-84.6673,10.2559,1403.0509],[-84.664,10.254,1400.2769],[-84.6575,10.2439,1328.0366],[-84.6586,10.2377,1334.9828],[-84.6566,10.2341,1309.582],[-84.6628,10.226,1282.5096],[-84.6608,10.2235,1329.313],[-84.66,10.2173,1220.6163],[-84.6615,10.2152,1215.7974],[-84.6603,10.2119,1340.5629],[-84.6644,10.206,1408.3896],[-84.6615,10.1993,1434.2388],[-84.6643,10.1949,1424.4158],[-84.6683,10.1926,1406.25],[-84.6836,10.1763,1320.7731],[-84.6786,10.1742,1312.6361],[-84.6685,10.1757,1311.2739],[-84.6646,10.1709,1299.7942],[-84.6652,10.1685,1303.2748],[-84.6638,10.167,1299.7108],[-84.6651,10.1656,1310.2708],[-84.6637,10.1654,1295.572],[-84.6658,10.1642,1303.7632],[-84.6651,10.163,1294.5901],[-84.6702,10.1558,1296.7183],[-84.6653,10.1524,1244.5791],[-84.6653,10.1464,1144.5824],[-84.6735,10.1399,966.894],[-84.6705,10.1299,854.2616],[-84.6712,10.1282,854.1971],[-84.664,10.1216,683.7521],[-84.66,10.1108,574.5187],[-84.6572,10.1092,563.8717],[-84.6538,10.1016,506.6967],[-84.6508,10.0995,509.6495],[-84.6505,10.0967,493.0444],[-84.6481,10.0945,431.403],[-84.648,10.0871,425.666],[-84.6452,10.0858,369.7516],[-84.6438,10.0808,362.3822],[-84.6376,10.0774,358.3862],[-84.6315,10.0711,283.8504],[-84.632,10.0686,320.7137],[-84.6287,10.064,253.207],[-84.6282,10.0574,248.9196],[-84.6248,10.0479,197.7219],[-84.618,10.0434,187.8416],[-84.617,10.0456,205.1248],[-84.6094,10.0461,211.9896],[-84.6026,10.044,328.883],[-84.6002,10.0375,476.2622],[-84.5927,10.0351,385.6655],[-84.5735,10.02,358.593],[-84.5663,10.0215,450.8945],[-84.5659,10.029,501.1389],[-84.5632,10.0292,499.2104],[-84.5641,10.016,394.6144],[-84.5609,10.0128,372.2104],[-84.5614,10.0099,349.1182],[-84.5595,10.0063,343.8029],[-84.5565,10.0044,331.4847],[-84.5566,9.9961,294.9696],[-84.5539,9.9932,292.2248],[-84.5516,9.9933,325.7728],[-84.5516,9.9963,304.7538],[-84.5487,9.9999,317.7376],[-84.5469,9.9999,338.4129],[-84.5448,10.003,339.1962],[-84.533,10.0102,473.8617],[-84.5267,10.0109,578.6396],[-84.5218,10.0134,691.0426],[-84.5185,10.011,750.5142],[-84.5161,10.0112,768.8144],[-84.5135,10.0135,847.9022],[-84.5081,10.0147,970.3143],[-84.5014,10.0116,1154.8101],[-84.4978,10.0149,1187.3354],[-84.4952,10.0097,1014.6838],[-84.4967,10.0054,878.7029],[-84.4944,9.9927,692.346],[-84.4979,9.9842,602.7031],[-84.4945,9.9796,520.3403],[-84.4608,9.9915,1064.9167],[-84.4557,9.9977,1150.3635],[-84.452,9.9978,1281.3362],[-84.4556,10.0053,1305.6779]]]]}}