{"type":"Feature","properties":{"GID_3":"CRI.3.1.2_1","GID_0":"CRI","country":"CostaRica","GID_1":"CRI.3_1","province":"Guanacaste","NL_NAME_1":"NA","GID_2":"CRI.3.1_1","county":"Abangares","NL_NAME_2":"NA","city":"LasJuntas","VARNAME_3":"NA","NL_NAME_3":"NA","TYPE_3":"Distrito","ENGTYPE_3":"District","CC_3":"1","HASC_3":"NA","name":"Las_Juntas.city"},
"geometry":{"type": "MultiPolygon","coordinates": [[[[-85.0393,10.1894,25.3667],[-85.0396,10.1915,22.3689],[-85.036,10.1925,27.0998],[-85.0349,10.1964,29.0643],[-85.0306,10.1974,35.3731],[-85.0278,10.2008,31.5174],[-85.0263,10.1989,38.3312],[-85.029,10.1924,86.7343],[-85.0256,10.1865,33.1656],[-85.0097,10.1795,30.5675],[-85.0043,10.1736,19.1764],[-85.0023,10.1694,17.9851],[-85.0044,10.1652,24.6214],[-85.0039,10.1605,48.0192],[-84.9835,10.1507,52.1277],[-84.9812,10.1485,47.9312],[-84.9798,10.1415,40.6078],[-84.9773,10.1397,39.9487],[-84.9717,10.1393,51.5674],[-84.949,10.119,82.1075],[-84.9396,10.1146,81.2108],[-84.929,10.1148,47.6661],[-84.9216,10.1115,48.8053],[-84.9197,10.1091,37.7464],[-84.9243,10.1155,48.5281],[-84.9271,10.1149,42.4121],[-84.924,10.1198,61.7236],[-84.9291,10.1272,68.9398],[-84.9281,10.1286,51.0195],[-84.9256,10.128,69.9457],[-84.9248,10.1312,58.4267],[-84.927,10.138,73.8057],[-84.9298,10.1401,74.5617],[-84.9272,10.1471,71.9514],[-84.9317,10.1493,85.6477],[-84.9306,10.1519,84.3178],[-84.9326,10.1539,93.9673],[-84.9288,10.1594,103.8778],[-84.926,10.1593,111.27],[-84.92,10.1633,115.7069],[-84.9179,10.1623,119.1979],[-84.9213,10.1694,138.4864],[-84.9402,10.1847,145.1833],[-84.9453,10.1857,155.299],[-84.9459,10.1897,136.6098],[-84.9572,10.1996,72.8344],[-84.9634,10.2129,65.6752],[-84.9751,10.2219,85.224],[-84.9822,10.2343,77.7962],[-84.9913,10.2397,73.2348],[-84.9642,10.2691,145.6762],[-84.961,10.2683,150.4385],[-84.958,10.2711,161.2042],[-84.9537,10.2701,166.2249],[-84.9531,10.2746,214.8559],[-84.9511,10.2728,213.0279],[-84.9463,10.2746,273.9227],[-84.941,10.2728,337.2883],[-84.938,10.2884,302.5374],[-84.9398,10.296,529.1266],[-84.9425,10.2928,477.7212],[-84.9478,10.2918,447.4934],[-84.9563,10.2968,370.9551],[-84.9581,10.3006,453.2973],[-84.9568,10.3099,512.6315],[-84.954,10.3157,577.0706],[-84.9548,10.3255,394.2713],[-84.953,10.3264,394.2713],[-84.951,10.3329,422.3829],[-84.9434,10.3393,470.243],[-84.9414,10.3434,480.0367],[-84.9424,10.3585,839.5606],[-84.9448,10.3643,967.8053],[-84.9497,10.3656,970.5795],[-84.9583,10.3507,541.8777],[-84.9673,10.3553,458.1701],[-84.9713,10.3591,439.0016],[-84.9765,10.3556,370.0421],[-84.9818,10.3553,389.1701],[-84.984,10.3569,337.4616],[-84.9869,10.3544,332.7199],[-84.9868,10.3506,332.7808],[-84.9892,10.3465,289.2607],[-84.9949,10.3451,267.2086],[-84.9957,10.3422,276.0495],[-84.9981,10.343,248.5837],[-84.9987,10.3407,256.9861],[-85.0059,10.3375,206.6248],[-85.0075,10.3339,175.1651],[-85.0144,10.3323,167.2706],[-85.015,10.3299,167.3021],[-85.0185,10.3299,165.2684],[-85.0206,10.3335,144.9869],[-85.0248,10.3319,122.6686],[-85.0247,10.3297,123.047],[-85.0273,10.3281,118.9913],[-85.0307,10.3286,124.3822],[-85.0334,10.331,114.9306],[-85.0383,10.3296,95.0807],[-85.0436,10.3212,73.6667],[-85.0446,10.3222,78.9249],[-85.0491,10.3185,75.5099],[-85.0514,10.319,64.1372],[-85.0545,10.3143,61.4684],[-85.0577,10.3131,55.452],[-85.0589,10.3077,47.2116],[-85.0569,10.3046,50.0675],[-85.0583,10.3022,53.2906],[-85.0549,10.3002,63.0771],[-85.0569,10.2986,40.162],[-85.0558,10.2951,40.0097],[-85.062,10.2943,35.5935],[-85.0648,10.2896,36.16],[-85.0637,10.288,38.1278],[-85.065,10.2858,35.9188],[-85.076,10.2879,32.6183],[-85.0816,10.292,30.4561],[-85.0889,10.2941,28.7701],[-85.0925,10.2931,31.5207],[-85.0919,10.2914,25.9535],[-85.0953,10.2895,28.0781],[-85.0999,10.2907,23.3749],[-85.1031,10.2878,27.5014],[-85.1035,10.2894,19.8303],[-85.107,10.2909,20.6656],[-85.1189,10.2905,11.3564],[-85.1214,10.2854,13.6344],[-85.1243,10.2857,11.0604],[-85.1283,10.2833,17.0073],[-85.1251,10.2802,11.3365],[-85.1203,10.2788,8.9734],[-85.1112,10.2826,6.7037],[-85.104,10.2812,11.9671],[-85.0941,10.2728,21.1769],[-85.0824,10.2671,26.1053],[-85.0705,10.2683,28.4877],[-85.0696,10.27,33.2788],[-85.0681,10.2644,38.6863],[-85.0615,10.2645,43.6948],[-85.0619,10.2621,42.654],[-85.0591,10.2629,42.812],[-85.0603,10.2586,44.4827],[-85.0566,10.2577,44.7266],[-85.0552,10.2541,55.7767],[-85.0556,10.2476,51.2614],[-85.0342,10.2257,51.7194],[-85.0322,10.2256,48.9245],[-85.0296,10.2204,35.4619],[-85.03,10.2174,35.6625],[-85.0268,10.2148,32.1339],[-85.0288,10.2138,41.3742],[-85.0288,10.2105,33.0492],[-85.0313,10.2085,29.1852],[-85.0342,10.2085,24.8056],[-85.0369,10.2045,31.9571],[-85.0379,10.2065,30.4146],[-85.0396,10.2056,41.772],[-85.0384,10.2038,36.0861],[-85.0394,10.2015,34.552],[-85.0364,10.1976,22.7233],[-85.0386,10.1967,30.4897],[-85.0404,10.193,26.7338],[-85.0411,10.1908,22.3689],[-85.0393,10.1894,25.3667]]]]}}