{"type":"Feature","properties":{"GID_2":"CRI.6.11_1","GID_0":"CRI","country":"CostaRica","GID_1":"CRI.6_1","province":"Puntarenas","NL_NAME_1":"NA","county":"Puntarenas","VARNAME_2":"NA","NL_NAME_2":"NA","TYPE_2":"Cantón","ENGTYPE_2":"Canton","CC_2":"1","HASC_2":"CR.PU.PU","name":"Puntarenas.county"},
"geometry":{"type": "MultiPolygon","coordinates": [[[[-87.1018,5.5089,0.0],[-87.1014,5.5087,0.0],[-87.1012,5.5092,0.0],[-87.1017,5.5093,0.0],[-87.1018,5.5089,0.0]]],
[[[-87.1005,5.5129,0.0],[-87.0997,5.5131,0.0],[-87.0997,5.5134,0.0],[-87.1001,5.5135,0.0],[-87.1005,5.5129,0.0]]],
[[[-87.0361,5.5216,0.0],[-87.0361,5.5215,0.0],[-87.0352,5.5214,0.0],[-87.0357,5.5218,0.0],[-87.0361,5.5216,0.0]]],
[[[-87.093,5.5156,0.0],[-87.093,5.5155,0.0],[-87.0928,5.5156,100.7622],[-87.093,5.5157,0.0],[-87.093,5.5156,0.0]]],
[[[-87.049,5.5173,0.0],[-87.0489,5.5172,0.0],[-87.0489,5.5173,0.0],[-87.049,5.5173,0.0]]],
[[[-87.0919,5.5139,73.2427],[-87.0918,5.5139,73.2427],[-87.0919,5.514,73.2427],[-87.0919,5.5139,73.2427]]],
[[[-87.0932,5.5141,0.0],[-87.0931,5.514,0.0],[-87.093,5.5141,0.0],[-87.0931,5.5141,0.0],[-87.0932,5.5141,0.0]]],
[[[-87.0686,5.5038,0.0],[-87.0679,5.5042,-0.0226],[-87.0687,5.5051,0.0],[-87.069,5.5041,0.0],[-87.0686,5.5038,0.0]]],
[[[-87.0567,5.5058,0.0],[-87.0565,5.5056,0.0],[-87.0563,5.5059,0.0],[-87.0566,5.506,0.0],[-87.0567,5.5058,0.0]]],
[[[-87.0856,5.5076,0.0],[-87.0855,5.5074,0.0],[-87.0853,5.5077,0.0],[-87.0855,5.5077,0.0],[-87.0856,5.5076,0.0]]],
[[[-87.0545,5.5089,0.0],[-87.0542,5.5092,0.0],[-87.0549,5.509,0.0],[-87.0546,5.5088,0.0],[-87.0545,5.5089,0.0]]],
[[[-87.0895,5.5126,35.3975],[-87.0894,5.5126,35.3975],[-87.0893,5.5126,35.3975],[-87.0894,5.5127,35.3975],[-87.0895,5.5126,35.3975]]],
[[[-87.0925,5.5131,8.7015],[-87.0924,5.513,8.7015],[-87.0924,5.5131,8.7015],[-87.0925,5.5131,8.7015]]],
[[[-87.0551,5.5134,0.0],[-87.0549,5.5132,0.0],[-87.0548,5.5131,0.0],[-87.055,5.5135,0.0],[-87.0551,5.5134,0.0]]],
[[[-87.0938,5.5135,0.0],[-87.0937,5.5135,0.0],[-87.0938,5.5136,0.0],[-87.0938,5.5135,0.0]]],
[[[-87.0463,5.5628,0.0901],[-87.0478,5.5626,0.0941],[-87.0481,5.559,0.8775],[-87.047,5.5596,0.0],[-87.0463,5.5628,0.0901]]],
[[[-85.1109,9.5404,0.0],[-85.1121,9.544,0.4773],[-85.1137,9.5425,0.0],[-85.1135,9.5379,0.0],[-85.1118,9.5372,0.3196],[-85.1109,9.5404,0.0]]],
[[[-84.918,9.7849,19.058],[-84.9181,9.785,19.058],[-84.9183,9.7846,19.058],[-84.9181,9.7847,19.058],[-84.918,9.7849,19.058]]],
[[[-84.8904,9.7819,0.1788],[-84.8903,9.7814,0.1788],[-84.8896,9.782,0.1788],[-84.8898,9.7821,0.0],[-84.8904,9.7819,0.1788]]],
[[[-84.8358,9.8252,30.4236],[-84.8421,9.8261,0.0],[-84.8423,9.8234,0.0],[-84.8378,9.8214,13.6699],[-84.8327,9.8231,20.8018],[-84.8277,9.8207,29.3964],[-84.8236,9.8228,4.0551],[-84.8336,9.8253,28.4633],[-84.8358,9.8252,30.4236]]],
[[[-84.8488,9.8229,17.7917],[-84.8514,9.8244,0.0],[-84.8526,9.8232,20.8386],[-84.8592,9.8235,27.2803],[-84.8651,9.8193,0.0],[-84.8627,9.8164,0.0],[-84.86,9.816,0.0],[-84.8606,9.8176,51.828],[-84.8489,9.8212,24.0869],[-84.8476,9.8222,0.0],[-84.8488,9.8229,17.7917]]],
[[[-85.0307,9.6741,0.0],[-85.031,9.6741,0.0],[-85.031,9.674,0.0],[-85.0307,9.6739,0.0],[-85.0307,9.6741,0.0]]],
[[[-85.0324,9.6745,0.0],[-85.0327,9.6743,0.0],[-85.0326,9.6741,0.0],[-85.0323,9.6742,0.0],[-85.0324,9.6745,0.0]]],
[[[-84.8988,9.7671,0.0],[-84.8987,9.7669,0.0],[-84.8985,9.7668,0.0],[-84.8985,9.7671,0.0],[-84.8988,9.7671,0.0]]],
[[[-84.8935,9.7729,13.3403],[-84.8963,9.7738,0.0],[-84.9016,9.7717,0.0],[-84.8951,9.7635,0.0],[-84.8907,9.7641,0.0],[-84.8904,9.7668,0.0],[-84.8886,9.767,0.0],[-84.8864,9.7706,36.4984],[-84.8838,9.7701,0.7035],[-84.8868,9.7731,5.4507],[-84.8882,9.772,43.4881],[-84.8935,9.7729,13.3403]]],
[[[-84.8823,9.7705,0.0],[-84.8824,9.7698,0.0732],[-84.8819,9.7693,0.0732],[-84.8818,9.7707,0.0],[-84.8823,9.7705,0.0]]],
[[[-84.8808,9.7707,0.0],[-84.8811,9.7706,0.0],[-84.881,9.7705,0.0],[-84.8808,9.7705,0.0],[-84.8808,9.7707,0.0]]],
[[[-84.8993,9.7819,10.716],[-84.9002,9.7849,7.2215],[-84.904,9.7836,0.0],[-84.9032,9.7794,30.4299],[-84.9054,9.7774,8.9344],[-84.9029,9.7735,0.0],[-84.8975,9.7764,8.0316],[-84.8977,9.7814,10.716],[-84.8993,9.7819,10.716]]],
[[[-85.0816,9.5961,1.2661],[-85.0803,9.5935,0.0],[-85.0801,9.5934,0.0],[-85.0806,9.5965,1.2661],[-85.0816,9.5961,1.2661]]],
[[[-87.048,5.556,0.6476],[-87.0507,5.5565,-0.0157],[-87.0497,5.5521,105.5295],[-87.0529,5.5501,80.7593],[-87.0577,5.551,0.0],[-87.0599,5.549,15.6647],[-87.062,5.5497,9.2504],[-87.062,5.5483,8.321],[-87.0567,5.5465,11.1207],[-87.0565,5.5425,9.4494],[-87.0586,5.5438,0.0],[-87.0603,5.5417,29.4942],[-87.0654,5.5413,23.9336],[-87.0695,5.5416,37.7467],[-87.0711,5.5433,1.3088],[-87.0746,5.5407,10.9822],[-87.0794,5.5412,6.9491],[-87.0825,5.5396,32.9659],[-87.0845,5.5351,270.2872],[-87.091,5.5315,10.8356],[-87.0889,5.5291,63.4731],[-87.0918,5.5265,15.8502],[-87.0904,5.5259,148.0653],[-87.0908,5.5235,222.0409],[-87.0942,5.5214,0.0],[-87.0945,5.5192,5.2625],[-87.0914,5.518,133.0052],[-87.0918,5.5148,73.2427],[-87.0888,5.5132,80.1924],[-87.0847,5.5085,192.9783],[-87.0848,5.5063,0.0],[-87.0835,5.507,49.0286],[-87.0834,5.5055,49.0286],[-87.0799,5.5042,71.3389],[-87.0794,5.5008,0.0],[-87.0741,5.4986,0.0],[-87.0721,5.5046,20.6121],[-87.0686,5.5079,126.4303],[-87.0669,5.5124,47.4823],[-87.064,5.5104,0.0],[-87.0618,5.511,4.2263],[-87.0567,5.5132,0.0],[-87.0514,5.5187,0.0],[-87.0447,5.5184,0.0],[-87.0434,5.5223,70.196],[-87.0412,5.5225,17.8754],[-87.0399,5.5249,94.4736],[-87.0361,5.5256,78.9386],[-87.034,5.5243,21.6503],[-87.0301,5.5273,0.0],[-87.0305,5.5292,5.7402],[-87.0286,5.5319,0.0],[-87.0276,5.5325,17.3085],[-87.028,5.537,13.4965],[-87.0332,5.5496,9.9125],[-87.0371,5.551,6.2571],[-87.043,5.5477,15.4408],[-87.0461,5.5497,44.7638],[-87.0449,5.5535,0.0],[-87.048,5.556,0.6476]]],
[[[-87.0282,5.532,0.0],[-87.0281,5.5319,0.0],[-87.028,5.5319,0.0],[-87.0281,5.532,0.0],[-87.0282,5.532,0.0]]],
[[[-87.0837,5.5371,61.878],[-87.0838,5.5371,61.878],[-87.0838,5.537,188.9843],[-87.0837,5.537,188.9843],[-87.0837,5.5371,61.878]]],
[[[-87.0296,5.5416,2.4044],[-87.0296,5.5414,2.4044],[-87.0292,5.5415,2.4044],[-87.0293,5.5417,2.4044],[-87.0296,5.5416,2.4044]]],
[[[-87.0623,5.5437,0.0],[-87.0622,5.5437,0.0],[-87.0621,5.5438,0.0],[-87.0623,5.5438,0.0],[-87.0623,5.5437,0.0]]],
[[[-87.031,5.5453,0.0],[-87.0311,5.5451,0.0],[-87.0308,5.5452,0.0],[-87.0309,5.5453,0.0],[-87.031,5.5453,0.0]]],
[[[-87.082,5.5474,0.0],[-87.0819,5.5471,0.0],[-87.0817,5.5472,0.0],[-87.0819,5.5475,0.0],[-87.082,5.5474,0.0]]],
[[[-87.0328,5.5505,0.0],[-87.0327,5.5498,9.9125],[-87.0319,5.5507,0.0],[-87.0322,5.5508,0.0],[-87.0328,5.5505,0.0]]],
[[[-87.0642,5.5508,0.0],[-87.0641,5.5507,0.0],[-87.0641,5.5508,0.0],[-87.0642,5.5508,0.0]]],
[[[-87.0355,5.5513,6.2571],[-87.0354,5.5512,6.2571],[-87.0352,5.5513,0.0],[-87.0353,5.5514,0.0],[-87.0355,5.5513,6.2571]]],
[[[-87.0538,5.5542,0.0],[-87.0534,5.5544,0.0],[-87.0545,5.5553,0.0483],[-87.0545,5.5543,0.0483],[-87.0538,5.5542,0.0]]],
[[[-87.0318,5.5476,55.9032],[-87.0317,5.5475,55.9032],[-87.0317,5.5476,55.9032],[-87.0318,5.5476,55.9032]]],
[[[-85.1209,10.1012,3.6298],[-85.1215,10.1054,0.0],[-85.1175,10.104,3.586],[-85.1165,10.1011,0.0],[-85.1047,10.1071,0.0],[-85.1166,10.1098,4.5037],[-85.1257,10.1147,9.8576],[-85.1399,10.1176,4.1459],[-85.146,10.1214,0.0],[-85.1502,10.1196,7.7492],[-85.1506,10.1211,12.2946],[-85.1621,10.126,0.0],[-85.1796,10.1251,28.7128],[-85.1871,10.1197,10.0832],[-85.1907,10.119,0.0],[-85.194,10.1205,0.0],[-85.1977,10.1141,13.0672],[-85.1964,10.1105,7.1351],[-85.1902,10.105,0.0],[-85.1892,10.099,9.3471],[-85.1827,10.0842,4.4673],[-85.1729,10.0781,2.831],[-85.1575,10.0737,0.0],[-85.1349,10.0741,5.8189],[-85.1242,10.0787,0.0],[-85.1084,10.0816,0.0],[-85.0975,10.0875,52.4503],[-85.0938,10.0949,22.6936],[-85.1012,10.0983,3.0593],[-85.1012,10.097,21.1636],[-85.1086,10.0937,8.088],[-85.1143,10.094,0.0],[-85.115,10.0922,1.729],[-85.1183,10.0914,6.3896],[-85.1203,10.0918,8.3438],[-85.1195,10.0926,0.0],[-85.1221,10.095,13.5757],[-85.1209,10.1012,3.6298]]],
[[[-84.9463,10.0618,0.9041],[-84.9464,10.0616,0.9041],[-84.946,10.0613,0.9041],[-84.946,10.0616,0.9041],[-84.9463,10.0618,0.9041]]],
[[[-84.9749,10.0662,0.0],[-84.9743,10.0667,0.0],[-84.9754,10.0677,0.0],[-84.9763,10.0666,0.0],[-84.9749,10.0662,0.0]]],
[[[-84.9771,10.0697,0.0],[-84.9786,10.0698,0.0],[-84.9791,10.0693,0.0],[-84.9782,10.0686,0.0],[-84.9771,10.0697,0.0]]],
[[[-84.9975,10.0931,0.0],[-84.9959,10.0933,0.0],[-84.996,10.0955,0.0],[-84.9974,10.0945,0.0],[-84.9975,10.0931,0.0]]],
[[[-84.9105,9.8418,0.0],[-84.9104,9.8421,0.0],[-84.9106,9.8422,0.0],[-84.9108,9.842,0.0],[-84.9105,9.8418,0.0]]],
[[[-84.8893,9.8404,0.0],[-84.8874,9.8432,13.4718],[-84.8895,9.8456,0.0],[-84.8964,9.8404,0.0],[-84.895,9.8394,2.9296],[-84.8905,9.8414,9.0365],[-84.8893,9.8404,0.0]]],
[[[-85.2294,9.7336,0.0],[-85.2315,9.7339,0.0],[-85.2218,9.7236,3.1532],[-85.2167,9.7143,0.0],[-85.2147,9.7056,2.2508],[-85.2106,9.7017,0.0],[-85.2035,9.69,2.092],[-85.2034,9.6821,12.7869],[-85.1961,9.6681,0.0],[-85.1868,9.6614,9.641],[-85.1777,9.6495,2.0724],[-85.1514,9.6243,0.0],[-85.1462,9.6154,3.7033],[-85.1448,9.6155,8.2772],[-85.1445,9.6126,0.0],[-85.1469,9.6094,0.0],[-85.1457,9.6069,0.0],[-85.143,9.6063,5.0196],[-85.1444,9.6039,0.0],[-85.1424,9.5992,0.0],[-85.1442,9.5969,9.4796],[-85.1431,9.5947,8.6464],[-85.1442,9.5929,12.3305],[-85.1412,9.5804,0.0],[-85.1386,9.5812,5.0133],[-85.1356,9.5785,7.6372],[-85.1365,9.5765,0.0],[-85.1345,9.5774,7.6372],[-85.1329,9.5762,4.248],[-85.1334,9.5731,1.6099],[-85.1312,9.5721,11.9785],[-85.1256,9.5753,0.0],[-85.1217,9.5734,0.0],[-85.1142,9.5651,0.0],[-85.1169,9.56,0.0],[-85.1108,9.5584,0.0],[-85.1114,9.5621,91.2234],[-85.1068,9.5674,7.0848],[-85.1024,9.5694,48.331],[-85.0962,9.5676,0.0],[-85.0912,9.571,0.0],[-85.0925,9.5859,0.0],[-85.0888,9.5904,4.4233],[-85.0844,9.5999,0.0],[-85.0845,9.6049,0.0],[-85.0779,9.6156,5.4629],[-85.0779,9.6284,2.2156],[-85.0739,9.6331,0.0],[-85.073,9.6445,10.224],[-85.0689,9.6491,12.3955],[-85.0678,9.6536,4.6426],[-85.0581,9.66,2.6819],[-85.0554,9.6663,0.0],[-85.042,9.6715,1.1364],[-85.0405,9.6748,0.4715],[-85.0384,9.6753,0.0],[-85.0393,9.6781,0.0],[-85.0371,9.6808,0.0],[-85.0307,9.6841,7.2151],[-85.0074,9.69,2.5417],[-85.0039,9.6953,0.0],[-84.9988,9.6988,6.9749],[-84.9983,9.7025,31.6972],[-84.9948,9.7053,0.8351],[-85.0007,9.7128,7.6067],[-85.0144,9.7134,17.6092],[-85.0161,9.7155,0.0],[-85.0169,9.7236,0.952],[-85.0148,9.732,7.2199],[-85.0087,9.7407,4.8671],[-85.0008,9.7464,0.0],[-84.993,9.7482,0.0],[-84.9912,9.7471,0.0],[-84.992,9.7457,0.0],[-84.9859,9.7434,0.0],[-84.9869,9.7407,0.0],[-84.9784,9.7399,13.5359],[-84.9761,9.736,9.3838],[-84.9764,9.7335,5.9995],[-84.9737,9.7308,0.0],[-84.9693,9.7312,54.7234],[-84.9639,9.7283,0.0],[-84.9611,9.7294,79.1915],[-84.9588,9.7265,0.0],[-84.955,9.7276,17.7776],[-84.9535,9.7286,0.0],[-84.9539,9.731,68.5884],[-84.9503,9.7329,0.0],[-84.953,9.7355,30.4902],[-84.9513,9.7381,11.0788],[-84.952,9.7418,12.8425],[-84.956,9.7474,40.9874],[-84.9531,9.7528,81.0656],[-84.9543,9.7565,23.0264],[-84.951,9.7593,32.6191],[-84.9476,9.7584,0.0],[-84.9472,9.7601,36.6917],[-84.9429,9.7613,17.3982],[-84.936,9.757,0.0],[-84.9339,9.7571,0.0],[-84.9324,9.7622,101.2813],[-84.929,9.7636,8.6308],[-84.9308,9.7734,40.3019],[-84.9189,9.7848,19.058],[-84.9248,9.7835,41.6444],[-84.924,9.792,0.0],[-84.9188,9.7949,47.1473],[-84.9078,9.7958,45.8415],[-84.901,9.7983,4.9154],[-84.9038,9.8022,34.5236],[-84.9006,9.811,2.7554],[-84.8971,9.8146,1.234],[-84.8803,9.8127,9.592],[-84.8775,9.8163,11.9127],[-84.8796,9.8164,23.4512],[-84.8802,9.8186,3.8832],[-84.8769,9.8224,89.8751],[-84.8749,9.8239,124.8275],[-84.8717,9.8227,28.506],[-84.8683,9.8236,0.0],[-84.8638,9.8292,0.0],[-84.8652,9.8304,3.9701],[-84.8684,9.8284,40.0223],[-84.8713,9.831,0.0],[-84.8956,9.8342,0.0],[-84.8992,9.8309,22.9421],[-84.9111,9.8271,0.0],[-84.9145,9.8244,3.4043],[-84.9177,9.8273,0.0],[-84.9206,9.8249,8.2206],[-84.9212,9.8256,8.8774],[-84.9195,9.8273,0.0],[-84.922,9.8276,4.4463],[-84.9227,9.8293,1.1345],[-84.9245,9.8287,5.9265],[-84.9246,9.8306,1.8684],[-84.9322,9.8357,6.1064],[-84.9344,9.8353,13.514099999999999],[-84.9293,9.8395,3.3142],[-84.9297,9.8408,7.3629],[-84.9235,9.8431,1.4679],[-84.9228,9.8457,4.0718],[-84.9242,9.8468,7.0767],[-84.9229,9.8509,11.3929],[-84.9191,9.8531,23.683],[-84.9166,9.8521,5.8585],[-84.9121,9.8554,1.9041],[-84.9103,9.8532,0.0],[-84.9061,9.8528,6.9302],[-84.9091,9.8549,3.5952],[-84.9096,9.8586,0.0],[-84.9146,9.8589,4.2885],[-84.9161,9.8613,9.0098],[-84.9204,9.861,15.9793],[-84.9214,9.8645,0.0],[-84.9197,9.8669,5.0845],[-84.9227,9.8717,2.6822],[-84.9332,9.8751,23.9687],[-84.9345,9.8784,10.0796],[-84.9359,9.8777,10.0796],[-84.9378,9.8805,3.3938],[-84.9353,9.8892,0.0],[-84.9334,9.8903,0.0],[-84.9328,9.8976,16.65],[-84.9325,9.8975,16.65],[-84.9317,9.8961,0.0],[-84.9276,9.9013,14.3057],[-84.9224,9.9012,13.9108],[-84.9142,9.904,21.1092],[-84.9208,9.9158,8.069],[-84.9194,9.9211,9.6504],[-84.9213,9.9254,7.9101],[-84.9307,9.9252,10.2829],[-84.9346,9.9268,11.2254],[-84.936,9.9286,0.0],[-84.9335,9.9321,0.0],[-84.9353,9.9313,3.4729],[-84.9378,9.9334,7.0777],[-84.9506,9.9358,0.0],[-84.9568,9.9386,9.0332],[-84.9593,9.9418,10.0847],[-84.9641,9.9376,1.0223],[-84.9716,9.9413,0.0],[-84.9747,9.9382,13.211],[-84.9782,9.9388,0.0],[-84.981,9.9361,3.6119],[-84.9848,9.9384,5.8052],[-84.9905,9.9369,5.6126],[-84.9981,9.9401,3.2818],[-85.0013,9.9375,1.8402],[-85.0077,9.9379,3.8995],[-85.0209,9.949,3.6883],[-85.0239,9.959,1.6716],[-85.0298,9.9598,2.3981],[-85.0394,9.9638,2.177],[-85.0518,9.9758,0.0],[-85.0587,9.9753,0.0],[-85.0575,9.9716,3.5109],[-85.0597,9.9751,0.0],[-85.0613,9.9722,0.0],[-85.0659,9.9726,0.0],[-85.0669,9.9709,0.0],[-85.0639,9.9689,6.1695],[-85.0646,9.9678,4.7679],[-85.0722,9.9663,6.2557],[-85.0736,9.9671,0.7413],[-85.0713,9.9676,0.0],[-85.069,9.9711,0.0],[-85.0715,9.97,1.1056],[-85.0714,9.9714,0.0],[-85.0747,9.972,1.3753],[-85.0769,9.9686,1.2675],[-85.0792,9.9751,1.6646],[-85.0735,9.975,0.0],[-85.0785,9.9793,0.0],[-85.0949,9.9703,3.692],[-85.0955,9.9724,6.2129],[-85.0989,9.9743,0.0],[-85.1022,9.9753,3.6827],[-85.1047,9.9742,3.2045],[-85.1145,9.9799,2.9018],[-85.117,9.9754,6.7929],[-85.121,9.9792,4.1021],[-85.1206,9.9798,4.1021],[-85.1177,9.9781,2.7219],[-85.1159,9.9823,1.7811],[-85.119,9.9915,0.0],[-85.1229,9.9926,0.0],[-85.1255,9.9904,11.4682],[-85.1278,9.9918,1.9516],[-85.1298,9.9896,4.1736],[-85.1346,9.9916,4.8978],[-85.1534,10.0106,0.0],[-85.1616,10.0167,5.4489],[-85.1663,10.0113,8.6988],[-85.1704,10.0093,13.4227],[-85.1687,10.0081,13.1326],[-85.1688,10.0045,14.002],[-85.1616,9.9958,9.2192],[-85.1611,9.9876,18.8569],[-85.1636,9.9867,16.9621],[-85.1689,9.9803,18.5728],[-85.1724,9.9802,25.0873],[-85.1812,9.9765,26.4281],[-85.1802,9.976,26.4281],[-85.1813,9.973,28.2871],[-85.1856,9.9719,28.3865],[-85.1862,9.9702,34.2539],[-85.1906,9.9708,32.3571],[-85.1957,9.9689,40.8925],[-85.1977,9.9693,47.3335],[-85.1992,9.9711,43.6944],[-85.2032,9.9692,50.1964],[-85.2047,9.9709,51.9277],[-85.2126,9.9721,63.0156],[-85.2167,9.9711,76.8406],[-85.2184,9.9723,64.7322],[-85.222,9.969,73.9953],[-85.2339,9.9674,134.4898],[-85.2376,9.9677,140.7245],[-85.2432,9.972,306.9982],[-85.2481,9.9727,459.4419],[-85.2531,9.9648,525.2573],[-85.2631,9.9625,537.2181],[-85.2681,9.9633,651.3799],[-85.2713,9.9584,795.8284],[-85.273,9.9507,995.1221],[-85.2695,9.9461,787.0747],[-85.2713,9.943,720.5995],[-85.2683,9.9373,549.6493],[-85.2706,9.934,504.6681],[-85.2747,9.9327,473.4096],[-85.2779,9.9264,459.5071],[-85.2779,9.9229,429.56],[-85.2797,9.9217,360.3728],[-85.2772,9.9159,345.0684],[-85.2729,9.9158,307.3156],[-85.2721,9.9191,336.5098],[-85.2674,9.9153,307.9204],[-85.2642,9.9174,317.2091],[-85.2654,9.9139,283.6902],[-85.2619,9.9151,222.16],[-85.2587,9.9125,162.6419],[-85.2563,9.9143,167.5511],[-85.2509,9.909,142.5204],[-85.2468,9.9079,119.9109],[-85.2422,9.9103,109.5485],[-85.2392,9.91,112.1441],[-85.2376,9.9061,96.3387],[-85.2318,9.907,92.3243],[-85.2315,9.9036,89.4267],[-85.2285,9.9007,82.0144],[-85.2271,9.9006,82.0144],[-85.2272,9.9029,92.3902],[-85.2231,9.8994,79.7264],[-85.2237,9.9008,78.8667],[-85.2215,9.9026,74.6297],[-85.2166,9.9018,73.5586],[-85.2166,9.894,71.6305],[-85.2146,9.8901,60.309],[-85.2129,9.8882,58.7945],[-85.209,9.8905,62.1938],[-85.2106,9.8857,62.2462],[-85.2045,9.8856,57.088],[-85.2062,9.8831,51.6439],[-85.2043,9.8825,54.4626],[-85.2042,9.8764,47.2029],[-85.2001,9.8744,43.9213],[-85.2003,9.8686,43.8975],[-85.1969,9.867,46.5546],[-85.1982,9.8609,47.4313],[-85.1931,9.8599,36.167],[-85.1908,9.8562,54.2486],[-85.1836,9.8569,34.6119],[-85.1825,9.8534,35.9258],[-85.1759,9.8546,28.2271],[-85.1789,9.8461,51.1247],[-85.1814,9.8447,29.3235],[-85.1852,9.8455,31.2958],[-85.1862,9.8437,29.2867],[-85.1865,9.8401,27.3988],[-85.1841,9.8415,25.313],[-85.1835,9.8375,24.0856],[-85.1865,9.8351,38.3088],[-85.19,9.8359,32.474],[-85.1858,9.8319,34.3144],[-85.1889,9.8254,27.9938],[-85.1874,9.8201,28.9692],[-85.1845,9.8177,29.2418],[-85.1877,9.8165,32.6643],[-85.1889,9.8128,25.5194],[-85.1933,9.8136,21.3595],[-85.1889,9.8077,37.6148],[-85.1898,9.8035,26.5257],[-85.1935,9.8038,29.6437],[-85.1951,9.8021,23.0024],[-85.1932,9.7994,28.2709],[-85.195,9.7951,24.208],[-85.1902,9.7932,30.3161],[-85.1918,9.7894,19.5252],[-85.1945,9.7882,30.3118],[-85.194,9.7869,39.3438],[-85.1892,9.7812,28.4763],[-85.1865,9.7829,22.696],[-85.1838,9.7878,15.4028],[-85.1832,9.7836,20.061],[-85.18,9.7818,29.399],[-85.1847,9.7794,20.2734],[-85.188,9.7753,31.96],[-85.1929,9.7758,38.8989],[-85.199,9.7689,17.4509],[-85.1978,9.7637,7.7442],[-85.2008,9.7616,10.9877],[-85.1976,9.7576,14.6981],[-85.1987,9.7553,16.394],[-85.2035,9.755,7.7621],[-85.2036,9.7472,20.9715],[-85.2055,9.7477,7.4643],[-85.2068,9.7456,10.7618],[-85.2119,9.7463,8.2809],[-85.2103,9.7436,7.4646],[-85.2123,9.7411,7.3904],[-85.2192,9.7427,7.4776],[-85.2173,9.7369,9.4455],[-85.2179,9.7304,4.0799],[-85.2158,9.7293,3.7468],[-85.216,9.7274,4.2561],[-85.2259,9.73,2.0115],[-85.2294,9.7336,0.0]]],
[[[-84.8642,9.8487,6.7226],[-84.8625,9.8477,6.7226],[-84.8613,9.8478,4.0902],[-84.8624,9.8492,8.0187],[-84.8642,9.8487,6.7226]]],
[[[-84.9183,9.8504,0.0],[-84.9182,9.8502,0.0],[-84.918,9.8502,0.0],[-84.918,9.8505,0.0],[-84.9183,9.8504,0.0]]],
[[[-84.8675,9.8499,15.351],[-84.8681,9.8518,17.7338],[-84.8704,9.8525,0.0],[-84.8721,9.8513,17.4809],[-84.8768,9.8524,0.0],[-84.8788,9.85,9.2317],[-84.8811,9.8512,0.0],[-84.8828,9.8498,8.4878],[-84.883,9.8451,0.0],[-84.8805,9.8412,13.3953],[-84.8901,9.839,0.0],[-84.89,9.8372,10.2838],[-84.8842,9.8369,0.0],[-84.8778,9.8397,13.5434],[-84.8735,9.8397,0.0],[-84.8714,9.8412,0.0],[-84.8753,9.8429,2.0406],[-84.8731,9.8434,0.0],[-84.8764,9.845,2.3304],[-84.8649,9.8505,0.0],[-84.8675,9.8499,15.351]]],
[[[-84.9174,9.8473,2.379],[-84.9177,9.8467,0.0],[-84.9158,9.8476,0.0],[-84.9163,9.8477,2.379],[-84.9174,9.8473,2.379]]],
[[[-84.9132,9.8534,0.0],[-84.9133,9.8537,0.0],[-84.9135,9.8534,0.0],[-84.9135,9.8533,0.0],[-84.9132,9.8534,0.0]]],
[[[-84.9179,9.8666,0.0],[-84.9181,9.8666,5.0845],[-84.9182,9.8664,5.0845],[-84.9179,9.8664,0.0],[-84.9179,9.8666,0.0]]],
[[[-84.912,9.8691,0.0],[-84.9128,9.8686,0.0],[-84.9132,9.868,0.0],[-84.9116,9.8691,0.0],[-84.912,9.8691,0.0]]],
[[[-84.9105,9.869,0.0],[-84.9112,9.8685,0.0],[-84.9092,9.8692,0.0],[-84.909,9.8701,0.0],[-84.9098,9.8701,0.0],[-84.9105,9.869,0.0]]],
[[[-84.9081,9.8717,0.0],[-84.9081,9.8715,0.0],[-84.9086,9.871,0.0],[-84.9076,9.8715,0.0],[-84.9081,9.8717,0.0]]],
[[[-84.9213,9.8842,0.0],[-84.9201,9.8841,0.0],[-84.918,9.8853,0.0],[-84.9199,9.885,0.0],[-84.9213,9.8842,0.0]]],
[[[-84.9231,9.8892,10.2441],[-84.928,9.8912,6.2741],[-84.928,9.8877,4.6928],[-84.9231,9.883,0.0],[-84.9216,9.8887,0.0],[-84.9231,9.8892,10.2441]]],
[[[-84.8797,9.911,8.9882],[-84.8768,9.9115,7.4222],[-84.8791,9.9128,6.4889],[-84.8816,9.9107,0.0],[-84.8797,9.911,8.9882]]],
[[[-84.8999,9.923,9.8519],[-84.8989,9.9227,0.0],[-84.8999,9.925,38.2987],[-84.9025,9.9261,0.0],[-84.9025,9.9234,0.0],[-84.8999,9.923,9.8519]]],
[[[-84.9211,9.8821,5.8112],[-84.9202,9.8815,0.0],[-84.9172,9.8817,0.0],[-84.9208,9.8833,5.8112],[-84.9211,9.8821,5.8112]]],
[[[-84.9135,9.9276,0.0],[-84.9138,9.9272,0.0],[-84.913,9.9268,0.0],[-84.9129,9.927,0.0],[-84.9135,9.9276,0.0]]],
[[[-84.923,9.9278,0.0],[-84.9231,9.9274,0.0],[-84.9224,9.9273,0.0],[-84.9226,9.9278,0.0],[-84.923,9.9278,0.0]]],
[[[-84.9242,9.9277,0.0],[-84.9245,9.9276,0.0],[-84.9244,9.9274,0.0],[-84.9241,9.9274,0.0],[-84.9242,9.9277,0.0]]],
[[[-84.925299999999993,9.9282,0.0],[-84.9254,9.9277,0.0],[-84.925,9.9274,0.0],[-84.9249,9.9274,0.0],[-84.925299999999993,9.9282,0.0]]],
[[[-84.8934,9.9511,5.9629],[-84.9015,9.9543,0.0],[-84.9098,9.9526,0.0],[-84.9109,9.9511,0.0],[-84.9076,9.9501,0.0],[-84.9029,9.9522,17.2404],[-84.9023,9.9488,0.0],[-84.9059,9.944,4.0347],[-84.9085,9.9447,10.487],[-84.9122,9.9431,20.1813],[-84.9169,9.9456,0.0],[-84.9202,9.9451,0.0],[-84.9211,9.9435,0.0],[-84.9185,9.9414,0.0],[-84.9183,9.9351,0.0],[-84.9065,9.9307,9.8388],[-84.8952,9.9324,0.0],[-84.8909,9.9372,0.0],[-84.8964,9.9413,6.2713],[-84.8979,9.9453,3.9514],[-84.8962,9.95,4.3105],[-84.8934,9.9511,5.9629]]],
[[[-84.9234,9.9339,0.0],[-84.9237,9.9338,0.0],[-84.9234,9.9334,0.0],[-84.9231,9.9339,0.0],[-84.9234,9.9339,0.0]]],
[[[-84.9251,9.9343,0.0],[-84.9251,9.934,0.0],[-84.9247,9.9337,0.0],[-84.9246,9.9341,0.0],[-84.9251,9.9343,0.0]]],
[[[-85.0017,9.9949,14.807],[-85.0101,9.9964,7.0027],[-85.0134,9.9932,4.3988],[-85.0024,9.9926,17.4571],[-84.9957,9.9872,22.2369],[-84.9786,9.981,1.7893],[-84.9672,9.9811,40.7015],[-84.9643,9.9795,0.0],[-84.9615,9.9811,60.8832],[-84.9591,9.9806,8.4592],[-84.9601,9.9863,0.0],[-84.9669,9.9846,33.8082],[-84.9693,9.9854,18.9511],[-84.9704,9.9886,5.2759],[-84.9734,9.9874,0.0],[-84.9767,9.9895,6.0843],[-84.9882,9.9907,9.9374],[-84.9896,9.9926,5.7971],[-84.9888,9.9952,19.0762],[-84.9962,9.9935,23.4457],[-85.0017,9.9949,14.807]]],
[[[-85.0465,10.0061,0.0],[-85.0506,10.006,0.0],[-85.0405,9.9998,6.1286],[-85.0218,9.9957,10.7815],[-85.0184,9.9981,0.0],[-85.0208,10.0005,0.0],[-85.0246,10.0003,32.1944],[-85.0465,10.0061,0.0]]],
[[[-85.0629,9.9808,0.0],[-85.0632,9.9812,0.0],[-85.0641,9.9813,0.0],[-85.0633,9.9805,0.0],[-85.0629,9.9808,0.0]]],
[[[-85.075,9.9812,0.0],[-85.0748,9.9805,0.0],[-85.0735,9.9816,0.0],[-85.0742,9.9819,0.0],[-85.075,9.9812,0.0]]],
[[[-85.0604,9.9925,0.0],[-85.0661,9.9928,13.3992],[-85.0712,9.995,0.0],[-85.0709,9.9922,0.0],[-85.0741,9.9918,30.8211],[-85.0766,9.9889,0.0],[-85.0847,9.9895,0.0],[-85.0799,9.985,3.2691],[-85.0801,9.9837,0.0],[-85.0771,9.9836,0.0],[-85.0765,9.9874,16.7484],[-85.0755,9.986,3.1879],[-85.073,9.9861,11.1128],[-85.0727,9.9847,2.9427],[-85.0756,9.9847,0.0],[-85.0715,9.9816,0.0],[-85.0734,9.9807,0.0],[-85.0694,9.9794,0.0],[-85.0708,9.9811,0.0],[-85.0694,9.9816,1.5697],[-85.0671,9.9782,0.0],[-85.0668,9.9802,0.0],[-85.0658,9.9784,0.0],[-85.0644,9.9796,0.0],[-85.0676,9.9812,4.0354],[-85.0655,9.9827,11.5109],[-85.0646,9.981,0.0],[-85.0636,9.9827,7.6401],[-85.062,9.9808,0.0],[-85.0616,9.9819,1.2943],[-85.0559,9.9797,0.0],[-85.0419,9.9814,15.404],[-85.0503,9.9895,2.6068],[-85.0604,9.9925,0.0]]],
[[[-85.0678,9.9685,0.0],[-85.0678,9.9678,0.0],[-85.0673,9.9676,0.0],[-85.0672,9.9688,0.0],[-85.0678,9.9685,0.0]]],
[[[-85.069,9.9691,0.0],[-85.0684,9.9691,0.0],[-85.0683,9.9698,0.0],[-85.0691,9.9698,0.0],[-85.069,9.9691,0.0]]],
[[[-85.0764,9.9738,0.0],[-85.0768,9.9738,0.0],[-85.0771,9.9744,0.0],[-85.0765,9.9731,0.0],[-85.0764,9.9738,0.0]]],
[[[-85.0614,9.9739,0.0],[-85.062,9.9733,0.0],[-85.0611,9.973,0.0],[-85.0608,9.9741,0.0],[-85.0614,9.9739,0.0]]],
[[[-85.0617,9.9746,0.0],[-85.0642,9.9753,0.0],[-85.0647,9.9736,0.0],[-85.0629,9.9735,0.0],[-85.0617,9.9746,0.0]]],
[[[-85.0609,9.975,0.0],[-85.0606,9.9756,0.0],[-85.0616,9.9757,0.0],[-85.0614,9.9748,0.0],[-85.0609,9.975,0.0]]],
[[[-85.0692,9.9778,0.0],[-85.0729,9.9766,0.0],[-85.0697,9.9727,0.7652],[-85.0677,9.9734,0.0],[-85.0704,9.9746,0.6226],[-85.0702,9.976,2.9322],[-85.0687,9.9752,0.0],[-85.0679,9.9763,0.0],[-85.0697,9.9767,1.323],[-85.0688,9.9774,0.0],[-85.0692,9.9778,0.0]]],
[[[-85.0713,9.9794,0.0],[-85.0738,9.9803,0.8971],[-85.0743,9.9787,0.0],[-85.0728,9.9783,0.0],[-85.0742,9.9774,0.0],[-85.0702,9.9787,0.5005],[-85.0713,9.9794,0.0]]],
[[[-85.0598,9.9783,0.0],[-85.0613,9.98,0.0],[-85.0626,9.979,0.0],[-85.0592,9.9778,0.0],[-85.0598,9.9783,0.0]]],
[[[-85.0654,9.978,0.0],[-85.0658,9.9772,0.0],[-85.0631,9.9794,0.0],[-85.0639,9.9796,0.0],[-85.0654,9.978,0.0]]],
[[[-84.7392,9.9594,0.0],[-84.7368,9.9588,2.7287],[-84.7352,9.9607,6.0261],[-84.7287,9.9625,4.557],[-84.7202,9.968,16.0499],[-84.7186,9.97,3.4658],[-84.7188,9.9744,13.2547],[-84.7142,9.983,21.6944],[-84.7098,9.9851,40.3574],[-84.7048,9.992,34.0272],[-84.6956,9.9926,41.9813],[-84.6932,10.0018,48.9607],[-84.6844,10.002,119.375],[-84.6824,10.0065,64.4642],[-84.6787,10.0084,61.8085],[-84.6707,10.0067,124.1504],[-84.6673,10.0093,80.4397],[-84.6649,10.0183,147.0438],[-84.662,10.0213,105.1741],[-84.662,10.0301,127.3994],[-84.6635,10.0321,136.0676],[-84.6678,10.0328,168.6884],[-84.6696,10.0353,174.6471],[-84.675299999999993,10.0354,226.3131],[-84.6797,10.0335,289.5717],[-84.6819,10.0348,323.3831],[-84.6865,10.034,263.3546],[-84.6899,10.0374,142.2634],[-84.6925,10.0378,138.9288],[-84.6953,10.0419,118.5989],[-84.6962,10.0394,128.7481],[-84.6992,10.0388,105.7361],[-84.7018,10.041,94.3612],[-84.7062,10.0375,81.9666],[-84.7032,10.0349,139.1629],[-84.7024,10.0301,203.1762],[-84.7049,10.0266,323.9075],[-84.704,10.0233,377.9385],[-84.7061,10.0207,404.7689],[-84.7144,10.0269,209.5438],[-84.7195,10.0228,85.1653],[-84.7215,10.0189,48.4928],[-84.7257,10.0164,17.758],[-84.7266,10.0139,14.8373],[-84.7324,10.013,16.0358],[-84.7327,10.0094,33.1016],[-84.7373,10.0088,11.9531],[-84.7377,10.0154,14.2156],[-84.7397,10.0177,13.5812],[-84.7456,10.0177,6.8838],[-84.7445,10.0201,10.7733],[-84.7455,10.0232,38.0271],[-84.7622,10.0269,10.5245],[-84.7709,10.0429,20.0034],[-84.7837,10.0479,13.7592],[-84.7847,10.0509,17.968],[-84.7814,10.0544,16.2077],[-84.7791,10.0645,33.1095],[-84.7827,10.0672,36.8339],[-84.7869,10.0663,40.9796],[-84.7892,10.0685,48.7826],[-84.7886,10.07,34.7202],[-84.7912,10.0715,37.552],[-84.7901,10.075,52.1694],[-84.793,10.0788,55.3448],[-84.7888,10.0834,58.1793],[-84.7916,10.0856,79.9615],[-84.7946,10.0957,115.4386],[-84.7912,10.0973,111.808],[-84.7925,10.0979,108.6787],[-84.7914,10.1007,112.0982],[-84.7928,10.1024,116.2108],[-84.7954,10.1012,153.8257],[-84.8051,10.1048,163.5565],[-84.8095,10.1003,101.458],[-84.8121,10.1174,152.2069],[-84.8104,10.1252,166.6251],[-84.8023,10.1305,190.6001],[-84.799,10.1388,218.6214],[-84.7955,10.1409,184.167],[-84.7972,10.1454,226.7016],[-84.7961,10.1474,222.162],[-84.7922,10.1449,252.9894],[-84.7889,10.1463,227.4274],[-84.7825,10.1533,244.733],[-84.7783,10.1509,255.7664],[-84.7696,10.1535,298.6746],[-84.7637,10.158,298.6987],[-84.7572,10.1694,359.5257],[-84.7491,10.1742,431.5976],[-84.7419,10.1836,473.5386],[-84.7391,10.1837,499.4277],[-84.7375,10.1873,543.351],[-84.7326,10.188,564.1151],[-84.7289,10.191,536.8541],[-84.7273,10.196,571.3251],[-84.7186,10.206,619.1744],[-84.716,10.2079,615.2016],[-84.7141,10.2067,650.6186],[-84.7142,10.2084,615.2016],[-84.7111,10.2108,656.3099],[-84.7057,10.2144,806.5276],[-84.7022,10.2149,849.3451],[-84.6979,10.2195,809.5665],[-84.6944,10.2186,856.5333],[-84.6885,10.2214,834.4122],[-84.6879,10.2239,862.8621],[-84.6829,10.2267,864.7875],[-84.682,10.2367,977.675],[-84.6788,10.2391,1012.1804],[-84.6788,10.243,1017.5289],[-84.6822,10.2465,1087.356],[-84.6851,10.2563,1208.0356],[-84.6893,10.2601,1245.9697],[-84.6903,10.2645,1369.7004],[-84.6886,10.2649,1352.6606],[-84.688,10.268,1392.9783],[-84.6892,10.2732,1472.4041],[-84.6923,10.2743,1537.1945],[-84.6944,10.2709,1595.036],[-84.6971,10.2707,1658.4167],[-84.6977,10.2673,1620.5488],[-84.7006,10.2659,1652.7791],[-84.7022,10.263,1658.8921],[-84.7081,10.2635,1711.4702],[-84.7141,10.2671,1731.2617],[-84.7227,10.2684,1783.2162],[-84.7211,10.2616,1753.6302],[-84.7237,10.2562,1770.8799],[-84.7285,10.255,1739.3477],[-84.7317,10.2504,1766.9492],[-84.7379,10.2534,1723.3949],[-84.7449,10.2524,1671.8589],[-84.7483,10.2551,1658.4614],[-84.7551,10.2552,1653.4807],[-84.7658,10.2625,1724.4861],[-84.7639,10.2687,1705.0774],[-84.7662,10.2699,1667.0482],[-84.7669,10.2796,1506.7072],[-84.7707,10.2801,1482.7244],[-84.782,10.2912,1539.0178],[-84.7832,10.2984,1555.2336],[-84.786,10.3014,1605.3621],[-84.7866,10.308,1621.0212],[-84.7933,10.3172,1799.291],[-84.794,10.3232,1782.2069],[-84.7967,10.3256,1756.2903],[-84.8035,10.3257,1787.1707],[-84.805,10.3309,1740.3914],[-84.8153,10.3305,1535.6705],[-84.8276,10.3372,1495.3516],[-84.8374,10.3302,1346.7035],[-84.8412,10.319,1189.6539],[-84.8434,10.3167,1173.667],[-84.8447,10.3113,1044.3134],[-84.8432,10.3035,926.0832],[-84.8438,10.294,852.0042],[-84.8466,10.2886,787.9995],[-84.855,10.2843,653.3212],[-84.8586,10.2843,643.6165],[-84.8631,10.2811,548.3046],[-84.8659,10.2698,483.2977],[-84.8723,10.2613,427.1826],[-84.8706,10.248,360.7672],[-84.8726,10.2414,351.6284],[-84.8768,10.2376,340.4999],[-84.8789,10.2276,296.6824],[-84.8869,10.2228,283.5602],[-84.8891,10.2187,327.1068],[-84.8895,10.2124,256.9124],[-84.8873,10.2118,253.88],[-84.8784,10.2019,221.5322],[-84.8744,10.2002,242.0032],[-84.8749,10.1883,187.709],[-84.885,10.1813,175.6884],[-84.8905,10.1798,170.9599],[-84.8937,10.1816,156.235],[-84.899,10.1805,185.2022],[-84.9007,10.1781,148.8068],[-84.9043,10.179,149.4558],[-84.9089,10.1744,129.3054],[-84.9118,10.1743,153.068],[-84.9127,10.1683,131.7878],[-84.9167,10.1628,119.1979],[-84.92,10.1633,115.7069],[-84.926,10.1593,111.27],[-84.9288,10.1594,103.8778],[-84.9326,10.1539,93.9673],[-84.9306,10.1519,84.3178],[-84.9317,10.1493,85.6477],[-84.9272,10.1471,71.9514],[-84.9298,10.1401,74.5617],[-84.927,10.138,73.8057],[-84.9248,10.1312,58.4267],[-84.9256,10.128,69.9457],[-84.9281,10.1286,51.0195],[-84.9291,10.1272,68.9398],[-84.924,10.1198,61.7236],[-84.9271,10.1149,42.4121],[-84.9243,10.1155,48.5281],[-84.9197,10.1091,37.7464],[-84.9203,10.1093,56.4432],[-84.9216,10.1115,48.8053],[-84.929,10.1148,47.6661],[-84.9396,10.1146,81.2108],[-84.949,10.119,82.1075],[-84.9717,10.1393,51.5674],[-84.9773,10.1397,39.9487],[-84.9798,10.1415,40.6078],[-84.9812,10.1485,47.9312],[-84.9835,10.1507,52.1277],[-85.0039,10.1605,48.0192],[-85.0044,10.1652,24.6214],[-85.0023,10.1694,17.9851],[-85.0043,10.1736,19.1764],[-85.0097,10.1795,30.5675],[-85.0256,10.1865,33.1656],[-85.029,10.1924,86.7343],[-85.0263,10.1989,38.3312],[-85.0278,10.2008,31.5174],[-85.0306,10.1974,35.3731],[-85.0349,10.1964,29.0643],[-85.036,10.1925,27.0998],[-85.0398,10.1912,22.3689],[-85.0366,10.1878,24.5073],[-85.0382,10.1823,13.5318],[-85.0356,10.1821,10.9107],[-85.0366,10.1803,11.8339],[-85.0343,10.1767,11.7534],[-85.0357,10.1746,25.5351],[-85.0346,10.1719,13.9107],[-85.0317,10.1689,10.6185],[-85.0316,10.1704,10.6185],[-85.0275,10.1693,22.7125],[-85.0279,10.1652,16.8779],[-85.0299,10.1627,18.9966],[-85.0277,10.1593,12.8818],[-85.0394,10.1594,10.8616],[-85.0415,10.1635,9.2121],[-85.0426,10.1606,16.236],[-85.0485,10.1597,8.7878],[-85.0582,10.1669,4.8428],[-85.058,10.1643,10.7568],[-85.0605,10.166,8.6175],[-85.0607,10.1627,16.7948],[-85.0623,10.1621,20.4541],[-85.067,10.1672,7.6118],[-85.0685,10.1643,12.9928],[-85.0664,10.1591,29.7216],[-85.0691,10.1583,5.2586],[-85.0738,10.1599,8.0752],[-85.076,10.1578,19.8707],[-85.0759,10.1551,8.0055],[-85.0708,10.152,21.0847],[-85.0698,10.1491,4.2383],[-85.0723,10.1441,8.1929],[-85.0781,10.144,2.3185],[-85.0793,10.1425,0.8148],[-85.0779,10.1368,1.1613],[-85.0755,10.1352,0.0],[-85.0626,10.135,6.4225],[-85.0625,10.1332,0.8807],[-85.0588,10.1332,2.1617],[-85.0502,10.1407,9.0912],[-85.046,10.1409,3.6486],[-85.0435,10.1374,0.0],[-85.0364,10.1332,4.7326],[-85.0255,10.1314,0.909],[-85.0242,10.128,0.0],[-85.0163,10.1244,5.8383],[-85.0138,10.1172,25.5113],[-85.0089,10.1142,3.1322],[-85.0032,10.1029,1.4825],[-84.9872,10.0972,19.4586],[-84.984,10.0947,0.0],[-84.9723,10.0918,0.0],[-84.9632,10.0851,0.0],[-84.959,10.0781,5.4582],[-84.9584,10.07,1.4674],[-84.9569,10.0685,0.0],[-84.9589,10.0672,1.1645],[-84.966,10.0688,0.0],[-84.9684,10.0668,3.0848],[-84.9677,10.0643,1.7294],[-84.9575,10.063,0.0],[-84.9534,10.0588,3.6498],[-84.9448,10.0642,7.8982],[-84.9457,10.0607,0.9041],[-84.9427,10.0596,2.5],[-84.9423,10.058,9.3562],[-84.9449,10.0603,0.7247],[-84.9461,10.0592,0.7247],[-84.9429,10.0561,2.8352],[-84.941,10.0574,9.3562],[-84.9356,10.0511,9.137],[-84.9292,10.0399,0.0],[-84.9277,10.0403,4.1535],[-84.9279,10.0382,0.0],[-84.9257,10.0365,0.0],[-84.9236,10.0389,2.906],[-84.9201,10.0385,0.0],[-84.9208,10.0353,0.0],[-84.9107,10.0312,2.4183],[-84.9084,10.0274,1.7368],[-84.8986,10.0266,10.7495],[-84.8955,10.021,8.5968],[-84.8916,10.0201,5.3024],[-84.8895,10.0159,3.7863],[-84.8855,10.0143,6.7273],[-84.8842,10.0111,1.5218],[-84.8788,10.0074,3.4593],[-84.8747,10.008,5.345],[-84.8663,10.003,2.7037],[-84.8634,10.0044,16.3848],[-84.8623,10.0012,2.6504],[-84.8568,10.0002,0.0],[-84.8558,9.9975,1.6581],[-84.8527,9.9956,1.7557],[-84.8454,9.9951,3.3132],[-84.8423,9.9931,2.345],[-84.8416,9.9907,5.5619],[-84.8402,9.9898,0.0],[-84.8404,9.9916,5.5619],[-84.8388,9.9912,9.9193],[-84.8342,9.9864,1.3565],[-84.827,9.989,14.7516],[-84.8245,9.988,15.2735],[-84.827,9.9873,11.8102],[-84.8245,9.9859,11.0711],[-84.8186,9.9851,0.0],[-84.8062,9.9872,18.3095],[-84.7949,9.9823,0.0],[-84.7853,9.9822,6.8574],[-84.783,9.9866,6.352],[-84.7826,9.993,6.6551],[-84.7798,9.9955,9.6867],[-84.7715,9.9953,10.1207],[-84.7672,9.9935,8.9935],[-84.7681,9.9916,10.3916],[-84.7686,9.9931,9.0894],[-84.7676,9.9936,8.9935],[-84.7702,9.994,10.1207],[-84.7717,9.9949,10.1207],[-84.7808,9.9941,6.5663],[-84.7821,9.9837,4.3215],[-84.7842,9.9816,1.6402],[-84.8102,9.9817,5.0207],[-84.8146,9.9829,1.4693],[-84.8247,9.9789,0.3825],[-84.8307,9.9803,5.1725],[-84.8361,9.9799,3.5479],[-84.8427,9.9769,4.5683],[-84.8508,9.9775,0.0],[-84.8522,9.9765,0.0],[-84.8511,9.9753,0.0],[-84.8454,9.9737,0.0],[-84.8325,9.9743,2.2672],[-84.8081,9.9801,0.0],[-84.7741,9.9787,0.0],[-84.7415,9.9695,5.0558],[-84.7388,9.9672,5.6446],[-84.7392,9.9594,0.0]]]]}}