{"type": "Feature","bbox": [-84.3677,9.9143,-84.2778,9.97],"geometry": {"type": "MultiPolygon","coordinates": [[[[-84.3486,9.9636,468.88],[-84.3533,9.9579,419.6919],[-84.3533,9.9551,440.0807],[-84.3559,9.954,399.5697],[-84.3524,9.9489,394.0537],[-84.3566,9.9461,421.2742],[-84.3526,9.9445,367.675],[-84.3531,9.9415,385.6075],[-84.3582,9.935,356.9269],[-84.3626,9.9323,326.3376],[-84.3663,9.9327,321.6633],[-84.3677,9.9301,301.5892],[-84.3583,9.9224,370.0971],[-84.3547,9.9224,348.9861],[-84.3544,9.9192,336.6701],[-84.3516,9.9197,358.2107],[-84.349,9.9164,403.468],[-84.345,9.9173,405.944],[-84.3436,9.9155,399.7365],[-84.3385,9.915,432.1641],[-84.3346,9.9176,402.1031],[-84.3283,9.9143,412.7468],[-84.3269,9.9166,416.3959],[-84.321,9.9157,447.1237],[-84.3197,9.9203,425.6278],[-84.3151,9.9175,465.2953],[-84.311,9.9196,453.0936],[-84.3105,9.9231,469.7645],[-84.3056,9.9297,539.4121],[-84.3066,9.9327,523.2938],[-84.305,9.9363,545.6016],[-84.3014,9.936,586.2571],[-84.2956,9.9412,582.5131],[-84.2981,9.9438,602.2866],[-84.2968,9.9525,637.2506],[-84.2943,9.9547,649.6055],[-84.2789,9.9589,704.6053],[-84.2778,9.9634,753.0333],[-84.2805,9.9686,741.3699],[-84.2868,9.97,726.3429],[-84.2961,9.97,701.7838],[-84.300299999999993,9.9676,689.6981],[-84.3107,9.9694,662.7918],[-84.311,9.9669,658.8669],[-84.3139,9.9674,653.9398],[-84.323,9.964,615.1428],[-84.3387,9.9695,529.5198],[-84.3447,9.9672,510.8855],[-84.3458,9.9644,491.3163],[-84.3486,9.9636,468.88]]]]}
,"properties": {"GID_3": "CRI.1.1.14_1","GID_0": "CRI","country": "CostaRica","GID_1": "CRI.1_1","province": "Alajuela","NL_NAME_1": "NA","GID_2": "CRI.1.1_1","county": "Alajuela","NL_NAME_2": "NA","city": "Turrúcares","VARNAME_3": "NA","NL_NAME_3": "NA","TYPE_3": "Distrito","ENGTYPE_3": "District","CC_3": "11","HASC_3": "NA","name": "Turrúcares.city","area_km2": 36.21228,"hist_schema_id": "Elevation0-9000","hist_area_km2": {"275": 0.02088,"300": 0.02088,"325": 0.18796,"350": 0.35504,"375": 0.543,"400": 0.48034,"425": 0.50124,"450": 1.58723,"475": 2.88202,"500": 4.07243,"525": 3.67558,"550": 3.4876,"575": 3.8008,"600": 3.17427,"625": 3.13249,"650": 1.75419,"675": 2.40155,"700": 1.96299,"725": 1.50354,"750": 0.66823}}}