{"type": "Feature","bbox": [-84.4688,9.9215,-84.3819,9.9911],"geometry": {"type": "MultiPolygon","coordinates": [[[[-84.3819,9.9854,669.9714],[-84.3895,9.9853,698.3272],[-84.3969,9.9801,746.868],[-84.4066,9.9769,789.8309],[-84.414,9.977,824.8706],[-84.4151,9.9787,810.9776],[-84.4188,9.9788,848.4531],[-84.4228,9.9756,860.8433],[-84.4248,9.9763,873.9684],[-84.4266,9.975,891.2828],[-84.4357,9.9785,992.5864],[-84.4422,9.9765,1049.6337],[-84.4451,9.9798,992.9927],[-84.4504,9.9803,991.0208],[-84.4517,9.988,1107.1984],[-84.4541,9.9911,1229.5669],[-84.4554,9.9883,1123.8904],[-84.4536,9.9824,1040.4403],[-84.4546,9.9754,812.9859],[-84.4526,9.9691,780.6647],[-84.4536,9.9653,612.1767],[-84.4568,9.9605,533.6653],[-84.4623,9.9587,460.3696],[-84.4685,9.9517,418.4794],[-84.4671,9.9458,406.5665],[-84.4688,9.9384,269.7428],[-84.4626,9.9287,187.4202],[-84.4616,9.9215,217.3374],[-84.4574,9.9223,203.1119],[-84.4547,9.9293,321.7832],[-84.4511,9.9323,383.3208],[-84.4508,9.9474,746.2952],[-84.446,9.9575,815.6105],[-84.4431,9.9603,854.6658],[-84.4397,9.9607,928.8204],[-84.4378,9.9631,949.345],[-84.4364,9.9622,971.4382],[-84.4339,9.9656,976.6699],[-84.4283,9.9648,1011.4597],[-84.4214,9.9674,1020.8227],[-84.4201,9.9659,1015.3594],[-84.4119,9.967,1061.8347],[-84.4079,9.9649,974.9298],[-84.4054,9.9685,908.2213],[-84.4012,9.9693,838.4412],[-84.3954,9.9674,808.2181],[-84.3936,9.9707,774.3354],[-84.385,9.976,724.3915],[-84.3873,9.9818,725.1069],[-84.3856,9.9846,685.3494],[-84.3819,9.9854,669.9714]]]]}
,"properties": {"GID_3": "CRI.1.3.4_1","GID_0": "CRI","country": "CostaRica","GID_1": "CRI.1_1","province": "Alajuela","NL_NAME_1": "NA","GID_2": "CRI.1.3_1","county": "Atenas","NL_NAME_2": "NA","city": "Jesús","VARNAME_3": "NA","NL_NAME_3": "NA","TYPE_3": "Distrito","ENGTYPE_3": "District","CC_3": "2","HASC_3": "NA","name": "Jesús.city","area_km2": 17.97987,"hist_schema_id": "Elevation0-9000","hist_area_km2": {"175": 0.10442,"200": 0.04177,"225": 0.12531,"250": 0.22973,"275": 0.16708,"300": 0.18796,"325": 0.20884,"350": 0.14619,"375": 0.18796,"400": 0.20884,"425": 0.25061,"450": 0.43856,"475": 0.22972,"500": 0.27148,"525": 0.3759,"550": 0.39678,"575": 0.2506,"600": 0.54297,"625": 0.5012,"650": 0.64739,"675": 0.56384,"700": 0.56383,"725": 0.73087,"750": 1.08586,"775": 1.02323,"800": 0.87704,"825": 0.96058,"850": 0.87704,"875": 0.66822,"900": 0.83528,"925": 1.10674,"950": 0.98145,"975": 0.77263,"1000": 0.64734,"1025": 0.29235,"1050": 0.18793,"1075": 0.10441,"1100": 0.08352,"1125": 0.06264,"1175": 0.02088,"1225": 0.02088}}}