{"type":"Feature","properties":{"GID_2":"CRI.4.6_1","GID_0":"CRI","country":"CostaRica","GID_1":"CRI.4_1","province":"Heredia","NL_NAME_1":"NA","county":"SanPablo","VARNAME_2":"NA","NL_NAME_2":"NA","TYPE_2":"Cantón","ENGTYPE_2":"Canton","CC_2":"9","HASC_2":"CR.HE.SP","name":"San_Pablo.county"},
"geometry":{"type": "MultiPolygon","coordinates": [[[[-84.1087,9.9905,1142.8823],[-84.1113,9.9905,1127.2928],[-84.109,9.9834,1113.4724],[-84.1139,9.9713,1049.2744],[-84.1083,9.9761,1073.7142],[-84.1024,9.9741,1099.9456],[-84.1004,9.9752,1106.4043],[-84.0999,9.9826,1133.752],[-84.092,9.9884,1165.5146],[-84.09,9.9925,1179.0518],[-84.0832,9.9929,1205.6519],[-84.0833,9.9944,1206.3352],[-84.0759,9.9965,1222.0146],[-84.076,10.0033,1257.9233],[-84.074,10.0052,1271.8477],[-84.0752,10.0126,1351.5868],[-84.0913,10.0061,1234.4055],[-84.0937,10.0065,1242.4116],[-84.0933,10.0036,1228.0234],[-84.1053,10.0036,1188.1731],[-84.1088,9.9997,1155.1085],[-84.1087,9.9905,1142.8823]]]]}}