{"type": "Feature","bbox": [-84.035,9.9671,-84.0103,9.9848],"geometry": {"type": "MultiPolygon","coordinates": [[[[-84.0245,9.9671,1304.6365],[-84.0103,9.979,1370.4431],[-84.0135,9.9811,1352.566],[-84.0173,9.9801,1339.0861],[-84.0216,9.9848,1310.4974],[-84.0232,9.9814,1301.3088],[-84.0224,9.9771,1329.7296],[-84.0335,9.9711,1268.8049],[-84.035,9.9681,1261.7622],[-84.0257,9.9683,1297.6151],[-84.0245,9.9671,1304.6365]]]]}
,"properties": {"GID_3": "CRI.7.20.3_1","GID_0": "CRI","country": "CostaRica","GID_1": "CRI.7_1","province": "SanJosé","NL_NAME_1": "NA","GID_2": "CRI.7.20_1","county": "VázquezdeCoronado","NL_NAME_2": "NA","city": "Patalillo","VARNAME_3": "NA","NL_NAME_3": "NA","TYPE_3": "Distrito","ENGTYPE_3": "District","CC_3": "4","HASC_3": "NA","name": "Patalillo.city","area_km2": 1.983763,"hist_schema_id": "Elevation0-9000","hist_area_km2": {"1275": 0.208821,"1300": 0.33411,"1325": 0.960557,"1350": 0.459394,"1375": 0.020881}}}