{"type":"Feature","properties":{"GID_3":"CRI.1.3.7_1","GID_0":"CRI","country":"CostaRica","GID_1":"CRI.1_1","province":"Alajuela","NL_NAME_1":"NA","GID_2":"CRI.1.3_1","county":"Atenas","NL_NAME_2":"NA","city":"SanJosé","VARNAME_3":"NA","NL_NAME_3":"NA","TYPE_3":"Distrito","ENGTYPE_3":"District","CC_3":"6","HASC_3":"NA","name":"San_José.city"},
"geometry":{"type": "MultiPolygon","coordinates": [[[[-84.3854,9.9933,648.3079],[-84.3883,9.996,705.3467],[-84.3858,9.9968,710.2928],[-84.3854,10.0026,706.2559],[-84.3809,10.0049,684.5754],[-84.3948,10.0119,814.5498],[-84.3963,10.0173,1056.4866],[-84.3887,10.0257,1009.4587],[-84.3894,10.0314,948.2148],[-84.3922,10.0354,877.1489],[-84.3905,10.0386,769.7841],[-84.4033,10.0352,857.5419],[-84.4124,10.0275,1088.6384],[-84.4224,10.0246,1208.1035],[-84.4245,10.0156,1266.3727],[-84.4293,10.0133,1288.7988],[-84.4155,10.003,887.7236],[-84.4123,10.0031,870.1329],[-84.409,10.0006,816.2543],[-84.4092,9.9977,827.6348],[-84.404,9.9937,711.2782],[-84.3984,9.9956,713.7586],[-84.3977,9.9946,691.1993],[-84.3922,9.9974,689.0132],[-84.3866,9.9923,648.3079],[-84.3854,9.9933,648.3079]]]]}}