{"type": "Feature","bbox": [-84.0608,9.9994,-84.0455,10.0276],"geometry": {"type": "MultiPolygon","coordinates": [[[[-84.0539,10.0276,1426.9391],[-84.0572,10.0227,1389.4337],[-84.0589,10.0237,1390.7526],[-84.0602,10.0196,1361.8462],[-84.0592,10.0138,1322.728],[-84.0564,10.0125,1326.468],[-84.0555,10.0053,1283.6135],[-84.0608,9.9994,1242.5671],[-84.0482,10.0024,1289.9446],[-84.0455,10.0079,1290.3098],[-84.0478,10.0146,1317.3522],[-84.0515,10.0194,1362.0002],[-84.0509,10.0214,1368.9583],[-84.0539,10.0276,1426.9391]]]]}
,"properties": {"GID_3": "CRI.4.5.3_1","GID_0": "CRI","country": "CostaRica","GID_1": "CRI.4_1","province": "Heredia","NL_NAME_1": "NA","GID_2": "CRI.4.5_1","county": "SanIsidro","NL_NAME_2": "NA","city": "SanIsidro","VARNAME_3": "NA","NL_NAME_3": "NA","TYPE_3": "Distrito","ENGTYPE_3": "District","CC_3": "1","HASC_3": "NA","name": "San_Isidro.city","area_km2": 2.693429,"hist_schema_id": "Elevation0-9000","hist_area_km2": {"1250": 0.04176,"1275": 0.208799,"1300": 0.730789,"1325": 0.709896,"1350": 0.459338,"1375": 0.417575,"1400": 0.104393,"1425": 0.020878}}}