{"type": "Feature","bbox": [-83.8462,9.8325,-83.7664,9.9077],"geometry": {"type": "MultiPolygon","coordinates": [[[[-83.7872,9.892,1264.541],[-83.786,9.8875,1261.4023],[-83.7882,9.8859,1238.5131],[-83.7887,9.8815,1209.1713],[-83.7939,9.8754,1154.1462],[-83.8036,9.8711,1120.5361],[-83.8239,9.8769,1500.5725],[-83.8292,9.8864,1599.5602],[-83.8334,9.8834,1607.7031],[-83.838,9.8844,1647.9008],[-83.8439,9.8786,1632.2709],[-83.8462,9.8705,1556.5034],[-83.8396,9.8603,1398.7271],[-83.8416,9.8584,1387.5374],[-83.8409,9.8564,1377.3616],[-83.8353,9.8541,1289.6658],[-83.829,9.8428,1078.4575],[-83.8251,9.8416,1013.153],[-83.8234,9.8386,1013.2147],[-83.8163,9.8334,990.4799],[-83.8139,9.8325,997.1956],[-83.8093,9.8345,991.1823],[-83.8092,9.8361,1002.3297],[-83.8044,9.8399,992.647],[-83.8065,9.8425,974.1863],[-83.8039,9.8458,943.8271],[-83.8016,9.8454,962.934],[-83.8033,9.8489,930.9817],[-83.7997,9.8507,937.7696],[-83.8018,9.853,928.4864],[-83.7998,9.8542,944.9477],[-83.8029,9.8586,941.2501],[-83.8,9.8633,933.123],[-83.7947,9.8659,891.019],[-83.792,9.864,909.8959],[-83.7823,9.8652,838.4468],[-83.7796,9.8669,826.1129],[-83.7766,9.8658,825.9492],[-83.7728,9.8691,834.5688],[-83.7714,9.8726,796.3297],[-83.7664,9.8758,784.0847],[-83.774,9.8859,1026.788],[-83.7747,9.892,1059.9622],[-83.7781,9.8954,1220.8243],[-83.7801,9.9077,1468.2078],[-83.7811,9.8992,1407.0875],[-83.7836,9.8956,1377.835],[-83.7853,9.8955,1376.7775],[-83.7828,9.8936,1299.5846],[-83.7854,9.8922,1302.2379],[-83.7866,9.8939,1270.1249],[-83.7872,9.892,1264.541]]]]}
,"properties": {"GID_3": "CRI.2.7.5_1","GID_0": "CRI","country": "CostaRica","GID_1": "CRI.2_1","province": "Cartago","NL_NAME_1": "NA","GID_2": "CRI.2.7_1","county": "Paraíso","NL_NAME_2": "NA","city": "Santiago","VARNAME_3": "NA","NL_NAME_3": "NA","TYPE_3": "Distrito","ENGTYPE_3": "District","CC_3": "2","HASC_3": "NA","name": "Santiago.city","area_km2": 25.46332,"hist_schema_id": "Elevation0-9000","hist_area_km2": {"775": 0.06266,"800": 0.02089,"825": 0.20888,"850": 0.16711,"875": 0.20888,"900": 0.20889,"925": 0.43867,"950": 0.39688,"975": 0.45955,"1000": 2.40233,"1025": 1.54581,"1050": 1.77558,"1075": 1.29512,"1100": 1.25333,"1125": 0.89821,"1150": 1.0862,"1175": 0.75199,"1200": 0.75199,"1225": 0.93998,"1250": 1.71282,"1275": 0.98174,"1300": 0.50133,"1325": 0.66844,"1350": 0.60577,"1375": 0.52221,"1400": 0.54311,"1425": 0.45955,"1450": 0.62666,"1475": 0.66843,"1500": 0.48043,"1525": 0.7102,"1550": 0.62664,"1575": 0.56398,"1600": 0.66841,"1625": 0.18799,"1650": 0.06266}}}