{"type":"Feature","properties":{"GID_3":"CRI.3.1.3_1","GID_0":"CRI","country":"CostaRica","GID_1":"CRI.3_1","province":"Guanacaste","NL_NAME_1":"NA","GID_2":"CRI.3.1_1","county":"Abangares","NL_NAME_2":"NA","city":"SanJuan","VARNAME_3":"NA","NL_NAME_3":"NA","TYPE_3":"Distrito","ENGTYPE_3":"District","CC_3":"3","HASC_3":"NA","name":"San_Juan.city"},
"geometry":{"type": "MultiPolygon","coordinates": [[[[-84.9179,10.1623,119.1979],[-84.9132,10.1671,131.7878],[-84.9115,10.1747,130.5113],[-84.9089,10.1744,129.3054],[-84.9032,10.1796,146.9287],[-84.9013,10.178,148.8068],[-84.899,10.1805,185.2022],[-84.8937,10.1816,156.235],[-84.8905,10.1798,170.9599],[-84.885,10.1813,175.6884],[-84.8761,10.1867,189.2038],[-84.8745,10.1892,216.7217],[-84.8755,10.1957,208.5927],[-84.8744,10.2002,242.0032],[-84.8784,10.2019,221.5322],[-84.8896,10.2128,256.9124],[-84.8874,10.2221,294.7378],[-84.8789,10.2276,296.6824],[-84.8768,10.2376,340.4999],[-84.8726,10.2414,351.6284],[-84.8706,10.2472,360.7672],[-84.8721,10.2565,392.3667],[-84.8718,10.2706,480.9679],[-84.8752,10.2779,559.1179],[-84.8803,10.2776,589.9304],[-84.8835,10.2819,790.4266],[-84.8876,10.2836,729.2517],[-84.8923,10.2835,707.0751],[-84.8953,10.279,670.0729],[-84.9088,10.2736,687.9022],[-84.915,10.2745,675.4901],[-84.9186,10.2769,582.2562],[-84.9245,10.2769,475.9235],[-84.9326,10.2721,317.8204],[-84.9458,10.2746,273.9227],[-84.9509,10.2728,213.0279],[-84.9531,10.2746,214.8559],[-84.9537,10.2701,166.2249],[-84.958,10.2711,161.2042],[-84.961,10.2683,150.4385],[-84.9642,10.2691,145.6762],[-84.9913,10.2397,73.2348],[-84.9822,10.2343,77.7962],[-84.9751,10.2219,85.224],[-84.9634,10.2129,65.6752],[-84.9572,10.1996,72.8344],[-84.9459,10.1897,136.6098],[-84.9453,10.1857,155.299],[-84.9402,10.1847,145.1833],[-84.9236,10.1722,139.675],[-84.9179,10.1623,119.1979]]]]}}