{"type":"Feature","properties":{"GID_3":"CRI.1.9.3_1","GID_0":"CRI","country":"CostaRica","GID_1":"CRI.1_1","province":"Alajuela","NL_NAME_1":"NA","GID_2":"CRI.1.9_1","county":"Palmares","NL_NAME_2":"NA","city":"Esquipulas","VARNAME_3":"NA","NL_NAME_3":"NA","TYPE_3":"Distrito","ENGTYPE_3":"District","CC_3":"6","HASC_3":"NA","name":"Esquipulas.city"},
"geometry":{"type": "MultiPolygon","coordinates": [[[[-84.4139,10.0741,942.9711],[-84.4215,10.0706,953.7443],[-84.425,10.0712,952.3162],[-84.4273,10.0697,957.8889],[-84.4292,10.0648,978.9545],[-84.4274,10.0579,1011.0784],[-84.4286,10.0526,1013.9394],[-84.415,10.0409,965.973],[-84.414,10.0433,963.4592],[-84.4152,10.0438,925.0544],[-84.4105,10.0468,902.5857],[-84.4078,10.0537,913.472],[-84.4102,10.0566,943.8998],[-84.4086,10.0595,919.5484],[-84.4111,10.0604,934.2512],[-84.4113,10.063,916.9134],[-84.4137,10.065,915.3013],[-84.4122,10.0661,920.4724],[-84.412,10.0696,969.4247],[-84.4139,10.0741,942.9711]]]]}}