{"type":"Feature","properties":{"GID_3":"CRI.3.9.5_1","GID_0":"CRI","country":"CostaRica","GID_1":"CRI.3_1","province":"Guanacaste","NL_NAME_1":"NA","GID_2":"CRI.3.9_1","county":"Nicoya","NL_NAME_2":"NA","city":"QuebradaHonda","VARNAME_3":"NA","NL_NAME_3":"NA","TYPE_3":"Distrito","ENGTYPE_3":"District","CC_3":"4","HASC_3":"NA","name":"Quebrada_Honda.city"},
"geometry":{"type": "MultiPolygon","coordinates": [[[[-85.237,10.1277,0.0],[-85.2354,10.1277,0.0],[-85.2308,10.1219,0.0],[-85.2279,10.121,0.0],[-85.2395,10.1364,0.0],[-85.2416,10.143,0.0],[-85.2442,10.1442,0.0],[-85.2426,10.1514,0.0],[-85.2475,10.1721,14.8577],[-85.2464,10.1869,0.0],[-85.2425,10.2008,0.0],[-85.2466,10.2077,0.0],[-85.2435,10.2223,27.8713],[-85.2477,10.2297,16.0792],[-85.2443,10.2373,6.0749],[-85.2495,10.2464,8.7205],[-85.2526,10.248,13.9238],[-85.2536,10.2456,34.3538],[-85.2601,10.241,61.9108],[-85.269,10.2382,63.2297],[-85.273,10.2413,83.8651],[-85.3131,10.2461,241.7864],[-85.3312,10.229,5.6895],[-85.3364,10.2384,4.3914],[-85.335,10.2458,2.7133],[-85.3486,10.2457,11.9183],[-85.3514,10.2368,27.1032],[-85.354,10.2357,28.1719],[-85.3516,10.2292,119.8427],[-85.3522,10.2209,460.9644],[-85.3479,10.2193,401.2744],[-85.3472,10.2163,445.6335],[-85.3442,10.2163,429.504],[-85.3434,10.2136,311.345],[-85.3382,10.21,154.7473],[-85.3395,10.2033,348.8441],[-85.3362,10.205,363.4378],[-85.3338,10.201,336.2092],[-85.3297,10.1993,300.1631],[-85.3255,10.1941,286.599],[-85.3211,10.1939,212.4216],[-85.3145,10.1878,335.1605],[-85.3132,10.1832,309.8186],[-85.315,10.1801,329.1518],[-85.3134,10.1736,293.5644],[-85.3141,10.17,198.6686],[-85.3065,10.1573,33.6586],[-85.3142,10.1515,15.8249],[-85.3151,10.1479,20.7536],[-85.3084,10.1418,10.9713],[-85.3093,10.1398,13.8727],[-85.3037,10.1381,9.727],[-85.3009,10.139099999999999,8.0213],[-85.2993,10.1383,12.0005],[-85.3004,10.1363,8.5352],[-85.2988,10.1339,8.4244],[-85.2915,10.1341,11.2415],[-85.2882,10.1328,13.8581],[-85.2867,10.1298,12.9768],[-85.2829,10.1293,10.7301],[-85.28,10.1384,3.4405],[-85.2656,10.1388,1.4306],[-85.2528,10.135,4.4681],[-85.2418,10.1342,0.0],[-85.237,10.1277,0.0]]]]}}