{"type": "Feature","bbox": [-83.6866,9.9015,-83.6342,9.9544],"geometry": {"type": "MultiPolygon","coordinates": [[[[-83.6354,9.9375,420.9683],[-83.6399,9.9348,459.8107],[-83.6423,9.9353,494.9294],[-83.6481,9.946,583.5895],[-83.6645,9.9541,750.4685],[-83.6709,9.9524,745.3452],[-83.6765,9.9544,817.2364],[-83.6766,9.9435,1083.4763],[-83.6798,9.9411,1177.5695],[-83.6835,9.9431,1213.2263],[-83.6866,9.9407,1159.7629],[-83.6851,9.9361,967.2727],[-83.6861,9.9323,803.9452],[-83.6823,9.9267,695.4062],[-83.6823,9.9241,685.4788],[-83.6783,9.9207,663.508],[-83.6786,9.9162,635.6452],[-83.6706,9.9119,611.307],[-83.6676,9.9052,593.2177],[-83.6619,9.902,605.3207],[-83.6608,9.9032,579.1486],[-83.6575,9.9015,584.5493],[-83.6558,9.9047,588.5929],[-83.6549,9.902,599.7333],[-83.6506,9.9018,506.6454],[-83.6491,9.9078,495.6792],[-83.6454,9.9101,535.0312],[-83.6477,9.9143,481.3683],[-83.6442,9.9158,469.6918],[-83.6444,9.9213,482.3743],[-83.6409,9.9297,446.3184],[-83.6342,9.9336,433.8224],[-83.6354,9.9375,420.9683]]]]}
,"properties": {"GID_3": "CRI.2.8.2_1","GID_0": "CRI","country": "CostaRica","GID_1": "CRI.2_1","province": "Cartago","NL_NAME_1": "NA","GID_2": "CRI.2.8_1","county": "Turrialba","NL_NAME_2": "NA","city": "LaIsabel","VARNAME_3": "NA","NL_NAME_3": "NA","TYPE_3": "Distrito","ENGTYPE_3": "District","CC_3": "11","HASC_3": "NA","name": "La_Isabel.city","area_km2": 20.17456,"hist_schema_id": "Elevation0-9000","hist_area_km2": {"425": 0.12531,"450": 0.18796,"475": 0.39681,"500": 0.62655,"525": 0.50124,"550": 0.64744,"575": 0.96071,"600": 1.62906,"625": 1.92144,"650": 1.50371,"675": 1.46194,"700": 1.16952,"725": 0.89803,"750": 1.06509,"775": 0.9189,"800": 0.62653,"825": 0.6683,"850": 0.6683,"875": 0.77271,"900": 0.73095,"925": 0.64741,"950": 0.56387,"975": 0.31326,"1000": 0.25061,"1025": 0.16707,"1050": 0.1253,"1075": 0.18796,"1100": 0.06265,"1125": 0.08354,"1150": 0.1253,"1175": 0.04177,"1200": 0.1253}}}