{"type":"Feature","properties":{"GID_2":"CRI.7.18_1","GID_0":"CRI","country":"CostaRica","GID_1":"CRI.7_1","province":"SanJosé","NL_NAME_1":"NA","county":"Tibás","VARNAME_2":"NA","NL_NAME_2":"NA","TYPE_2":"Cantón","ENGTYPE_2":"Canton","CC_2":"13","HASC_2":"CR.SJ.TI","name":"Tibás.county"},
"geometry":{"type": "MultiPolygon","coordinates": [[[[-84.0773,9.9501,1141.3359],[-84.0771,9.9512,1136.2506],[-84.0749,9.9496,1139.0455],[-84.0734,9.9522,1147.0095],[-84.0662,9.9542,1161.7924],[-84.061,9.9617,1180.7648],[-84.0621,9.9646,1188.6294],[-84.056,9.9689,1167.7604],[-84.0551,9.9727,1165.5992],[-84.0576,9.9725,1160.8491],[-84.056,9.971,1152.8007],[-84.0577,9.9691,1167.7604],[-84.0604,9.9705,1201.031],[-84.0605,9.969,1173.2888],[-84.0639,9.9683,1153.2087],[-84.0646,9.9696,1164.4501],[-84.0676,9.9668,1170.5873],[-84.0759,9.9693,1141.6693],[-84.0764,9.9674,1111.3838],[-84.0793,9.9678,1125.3176],[-84.0794,9.9694,1121.3274],[-84.0832,9.9706,1106.3051],[-84.0862,9.9667,1100.4502],[-84.0885,9.9673,1115.7102],[-84.094,9.9628,1082.4821],[-84.1069,9.9632,1031.3315],[-84.1072,9.9603,1039.8481],[-84.1049,9.9572,1081.5725],[-84.0981,9.9569,1096.9187],[-84.0971,9.952,1106.8776],[-84.0886,9.9495,1119.9692],[-84.089,9.9464,1126.8687],[-84.0853,9.9442,1116.0509],[-84.0845,9.9459,1132.087],[-84.0812,9.9447,1128.0243],[-84.082,9.9412,1139.5338],[-84.0784,9.9415,1149.1465],[-84.0773,9.9501,1141.3359]]]]}}