{"type": "Feature","bbox": [-84.0447,9.8157,-83.9611,9.884],"geometry": {"type": "MultiPolygon","coordinates": [[[[-84.019,9.8157,1985.7549],[-84.0263,9.8209,1935.6252],[-84.0233,9.8257,1834.0781],[-84.0157,9.8253,1708.0205],[-84.0139,9.8287,1592.2606],[-84.0116,9.8281,1583.5222],[-84.0112,9.8329,1671.9296],[-84.0153,9.8365,1776.988],[-84.0105,9.8395,1723.1997],[-83.9993,9.8416,1526.5105],[-83.9981,9.8384,1429.8674],[-84.0,9.837,1443.9226],[-83.9992,9.836,1443.9226],[-83.9883,9.8422,1409.422],[-83.9843,9.842,1397.7488],[-83.9853,9.8434,1398.5645],[-83.9835,9.8441,1397.6533],[-83.9748,9.8428,1386.5685],[-83.9673,9.8438,1382.4075],[-83.964,9.8467,1380.437],[-83.9611,9.8467,1380.6954],[-83.9688,9.8513,1379.7571],[-83.9819,9.8552,1403.1591],[-83.985,9.8703,1447.4451],[-83.9834,9.8736,1537.631],[-83.9843,9.8781,1638.7275],[-83.9801,9.884,1819.1025],[-83.9924,9.8811,1628.9674],[-83.9986,9.8761,1592.9744],[-83.9993,9.8679,1599.9539],[-84.0125,9.8589,1709.5764],[-84.0168,9.8542,1707.7906],[-84.0186,9.8479,1790.5769],[-84.0165,9.8443,1797.8176],[-84.0255,9.8391,1842.8718],[-84.0302,9.8238,1893.6249],[-84.0357,9.8226,1790.79],[-84.0447,9.8158,1654.5767],[-84.019,9.8157,1985.7549]]]]}
,"properties": {"GID_3": "CRI.2.2.9_1","GID_0": "CRI","country": "CostaRica","GID_1": "CRI.2_1","province": "Cartago","NL_NAME_1": "NA","GID_2": "CRI.2.2_1","county": "Cartago","NL_NAME_2": "NA","city": "Quebradillas","VARNAME_3": "NA","NL_NAME_3": "NA","TYPE_3": "Distrito","ENGTYPE_3": "District","CC_3": "11","HASC_3": "NA","name": "Quebradillas.city","area_km2": 19.00965,"hist_schema_id": "Elevation0-9000","hist_area_km2": {"1375": 1.25339,"1400": 2.38139,"1425": 1.54581,"1450": 1.06537,"1475": 1.16979,"1500": 0.9609,"1525": 1.06535,"1550": 0.83557,"1575": 0.75201,"1600": 0.66845,"1625": 0.64758,"1650": 0.54313,"1675": 0.77292,"1700": 0.77293,"1725": 0.60582,"1750": 0.54314,"1775": 0.60583,"1800": 0.58494,"1825": 0.52227,"1850": 0.50138,"1875": 0.54317,"1900": 0.35515,"1925": 0.10446,"1950": 0.12535,"1975": 0.02089,"2000": 0.04178,"2025": 0.02089}}}