{"type": "Feature","bbox": [-85.5764,10.3628,-85.3691,10.4753],"geometry": {"type": "MultiPolygon","coordinates": [[[[-85.4335,10.4402,7.3651],[-85.4393,10.4442,7.7188],[-85.4446,10.4433,9.3714],[-85.4459,10.4461,11.9643],[-85.4513,10.4492,11.1688],[-85.4532,10.4549,12.3204],[-85.4657,10.4568,12.6366],[-85.4732,10.4513,9.9054],[-85.4717,10.4432,14.8574],[-85.4761,10.4341,14.7108],[-85.471,10.4265,15.8182],[-85.4769,10.4205,16.4501],[-85.4839,10.4185,13.4852],[-85.4866,10.4194,13.7703],[-85.488,10.4232,15.741],[-85.498,10.4208,14.3775],[-85.5143,10.4244,13.7004],[-85.5225,10.4218,15.8897],[-85.5274,10.422,14.8843],[-85.529,10.4241,12.3245],[-85.5272,10.432,16.8358],[-85.5326,10.4358,13.945],[-85.5372,10.4419,13.6294],[-85.5464,10.4439,18.2085],[-85.5507,10.4497,13.9279],[-85.5532,10.4572,16.3364],[-85.5585,10.4658,14.8679],[-85.5591,10.4753,15.3529],[-85.5684,10.474,19.8342],[-85.5705,10.4751,20.6298],[-85.5707,10.4719,22.1811],[-85.5733,10.4697,22.6618],[-85.5705,10.4607,23.1583],[-85.5764,10.4588,15.1173],[-85.5762,10.4565,15.0706],[-85.569,10.45,17.9665],[-85.5687,10.4477,17.7092],[-85.571,10.4453,16.4607],[-85.5688,10.4417,14.8558],[-85.5634,10.4396,15.3034],[-85.5623,10.4359,18.2832],[-85.5557,10.4309,18.4311],[-85.5485,10.4303,16.9067],[-85.5461,10.4287,18.2541],[-85.5481,10.4242,18.0487],[-85.5472,10.4194,13.6891],[-85.5444,10.4155,13.3522],[-85.545,10.4124,12.9864],[-85.5433,10.4097,19.5242],[-85.5391,10.4079,12.1419],[-85.5314,10.3978,20.8509],[-85.5226,10.3691,12.5649],[-85.5188,10.366,10.0058],[-85.5144,10.3682,7.5935],[-85.5103,10.3628,9.4999],[-85.5064,10.3639,8.2134],[-85.504,10.3685,10.3802],[-85.4966,10.3677,9.1851],[-85.4953,10.3722,6.4239],[-85.4869,10.3701,8.1132],[-85.4845,10.365,8.0625],[-85.4797,10.363,7.3391],[-85.4769,10.3675,6.7881],[-85.4789,10.3712,10.4189],[-85.4724,10.3762,13.8302],[-85.4692,10.3738,7.0246],[-85.4651,10.3733,6.0027],[-85.4628,10.3679,11.5116],[-85.4593,10.3661,7.448],[-85.457,10.3671,9.4891],[-85.4543,10.3661,12.438],[-85.4497,10.3687,11.4959],[-85.4322,10.3676,9.4175],[-85.4233,10.3699,11.6742],[-85.4167,10.3674,10.6537],[-85.4133,10.3678,8.808],[-85.4102,10.3651,9.4294],[-85.4092,10.3692,8.5467],[-85.4049,10.3708,7.2892],[-85.4061,10.3728,4.5516],[-85.4031,10.3745,5.3644],[-85.404,10.3775,7.433],[-85.398,10.3791,10.1001],[-85.3987,10.3809,7.716],[-85.4026,10.3803,9.9313],[-85.3982,10.3862,7.9728],[-85.3999,10.389,19.2102],[-85.3968,10.3871,8.7437],[-85.3932,10.388,7.5504],[-85.3958,10.3919,9.6206],[-85.395,10.3943,5.5436],[-85.392,10.391,6.7696],[-85.3928,10.3946,9.0175],[-85.3909,10.3967,22.3646],[-85.3918,10.3936,10.1584],[-85.3903,10.392,8.8801],[-85.387,10.3934,10.3579],[-85.3822,10.3913,7.8868],[-85.3843,10.3927,10.5758],[-85.3814,10.3932,11.3582],[-85.3786,10.3955,7.4348],[-85.3795,10.3972,7.7009],[-85.3777,10.3967,7.4348],[-85.3751,10.3996,10.2341],[-85.3768,10.4043,6.9357],[-85.3734,10.4028,7.1458],[-85.3734,10.4066,13.9019],[-85.3691,10.4091,15.2383],[-85.3703,10.412,12.0883],[-85.3713,10.4098,16.9823],[-85.3778,10.4114,15.9756],[-85.3776,10.4132,16.245],[-85.3732,10.4172,17.0714],[-85.3772,10.4184,15.6797],[-85.3788,10.4233,16.1779],[-85.3819,10.424,16.3106],[-85.386,10.4221,16.7651],[-85.3888,10.4246,17.0096],[-85.3926,10.4216,7.0098],[-85.401,10.4214,8.2364],[-85.4036,10.4273,7.362],[-85.4065,10.4298,9.6265],[-85.4133,10.4291,6.6846],[-85.4174,10.4317,7.1044],[-85.4267,10.4332,7.5207],[-85.4335,10.4402,7.3651]]]]}
,"properties": {"GID_3": "CRI.3.4.2_1","GID_0": "CRI","country": "CostaRica","GID_1": "CRI.3_1","province": "Guanacaste","NL_NAME_1": "NA","GID_2": "CRI.3.4_1","county": "Carrillo","NL_NAME_2": "NA","city": "Filadelfia","VARNAME_3": "NA","NL_NAME_3": "NA","TYPE_3": "Distrito","ENGTYPE_3": "District","CC_3": "1","HASC_3": "NA","name": "Filadelfia.city","area_km2": 125.85016,"hist_schema_id": "Elevation0-9000","hist_area_km2": {"0": 81.12046,"25": 38.13981,"50": 3.77461,"75": 1.56406,"100": 0.62562,"125": 0.33366,"150": 0.25024,"175": 0.04171}}}