{"type": "Feature","bbox": [-83.9112,9.8478,-83.8795,9.8925],"geometry": {"type": "MultiPolygon","coordinates": [[[[-83.9112,9.8685,1443.351],[-83.9075,9.8662,1433.4766],[-83.9092,9.8579,1396.3042],[-83.9044,9.8556,1389.7897],[-83.8987,9.8491,1358.0708],[-83.8948,9.8478,1353.0343],[-83.8917,9.852,1363.6764],[-83.8889,9.8515,1379.0931],[-83.8877,9.8685,1475.2672],[-83.8848,9.8692,1490.356],[-83.8795,9.8749,1580.1191],[-83.8808,9.8819,1682.0272],[-83.8852,9.8832,1667.9805],[-83.8852,9.8896,1759.4857],[-83.8935,9.8895,1733.0403],[-83.8983,9.8925,1749.3003],[-83.9074,9.8844,1585.3055],[-83.9053,9.8729,1475.5466],[-83.9112,9.8685,1443.351]]]]}
,"properties": {"GID_3": "CRI.2.6.4_1","GID_0": "CRI","country": "CostaRica","GID_1": "CRI.2_1","province": "Cartago","NL_NAME_1": "NA","GID_2": "CRI.2.6_1","county": "Oreamuno","NL_NAME_2": "NA","city": "SanRafael","VARNAME_3": "NA","NL_NAME_3": "NA","TYPE_3": "Distrito","ENGTYPE_3": "District","CC_3": "1","HASC_3": "NA","name": "San_Rafael.city","area_km2": 10.256158,"hist_schema_id": "Elevation0-9000","hist_area_km2": {"1350": 0.146228,"1375": 0.584905,"1400": 1.378684,"1425": 0.939998,"1450": 1.04443,"1475": 0.793759,"1500": 0.689312,"1525": 0.54309,"1550": 0.689301,"1575": 0.668409,"1600": 0.668407,"1625": 0.52219,"1650": 0.396864,"1675": 0.375976,"1700": 0.208873,"1725": 0.271534,"1750": 0.334196}}}