{"type":"Feature","properties":{"GID_3":"CRI.5.2.3_1","GID_0":"CRI","country":"CostaRica","GID_1":"CRI.5_1","province":"Limón","NL_NAME_1":"NA","GID_2":"CRI.5.2_1","county":"Limón","NL_NAME_2":"NA","city":"RioBlanco","VARNAME_3":"NA","NL_NAME_3":"NA","TYPE_3":"Distrito","ENGTYPE_3":"District","CC_3":"3","HASC_3":"NA","name":"Rio_Blanco.city"},
"geometry":{"type": "MultiPolygon","coordinates": [[[[-83.1588,10.0634,4.6024],[-83.1599,10.0623,4.6024],[-83.158,10.0578,9.6185],[-83.1515,10.0482,10.2377],[-83.1511,10.0412,3.33],[-83.1633,10.0387,10.2755],[-83.1645,10.0354,10.8423],[-83.1679,10.0356,3.7882],[-83.1724,10.0332,3.7691],[-83.1739,10.0299,6.0578],[-83.1802,10.0258,8.293],[-83.1858,10.0258,11.3111],[-83.1918,10.0217,20.1974],[-83.1941,10.0174,12.096],[-83.1952,10.0201,14.4262],[-83.197,10.0193,13.2297],[-83.1996,10.0212,16.9711],[-83.2039,10.0188,12.8457],[-83.2081,10.0194,22.6745],[-83.2113,10.0153,13.7851],[-83.2098,10.0147,16.4027],[-83.2115,10.0092,19.7882],[-83.2103,10.0012,26.0683],[-83.2093,10.0024,29.0143],[-83.2072,10.0009,20.5237],[-83.2014,9.991,26.4817],[-83.1968,9.9894,48.3234],[-83.1961,9.9851,72.2273],[-83.1903,9.9849,54.1404],[-83.1882,9.9814,62.2732],[-83.191,9.9779,54.3617],[-83.1963,9.9785,67.6395],[-83.1999,9.9742,83.1102],[-83.2018,9.9738,87.0938],[-83.2009,9.9708,89.2919],[-83.2041,9.9643,114.512],[-83.2034,9.951,225.0078],[-83.2061,9.9475,288.5883],[-83.205,9.9417,355.8499],[-83.1977,9.9357,375.1233],[-83.1957,9.9322,387.0579],[-83.2006,9.9221,360.3969],[-83.2039,9.9211,349.7904],[-83.2049,9.918,371.0587],[-83.2078,9.9169,378.1137],[-83.2086,9.9148,420.93],[-83.2061,9.9082,500.4781],[-83.2013,9.9054,463.9691],[-83.1981,9.8968,444.8398],[-83.1923,9.8981,428.0785],[-83.1876,9.9017,465.3807],[-83.1837,9.9114,471.2852],[-83.1816,9.9114,482.5081],[-83.1789,9.9145,501.2492],[-83.1623,9.9203,466.5479],[-83.1592,9.9193,454.4764],[-83.1564,9.9214,438.9193],[-83.1514,9.9203,443.2166],[-83.1466,9.9239,367.0657],[-83.1398,9.9255,260.1745],[-83.1375,9.928,201.8317],[-83.1315,9.9287,174.4419],[-83.1249,9.9347,97.3911],[-83.1234,9.9338,93.9458],[-83.1198,9.9363,83.0898],[-83.1176,9.935,68.7055],[-83.1086,9.9357,39.0794],[-83.1022,9.9392,33.8073],[-83.1038,9.9437,57.6504],[-83.108,9.9453,31.7386],[-83.1096,9.9482,49.8715],[-83.1053,9.9547,45.6815],[-83.1075,9.959,88.4841],[-83.1041,9.961,99.4218],[-83.1023,9.9686,103.4354],[-83.1042,9.9754,74.0383],[-83.0995,9.9765,51.7611],[-83.0985,9.9808,27.4444],[-83.0928,9.987,16.4203],[-83.0972,9.993,9.4876],[-83.0957,9.995,9.3212],[-83.0958,9.9994,19.7252],[-83.0996,10.0029,11.6059],[-83.1023,10.0024,8.8729],[-83.1041,10.0056,5.5847],[-83.1102,10.007,7.9584],[-83.1339,10.0321,3.7519],[-83.1588,10.0634,4.6024]]]]}}