{"type": "Feature","bbox": [-83.6675,10.2672,-83.5652,10.3706],"geometry": {"type": "MultiPolygon","coordinates": [[[[-83.6305,10.2737,42.5807],[-83.6265,10.2732,37.969],[-83.6259,10.2755,35.3278],[-83.6212,10.2764,33.5635],[-83.6179,10.2802,33.9899],[-83.6141,10.2778,35.7747],[-83.6133,10.2735,35.2306],[-83.6088,10.2738,30.3151],[-83.6047,10.2681,28.4461],[-83.5995,10.2672,31.4385],[-83.592,10.2801,25.3654],[-83.5857,10.2866,33.0392],[-83.584,10.2925,21.4984],[-83.582,10.2918,22.4629],[-83.5836,10.29,25.0825],[-83.5785,10.289,28.536],[-83.5768,10.2914,28.4512],[-83.5787,10.294,22.3048],[-83.5741,10.2938,22.7855],[-83.5741,10.2917,21.0132],[-83.5763,10.2916,28.4512],[-83.5744,10.2899,20.8621],[-83.572,10.2903,21.9385],[-83.5694,10.2938,22.3402],[-83.5685,10.2921,18.42],[-83.5675,10.2942,21.2007],[-83.5652,10.2941,20.2976],[-83.5679,10.296,19.4549],[-83.5656,10.2976,21.2759],[-83.57,10.2984,19.0215],[-83.5669,10.3123,136.936],[-83.5735,10.3229,108.561],[-83.5758,10.3314,133.9454],[-83.5758,10.3361,126.3578],[-83.5727,10.3396,164.6467],[-83.5742,10.3421,177.1824],[-83.5729,10.3467,180.7545],[-83.5777,10.3517,236.4464],[-83.5807,10.3514,191.5238],[-83.587,10.3573,33.8574],[-83.5877,10.3612,29.6615],[-83.5899,10.3619,25.9371],[-83.5896,10.3643,28.132],[-83.5919,10.3646,25.1889],[-83.595,10.3686,26.0605],[-83.5927,10.3704,25.5974],[-83.5956,10.3706,29.3159],[-83.6025,10.3613,25.0019],[-83.6102,10.3607,46.3183],[-83.6193,10.3565,33.8159],[-83.6266,10.3594,39.5302],[-83.6313,10.3566,37.6808],[-83.6391,10.3587,39.9009],[-83.6474,10.3569,40.0408],[-83.6502,10.3542,40.7138],[-83.6617,10.3538,42.0214],[-83.6629,10.3526,43.5385],[-83.6637,10.3538,44.5688],[-83.6673,10.3534,50.4372],[-83.6675,10.2907,48.6153],[-83.6605,10.2917,42.5882],[-83.6608,10.2943,43.3255],[-83.6508,10.2968,42.7066],[-83.6505,10.2985,45.7526],[-83.6464,10.2983,45.0019],[-83.6443,10.2966,43.5514],[-83.641,10.2989,48.1609],[-83.6383,10.2986,43.3269],[-83.6337,10.3032,42.0851],[-83.6259,10.3008,39.7541],[-83.624,10.3019,40.3071],[-83.6215,10.3002,37.0153],[-83.6243,10.2977,35.3801],[-83.6222,10.2971,33.4448],[-83.6227,10.2891,36.0903],[-83.6212,10.2878,34.4036],[-83.6305,10.2737,42.5807]]]]}
,"properties": {"GID_3": "CRI.5.1.1_1","GID_0": "CRI","country": "CostaRica","GID_1": "CRI.5_1","province": "Limón","NL_NAME_1": "NA","GID_2": "CRI.5.1_1","county": "Guácimo","NL_NAME_2": "NA","city": "Duacarí","VARNAME_3": "NA","NL_NAME_3": "NA","TYPE_3": "Distrito","ENGTYPE_3": "District","CC_3": "5","HASC_3": "NA","name": "Duacarí.city","area_km2": 81.10021,"hist_schema_id": "Elevation0-9000","hist_area_km2": {"25": 48.81076,"50": 29.20247,"75": 0.98034,"100": 0.77175,"125": 0.50059,"150": 0.41715,"175": 0.27115,"200": 0.10429,"225": 0.04171}}}