{"type": "Feature","bbox": [-83.947,9.9059,-83.8005,10.1473],"geometry": {"type": "MultiPolygon","coordinates": [[[[-83.8128,10.0169,1784.116],[-83.8034,10.0291,1478.296],[-83.8005,10.0367,1432.731],[-83.8081,10.0411,1320.5947],[-83.8162,10.055,1199.335],[-83.8134,10.0588,1170.2286],[-83.8142,10.064,1149.7096],[-83.8151,10.0669,1191.8754],[-83.8193,10.0696,1194.564],[-83.8181,10.0711,1179.2568],[-83.8184,10.0828,934.67],[-83.8163,10.0836,923.7301],[-83.947,10.1473,473.381],[-83.9415,10.1297,566.9847],[-83.9381,10.1245,654.8297],[-83.9379,10.1174,685.7578],[-83.9362,10.1158,765.2194],[-83.9377,10.1102,713.4905],[-83.9325,10.0986,771.4249],[-83.9315,10.0832,908.7759],[-83.9262,10.0792,960.6834],[-83.9234,10.079,970.8759],[-83.9216,10.0759,975.8729],[-83.9181,10.077,977.0717],[-83.9169,10.0745,1000.4568],[-83.9124,10.0733,1020.1208],[-83.9083,10.0685,1062.6663],[-83.8949,10.0606,1196.9225],[-83.8816,10.0446,1406.0365],[-83.8787,10.0374,1470.2216],[-83.8752,10.0345,1508.4402],[-83.877,10.0204,1724.181],[-83.8718,10.014,1791.8431],[-83.8671,10.0041,1975.7932],[-83.869,9.9963,2302.4839],[-83.8678,9.9908,2473.8535],[-83.8662,9.9865,2811.7681],[-83.8592,9.9792,3049.801],[-83.8586,9.9739,3357.6519],[-83.8608,9.9715,3378.5986],[-83.8558,9.9675,3274.9529],[-83.8559,9.9645,3216.7476],[-83.8537,9.961,3121.0322],[-83.8557,9.9547,2988.3333],[-83.8534,9.9521,2940.7195],[-83.8562,9.9486,2827.5786],[-83.8559,9.9435,2774.6733],[-83.8627,9.9306,2435.0591],[-83.8632,9.9185,2243.7537],[-83.8655,9.9148,2202.9265],[-83.8511,9.9147,2159.2844],[-83.8511,9.9117,2105.9678],[-83.8552,9.9088,2072.0115],[-83.8543,9.9059,2013.2189],[-83.8393,9.9081,1927.2333],[-83.8372,9.9105,1966.8965],[-83.8319,9.9105,1949.3706],[-83.8298,9.9121,1951.5927],[-83.8305,9.9265,2102.5962],[-83.8353,9.9317,2283.1492],[-83.8371,9.9371,2467.1782],[-83.8366,9.9371,2467.1782],[-83.8355,9.9357,2435.418],[-83.834,9.9365,2435.418],[-83.8293,9.9458,2423.5144],[-83.8368,9.9524,2730.6023],[-83.8405,9.9526,2776.7031],[-83.8425,9.9606,2909.0205],[-83.8377,9.9673,3078.0081],[-83.838,9.9709,3116.5918],[-83.8348,9.9788,3247.0234],[-83.8321,9.9801,3269.7913],[-83.8288,9.9789,3233.0107],[-83.8273,9.9804,3222.9429],[-83.8265,9.9872,2726.2051],[-83.8212,9.9996,2205.0159],[-83.8197,10.0088,1959.0039],[-83.8176,10.0126,1906.0686],[-83.8155,10.0131,1856.6235],[-83.8161,10.0151,1780.3048],[-83.8128,10.0169,1784.116]]]]}
,"properties": {"GID_3": "CRI.2.6.5_1","GID_0": "CRI","country": "CostaRica","GID_1": "CRI.2_1","province": "Cartago","NL_NAME_1": "NA","GID_2": "CRI.2.6_1","county": "Oreamuno","NL_NAME_2": "NA","city": "SantaRosa","VARNAME_3": "NA","NL_NAME_3": "NA","TYPE_3": "Distrito","ENGTYPE_3": "District","CC_3": "5","HASC_3": "NA","name": "Santa_Rosa.city","area_km2": 150.2321,"hist_schema_id": "Elevation0-9000","hist_area_km2": {"475": 0.0209,"500": 0.0417,"525": 0.0209,"550": 0.1044,"575": 0.1044,"600": 0.1252,"625": 0.2505,"650": 0.1878,"675": 0.4592,"700": 0.4174,"725": 0.5844,"750": 0.6262,"775": 0.647,"800": 0.7723,"825": 0.9184,"850": 1.0436,"875": 0.6262,"900": 1.148,"925": 1.2315,"950": 1.4193,"975": 1.649,"1000": 1.5029,"1025": 1.482,"1050": 2.0664,"1075": 1.3985,"1100": 1.3985,"1125": 1.5238,"1150": 1.7743,"1175": 1.7325,"1200": 1.7117,"1225": 1.6491,"1250": 1.7534,"1275": 1.8161,"1300": 1.8996,"1325": 2.6302,"1350": 2.6302,"1375": 2.6719,"1400": 3.3817,"1425": 3.2982,"1450": 3.1104,"1475": 3.1521,"1500": 3.0895,"1525": 3.194,"1550": 2.7973,"1575": 2.6304,"1600": 2.7556,"1625": 2.9018,"1650": 2.6304,"1675": 2.3173,"1700": 2.0877,"1725": 2.0042,"1750": 1.4823,"1775": 1.5658,"1800": 2.0668,"1825": 1.5658,"1850": 1.4614,"1875": 1.4614,"1900": 1.4405,"1925": 1.3988,"1950": 1.5868,"1975": 1.566,"2000": 1.5034,"2025": 1.6077,"2050": 1.6913,"2075": 1.8375,"2100": 1.8583,"2125": 1.566,"2150": 1.6495,"2175": 1.399,"2200": 1.3364,"2225": 1.3364,"2250": 1.5661,"2275": 1.3155,"2300": 1.3364,"2325": 1.2529,"2350": 1.2737,"2375": 1.1902,"2400": 1.1067,"2425": 1.3155,"2450": 1.5244,"2475": 1.3782,"2500": 1.3781,"2525": 1.2529,"2550": 1.2737,"2575": 0.9397,"2600": 0.8979,"2625": 0.9814,"2650": 0.71,"2675": 0.7517,"2700": 0.71,"2725": 0.7309,"2750": 0.877,"2775": 0.8144,"2800": 0.7726,"2825": 0.4385,"2850": 0.6056,"2875": 0.6473,"2900": 0.7309,"2925": 0.5429,"2950": 0.522,"2975": 0.6056,"3000": 0.6891,"3025": 0.5012,"3050": 0.4594,"3075": 0.5429,"3100": 0.522,"3125": 0.4176,"3150": 0.4176,"3175": 0.522,"3200": 0.4594,"3225": 0.6264,"3250": 0.4176,"3275": 0.5429,"3300": 0.4594,"3325": 0.5847,"3350": 0.4176,"3375": 0.2297,"3400": 0.1671,"3425": 0.0418}}}