{"type":"Feature","properties":{"GID_3":"CRI.7.5.12_1","GID_0":"CRI","country":"CostaRica","GID_1":"CRI.7_1","province":"SanJosé","NL_NAME_1":"NA","GID_2":"CRI.7.5_1","county":"Desamparados","NL_NAME_2":"NA","city":"SanRafaelAbajo","VARNAME_3":"NA","NL_NAME_3":"NA","TYPE_3":"Distrito","ENGTYPE_3":"District","CC_3":"11","HASC_3":"NA","name":"San_Rafael_Abajo.city"},
"geometry":{"type": "MultiPolygon","coordinates": [[[[-84.0842,9.8890999999999991,1148.8477],[-84.0813,9.8844,1159.4425],[-84.0781,9.8857,1167.6757],[-84.0763,9.8905,1158.3499],[-84.0759,9.8952,1152.4072],[-84.0791,9.8969,1137.1892],[-84.0788,9.9007,1134.358],[-84.0806,9.902,1143.3029],[-84.0806,9.9042,1128.488],[-84.0831,9.904,1129.5568],[-84.0832,9.9027,1123.0917],[-84.0847,9.9036,1121.6482],[-84.087,9.9015,1123.4824],[-84.0878,9.9027,1127.4072],[-84.0904,9.8999,1123.2],[-84.0917,9.9007,1114.7073],[-84.0918,9.8981,1118.3199],[-84.0865,9.8939,1132.1434],[-84.0862,9.8906,1137.151],[-84.0842,9.8890999999999991,1148.8477]]]]}}