{"type": "Feature","bbox": [-84.1943,9.7754,-84.1321,9.8241],"geometry": {"type": "MultiPolygon","coordinates": [[[[-84.1622,9.7765,715.4548],[-84.1572,9.7774,752.0438],[-84.1558,9.7809,794.015],[-84.1528,9.7796,780.1793],[-84.1503,9.7816,783.9191],[-84.1484,9.7797,832.774],[-84.1439,9.7818,794.1703],[-84.1461,9.7847,940.2114],[-84.1479,9.7835,898.0608],[-84.1513,9.7851,952.0042],[-84.1424,9.7912,1151.9215],[-84.1409,9.7982,1146.7661],[-84.1355,9.7993,1212.4791],[-84.1331,9.8018,1213.0081],[-84.1321,9.8102,1334.3835],[-84.1364,9.8104,1416.6897],[-84.1394,9.8124,1424.8059],[-84.1416,9.8166,1463.2249],[-84.1397,9.8201,1545.0596],[-84.141,9.8227,1623.0585],[-84.1477,9.8184,1669.3655],[-84.1591,9.8241,1277.1053],[-84.1625,9.8234,1263.5737],[-84.1722,9.8134,1013.0515],[-84.1713,9.8109,980.2047],[-84.174,9.807,929.6112],[-84.1903,9.8142,800.9279],[-84.1895,9.8056,1015.506],[-84.1918,9.797,1255.9933],[-84.1943,9.7949,1310.7466],[-84.1915,9.7941,1307.0298],[-84.1942,9.7917,1253.0847],[-84.1914,9.7893,1174.6622],[-84.1927,9.7882,1095.2395],[-84.1894,9.7868,950.8052],[-84.1879,9.7839,952.2965],[-84.1845,9.7839,760.6339],[-84.1835,9.7858,767.1896],[-84.1827,9.7831,677.7377],[-84.1855,9.7785,579.1791],[-84.1813,9.7792,591.7699],[-84.1765,9.7831,630.4459],[-84.1666,9.7754,698.8813],[-84.1622,9.7765,715.4548]]]]}
,"properties": {"GID_3": "CRI.7.1.5_1","GID_0": "CRI","country": "CostaRica","GID_1": "CRI.7_1","province": "SanJosé","NL_NAME_1": "NA","GID_2": "CRI.7.1_1","county": "Acosta","NL_NAME_2": "NA","city": "SanIgnacio","VARNAME_3": "NA","NL_NAME_3": "NA","TYPE_3": "Distrito","ENGTYPE_3": "District","CC_3": "1","HASC_3": "NA","name": "San_Ignacio.city","area_km2": 22.79411,"hist_schema_id": "Elevation0-9000","hist_area_km2": {"575": 0.04179,"600": 0.08358,"625": 0.06268,"650": 0.14626,"675": 0.10447,"700": 0.16715,"725": 0.10447,"750": 0.25073,"775": 0.31341,"800": 0.20894,"825": 0.31341,"850": 0.43876,"875": 0.41787,"900": 0.58501,"925": 0.54323,"950": 0.9193,"975": 0.8984,"1000": 0.8775,"1025": 1.12822,"1050": 1.23268,"1075": 1.27448,"1100": 1.50429,"1125": 1.35804,"1150": 1.29537,"1175": 1.29536,"1200": 0.91929,"1225": 0.81481,"1250": 0.48053,"1275": 0.64767,"1300": 0.5641,"1325": 0.33428,"1350": 0.45963,"1375": 0.31338,"1400": 0.2716,"1425": 0.31338,"1450": 0.31338,"1475": 0.33427,"1500": 0.16713,"1525": 0.27159,"1550": 0.27159,"1575": 0.18803,"1600": 0.27159,"1625": 0.14624,"1650": 0.08357,"1675": 0.06267}}}