{"type":"Feature","properties":{"GID_3":"CRI.2.3.3_1","GID_0":"CRI","country":"CostaRica","GID_1":"CRI.2_1","province":"Cartago","NL_NAME_1":"NA","GID_2":"CRI.2.3_1","county":"ElGuarco","NL_NAME_2":"NA","city":"SanIsidro","VARNAME_3":"NA","NL_NAME_3":"NA","TYPE_3":"Distrito","ENGTYPE_3":"District","CC_3":"2","HASC_3":"NA","name":"San_Isidro.city"},
"geometry":{"type": "MultiPolygon","coordinates": [[[[-83.9386,9.8396,1371.4756],[-83.9444,9.8365,1379.7837],[-83.9471,9.8325,1376.2483],[-83.9534,9.8347,1377.4349],[-83.9591,9.8414,1379.3394],[-83.9624,9.8407,1381.1958],[-83.9662,9.8332,1431.5691],[-83.9724,9.8338,1464.6698],[-83.9751,9.8316,1492.603],[-83.973,9.8256,1552.7714],[-83.9741,9.8219,1689.3705],[-83.972,9.8209,1683.3577],[-83.9792,9.8149,1895.3314],[-83.981,9.8088,1944.1921],[-83.9794,9.803,2000.1443],[-83.9803,9.7983,2122.1106],[-83.9879,9.7972,2091.8391],[-83.9893,9.7948,2143.8384],[-83.9892,9.7881,1998.0693],[-83.9925,9.7838,1935.6929],[-83.9919,9.779,1863.6528],[-83.9888,9.777,1867.6299],[-83.9877,9.7714,1865.144],[-83.9843,9.7717,1846.464],[-83.9815,9.7696,1838.7988],[-83.9825,9.7601,1917.4204],[-83.978,9.7577,1897.6714],[-83.9775,9.7535,1914.5668],[-83.9776,9.748,1961.249],[-83.9794,9.7455,2011.0698],[-83.9661,9.7412,2007.7233],[-83.9609,9.741,2051.8843],[-83.9594,9.7429,2029.166],[-83.9553,9.7384,2107.4639],[-83.9536,9.7407,2062.6848],[-83.9513,9.7401,2136.6499],[-83.9512,9.7351,2184.0293],[-83.9491,9.7356,2168.8723],[-83.9497,9.7178,2331.7786],[-83.9473,9.7099,2409.7383],[-83.9493,9.7064,2425.8613],[-83.946,9.7051,2428.8774],[-83.9455,9.7014,2415.7007],[-83.9426,9.6987,2417.6748],[-83.9345,9.6988,2477.0505],[-83.926,9.6952,2546.6072],[-83.9248,9.6916,2601.5129],[-83.9214,9.6888,2562.1394],[-83.9211,9.6829,2524.7676],[-83.9149,9.6853,2499.6284],[-83.9127,9.6847,2495.5161],[-83.91,9.6867,2509.2729],[-83.906,9.6858,2534.0454],[-83.9021,9.6894,2528.417],[-83.8968,9.6855,2500.7207],[-83.896,9.6798,2495.3909],[-83.8884,9.6711,2541.2842],[-83.8828,9.6706,2554.2024],[-83.882,9.6685,2541.5413],[-83.8746,9.6702,2544.8259],[-83.8738,9.6722,2596.9617],[-83.8701,9.671,2614.9236],[-83.8572,9.6719,2611.4121],[-83.85,9.664,2668.7883],[-83.85,9.6557,2700.1069],[-83.846,9.649,2764.1147],[-83.8466,9.6334,2956.2288],[-83.8491,9.6311,3013.283],[-83.8506,9.6253,3143.2024],[-83.8352,9.6226,3005.4668],[-83.832,9.6174,2994.106],[-83.826,9.6189,2965.3401],[-83.8173,9.6149,2979.8682],[-83.8113,9.6153,2930.5266],[-83.8013,9.6119,2912.2444],[-83.800299999999993,9.6141,2930.1121],[-83.794,9.6109,3012.1057],[-83.7905,9.6116,3060.7461],[-83.9327,9.7845,1375.1108],[-83.9321,9.7856,1369.0844],[-83.9348,9.7872,1523.9318],[-83.9346,9.7889,1542.0525],[-83.9364,9.7895,1554.4895],[-83.9393,9.7985,1757.0642],[-83.9426,9.7995,1788.2771],[-83.9449,9.8106,1480.6921],[-83.9463,9.8109,1480.6921],[-83.9477,9.8154,1450.8385],[-83.9455,9.8242,1384.6479],[-83.9465,9.8277,1383.2664],[-83.9431,9.8313,1383.0585],[-83.9422,9.836,1393.8071],[-83.9395,9.8357,1388.6661],[-83.9386,9.8396,1371.4756]]]]}}