{"type": "Feature","bbox": [-85.2475,10.1931,-84.9497,10.709],"geometry": {"type": "MultiPolygon","coordinates": [[[[-85.1285,10.2831,17.0073],[-85.1243,10.2857,11.0604],[-85.1214,10.2854,13.6344],[-85.1189,10.2905,11.3564],[-85.107,10.2909,20.6656],[-85.1035,10.2894,19.8303],[-85.1031,10.2878,27.5014],[-85.0999,10.2907,23.3749],[-85.0953,10.2895,28.0781],[-85.0919,10.2914,25.9535],[-85.0925,10.2931,31.5207],[-85.0889,10.2941,28.7701],[-85.0816,10.292,30.4561],[-85.076,10.2879,32.6183],[-85.065,10.2858,35.9188],[-85.0637,10.288,38.1278],[-85.0648,10.2896,36.16],[-85.062,10.2943,35.5935],[-85.0558,10.2951,40.0097],[-85.0569,10.2986,40.162],[-85.0549,10.3002,63.0771],[-85.0583,10.3022,53.2906],[-85.0569,10.3046,50.0675],[-85.0589,10.3077,47.2116],[-85.0577,10.3131,55.452],[-85.0545,10.3143,61.4684],[-85.0514,10.319,64.1372],[-85.0491,10.3185,75.5099],[-85.0446,10.3222,78.9249],[-85.0436,10.3212,73.6667],[-85.0383,10.3296,95.0807],[-85.0334,10.331,114.9306],[-85.0307,10.3286,124.3822],[-85.0273,10.3281,118.9913],[-85.0247,10.3297,123.047],[-85.0248,10.3319,122.6686],[-85.0206,10.3335,144.9869],[-85.0185,10.3299,165.2684],[-85.015,10.3299,167.3021],[-85.0144,10.3323,167.2706],[-85.0075,10.3339,175.1651],[-85.0059,10.3375,206.6248],[-84.9987,10.3407,256.9861],[-84.9981,10.343,248.5837],[-84.9957,10.3422,276.0495],[-84.9949,10.3451,267.2086],[-84.9892,10.3465,289.2607],[-84.9868,10.3506,332.7808],[-84.9869,10.3544,332.7199],[-84.984,10.3569,337.4616],[-84.9818,10.3553,389.1701],[-84.9765,10.3556,370.0421],[-84.9713,10.3591,439.0016],[-84.9673,10.3553,458.1701],[-84.9583,10.3507,541.8777],[-84.9497,10.3656,970.5795],[-85.0181,10.367,590.4337],[-85.0281,10.4295,441.2541],[-85.0279,10.5002,338.8369],[-85.0432,10.5092,344.8396],[-85.0436,10.6056,581.5519],[-85.0458,10.6101,571.6041],[-85.0436,10.6152,572.5989],[-85.0454,10.6183,569.2933],[-85.0424,10.6225,578.3232],[-85.0327,10.6252,659.1123],[-85.0276,10.6247,693.8481],[-85.0209,10.63,767.954],[-85.0102,10.6301,884.9067],[-85.0081,10.6345,925.0132],[-85.0086,10.6414,1043.3574],[-85.0009,10.6516,1291.4192],[-85.0006,10.6542,1313.3773],[-85.0016,10.6568,1326.0597],[-85.0056,10.6588,1379.613],[-85.0101,10.664,1705.1089],[-85.0126,10.6712,1833.4135],[-85.0196,10.674,1741.5804],[-85.0199,10.6806,1535.391],[-85.0267,10.6934,1497.1753],[-85.0438,10.6975,818.8522],[-85.055,10.6974,629.606],[-85.0586,10.7006,602.825],[-85.0613,10.709,566.4731],[-85.0726,10.6955,487.5687],[-85.0817,10.68,466.783],[-85.0822,10.6749,456.4171],[-85.0867,10.6636,419.9069],[-85.0944,10.6553,405.3301],[-85.1,10.6535,365.4861],[-85.1013,10.6487,355.7622],[-85.1143,10.6363,326.9521],[-85.1189,10.6269,334.1274],[-85.1287,10.6205,259.7351],[-85.1305,10.6122,235.7775],[-85.1329,10.6095,216.5919],[-85.1316,10.6047,217.8274],[-85.1337,10.5999,202.9999],[-85.1328,10.5983,192.5289],[-85.1349,10.5963,187.42],[-85.1314,10.5959,195.4772],[-85.1337,10.5923,179.2659],[-85.135,10.5789,169.3973],[-85.137,10.5777,152.2101],[-85.1349,10.577,157.3226],[-85.1357,10.5753,154.0216],[-85.1332,10.5743,166.584],[-85.1325,10.5707,138.2029],[-85.1347,10.5698,131.0014],[-85.136,10.5582,139.0873],[-85.1377,10.5576,107.8104],[-85.1364,10.5539,106.8308],[-85.1409,10.5497,112.2155],[-85.1397,10.5478,108.2245],[-85.1412,10.5426,92.8515],[-85.1452,10.5416,92.4277],[-85.1463,10.538,105.7775],[-85.15,10.5366,79.5374],[-85.1493,10.5345,78.2255],[-85.1605,10.5262,66.3312],[-85.1624,10.521,64.7616],[-85.1603,10.5157,63.9168],[-85.1631,10.508,58.8895],[-85.1606,10.5011,57.8329],[-85.1649,10.4968,57.8329],[-85.1637,10.4935,47.2529],[-85.1659,10.4892,45.9167],[-85.1668,10.4803,43.0826],[-85.1638,10.4778,42.2956],[-85.1623,10.4677,38.7711],[-85.1638,10.4642,33.9343],[-85.1635,10.4548,34.3338],[-85.1572,10.4434,30.7061],[-85.1584,10.437,28.2781],[-85.157,10.4321,27.9563],[-85.1588,10.4294,27.0656],[-85.1599,10.4189,18.5045],[-85.1639,10.4117,20.4794],[-85.1695,10.4108,23.5838],[-85.1714,10.4062,15.3374],[-85.1749,10.4073,20.7378],[-85.1764,10.4043,15.7005],[-85.1735,10.4,20.935],[-85.1782,10.3976,14.3054],[-85.1817,10.3994,18.2945],[-85.1843,10.3976,11.0414],[-85.181,10.3963,13.524],[-85.1807,10.3922,12.1511],[-85.1848,10.3911,13.9834],[-85.184,10.3938,17.2342],[-85.1853,10.3943,17.2342],[-85.1858,10.3897,14.3947],[-85.1841,10.3879,12.7761],[-85.179,10.3877,11.7983],[-85.1784,10.3845,13.0953],[-85.1834,10.3831,16.2731],[-85.1802,10.38,12.9548],[-85.1874,10.3758,11.4097],[-85.1908,10.3685,9.2755],[-85.1932,10.371,16.4987],[-85.1974,10.3701,9.7399],[-85.1955,10.3608,5.727],[-85.2017,10.357,7.3789],[-85.2042,10.3518,4.9333],[-85.1998,10.3505,5.6652],[-85.1987,10.345,13.5693],[-85.2034,10.341,7.4223],[-85.2028,10.3354,7.5418],[-85.2065,10.3373,5.6691],[-85.2075,10.3346,4.3849],[-85.2099,10.3362,5.2558],[-85.2113,10.3351,8.6795],[-85.2072,10.3308,3.324],[-85.2045,10.3248,3.3999],[-85.2094,10.3162,3.2061],[-85.2131,10.3144,3.5515],[-85.2145,10.3059,2.6781],[-85.2111,10.2911,2.8551],[-85.2084,10.2876,6.3377],[-85.2044,10.2861,2.1884],[-85.2037,10.2836,2.1875],[-85.2054,10.2823,7.6734],[-85.2124,10.2844,3.8998],[-85.216,10.2835,24.1063],[-85.219,10.2721,18.585],[-85.232,10.2636,19.0218],[-85.2396,10.2532,1.7673],[-85.2475,10.2519,0.0],[-85.2313,10.2368,4.313],[-85.2282,10.2301,4.5244],[-85.2299,10.2169,15.216],[-85.2347,10.213,6.4576],[-85.2274,10.2037,0.0],[-85.2262,10.1986,9.4786],[-85.2273,10.1961,0.0],[-85.2257,10.1931,0.0],[-85.1452,10.2789,5.7496],[-85.1371,10.2824,9.0257],[-85.1285,10.2831,17.0073]]]]}
,"properties": {"GID_2": "CRI.3.3_1","GID_0": "CRI","country": "CostaRica","GID_1": "CRI.3_1","province": "Guanacaste","NL_NAME_1": "NA","county": "Cañas","VARNAME_2": "NA","NL_NAME_2": "NA","TYPE_2": "Cantón","ENGTYPE_2": "Canton","CC_2": "6","HASC_2": "CR.GU.CN","name": "Cañas.county","area_km2": 685.1227,"hist_schema_id": "Elevation0-9000","hist_area_km2": {"0": 91.574,"25": 111.669,"50": 64.1684,"75": 37.8493,"100": 29.2154,"125": 25.3984,"150": 25.6687,"175": 25.2289,"200": 21.9338,"225": 26.1225,"250": 21.2858,"275": 19.3672,"300": 18.637,"325": 20.179,"350": 18.0309,"375": 15.6332,"400": 11.7352,"425": 9.6922,"450": 8.0452,"475": 7.815,"500": 8.2112,"525": 6.0021,"550": 6.7732,"575": 6.3561,"600": 4.7726,"625": 4.0219,"650": 3.5218,"675": 2.8967,"700": 2.459,"725": 1.5003,"750": 2.0004,"775": 1.3753,"800": 1.4587,"825": 1.7087,"850": 1.2503,"875": 1.271,"900": 1.542,"925": 1.146,"950": 1.4169,"975": 1.1252,"1000": 0.9376,"1025": 0.7501,"1050": 0.8126,"1075": 0.8543,"1100": 0.9376,"1125": 0.8543,"1150": 0.8751,"1175": 0.8751,"1200": 0.7084,"1225": 0.6042,"1250": 0.4584,"1275": 0.5626,"1300": 0.6667,"1325": 0.5001,"1350": 0.5417,"1375": 0.3959,"1400": 0.5001,"1425": 0.3542,"1450": 0.2709,"1475": 0.2917,"1500": 0.2084,"1525": 0.2084,"1550": 0.1667,"1575": 0.2292,"1600": 0.1667,"1625": 0.1458,"1650": 0.2292,"1675": 0.1042,"1700": 0.1875,"1725": 0.1667,"1750": 0.125,"1775": 0.2084,"1800": 0.0208,"1825": 0.0625,"1850": 0.0417,"1875": 0.0417}}}