{"type": "Feature","bbox": [-84.1803,9.8999,-84.0465,9.972],"geometry": {"type": "MultiPolygon","coordinates": [[[[-84.0514,9.9101,1173.7073],[-84.0525,9.9146,1172.4695],[-84.0495,9.9157,1181.6356],[-84.0507,9.9188,1181.8638],[-84.0465,9.9253,1200.5085],[-84.0514,9.9224,1181.5801],[-84.0515,9.9253,1178.5146],[-84.0556,9.9269,1174.9706],[-84.0659,9.9276,1157.9993],[-84.0615,9.932,1186.1592],[-84.0606,9.9405,1186.7296],[-84.0638,9.9389,1179.3234],[-84.0696,9.9409,1170.3853],[-84.0734,9.9384,1164.2213],[-84.0785,9.9403,1140.9462],[-84.0784,9.9415,1149.1465],[-84.082,9.9412,1139.5338],[-84.0812,9.9447,1128.0243],[-84.0877,9.9456,1134.4637],[-84.089,9.9464,1126.8687],[-84.0886,9.9495,1119.9692],[-84.0971,9.952,1106.8776],[-84.0981,9.9569,1096.9187],[-84.1047,9.9571,1081.5725],[-84.1088,9.9621,1050.8016],[-84.1138,9.9597,1008.9287],[-84.1159,9.9622,1018.8143],[-84.1333,9.9675,996.4274],[-84.1379,9.964,991.1828],[-84.1456,9.9623,952.9376],[-84.1559,9.9689,960.788],[-84.1621,9.9663,944.7072],[-84.1689,9.9657,932.7045],[-84.1739,9.972,919.2748],[-84.1767,9.9717,900.9674],[-84.1803,9.9688,875.3232],[-84.175,9.9681,896.9995],[-84.1695,9.9647,904.7377],[-84.1648,9.9571,954.3585],[-84.1585,9.9557,968.6749],[-84.1553,9.9523,974.4654],[-84.1519,9.9512,975.4801],[-84.1508,9.9481,979.9542],[-84.1445,9.9449,985.0691],[-84.1434,9.9418,995.8652],[-84.1379,9.9391,1022.3919],[-84.1235,9.9361,1039.5005],[-84.1219,9.9345,1039.4104],[-84.1222,9.9309,1045.2531],[-84.1209,9.93,1036.3259],[-84.1191,9.9317,1057.9594],[-84.1156,9.9264,1073.613],[-84.1105,9.9146,1088.4565],[-84.1038,9.9091,1098.8228],[-84.1003,9.9093,1110.9449],[-84.0985,9.9058,1104.6924],[-84.0962,9.9061,1104.8182],[-84.0948,9.9026,1102.3538],[-84.0905,9.8999,1123.2],[-84.0846,9.9036,1121.6482],[-84.0832,9.9027,1123.0917],[-84.0831,9.904,1129.5568],[-84.0808,9.9043,1128.488],[-84.0791,9.9031,1127.5817],[-84.0777,9.9063,1127.6194],[-84.0717,9.9088,1146.0978],[-84.072,9.906,1145.9756],[-84.0679,9.9064,1143.8774],[-84.0663,9.9038,1144.7037],[-84.0583,9.9016,1151.7181],[-84.0581,9.9004,1154.1011],[-84.0547,9.9028,1163.8014],[-84.0506,9.9006,1161.3667],[-84.0474,9.9042,1171.6295],[-84.0493,9.9049,1171.207],[-84.0514,9.9101,1173.7073]]]]}
,"properties": {"GID_2": "CRI.7.15_1","GID_0": "CRI","country": "CostaRica","GID_1": "CRI.7_1","province": "SanJosé","NL_NAME_1": "NA","county": "SanJosé","VARNAME_2": "NA","NL_NAME_2": "NA","TYPE_2": "Cantón","ENGTYPE_2": "Canton","CC_2": "1","HASC_2": "CR.SJ.SJ","name": "San_José.county","area_km2": 44.77584,"hist_schema_id": "Elevation0-9000","hist_area_km2": {"875": 0.04176,"900": 0.10441,"925": 0.33412,"950": 1.25295,"975": 2.13004,"1000": 3.11157,"1025": 2.63127,"1050": 2.79837,"1075": 3.3205,"1100": 4.82426,"1125": 10.48427,"1150": 9.14762,"1175": 4.26056,"1200": 0.33415}}}