{"type": "Feature","bbox": [-84.0245,9.9644,-83.9473,9.9834],"geometry": {"type": "MultiPolygon","coordinates": [[[[-83.9986,9.9685,1440.4937],[-83.9924,9.9675,1476.6554],[-83.992,9.9717,1484.1528],[-83.9778,9.9713,1603.0598],[-83.9666,9.9684,1724.8416],[-83.9634,9.9694,1737.3787],[-83.9567,9.9679,1818.8345],[-83.9502,9.9644,1910.8865],[-83.9473,9.9661,1948.5023],[-83.9478,9.9686,2008.3446],[-83.9619,9.9726,1758.911],[-83.9661,9.9713,1724.0853],[-83.9707,9.9735,1675.7292],[-83.9796,9.973,1575.0399],[-83.9891,9.9766,1485.8948],[-83.995,9.9756,1448.9945],[-84.0036,9.9806,1400.0944],[-84.0074,9.9809,1377.0189],[-84.0101,9.9834,1363.1079],[-84.0114,9.9809,1360.8868],[-84.0103,9.979,1370.4431],[-84.0128,9.9761,1358.9023],[-84.0165,9.9748,1342.949],[-84.0245,9.9671,1304.6365],[-84.0197,9.9665,1320.5044],[-84.0121,9.9702,1365.2759],[-83.9986,9.9685,1440.4937]]]]}
,"properties": {"GID_3": "CRI.7.20.4_1","GID_0": "CRI","country": "CostaRica","GID_1": "CRI.7_1","province": "SanJosé","NL_NAME_1": "NA","GID_2": "CRI.7.20_1","county": "VázquezdeCoronado","NL_NAME_2": "NA","city": "SanIsidro","VARNAME_3": "NA","NL_NAME_3": "NA","TYPE_3": "Distrito","ENGTYPE_3": "District","CC_3": "1","HASC_3": "NA","name": "San_Isidro.city","area_km2": 5.074293,"hist_schema_id": "Elevation0-9000","hist_area_km2": {"1300": 0.020882,"1325": 0.375877,"1350": 0.33411,"1375": 0.772621,"1400": 0.480279,"1425": 0.459399,"1450": 0.396755,"1475": 0.417638,"1500": 0.12529,"1525": 0.167054,"1550": 0.125291,"1575": 0.083528,"1600": 0.062646,"1625": 0.062646,"1650": 0.104409,"1675": 0.083528,"1700": 0.062646,"1725": 0.125292,"1750": 0.146174,"1775": 0.062646,"1800": 0.083528,"1825": 0.041764,"1850": 0.146175,"1875": 0.041764,"1900": 0.104411,"1925": 0.041764,"1950": 0.062647,"1975": 0.041764,"2000": 0.041764}}}