{"type": "Feature","bbox": [-84.4322,10.1247,-84.3783,10.1762],"geometry": {"type": "MultiPolygon","coordinates": [[[[-84.3894,10.1762,1610.2031],[-84.4017,10.1715,1518.7312],[-84.4024,10.1696,1493.2568],[-84.4089,10.17,1466.5071],[-84.4119,10.1684,1454.5599],[-84.4153,10.1691,1429.2692],[-84.418,10.172,1388.0776],[-84.424,10.169,1360.0049],[-84.4272,10.1714,1335.4857],[-84.4322,10.1682,1283.7384],[-84.4226,10.1414,1342.1432],[-84.4137,10.129,1240.98],[-84.4117,10.1301,1249.6185],[-84.3935,10.1247,1198.8972],[-84.3914,10.1268,1221.6909],[-84.389,10.1374,1347.0251],[-84.3844,10.1413,1392.0193],[-84.3815,10.1478,1451.5896],[-84.3783,10.1495,1498.6124],[-84.3894,10.1762,1610.2031]]]]}
,"properties": {"GID_3": "CRI.1.7.6_1","GID_0": "CRI","country": "CostaRica","GID_1": "CRI.1_1","province": "Alajuela","NL_NAME_1": "NA","GID_2": "CRI.1.7_1","county": "Naranjo","NL_NAME_2": "NA","city": "SanJosé","VARNAME_3": "NA","NL_NAME_3": "NA","TYPE_3": "Distrito","ENGTYPE_3": "District","CC_3": "3","HASC_3": "NA","name": "San_José.city","area_km2": 21.18333,"hist_schema_id": "Elevation0-9000","hist_area_km2": {"1200": 0.02087,"1225": 0.04174,"1250": 0.22959,"1275": 0.33394,"1300": 0.77223,"1325": 1.27312,"1350": 1.52357,"1375": 1.39832,"1400": 1.75313,"1425": 1.50266,"1450": 1.71136,"1475": 1.81571,"1500": 1.73222,"1525": 1.92004,"1550": 1.56525,"1575": 1.29393,"1600": 1.00174,"1625": 0.64696,"1650": 0.35478,"1675": 0.20869,"1700": 0.08348}}}