{"type":"Feature","properties":{"GID_3":"CRI.1.7.2_1","GID_0":"CRI","country":"CostaRica","GID_1":"CRI.1_1","province":"Alajuela","NL_NAME_1":"NA","GID_2":"CRI.1.7_1","county":"Naranjo","NL_NAME_2":"NA","city":"ElRosario","VARNAME_3":"NA","NL_NAME_3":"NA","TYPE_3":"Distrito","ENGTYPE_3":"District","CC_3":"7","HASC_3":"NA","name":"El_Rosario.city"},
"geometry":{"type": "MultiPolygon","coordinates": [[[[-84.3905,10.0386,769.7841],[-84.3858,10.0367,748.5837],[-84.3666,10.0344,678.6442],[-84.3645,10.0306,655.0034],[-84.3656,10.0258,642.8336],[-84.3641,10.0201,612.1096],[-84.3606,10.018,601.9919],[-84.3582,10.0244,684.6779],[-84.3584,10.0352,744.9254],[-84.3565,10.0377,719.0883],[-84.3601,10.0405,731.5746],[-84.357,10.0444,757.701],[-84.3586,10.0514,791.3041],[-84.3585,10.0561,812.9156],[-84.3566,10.0582,806.2918],[-84.3571,10.0632,831.68],[-84.3611,10.0661,865.3726],[-84.3664,10.066,879.7507],[-84.3834,10.0715,1090.1335],[-84.3855,10.0692,1079.4963],[-84.386,10.0624,1200.0115],[-84.3905,10.061,1173.6865],[-84.3961,10.062,1178.5188],[-84.3984,10.0595,1215.7905],[-84.3989,10.05,1118.9148],[-84.4025,10.0485,1100.8721],[-84.4038,10.0445,1098.5198],[-84.4076,10.0408,1103.6863],[-84.4134,10.0386,897.6937],[-84.4041,10.0336,890.795],[-84.4031,10.0353,857.5419],[-84.3905,10.0386,769.7841]]]]}}