{"type":"Feature","properties":{"GID_3":"CRI.7.15.5_1","GID_0":"CRI","country":"CostaRica","GID_1":"CRI.7_1","province":"SanJosé","NL_NAME_1":"NA","GID_2":"CRI.7.15_1","county":"SanJosé","NL_NAME_2":"NA","city":"MataRedonda","VARNAME_3":"NA","NL_NAME_3":"NA","TYPE_3":"Distrito","ENGTYPE_3":"District","CC_3":"8","HASC_3":"NA","name":"Mata_Redonda.city"},
"geometry":{"type": "MultiPolygon","coordinates": [[[[-84.1185,9.9302,1058.0179],[-84.1147,9.932,1070.2737],[-84.1091,9.9269,1107.0491],[-84.1085,9.9282,1096.8875],[-84.1024,9.9249,1105.4626],[-84.0989,9.9257,1121.0593],[-84.0982,9.9447,1097.0112],[-84.0995,9.9437,1105.2495],[-84.0998,9.946,1098.4932],[-84.101,9.9438,1079.2323],[-84.1018,9.9452,1079.2323],[-84.1032,9.9439,1091.1621],[-84.1102,9.944,1070.0616],[-84.1149,9.9362,1100.3408],[-84.1232,9.9356,1039.5005],[-84.1219,9.9345,1039.4104],[-84.1222,9.9309,1045.2531],[-84.1209,9.93,1036.3259],[-84.1191,9.9317,1057.9594],[-84.1185,9.9302,1058.0179]]]]}}