{"type":"Feature","properties":{"GID_2":"CRI.6.12_1","GID_0":"CRI","country":"CostaRica","GID_1":"CRI.6_1","province":"Puntarenas","NL_NAME_1":"NA","county":"Quepos","VARNAME_2":"NA","NL_NAME_2":"NA","TYPE_2":"Cantón","ENGTYPE_2":"Canton","CC_2":"6","HASC_2":"CR.PU.QP","name":"Quepos.county"},
"geometry":{"type": "MultiPolygon","coordinates": [[[[-84.1213,9.3459,0.0],[-84.1212,9.3456,0.0],[-84.121,9.3457,0.0],[-84.1211,9.346,0.0],[-84.1213,9.3459,0.0]]],
[[[-84.1217,9.3476,0.0],[-84.1216,9.3473,0.0],[-84.1214,9.3472,0.0],[-84.1214,9.3479,0.0],[-84.1217,9.3476,0.0]]],
[[[-84.1224,9.35,0.0],[-84.1219,9.3497,0.0],[-84.1229,9.3511,0.0],[-84.123,9.3507,0.0],[-84.1224,9.35,0.0]]],
[[[-83.8543,9.2803,24.7816],[-83.8556,9.2876,57.1845],[-83.858,9.2909,33.5066],[-83.855,9.2931,49.8634],[-83.8568,9.2962,98.6678],[-83.8565,9.3004,100.5805],[-83.8546,9.3022,73.1911],[-83.8587,9.3033,92.1053],[-83.8601,9.308,70.1845],[-83.8558,9.3104,176.333],[-83.8539,9.3244,82.4573],[-83.8499,9.325,92.4629],[-83.8455,9.33,149.3384],[-83.8472,9.3344,109.995],[-83.8405,9.3371,120.7295],[-83.8418,9.3431,134.9516],[-83.8515,9.3398,190.2168],[-83.8606,9.3432,171.1943],[-83.8641,9.3429,171.5961],[-83.8705,9.3482,240.9156],[-83.8698,9.3543,238.7977],[-83.8778,9.3602,313.4935],[-83.8907,9.3622,418.6846],[-83.8915,9.3673,478.3674],[-83.8874,9.3749,586.4018],[-83.8914,9.3828,908.9004],[-83.8953,9.3868,1032.8584],[-83.8976,9.3868,999.0389],[-83.902,9.4002,1024.4333],[-83.9093,9.4051,1164.6305],[-83.922,9.403,890.0598],[-83.9245,9.4038,919.188],[-83.9269,9.401,829.6292],[-83.9357,9.3972,757.1702],[-83.9362,9.3953,727.9974],[-83.9329,9.3908,719.1678],[-83.9337,9.3882,727.8232],[-83.9364,9.3871,711.7712],[-83.9426,9.3886,670.2651],[-83.9456,9.3949,763.5074],[-83.9501,9.3958,742.4208],[-83.9541,9.3942,731.2786],[-83.9584,9.3973,769.5244],[-83.9617,9.396,765.238],[-83.9654,9.402,709.7531],[-83.9617,9.4096,732.0175],[-83.9681,9.4156,616.0134],[-83.9721,9.4168,602.9207],[-83.9741,9.4199,594.1414],[-83.9799,9.4211,517.4246],[-83.9827,9.433,662.734],[-83.9895,9.4334,607.5403],[-83.9981,9.4382,368.8584],[-84.0017,9.4432,284.5823],[-84.0012,9.4498,83.2523],[-84.0187,9.4593,609.8338],[-84.0271,9.461,598.8013],[-84.0331,9.4709,557.4243],[-84.0437,9.4769,256.1719],[-84.0514,9.4843,375.6417],[-84.0529,9.4888,423.5836],[-84.0553,9.4897,413.4379],[-84.0594,9.4951,414.5662],[-84.0642,9.4992,444.7342],[-84.0747,9.5027,343.4726],[-84.0787,9.5131,84.1878],[-84.0799,9.5115,101.0775],[-84.0831,9.5115,69.827],[-84.0843,9.5095,88.8361],[-84.0876,9.5103,81.1673],[-84.0839,9.5146,70.752],[-84.0736,9.5185,149.6738],[-84.0739,9.5234,166.0119],[-84.0693,9.5304,193.3495],[-84.0718,9.5345,202.0572],[-84.072,9.5527,684.3438],[-84.0761,9.5581,975.4578],[-84.0719,9.571,1213.3929],[-84.075,9.5666,1004.8929],[-84.0828,9.5636,722.8255],[-84.0921,9.568,494.7343],[-84.0992,9.569,447.4162],[-84.1064,9.5635,400.9312],[-84.1091,9.5638,383.8582],[-84.11,9.5616,356.5192],[-84.1188,9.56,341.1114],[-84.1204,9.555,265.0345],[-84.1241,9.5579,318.9205],[-84.1264,9.5663,379.2853],[-84.1296,9.5704,395.1192],[-84.1355,9.572,437.8344],[-84.1411,9.5707,643.3968],[-84.149,9.5634,665.2872],[-84.1586,9.5607,554.5047],[-84.1664,9.5551,464.8959],[-84.1702,9.5541,390.9386],[-84.1739,9.547,235.3537],[-84.1803,9.5456,208.7389],[-84.185,9.5475,170.0957],[-84.1873,9.5465,180.8143],[-84.1876,9.5445,130.0541],[-84.1823,9.5365,88.5166],[-84.1835,9.5314,62.0607],[-84.1864,9.5266,69.8615],[-84.191,9.5274,42.5076],[-84.1961,9.5244,33.0237],[-84.197,9.5218,48.7799],[-84.1993,9.5218,32.7791],[-84.2002,9.5169,18.54],[-84.2026,9.5145,16.5392],[-84.214,9.5104,18.6203],[-84.2162,9.5133,21.3239],[-84.2178,9.5116,17.2067],[-84.2212,9.5141,20.0454],[-84.2256,9.514,17.1669],[-84.2306,9.5164,17.0504],[-84.2353,9.5154,4.5789],[-84.2432,9.5113,5.173],[-84.2466,9.5055,18.0648],[-84.2488,9.5064,21.8071],[-84.249,9.5035,11.5406],[-84.2535,9.4986,3.8381],[-84.2533,9.4961,8.871],[-84.243,9.4896,9.6807],[-84.2372,9.4763,0.0],[-84.225,9.463,0.0],[-84.2204,9.4605,1.494],[-84.207,9.4621,0.6948],[-84.19,9.4549,4.5087],[-84.1858,9.4521,3.7861],[-84.1866,9.4465,2.5072],[-84.1797,9.4437,4.5284],[-84.1778,9.4406,3.3079],[-84.1689,9.4347,1.2754],[-84.1656,9.4293,0.0],[-84.167,9.4252,9.5954],[-84.1701,9.4247,1.8866],[-84.1693,9.4219,0.0],[-84.1663,9.4212,31.2124],[-84.1686,9.4194,37.2683],[-84.1646,9.4159,23.4582],[-84.1659,9.4146,0.0],[-84.1638,9.4128,0.0],[-84.1666,9.412,26.0813],[-84.1634,9.4055,0.0],[-84.1672,9.4008,0.0],[-84.1688,9.4026,0.0],[-84.1727,9.4026,0.0],[-84.1761,9.3997,13.099],[-84.177,9.3955,22.5904],[-84.1729,9.3947,2.2993],[-84.1643,9.3971,42.0787],[-84.1542,9.3941,13.297],[-84.1488,9.3903,0.0],[-84.148,9.3866,0.0],[-84.1466,9.3864,0.0],[-84.1459,9.3816,1.225],[-84.1494,9.3808,0.1991],[-84.1475,9.3767,1.0306],[-84.1443,9.3771,4.3647],[-84.1458,9.3796,0.0],[-84.1436,9.3819,13.8643],[-84.1396,9.3802,14.6381],[-84.1386,9.377,0.0],[-84.1371,9.3786,24.6204],[-84.1351,9.3774,13.4069],[-84.1344,9.38,9.027],[-84.1364,9.3812,9.758],[-84.1344,9.3827,0.0],[-84.1353,9.3848,0.0],[-84.13,9.3868,38.3752],[-84.1233,9.3699,0.7029],[-84.1229,9.3742,25.0617],[-84.1177,9.3743,18.2126],[-84.1168,9.3788,4.6698],[-84.1147,9.3779,10.2983],[-84.1156,9.3759,0.0],[-84.0957,9.3737,0.0],[-84.0295,9.3446,0.25],[-84.0003,9.3366,0.0],[-83.9976,9.3341,4.3021],[-83.9569,9.3168,0.0],[-83.9326,9.3024,2.4002],[-83.9279,9.3025,2.077],[-83.9244,9.2968,0.0],[-83.9183,9.2934,0.0],[-83.9172,9.2944,6.8949],[-83.9167,9.2913,2.628],[-83.9075,9.2841,5.1188],[-83.904,9.2839,0.0],[-83.9006,9.279,9.941],[-83.8695,9.2547,0.0],[-83.862799999999993,9.2595,6.0447],[-83.8585,9.2725,54.0857],[-83.859,9.2764,22.7967],[-83.8543,9.2803,24.7816]]],
[[[-84.1521,9.3703,-0.119],[-84.1512,9.3701,-0.119],[-84.151,9.371,0.0],[-84.1511,9.371,0.0],[-84.1521,9.3703,-0.119]]],
[[[-84.1494,9.3711,0.0147],[-84.1489,9.3705,0.0147],[-84.1483,9.3707,0.0],[-84.1492,9.3719,0.0147],[-84.1494,9.3711,0.0147]]],
[[[-84.1556,9.3729,-0.1379],[-84.155,9.3735,-0.1379],[-84.1553,9.375,3.8553],[-84.1567,9.3713,0.0],[-84.1556,9.3729,-0.1379]]],
[[[-84.1439,9.3758,0.0],[-84.1435,9.3755,0.0],[-84.1431,9.3754,0.0],[-84.1435,9.3761,0.0],[-84.1439,9.3758,0.0]]],
[[[-84.1669,9.3806,0.025],[-84.166,9.3801,0.0],[-84.168,9.383,0.0489],[-84.168,9.3823,0.0489],[-84.1669,9.3806,0.025]]],
[[[-84.1556,9.3832,0.0],[-84.1556,9.3826,0.0],[-84.1552,9.3845,0.0],[-84.1553,9.3844,0.0],[-84.1556,9.3832,0.0]]],
[[[-84.1549,9.3864,0.0],[-84.1548,9.3862,0.0],[-84.1545,9.3861,0.0],[-84.1546,9.3865,0.0],[-84.1549,9.3864,0.0]]],
[[[-84.1824,9.3922,0.0],[-84.1818,9.3916,0.0],[-84.1811,9.3922,0.0],[-84.1817,9.3927,0.0],[-84.1824,9.3922,0.0]]],
[[[-84.1221,9.3523,1.9216],[-84.1213,9.3533,1.3021],[-84.1223,9.354,0.0],[-84.1226,9.353,1.9216],[-84.1221,9.3523,1.9216]]],
[[[-84.1165,9.3651,0.0],[-84.1153,9.3651,0.0],[-84.1156,9.3678,0.0],[-84.1162,9.3676,0.0],[-84.1165,9.3651,0.0]]]]}}