{"type":"Feature","properties":{"GID_2":"CRI.7.4_1","GID_0":"CRI","country":"CostaRica","GID_1":"CRI.7_1","province":"SanJosé","NL_NAME_1":"NA","county":"Curridabat","VARNAME_2":"NA","NL_NAME_2":"NA","TYPE_2":"Cantón","ENGTYPE_2":"Canton","CC_2":"18","HASC_2":"CR.SJ.CU","name":"Curridabat.county"},
"geometry":{"type": "MultiPolygon","coordinates": [[[[-84.0223,9.8955,1214.6694],[-84.0157,9.8991,1242.4543],[-84.0177,9.9048,1237.4296],[-84.0159,9.9095,1237.2393],[-84.0051,9.9245,1344.2422],[-84.0054,9.9313,1359.7175],[-84.0078,9.9383,1349.5139],[-84.0184,9.939,1306.4083],[-84.0318,9.9302,1244.5925],[-84.0435,9.9298,1216.4116],[-84.0505,9.9193,1181.8638],[-84.0509,9.917,1176.3413],[-84.0495,9.9157,1181.6356],[-84.0525,9.9146,1172.4695],[-84.0487,9.9045,1171.207],[-84.0335,9.9005,1315.7471],[-84.0271,9.8936,1305.3473],[-84.0223,9.8955,1214.6694]]]]}}