{"type": "Feature","bbox": [-84.9644,10.4591,-84.7742,10.5987],"geometry": {"type": "MultiPolygon","coordinates": [[[[-84.9637,10.5987,1157.312],[-84.9644,10.5976,1157.312],[-84.9516,10.585,885.15],[-84.9488,10.5855,890.4096],[-84.9437,10.5817,835.0277],[-84.9439,10.5791,797.215],[-84.9381,10.5685,642.1884],[-84.9353,10.5574,562.7517],[-84.9276,10.5561,547.2715],[-84.9282,10.5578,569.7161],[-84.9215,10.5532,551.9113],[-84.9202,10.5537,551.9113],[-84.9201,10.5511,540.0],[-84.9123,10.542,540.0],[-84.9095,10.5425,540.0],[-84.9098,10.5463,561.4286],[-84.916,10.5515,562.1337],[-84.9113,10.5519,547.5577],[-84.9099,10.5498,540.0],[-84.9047,10.5526,555.8507],[-84.9008,10.5507,551.5124],[-84.8992,10.5514,576.7307],[-84.8983,10.5498,567.6195],[-84.9009,10.5486,563.9602],[-84.9028,10.5498,544.377],[-84.9029,10.5477,565.6278],[-84.9044,10.5493,540.0],[-84.907,10.548,561.6627],[-84.9054,10.5452,583.1532],[-84.9066,10.5444,549.0568],[-84.904,10.5415,554.9879],[-84.9083,10.5407,540.0],[-84.9095,10.5388,566.3237],[-84.9089,10.5374,548.4965],[-84.905,10.5371,558.8224],[-84.9052,10.5314,541.3397],[-84.9041,10.5334,545.6304],[-84.9013,10.5321,540.0],[-84.8985,10.5384,554.9597],[-84.8917,10.5363,544.6111],[-84.8919,10.5397,567.9033],[-84.8861,10.5312,540.0],[-84.8863,10.5339,565.4843],[-84.8845,10.5336,543.7971],[-84.8705,10.5244,559.8596],[-84.8664,10.5205,562.0994],[-84.8669,10.5165,540.0],[-84.8623,10.5146,562.2264],[-84.8637,10.5131,540.0],[-84.8586,10.5081,540.0],[-84.8553,10.5091,555.0038],[-84.8557,10.5071,551.4956],[-84.8529,10.5047,540.0],[-84.8515,10.5067,540.0],[-84.8508,10.5053,540.0],[-84.8478,10.5094,566.8384],[-84.8483,10.5018,541.446],[-84.8412,10.4986,540.0],[-84.8381,10.4938,546.3477],[-84.8396,10.4909,550.632],[-84.8414,10.4924,540.0],[-84.8422,10.4903,540.0],[-84.8408,10.4876,540.0],[-84.8385,10.4884,554.204],[-84.8402,10.4842,540.0],[-84.8356,10.4751,540.0],[-84.8322,10.4756,548.4266],[-84.8297,10.4711,541.5452],[-84.825,10.4729,554.5383],[-84.825,10.4688,557.742],[-84.8199,10.4671,548.0332],[-84.8185,10.468,551.8488],[-84.8191,10.4654,540.0],[-84.8159,10.4642,540.0],[-84.813,10.4657,563.1633],[-84.811,10.4653,543.4323],[-84.8114,10.4638,543.4323],[-84.8078,10.4637,540.0],[-84.806,10.4659,548.5212],[-84.8038,10.4654,560.7654],[-84.8032,10.4628,547.129],[-84.7975,10.4612,540.0],[-84.7955,10.4641,569.8273],[-84.7934,10.4642,564.9498],[-84.795,10.4609,540.0],[-84.7857,10.4619,544.1555],[-84.7843,10.4591,540.0],[-84.7817,10.4623,558.1959],[-84.7745,10.4621,551.7166],[-84.7742,10.4974,805.145],[-84.7789,10.4955,831.1491],[-84.7817,10.4963,830.4306],[-84.7923,10.4905,816.8711],[-84.7961,10.4999,855.5573],[-84.8019,10.5023,854.0092],[-84.8127,10.5111,832.0205],[-84.8206,10.5143,842.5183],[-84.8217,10.526,859.6918],[-84.8307,10.523,812.0149],[-84.8362,10.5237,782.5123],[-84.8383,10.5252,791.8099],[-84.8387,10.5299,801.6041],[-84.8457,10.5317,774.0742],[-84.8449,10.5466,784.0927],[-84.8518,10.5462,751.0465],[-84.8576,10.5539,814.5807],[-84.8641,10.5561,798.3001],[-84.8718,10.5632,791.1008],[-84.8793,10.562,790.9357],[-84.8836,10.5639,774.4993],[-84.8894,10.5598,743.5453],[-84.8953,10.5628,752.7038],[-84.9032,10.5707,704.4955],[-84.9089,10.5688,703.2866],[-84.9191,10.5739,710.8466],[-84.9227,10.5724,760.5237],[-84.9298,10.5793,774.0996],[-84.9295,10.5836,825.4218],[-84.9336,10.5857,819.7296],[-84.9392,10.5856,979.8667],[-84.9412,10.5898,945.4199],[-84.9443,10.5914,941.9136],[-84.9447,10.5949,938.7307],[-84.9558,10.5946,1033.9894],[-84.9637,10.5987,1157.312]]]]}
,"properties": {"GID_3": "CRI.3.11.1_1","GID_0": "CRI","country": "CostaRica","GID_1": "CRI.3_1","province": "Guanacaste","NL_NAME_1": "NA","GID_2": "CRI.3.11_1","county": "Tilarán","NL_NAME_2": "NA","city": "Arenal","VARNAME_3": "NA","NL_NAME_3": "NA","TYPE_3": "Distrito","ENGTYPE_3": "District","CC_3": "7","HASC_3": "NA","name": "Arenal.city","area_km2": 73.43974,"hist_schema_id": "Elevation0-9000","hist_area_km2": {"550": 4.00264,"575": 6.21224,"600": 5.87853,"625": 5.54499,"650": 5.77428,"675": 6.42041,"700": 6.69157,"725": 6.02451,"750": 7.02502,"775": 5.9618,"800": 4.08571,"825": 3.8149,"850": 3.35626,"875": 0.50025,"900": 0.45851,"925": 0.6044,"950": 0.41682,"975": 0.25009,"1000": 0.16673,"1025": 0.1042,"1050": 0.04168,"1075": 0.06252,"1100": 0.02084,"1150": 0.02084}}}