{"type":"Feature","properties":{"GID_2":"CRI.7.9_1","GID_0":"CRI","country":"CostaRica","GID_1":"CRI.7_1","province":"SanJosé","NL_NAME_1":"NA","county":"LeónCortésCastro","VARNAME_2":"NA","NL_NAME_2":"NA","TYPE_2":"Cantón","ENGTYPE_2":"Canton","CC_2":"20","HASC_2":"CR.SJ.LC","name":"León_Cortés_Castro.county"},
"geometry":{"type": "MultiPolygon","coordinates": [[[[-84.1535,9.6632,757.6269],[-84.152,9.6601,844.337],[-84.1458,9.6616,821.9821],[-84.1428,9.6596,861.1758],[-84.1385,9.6618,836.5338],[-84.1357,9.6607,907.4133],[-84.1365,9.6522,905.4706],[-84.1345,9.649,919.8167],[-84.1304,9.6494,950.3222],[-84.1297,9.6474,958.7017],[-84.1316,9.6432,966.3514],[-84.1287,9.6422,955.3397],[-84.1255,9.6368,1028.5529],[-84.1204,9.6385,1038.5906],[-84.117,9.6429,1058.86],[-84.1127,9.6424,1069.636],[-84.1104,9.6462,1109.5717],[-84.1004,9.6418,1205.5],[-84.0944,9.6458,1205.5],[-84.0911,9.6439,1205.5],[-84.0864,9.6442,1205.5],[-84.0816,9.6473,1205.5],[-84.0811,9.6497,1205.5],[-84.077,9.6504,1221.1573],[-84.0756,9.6535,1232.377],[-84.0733,9.652,1273.6207],[-84.0653,9.6554,1302.1737],[-84.0621,9.6544,1284.0432],[-84.061,9.6576,1316.1388],[-84.0579,9.6596,1337.627],[-84.0517,9.6588,1347.0222],[-84.0492,9.6567,1360.623],[-84.0389,9.663,1479.1913],[-84.0356,9.6687,1577.5238],[-84.0345,9.6745,1574.3763],[-84.0295,9.6781,1633.5132],[-84.0292,9.6822,1718.1959],[-84.0315,9.6853,1735.3379],[-84.0284,9.6853,1772.7371],[-84.0262,9.6891,1871.7614],[-84.0202,9.6884,2025.9102],[-84.0183,9.6897,2036.0157],[-84.0216,9.6956,2054.7192],[-84.0207,9.7015,2075.0908],[-84.0142,9.7044,2110.9885],[-84.0094,9.7108,2071.5242],[-84.0047,9.7112,2040.0613],[-83.9891,9.7177,2133.595],[-83.9861,9.7167,2120.0146],[-83.9792,9.7186,2193.1035],[-83.9785,9.7159,2204.9846],[-83.9749,9.7146,2201.2856],[-83.9723,9.7144,2217.7695],[-83.9709,9.7164,2207.022],[-83.975,9.7217,2179.1282],[-83.978,9.7292,2028.8822],[-83.984,9.7334,1866.9712],[-83.9865,9.7393,1749.6992],[-83.9918,9.7363,1713.0273],[-84.0008,9.7389,1698.0005],[-84.0028,9.7372,1631.3494],[-84.0129,9.7424,1591.9985],[-84.0158,9.7404,1532.5352],[-84.015,9.7394,1532.5352],[-84.018,9.7387,1550.8834],[-84.028,9.7407,1465.4423],[-84.0287,9.7423,1513.4698],[-84.0367,9.7426,1451.0474],[-84.0365,9.7407,1432.606],[-84.0465,9.7405,1385.1355],[-84.0528,9.7443,1371.6062],[-84.0569,9.7422,1331.5865],[-84.0585,9.7431,1298.8945],[-84.0589,9.7414,1287.6493],[-84.0608,9.7425,1288.2598],[-84.0704,9.74,1255.0492],[-84.078,9.7427,1215.5371],[-84.081,9.7415,1195.6409],[-84.0821,9.7446,1210.2625],[-84.0837,9.7439,1194.1604],[-84.086,9.7462,1169.6564],[-84.0898,9.7452,1131.683],[-84.0954,9.7512,1051.5947],[-84.0991,9.7464,1245.934],[-84.0991,9.7407,1509.3145],[-84.0974,9.737,1536.5004],[-84.0945,9.7354,1606.8698],[-84.0931,9.7302,1647.5804],[-84.0945,9.7263,1754.0524],[-84.0923,9.7256,1769.7336],[-84.0937,9.7156,2050.0776],[-84.0917,9.709,2179.4824],[-84.1056,9.7101,2217.3538],[-84.1112,9.703,1850.0052],[-84.1182,9.7055,1685.8979],[-84.122,9.703,1632.9667],[-84.1265,9.6972,1487.6349],[-84.1366,9.6909,1332.2219],[-84.1421,9.6846,1245.5012],[-84.1424,9.6813,1190.4525],[-84.1502,9.6778,1006.7413],[-84.1534,9.6712,883.5788],[-84.1535,9.6632,757.6269]]]]}}