{"type": "Feature","bbox": [-84.3963,9.9932,-84.3511,10.0386],"geometry": {"type": "MultiPolygon","coordinates": [[[[-84.3511,9.9961,538.0275],[-84.3535,9.998,572.1531],[-84.3575,10.0071,628.3805],[-84.3575,10.0125,606.1965],[-84.3619,10.0156,594.3394],[-84.3606,10.018,601.9919],[-84.3641,10.0201,612.1096],[-84.3657,10.0335,681.6544],[-84.3905,10.0386,769.7841],[-84.3922,10.0354,877.1489],[-84.3894,10.0314,948.2148],[-84.3887,10.0257,1009.4587],[-84.3963,10.0173,1056.4866],[-84.3948,10.0119,814.5498],[-84.3809,10.0049,684.5754],[-84.3854,10.0026,706.2559],[-84.3858,9.9968,710.2928],[-84.3883,9.996,705.3467],[-84.3868,9.9932,648.3079],[-84.3809,9.9957,657.2808],[-84.3792,9.9942,623.3198],[-84.3752,9.9948,628.3201],[-84.3724,9.9983,589.6705],[-84.3655,9.9977,618.2967],[-84.362799999999993,9.9949,572.7468],[-84.3604,9.9958,563.879],[-84.3536,9.9944,573.3217],[-84.3511,9.9961,538.0275]]]]}
,"properties": {"GID_3": "CRI.1.3.8_1","GID_0": "CRI","country": "CostaRica","GID_1": "CRI.1_1","province": "Alajuela","NL_NAME_1": "NA","GID_2": "CRI.1.3_1","county": "Atenas","NL_NAME_2": "NA","city": "SantaEulalia","VARNAME_3": "NA","NL_NAME_3": "NA","TYPE_3": "Distrito","ENGTYPE_3": "District","CC_3": "7","HASC_3": "NA","name": "Santa_Eulalia.city","area_km2": 14.44836,"hist_schema_id": "Elevation0-9000","hist_area_km2": {"550": 0.1044,"575": 0.22968,"600": 0.37584,"625": 0.522,"650": 1.33631,"675": 2.02533,"700": 2.17146,"725": 1.87911,"750": 1.3571,"775": 0.7725,"800": 0.79339,"825": 0.48021,"850": 0.54284,"875": 0.3967,"900": 0.45933,"925": 0.25054,"950": 0.31318,"975": 0.12527,"1000": 0.16703,"1025": 0.14615}}}