{"type": "Feature","bbox": [-83.845,10.2841,-83.3434,10.939],"geometry": {"type": "MultiPolygon","coordinates": [[[[-83.8435,10.6078,26.2721],[-83.7995,10.6087,112.2386],[-83.6287,10.5431,13.2053],[-83.6255,10.5444,12.1206],[-83.6232,10.5416,13.0268],[-83.6186,10.5404,9.9017],[-83.6146,10.5439,11.2042],[-83.6069,10.5424,9.2044],[-83.5972,10.5456,8.1063],[-83.5923,10.5448,6.799],[-83.5869,10.5481,6.4896],[-83.5756,10.3845,161.9734],[-83.5737,10.3817,118.4101],[-83.575,10.3772,156.5897],[-83.5742,10.3734,133.8682],[-83.57,10.3691,115.5278],[-83.5705,10.3649,125.058],[-83.5777,10.3517,236.4464],[-83.5728,10.3463,180.7545],[-83.5742,10.3421,177.1824],[-83.5729,10.3389,164.6467],[-83.5758,10.3361,126.3578],[-83.5752,10.3274,124.1421],[-83.5669,10.3123,136.936],[-83.5697,10.3036,57.0534],[-83.5688,10.2997,21.5814],[-83.5594,10.3007,23.3735],[-83.5562,10.2974,20.936],[-83.5485,10.2996,21.946],[-83.5442,10.2985,20.5173],[-83.5442,10.2966,18.6602],[-83.5406,10.2982,18.8029],[-83.5392,10.2957,17.0789],[-83.5375,10.299,16.1936],[-83.5344,10.2997,17.5434],[-83.5345,10.2965,23.1868],[-83.5305,10.2969,15.5727],[-83.5292,10.2945,16.9839],[-83.5244,10.2963,16.7915],[-83.5244,10.298,17.0994],[-83.5277,10.2976,15.6585],[-83.5226,10.3029,14.9656],[-83.5208,10.3012,15.257],[-83.5177,10.3017,14.5497],[-83.5208,10.3043,16.3023],[-83.5174,10.3073,14.9907],[-83.5167,10.3039,11.7691],[-83.5145,10.3057,13.6603],[-83.5119,10.3042,16.6119],[-83.5129,10.3017,19.0413],[-83.5116,10.2975,19.1826],[-83.5098,10.3033,12.0356],[-83.5055,10.3025,13.1249],[-83.5037,10.3037,12.0938],[-83.5027,10.2997,12.7927],[-83.4993,10.2994,12.4171],[-83.499,10.2965,11.8662],[-83.4972,10.2962,11.077],[-83.4974,10.2988,12.3425],[-83.4957,10.2997,11.5451],[-83.4947,10.2988,11.5451],[-83.4958,10.296,10.2797],[-83.4939,10.2956,11.8371],[-83.4922,10.2978,9.9653],[-83.4938,10.2995,11.3609],[-83.4909,10.2989,11.6538],[-83.4904,10.2949,9.1929],[-83.4846,10.2936,8.6818],[-83.4843,10.2918,9.2389],[-83.4822,10.2921,9.1215],[-83.4792,10.2896,9.3897],[-83.4788,10.292,8.4095],[-83.476,10.2908,8.8151],[-83.4767,10.2923,12.5121],[-83.4754,10.2925,19.4035],[-83.4734,10.2918,7.5831],[-83.4738,10.2893,8.1092],[-83.466,10.2893,6.9559],[-83.4627,10.2873,6.0903],[-83.4585,10.2885,6.6562],[-83.4551,10.2864,7.0749],[-83.4527,10.2892,10.5221],[-83.4491,10.288,7.6956],[-83.4444,10.2913,7.0936],[-83.4382,10.2841,6.2941],[-83.4374,10.2877,7.2278],[-83.428,10.2864,6.9767],[-83.4266,10.2907,9.063],[-83.4247,10.2874,7.6435],[-83.4188,10.2876,10.1193],[-83.4164,10.2896,9.7023],[-83.4133,10.2855,14.3341],[-83.406,10.2842,8.3661],[-83.4051,10.2851,6.8844],[-83.4102,10.2899,9.327],[-83.408,10.2902,10.3158],[-83.4069,10.2878,6.9065],[-83.4035,10.2899,9.3162],[-83.4027,10.2912,8.7853],[-83.4054,10.2941,11.1194],[-83.4047,10.2959,7.6276],[-83.3991,10.2943,8.2796],[-83.4011,10.3,9.6254],[-83.3985,10.3032,5.7253],[-83.3942,10.3008,4.8671],[-83.3954,10.2959,10.7119],[-83.3944,10.2947,7.2869],[-83.388,10.3031,6.7414],[-83.3855,10.3017,5.0867],[-83.3848,10.2961,3.044],[-83.3835,10.2962,3.044],[-83.3814,10.3027,5.6399],[-83.3799,10.3034,6.151],[-83.3777,10.2996,3.2467],[-83.3788,10.294,3.6975],[-83.3748,10.2989,3.0721],[-83.3701,10.3,2.1462],[-83.3682,10.2977,2.1891],[-83.37,10.2934,4.3396],[-83.3691,10.2921,4.3396],[-83.3659,10.2955,3.1507],[-83.362799999999993,10.2942,3.4063],[-83.366,10.2898,14.3143],[-83.3647,10.2881,6.4867],[-83.3591,10.288,3.2241],[-83.356,10.2897,2.8745],[-83.3512,10.2884,5.8371],[-83.3503,10.2897,2.8714],[-83.3543,10.2933,2.1166],[-83.3531,10.2944,2.1419],[-83.3494,10.2913,0.6958],[-83.3467,10.2921,1.9506],[-83.3447,10.2893,2.2049],[-83.3434,10.2901,7.4464],[-83.3446,10.295,0.3913],[-83.3527,10.3027,0.8756],[-83.3548,10.3124,2.9077],[-83.3753,10.336,15.2638],[-83.4036,10.3746,14.0491],[-83.441,10.4308,2.2227],[-83.4871,10.5122,0.0],[-83.5203,10.583,0.0],[-83.523,10.5801,3.9312],[-83.5218,10.5873,0.0],[-83.5506,10.657,6.5949],[-83.5688,10.7115,8.9271],[-83.5839,10.7734,1.4966],[-83.5858,10.7839,8.3477],[-83.5848,10.7866,7.4461],[-83.588,10.7866,2.1017],[-83.5892,10.7894,0.9132],[-83.5864,10.7973,0.0],[-83.6023,10.8319,1.7226],[-83.6164,10.87,0.0],[-83.6283,10.8949,0.0],[-83.642,10.9146,0.0],[-83.6625,10.9323,0.0],[-83.6643,10.9332,0.0],[-83.6684,10.9291,0.6668],[-83.6756,10.9257,9.6586],[-83.675,10.9307,3.2483],[-83.6726,10.9321,0.0],[-83.6744,10.9346,4.9229],[-83.6784,10.9363,4.2372],[-83.6821,10.9355,8.9253],[-83.6875,10.9384,0.0],[-83.6919,10.9374,5.1993],[-83.6942,10.939,0.0],[-83.6973,10.9386,2.9801],[-83.6962,10.9353,0.9581],[-83.6899,10.935,2.6395],[-83.6882,10.9334,0.1501],[-83.6816,10.9194,5.5385],[-83.6731,10.9081,0.9841],[-83.675299999999993,10.9066,1.0228],[-83.6791,10.9095,1.1944],[-83.6765,10.9024,3.6076],[-83.6823,10.8985,2.5526],[-83.6824,10.897,8.3558],[-83.6756,10.8916,7.6131],[-83.6705,10.8916,2.5425],[-83.6684,10.8883,5.9992],[-83.667,10.8797,4.5764],[-83.6749,10.852,3.5769],[-83.6704,10.8409,8.3811],[-83.6679,10.8381,14.9832],[-83.668,10.8319,3.599],[-83.6639,10.8278,45.6806],[-83.6604,10.8189,8.8875],[-83.6687,10.7992,4.4903],[-83.6881,10.7898,7.3021],[-83.6968,10.7874,9.9453],[-83.7005,10.7877,5.4873],[-83.7077,10.7917,7.3908],[-83.7144,10.7927,5.0478],[-83.7244,10.7855,7.5635],[-83.7455,10.7797,7.3612],[-83.7598,10.7746,7.8938],[-83.7618,10.7722,6.0],[-83.7499,10.7676,5.5],[-83.7404,10.7561,5.0],[-83.7326,10.7388,6.8571],[-83.7331,10.7366,4.0],[-83.7404,10.7304,6.3961],[-83.741,10.7259,3.5],[-83.7394,10.7211,3.5],[-83.7165,10.7034,7.7124],[-83.71,10.6925,3.6958],[-83.7194,10.6918,12.938],[-83.7288,10.6944,24.0241],[-83.7353,10.6924,11.5135],[-83.7421,10.6926,16.9915],[-83.7484,10.6938,10.6544],[-83.7501,10.696,8.8666],[-83.7561,10.6956,9.6949],[-83.759,10.6991,11.2264],[-83.7614,10.6981,10.3636],[-83.7644,10.6995,9.5331],[-83.7709,10.6963,17.8869],[-83.7752,10.6882,10.5385],[-83.7798,10.6842,10.1524],[-83.7807,10.679,17.2038],[-83.7864,10.6712,23.3579],[-83.7857,10.6652,10.2949],[-83.7875,10.6577,26.6674],[-83.7965,10.653,15.2204],[-83.8091,10.6524,17.0092],[-83.8117,10.6486,20.3899],[-83.8157,10.65,24.7401],[-83.8305,10.6448,18.9727],[-83.8356,10.6453,18.1447],[-83.8391,10.6437,18.0933],[-83.8424,10.6311,21.2805],[-83.8401,10.6245,31.8801],[-83.8405,10.618,22.0628],[-83.8418,10.6148,24.1417],[-83.845,10.613,24.3705],[-83.8435,10.6078,26.2721]]]]}
,"properties": {"GID_3": "CRI.5.4.2_1","GID_0": "CRI","country": "CostaRica","GID_1": "CRI.5_1","province": "Limón","NL_NAME_1": "NA","GID_2": "CRI.5.4_1","county": "Pococí","NL_NAME_2": "NA","city": "Colorado","VARNAME_3": "NA","NL_NAME_3": "NA","TYPE_3": "Distrito","ENGTYPE_3": "District","CC_3": "6","HASC_3": "NA","name": "Colorado.city","area_km2": 1164.59,"hist_schema_id": "Elevation0-9000","hist_area_km2": {"0": 401.5919,"25": 645.2601,"50": 46.9424,"75": 24.4523,"100": 16.5938,"125": 11.5491,"150": 7.6927,"175": 5.483,"200": 2.6059,"225": 1.2927,"250": 0.6047,"275": 0.3545,"300": 0.1668}}}