{"type":"Feature","properties":{"GID_3":"CRI.1.11.4_1","GID_0":"CRI","country":"CostaRica","GID_1":"CRI.1_1","province":"Alajuela","NL_NAME_1":"NA","GID_2":"CRI.1.11_1","county":"SanCarlos","NL_NAME_2":"NA","city":"Florencia","VARNAME_3":"NA","NL_NAME_3":"NA","TYPE_3":"Distrito","ENGTYPE_3":"District","CC_3":"2","HASC_3":"NA","name":"Florencia.city"},
"geometry":{"type": "MultiPolygon","coordinates": [[[[-84.4776,10.3156,419.6176],[-84.4044,10.436,148.156],[-84.4143,10.4364,133.5555],[-84.4141,10.4352,130.4437],[-84.4214,10.4329,127.4617],[-84.4263,10.4284,110.3555],[-84.4308,10.428,108.4546],[-84.4336,10.4304,107.2269],[-84.4359,10.4444,92.1002],[-84.4394,10.447,82.9521],[-84.4465,10.4481,81.5318],[-84.4457,10.4502,77.0432],[-84.4474,10.4537,73.4168],[-84.4509,10.4549,71.045],[-84.4506,10.4573,68.4403],[-84.4582,10.4595,71.6657],[-84.4552,10.4637,68.9959],[-84.4561,10.4692,65.6356],[-84.4532,10.4706,66.6185],[-84.452,10.4735,64.2405],[-84.454,10.4753,65.25],[-84.4542,10.4821,69.9045],[-84.4597,10.4834,71.2894],[-84.46,10.4849,62.3713],[-84.4877,10.4849,63.7076],[-84.4876,10.4836,64.4873],[-84.4917,10.4827,65.6351],[-84.4943,10.4844,66.7066],[-84.4995,10.48,65.5476],[-84.506,10.4812,68.3334],[-84.5073,10.4774,68.5204],[-84.5099,10.4787,69.2686],[-84.5131,10.4739,66.5871],[-84.5183,10.4739,68.4848],[-84.5196,10.4726,68.9487],[-84.5191,10.4703,69.0669],[-84.5243,10.468,70.7197],[-84.5237,10.4602,70.6387],[-84.5209,10.4568,73.7734],[-84.5235,10.4526,72.4447],[-84.519,10.4524,72.6825],[-84.5176,10.4499,71.3154],[-84.5149,10.4503,70.9121],[-84.5122,10.4532,69.4792],[-84.5148,10.4466,72.3146],[-84.5206,10.4483,71.2392],[-84.5205,10.445,72.7315],[-84.5228,10.4473,70.402],[-84.5253,10.4472,77.5066],[-84.5285,10.44,76.8686],[-84.5321,10.4427,76.6352],[-84.5344,10.4389,83.9518],[-84.5391,10.4362,79.1887],[-84.5519,10.4356,86.4658],[-84.5576,10.4272,89.98],[-84.5578,10.4163,106.9881],[-84.5536,10.4092,118.8865],[-84.5538,10.4013,132.8394],[-84.5405,10.3828,135.7981],[-84.538,10.3764,150.223],[-84.5335,10.3765,131.7106],[-84.5321,10.3729,139.7129],[-84.5284,10.3745,174.4364],[-84.5271,10.3671,150.0584],[-84.5231,10.366,153.5321],[-84.52,10.359,154.9866],[-84.5204,10.3468,167.1869],[-84.5178,10.3403,179.698],[-84.518,10.3338,189.2986],[-84.524,10.3228,221.5321],[-84.5231,10.3197,228.3427],[-84.525,10.3134,242.8936],[-84.5239,10.3094,250.68],[-84.5249,10.2942,421.5869],[-84.5222,10.2882,382.8693],[-84.5217,10.2778,393.3367],[-84.5184,10.2734,402.3391],[-84.5174,10.2679,433.6331],[-84.5174,10.2637,442.9541],[-84.5193,10.2607,426.6448],[-84.5177,10.2494,459.9016],[-84.4776,10.3156,419.6176]]]]}}