{"type": "Feature","bbox": [-84.1019,9.8776,-84.0842,9.9022],"geometry": {"type": "MultiPolygon","coordinates": [[[[-84.0978,9.8968,1141.1841],[-84.0985,9.8828,1377.6068],[-84.1019,9.8789,1430.4552],[-84.1004,9.8776,1477.9697],[-84.0918,9.8837,1234.3577],[-84.0842,9.8866,1153.5804],[-84.0865,9.8939,1132.1434],[-84.0921,9.8987,1118.3199],[-84.0915,9.9014,1114.7073],[-84.0943,9.9022,1102.3538],[-84.0935,9.9008,1109.9845],[-84.0978,9.8968,1141.1841]]]]}
,"properties": {"GID_3": "CRI.7.2.2_1","GID_0": "CRI","country": "CostaRica","GID_1": "CRI.7_1","province": "SanJosé","NL_NAME_1": "NA","GID_2": "CRI.7.2_1","county": "Alajuelita","NL_NAME_2": "NA","city": "Concepción","VARNAME_3": "NA","NL_NAME_3": "NA","TYPE_3": "Distrito","ENGTYPE_3": "District","CC_3": "4","HASC_3": "NA","name": "Concepción.city","area_km2": 2.443796,"hist_schema_id": "Elevation0-9000","hist_area_km2": {"1100": 0.041773,"1125": 0.64749,"1150": 0.438628,"1175": 0.29242,"1200": 0.208873,"1225": 0.146211,"1250": 0.104437,"1275": 0.062662,"1300": 0.08355,"1325": 0.104437,"1350": 0.041775,"1375": 0.104438,"1400": 0.062663,"1450": 0.062663,"1500": 0.041776}}}