{"type": "Feature","bbox": [-84.0546,9.8799,-84.0362,9.8985],"geometry": {"type": "MultiPolygon","coordinates": [[[[-84.0417,9.8969,1170.2114],[-84.0445,9.8985,1160.7747],[-84.0477,9.8952,1165.4062],[-84.0504,9.8961,1162.9808],[-84.0546,9.8948,1155.144],[-84.05,9.8864,1190.613],[-84.05,9.8799,1383.7067],[-84.0436,9.8799,1419.095],[-84.039,9.8822,1228.2906],[-84.0362,9.8866,1173.7933],[-84.0417,9.8969,1170.2114]]]]}
,"properties": {"GID_3": "CRI.7.5.1_1","GID_0": "CRI","country": "CostaRica","GID_1": "CRI.7_1","province": "SanJosé","NL_NAME_1": "NA","GID_2": "CRI.7.5_1","county": "Desamparados","NL_NAME_2": "NA","city": "Damas","VARNAME_3": "NA","NL_NAME_3": "NA","TYPE_3": "Distrito","ENGTYPE_3": "District","CC_3": "10","HASC_3": "NA","name": "Damas.city","area_km2": 2.548239,"hist_schema_id": "Elevation0-9000","hist_area_km2": {"1150": 0.355077,"1175": 1.336773,"1200": 0.208874,"1225": 0.104437,"1250": 0.08355,"1275": 0.08355,"1300": 0.104438,"1325": 0.125326,"1350": 0.041775,"1375": 0.041775,"1400": 0.020888,"1425": 0.041776}}}