{"type": "Feature","bbox": [-84.1249,9.9905,-84.1087,10.006],"geometry": {"type": "MultiPolygon","coordinates": [[[[-84.1249,9.9967,1134.5583],[-84.1249,9.9905,1125.722],[-84.1087,9.9905,1142.8823],[-84.1099,10.006,1203.4651],[-84.1247,10.006,1151.8655],[-84.1249,9.9967,1134.5583]]]]}
,"properties": {"GID_3": "CRI.4.4.1_1","GID_0": "CRI","country": "CostaRica","GID_1": "CRI.4_1","province": "Heredia","NL_NAME_1": "NA","GID_2": "CRI.4.4_1","county": "Heredia","NL_NAME_2": "NA","city": "Heredia","VARNAME_3": "NA","NL_NAME_3": "NA","TYPE_3": "Distrito","ENGTYPE_3": "District","CC_3": "1","HASC_3": "NA","name": "Heredia.city","area_km2": 3.173791,"hist_schema_id": "Elevation0-9000","hist_area_km2": {"1125": 1.106665,"1150": 1.48249,"1175": 0.542877,"1200": 0.041759}}}