{"type":"Feature","properties":{"GID_3":"CRI.3.5.3_1","GID_0":"CRI","country":"CostaRica","GID_1":"CRI.3_1","province":"Guanacaste","NL_NAME_1":"NA","GID_2":"CRI.3.5_1","county":"Hojancha","NL_NAME_2":"NA","city":"Matambú","VARNAME_3":"NA","NL_NAME_3":"NA","TYPE_3":"Distrito","ENGTYPE_3":"District","CC_3":"1","HASC_3":"NA","name":"Matambú.city"},
"geometry":{"type": "MultiPolygon","coordinates": [[[[-85.4036,10.097,152.7342],[-85.4144,10.0988,226.1332],[-85.4192,10.0964,263.25],[-85.4235,10.1007,295.4762],[-85.4318,10.0939,331.6048],[-85.4387,10.0909,326.6415],[-85.4286,10.0747,482.4083],[-85.4091,10.0692,358.3226],[-85.4071,10.0718,366.2306],[-85.4009,10.0734,369.9932],[-85.3968,10.0792,342.2459],[-85.4066,10.0943,190.3692],[-85.4036,10.097,152.7342]]]]}}