{"type": "Feature","id": "1331","bbox": [-84.59163,9.06606,-83.4294,10.19896],"geometry": {"type": "Polygon","coordinates": [[[-83.94273,10.13623,571.0021],[-83.92908,10.18119,514.7051],[-83.92255,10.19013,437.4776],[-83.91355,10.19896,303.7248],[-83.95053,10.19514,488.5405],[-83.96993,10.17044,527.266],[-83.97598,10.16424,584.4969],[-83.98079,10.16258,664.0942],[-84.00293,10.16093,1071.7172],[-84.02228,10.1568,1266.5724],[-84.06641,10.15339,1693.2489],[-84.0714,10.15153,1785.9358],[-84.07063,10.14656,1957.7598],[-84.06706,10.13855,1940.6636],[-84.04409,10.10491,1894.7506],[-84.03091,10.09086,1398.6179],[-84.0283,10.08285,1289.5195],[-84.02665,10.05887,2023.4336],[-84.01851,10.05003,1613.093],[-84.01368,10.0458,1584.5681],[-84.01042,10.04228,1549.8169],[-84.00941,10.03494,1465.9867],[-84.01551,10.0151,1378.7679],[-84.02799,9.98203,1302.542],[-84.04747,9.9705,1238.4832],[-84.07391,9.96218,1172.7898],[-84.08422,9.96022,1141.339],[-84.10993,9.96234,1037.8512],[-84.11455,9.96203,997.4956],[-84.15132,9.94565,994.6599],[-84.16274,9.9504,998.568],[-84.1824,9.96022,924.717],[-84.19997,9.95722,847.836],[-84.21467,9.94146,833.9909],[-84.24245,9.93252,778.9198],[-84.30924,9.91402,528.3925],[-84.32707,9.91154,497.0278],[-84.33234,9.91314,480.8249],[-84.34433,9.91454,418.6145],[-84.34914,9.91567,403.468],[-84.35296,9.91697,423.6434],[-84.37275,9.92012,481.1197],[-84.39216,9.92565,416.0265],[-84.41657,9.92095,240.5227],[-84.46104,9.91728,252.8306],[-84.49184,9.90384,215.1072],[-84.49993,9.89893,119.0006],[-84.50091,9.89748,115.4658],[-84.50218,9.89511,96.4216],[-84.51383,9.88374,170.0121],[-84.53104,9.87485,128.0436],[-84.53763,9.86999,100.9535],[-84.54054,9.86648,46.1221],[-84.54026,9.86389,39.6217],[-84.54073,9.86064,42.2331],[-84.5592,9.83795,39.3904],[-84.56085,9.83418,28.6692],[-84.56215,9.82658,75.787],[-84.56377,9.82472,103.2582],[-84.57106,9.82452,150.1362],[-84.57997,9.81733,14.4093],[-84.57044,9.81304,20.0646],[-84.56326,9.80912,99.2232],[-84.55928,9.80612,298.0723],[-84.55553,9.80271,358.1956],[-84.55383,9.80075,346.7107],[-84.54806,9.79279,298.6673],[-84.54318,9.78359,157.7395],[-84.54235,9.77971,228.7058],[-84.54181,9.77418,281.679],[-84.54328,9.76592,468.0536],[-84.54491,9.76194,556.8973],[-84.5469,9.7594,595.0592],[-84.54886,9.75806,634.4862],[-84.55129,9.75703,622.1493],[-84.55403,9.75636,612.4865],[-84.55711,9.75599,576.9217],[-84.5763,9.75703,669.0909],[-84.58225,9.7563,558.686],[-84.58504,9.75548,460.3165],[-84.58744,9.75419,492.1698],[-84.58938,9.75263,439.7186],[-84.59072,9.75062,352.0968],[-84.5915,9.74824,220.5027],[-84.59163,9.7455,256.9786],[-84.59132,9.74287,205.4151],[-84.58364,9.71765,492.6924],[-84.58121,9.70561,547.3676],[-84.58194,9.68628,598.4554],[-84.58163,9.68318,565.439],[-84.57925,9.67729,573.1769],[-84.55706,9.63869,435.2585],[-84.55631,9.63641,427.3734],[-84.54972,9.60319,52.62],[-84.547,9.59569,133.3155],[-84.54259,9.58639,24.7593],[-84.53638,9.57807,10.6046],[-84.52925,9.57146,11.4192],[-84.5261,9.56929,11.7824],[-84.51582,9.56805,102.1719],[-84.48494,9.57306,50.0053],[-84.47784,9.57022,84.7274],[-84.47535,9.56986,103.4549],[-84.47132,9.56991,62.4959],[-84.45574,9.57394,66.2172],[-84.45269,9.57399,47.5484],[-84.44965,9.57368,49.1524],[-84.44727,9.57265,59.2119],[-84.44507,9.5712,66.2125],[-84.44034,9.56588,49.0214],[-84.43843,9.56417,39.9689],[-84.43621,9.56293,38.4],[-84.43378,9.5621,49.626],[-84.43086,9.56185,44.4623],[-84.42815,9.56221,50.4015],[-84.42505,9.56355,49.2986],[-84.42233,9.56603,56.0489],[-84.41626,9.57812,66.854],[-84.41484,9.58019,62.1957],[-84.41213,9.58277,63.5692],[-84.40084,9.59177,83.5135],[-84.3973,9.59518,158.5592],[-84.3951,9.59823,103.8703],[-84.39417,9.60076,170.4624],[-84.39363,9.6067,128.6993],[-84.39712,9.62649,146.3873],[-84.39696,9.62902,135.926],[-84.39448,9.63068,206.8301],[-84.38877,9.63182,309.7146],[-84.37709,9.63161,282.2573],[-84.35084,9.63657,334.8385],[-84.30813,9.63879,83.9508],[-84.2933,9.63745,68.6608],[-84.28805,9.63269,86.4621],[-84.28418,9.62996,78.4724],[-84.27743,9.62158,206.0124],[-84.27586,9.62008,187.3427],[-84.26521,9.61822,181.1124],[-84.22961,9.6191,627.1768],[-84.21659,9.61352,620.1231],[-84.20165,9.61228,429.858],[-84.1569,9.61626,1642.5063],[-84.14791,9.61523,1667.4663],[-84.1455,9.6144,1476.6147],[-84.14212,9.61166,1464.2389],[-84.13941,9.60727,1495.417],[-84.13729,9.59941,1427.7706],[-84.13698,9.59476,1195.9866],[-84.13731,9.59084,1031.8746],[-84.13923,9.58246,729.3131],[-84.13977,9.57606,503.4125],[-84.13954,9.57301,577.3772],[-84.13783,9.56934,564.5856],[-84.13432,9.5652,579.0668],[-84.12672,9.55838,451.0172],[-84.11907,9.55564,362.7374],[-84.11442,9.55471,528.2936],[-84.10535,9.55626,556.4348],[-84.0923,9.55652,735.3253],[-84.08323,9.55518,821.254],[-84.07809,9.55332,856.2762],[-84.07566,9.55187,679.2128],[-84.07344,9.5482,495.7698],[-84.0714,9.54278,346.7032],[-84.06936,9.53027,193.3495],[-84.06938,9.52428,239.3979],[-84.07013,9.52004,222.1155],[-84.0728,9.51544,178.7648],[-84.07484,9.51048,142.8452],[-84.07109,9.50428,283.6681],[-84.04936,9.49451,251.6589],[-84.033,9.4634,487.8043],[-84.01024,9.44144,113.157],[-83.94472,9.39819,685.2764],[-83.92934,9.39333,646.1628],[-83.92802,9.3956,627.3602],[-83.92632,9.39736,706.5012],[-83.92451,9.39891,696.7797],[-83.92237,9.40025,676.7456],[-83.92012,9.40129,780.8857],[-83.91751,9.40211,961.8915],[-83.91469,9.40253,981.5273],[-83.91159,9.40253,970.8867],[-83.90883,9.40201,909.136],[-83.90575,9.39974,874.285],[-83.90242,9.39622,752.5073],[-83.89526,9.38351,859.2889],[-83.89374,9.37958,732.8244],[-83.88955,9.36026,468.2249],[-83.88849,9.35778,469.1022],[-83.85614,9.32532,127.2373],[-83.84953,9.31659,251.5271],[-83.84594,9.31023,286.8172],[-83.84723,9.30041,370.6332],[-83.8471,9.29432,358.4748],[-83.84547,9.28331,52.1772],[-83.83909,9.26321,309.3272],[-83.83423,9.25349,414.7966],[-83.83152,9.24946,287.5118],[-83.82782,9.24522,181.677],[-83.82095,9.23907,472.8746],[-83.77124,9.21691,665.8318],[-83.76377,9.21494,600.6068],[-83.76098,9.21536,577.3849],[-83.7585,9.21613,636.7616],[-83.75664,9.21763,695.6821],[-83.75493,9.21949,716.4009],[-83.74617,9.23148,633.8474],[-83.74434,9.23293,557.4264],[-83.74204,9.23417,453.0575],[-83.73938,9.2352,403.0729],[-83.73646,9.23597,535.4947],[-83.7332,9.23644,587.7375],[-83.73057,9.23644,481.5054],[-83.72773,9.23597,432.808],[-83.72504,9.2352,462.8388],[-83.71527,9.23055,900.6932],[-83.7014,9.21737,1123.2468],[-83.67863,9.18962,836.2211],[-83.67509,9.18363,900.064],[-83.67484,9.18094,898.4473],[-83.67429,9.17835,883.0305],[-83.66675,9.15262,998.095],[-83.66564,9.15045,932.2573],[-83.663,9.14663,868.541],[-83.65615,9.13862,960.0903],[-83.56536,9.08038,626.8845],[-83.56306,9.07934,640.2088],[-83.55216,9.08007,685.7997],[-83.54371,9.08131,851.5318],[-83.54112,9.08136,724.5748],[-83.53761,9.08105,715.1253],[-83.53513,9.08007,737.5767],[-83.53089,9.07697,679.8106],[-83.52639,9.07164,613.8369],[-83.52474,9.07004,505.4167],[-83.52035,9.06746,460.1973],[-83.51751,9.06663,453.2521],[-83.51485,9.06606,445.2221],[-83.51224,9.06632,562.0699],[-83.50988,9.06699,641.8395],[-83.50782,9.06828,564.5569],[-83.50601,9.07009,498.1227],[-83.49521,9.08508,372.6618],[-83.49162,9.08844,435.554],[-83.48846,9.0905,509.5319],[-83.48629,9.09154,517.0437],[-83.4842,9.09288,522.457],[-83.48229,9.09464,558.3591],[-83.48097,9.09826,671.7287],[-83.48027,9.10348,647.5615],[-83.48314,9.12642,717.075],[-83.48252,9.13071,592.4974],[-83.48089,9.13577,506.5076],[-83.47322,9.14973,310.6094],[-83.47131,9.15593,359.2365],[-83.4719,9.16781,338.5812],[-83.47312,9.17339,333.7966],[-83.47462,9.17742,319.9585],[-83.47601,9.17949,327.9731],[-83.47673,9.18213,322.9374],[-83.47784,9.1843,320.8503],[-83.47958,9.18559,337.8684],[-83.48213,9.18564,355.6497],[-83.48474,9.18518,389.5788],[-83.48743,9.18518,390.8597],[-83.4897,9.186,422.1756],[-83.49162,9.18745,448.2365],[-83.49317,9.18921,458.5148],[-83.49503,9.19086,433.6164],[-83.4973,9.192,448.1264],[-83.50603,9.19375,498.2185],[-83.50818,9.19499,475.6662],[-83.50944,9.19696,428.209],[-83.50965,9.19965,370.9585],[-83.49983,9.25008,579.684],[-83.49898,9.25267,586.1969],[-83.49572,9.25752,622.759],[-83.46836,9.28796,963.6409],[-83.46609,9.29194,1024.3214],[-83.46356,9.29768,1133.8705],[-83.45684,9.32202,1736.5754],[-83.45394,9.32718,1789.3696],[-83.45126,9.33096,1916.2133],[-83.4294,9.35369,2604.5786],[-83.44165,9.36232,2872.4072],[-83.44516,9.36573,2905.7839],[-83.45363,9.37731,3041.8125],[-83.48686,9.46759,3497.9617],[-83.59215,9.53079,2494.6443],[-83.59469,9.53167,2656.5388],[-83.60453,9.53637,2401.5632],[-83.61321,9.5435,2546.0708],[-83.63874,9.56991,2992.1997],[-83.65057,9.56634,2542.9766],[-83.65455,9.5619,2545.6853],[-83.65951,9.55301,2405.2161],[-83.66101,9.55105,2375.7683],[-83.66292,9.54944,2357.9558],[-83.66478,9.54805,2499.2732],[-83.66695,9.54696,2420.3945],[-83.66951,9.54598,2360.292],[-83.67228,9.54531,2292.4165],[-83.67525,9.54495,2492.5205],[-83.67863,9.54484,2579.2705],[-83.69026,9.54593,2469.1558],[-83.69318,9.54531,2510.0081],[-83.69817,9.54345,2475.3181],[-83.71202,9.53668,2702.3093],[-83.71416,9.53689,2820.1628],[-83.71587,9.53844,2871.1929],[-83.71801,9.55167,3119.8091],[-83.72103,9.56231,2915.0359],[-83.72204,9.56479,2880.2629],[-83.72478,9.56737,3015.4302],[-83.72925,9.56996,2990.3198],[-83.74439,9.57502,3117.8076],[-83.74938,9.57812,3205.8242],[-83.75201,9.58019,3166.2412],[-83.76328,9.59569,3204.9292],[-83.78245,9.59363,2780.3726],[-83.78721,9.59332,2772.9109],[-83.80917,9.59786,2876.0132],[-83.81188,9.59879,2886.6841],[-83.81496,9.60127,2970.6577],[-83.81829,9.605,3013.27],[-83.82328,9.61285,2912.1653],[-83.82751,9.62081,2948.75],[-83.82945,9.62546,2899.4343],[-83.8302,9.62794,2903.4915],[-83.83697,9.64215,2678.7913],[-83.84454,9.6545,2688.2964],[-83.84614,9.65641,2692.48],[-83.84906,9.65838,2698.4182],[-83.85314,9.65982,2661.4424],[-83.86115,9.6607,2521.1309],[-83.86526,9.65998,2365.6909],[-83.86821,9.65858,2310.1646],[-83.87035,9.65729,2333.136],[-83.87283,9.65647,2323.2114],[-83.87785,9.6576,2383.6875],[-83.89839,9.66773,2344.4741],[-83.91056,9.67207,2290.9785],[-83.91345,9.67279,2336.0898],[-83.91875,9.67755,2523.1943],[-83.94092,9.70607,2437.8555],[-83.94983,9.72085,2306.4907],[-83.95014,9.72277,2286.6655],[-83.95076,9.72509,2267.7385],[-83.95619,9.72985,2139.9036],[-83.97551,9.7361,1881.9974],[-83.98213,9.74824,1886.1896],[-83.98386,9.75331,1828.3993],[-83.98598,9.75816,1815.7693],[-83.98815,9.76767,1775.9072],[-83.99639,9.76881,1710.9299],[-84.03329,9.76064,1506.6218],[-84.03905,9.76199,1491.7025],[-84.04502,9.76282,1438.5302],[-84.04797,9.76256,1403.1698],[-84.05605,9.76044,1403.1735],[-84.06822,9.75579,1438.6575],[-84.07109,9.75548,1460.553],[-84.07393,9.75558,1480.1721],[-84.07613,9.75672,1443.7632],[-84.07763,9.75858,1390.3408],[-84.07871,9.76106,1336.6099],[-84.07918,9.76385,1212.2072],[-84.07928,9.76695,1175.0898],[-84.07861,9.77134,1300.8162],[-84.07551,9.7778,1257.77],[-84.06884,9.78865,1396.8484],[-84.05127,9.80436,1653.7977],[-84.0389,9.81273,1795.7606],[-84.03145,9.82069,1879.3147],[-84.00262,9.86684,1577.729],[-84.02259,9.87547,1262.9955],[-84.02642,9.87769,1245.994],[-84.02807,9.87898,1285.5908],[-84.02634,9.88715,1229.5073],[-83.99996,9.9303,1354.3816],[-83.95397,9.94647,1909.3977],[-83.95301,9.94699,1909.3977],[-83.92668,9.9473,2257.2788],[-83.91751,9.94585,2350.8994],[-83.91516,9.94466,2350.2515],[-83.91224,9.94379,2366.5713],[-83.90849,9.94461,2375.2222],[-83.90523,9.94565,2410.3066],[-83.89268,9.95924,2744.6045],[-83.88059,9.96063,2780.3962],[-83.875,9.9626,2918.022],[-83.87123,9.9659,2918.2241],[-83.86821,9.96988,3118.5095],[-83.86596,9.978,3072.3235],[-83.87043,10.00006,2191.1838],[-83.87239,10.02605,1687.8702],[-83.87508,10.03484,1508.4402],[-83.87883,10.04047,1385.0806],[-83.89883,10.0629,1164.6783],[-83.90087,10.0643,1146.7283],[-83.90539,10.06667,1089.9336],[-83.91386,10.07256,1049.8512],[-83.9226,10.08021,970.8759],[-83.92637,10.08471,1088.1035],[-83.92864,10.08869,917.8705],[-83.94273,10.13623,571.0021]]]}
,"properties": {"ISO3166-1-Alpha-3": "CRI","country": "Costa Rica","fill": "#000","name": "San José","area_km2": 5027.821,"hist_schema_id": "Elevation0-9000","hist_area_km2": {"0": 1.798,"25": 20.089,"50": 24.477,"75": 30.83,"100": 34.488,"125": 33.193,"150": 35.953,"175": 37.668,"200": 42.1,"225": 43.355,"250": 46.198,"275": 57.213,"300": 60.179,"325": 65.279,"350": 65.572,"375": 62.44,"400": 62.113,"425": 64.976,"450": 66.669,"475": 66.129,"500": 67.363,"525": 69.564,"550": 74.676,"575": 83.526,"600": 86.289,"625": 92.126,"650": 89.321,"675": 93.839,"700": 97.648,"725": 105.387,"750": 94.42,"775": 80.899,"800": 78.636,"825": 78.635,"850": 80.005,"875": 76.12,"900": 75.013,"925": 70.766,"950": 66.897,"975": 67.441,"1000": 67.77,"1025": 64.446,"1050": 59.574,"1075": 58.906,"1100": 58.942,"1125": 62.468,"1150": 64.638,"1175": 57.677,"1200": 53.874,"1225": 52.683,"1250": 49.947,"1275": 47.21,"1300": 46.227,"1325": 47.689,"1350": 48.463,"1375": 45.913,"1400": 47.168,"1425": 48.61,"1450": 49.277,"1475": 49.799,"1500": 47.355,"1525": 47.709,"1550": 48.274,"1575": 44.911,"1600": 45.142,"1625": 43.262,"1650": 42.49,"1675": 41.318,"1700": 40.148,"1725": 38.957,"1750": 37.18,"1775": 36.658,"1800": 34.401,"1825": 33.065,"1850": 34.194,"1875": 33.169,"1900": 31.54,"1925": 31.582,"1950": 30.37,"1975": 27.339,"2000": 27.591,"2025": 25.104,"2050": 25.605,"2075": 24.854,"2100": 22.826,"2125": 21.426,"2150": 20.841,"2175": 20.068,"2200": 19.065,"2225": 17.769,"2250": 17.309,"2275": 17.456,"2300": 15.972,"2325": 16.619,"2350": 14.717,"2375": 14.947,"2400": 14.153,"2425": 14.425,"2450": 12.356,"2475": 11.75,"2500": 11.457,"2525": 10.725,"2550": 10.056,"2575": 10.265,"2600": 9.847,"2625": 10.349,"2650": 9.512,"2675": 9.826,"2700": 10.516,"2725": 9.449,"2750": 9.408,"2775": 9.262,"2800": 8.07,"2825": 7.693,"2850": 7.422,"2875": 7.568,"2900": 6.146,"2925": 7.275,"2950": 6.502,"2975": 7.526,"3000": 6.607,"3025": 6.021,"3050": 5.854,"3075": 5.541,"3100": 5.541,"3125": 4.161,"3150": 3.764,"3175": 3.722,"3200": 3.66,"3225": 3.137,"3250": 2.447,"3275": 2.091,"3300": 2.279,"3325": 2.3,"3350": 2.049,"3375": 2.509,"3400": 1.861,"3425": 1.087,"3450": 1.568,"3475": 1.213,"3500": 0.92,"3525": 0.837,"3550": 0.774,"3575": 0.795,"3600": 0.732,"3625": 0.732,"3650": 0.711,"3675": 0.565,"3700": 0.502,"3725": 0.356,"3750": 0.084,"3775": 0.042}}}