{"type": "Feature","bbox": [-84.5927,9.0749,-83.4293,10.19],"geometry": {"type": "MultiPolygon","coordinates": [[[[-83.5038,9.0828,376.2875],[-83.5029,9.0843,379.3962],[-83.5108,9.0897,467.1324],[-83.5104,9.0916,439.527],[-83.5046,9.0932,458.9899],[-83.4989,9.1003,558.2002],[-83.4905,9.1025,652.3328],[-83.489,9.1076,790.1364],[-83.486,9.1087,799.4675],[-83.4817,9.1149,868.9272],[-83.4792,9.114,918.4052],[-83.4732,9.12,818.2639],[-83.4739,9.1259,792.0508],[-83.4826,9.1327,559.3615],[-83.4815,9.138,458.5597],[-83.4831,9.1437,365.5006],[-83.4795,9.1488,383.7841],[-83.4805,9.1517,323.5845],[-83.4762,9.1514,300.6053],[-83.4739,9.1491,299.4706],[-83.4711,9.1521,284.7436],[-83.4721,9.155,293.0554],[-83.4705,9.1594,332.8488],[-83.4738,9.1635,303.1413],[-83.474,9.1669,298.2941],[-83.4768,9.1676,304.7737],[-83.4781,9.1713,304.9514],[-83.4737,9.1812,318.5993],[-83.4763,9.1844,338.2249],[-83.4817,9.1866,355.6497],[-83.4834,9.1907,337.8242],[-83.4815,9.1948,360.3953],[-83.4866,9.1998,341.7033],[-83.4897,9.1963,345.3218],[-83.4882,9.1941,350.075],[-83.4899,9.1925,364.7641],[-83.5036,9.202,355.6808],[-83.5133,9.2003,399.7525],[-83.517,9.2063,411.9434],[-83.5143,9.2115,425.9901],[-83.517,9.2152,375.58],[-83.5194,9.2144,387.6186],[-83.5228,9.2079,381.9664],[-83.5257,9.211,391.1442],[-83.5227,9.2138,425.2052],[-83.5239,9.2161,395.8536],[-83.5219,9.2186,417.0962],[-83.5177,9.2208,428.6781],[-83.5153,9.2243,455.7936],[-83.5154,9.2281,494.9586],[-83.5134,9.2293,458.7016],[-83.5121,9.2331,472.3994],[-83.5127,9.2369,465.5559],[-83.511,9.2408,484.1239],[-83.5122,9.2435,486.3514],[-83.5096,9.2485,502.2415],[-83.51,9.253,526.4],[-83.5061,9.2619,591.7708],[-83.4967,9.2636,639.0241],[-83.491,9.2673,688.1262],[-83.4764,9.2911,964.8685],[-83.468,9.3159,1328.4781],[-83.4574,9.3304,1664.5776],[-83.4578,9.3332,1761.6602],[-83.4544,9.3435,2176.0417],[-83.4463,9.3497,2825.8704],[-83.4384,9.3595,2919.8081],[-83.4324,9.3633,3051.041],[-83.4293,9.3673,3107.0334],[-83.4314,9.3722,3117.6396],[-83.4346,9.3706,3093.1865],[-83.4385,9.3715,3111.502],[-83.4401,9.3771,3142.6621],[-83.4499,9.3773,3114.1968],[-83.4547,9.3793,3039.5515],[-83.4583,9.3832,2875.0317],[-83.4659,9.4055,3239.4268],[-83.4703,9.4102,3200.9954],[-83.4726,9.4196,3132.0352],[-83.482,9.4281,3407.2573],[-83.4824,9.4324,3382.9341],[-83.4797,9.4382,3370.6423],[-83.4808,9.4436,3448.4155],[-83.4783,9.45,3469.2507],[-83.4811,9.4577,3665.7141],[-83.4817,9.4658,3550.175],[-83.4837,9.4683,3531.2427],[-83.4837,9.4729,3675.1558],[-83.4867,9.4765,3710.4033],[-83.4895,9.4849,3753.5232],[-83.4968,9.4881,3736.1807],[-83.5009,9.4945,3691.5249],[-83.5041,9.4947,3715.709],[-83.5058,9.4967,3692.6262],[-83.5089,9.4962,3704.5322],[-83.5143,9.5025,3672.3599],[-83.5347,9.51,3589.7314],[-83.5454,9.5249,3263.9644],[-83.5465,9.529,3286.5312],[-83.55,9.5322,3311.7939],[-83.5563,9.5305,3278.9866],[-83.5614,9.5334,3228.8274],[-83.5715,9.5346,3164.6665],[-83.5933,9.545,2938.7666],[-83.5962,9.5524,2992.1633],[-83.6064,9.552,2896.8015],[-83.6111,9.5566,3028.7295],[-83.6188,9.5577,3131.2102],[-83.6298,9.569,3295.8555],[-83.6296,9.5753,3335.0413],[-83.6364,9.5816,3302.7461],[-83.6471,9.5844,3253.7456],[-83.6534,9.5837,3232.8362],[-83.663,9.5745,3083.2964],[-83.6654,9.5673,2989.3496],[-83.6711,9.5596,2884.8794],[-83.6836,9.5511,2830.981],[-83.6894,9.5531,2830.7769],[-83.7011,9.5529,2845.905],[-83.7087,9.5583,3024.6418],[-83.712,9.5545,3055.2808],[-83.7186,9.5513,3095.719],[-83.7277,9.5596,3092.9956],[-83.7343,9.5602,3037.3831],[-83.7437,9.5585,3200.9028],[-83.7531,9.56,3458.3474],[-83.7579,9.5674,3392.6548],[-83.7562,9.5703,3362.6475],[-83.7575,9.5748,3356.188],[-83.7639,9.5836,3364.3472],[-83.7579,9.5919,3376.3169],[-83.7653,9.6039,3249.5923],[-83.7865,9.6065,3117.9766],[-83.7905,9.6116,3060.7461],[-83.794,9.6109,3012.1057],[-83.800299999999993,9.6141,2930.1121],[-83.8013,9.6119,2912.2444],[-83.8113,9.6153,2930.5266],[-83.8173,9.6149,2979.8682],[-83.826,9.6189,2965.3401],[-83.832,9.6174,2994.106],[-83.8352,9.6226,3005.4668],[-83.8506,9.6253,3143.2024],[-83.8491,9.6311,3013.283],[-83.8466,9.6334,2956.2288],[-83.846,9.649,2764.1147],[-83.85,9.6557,2700.1069],[-83.85,9.664,2668.7883],[-83.858,9.6725,2666.4526],[-83.8633,9.6709,2640.3032],[-83.8738,9.6722,2596.9617],[-83.8746,9.6702,2544.8259],[-83.882,9.6685,2541.5413],[-83.8828,9.6706,2554.2024],[-83.8884,9.6711,2541.2842],[-83.896,9.6798,2495.3909],[-83.8968,9.6855,2500.7207],[-83.9011,9.689,2489.8745],[-83.9032,9.6891,2528.417],[-83.906,9.6858,2534.0454],[-83.91,9.6867,2509.2729],[-83.9127,9.6847,2495.5161],[-83.9149,9.6853,2499.6284],[-83.9211,9.6829,2524.7676],[-83.9214,9.6888,2562.1394],[-83.9248,9.6916,2601.5129],[-83.926,9.6952,2546.6072],[-83.9345,9.6988,2477.0505],[-83.9426,9.6987,2417.6748],[-83.9455,9.7014,2415.7007],[-83.946,9.7051,2428.8774],[-83.9493,9.7064,2425.8613],[-83.9473,9.7099,2409.7383],[-83.9497,9.7178,2331.7786],[-83.9491,9.7356,2168.8723],[-83.9512,9.7351,2184.0293],[-83.9508,9.7396,2136.6499],[-83.9536,9.7407,2062.6848],[-83.9553,9.7384,2107.4639],[-83.9594,9.7429,2029.166],[-83.9609,9.741,2051.8843],[-83.9661,9.7412,2007.7233],[-83.9791,9.7452,1998.2931],[-83.9775,9.7535,1914.5668],[-83.978,9.7577,1897.6714],[-83.9825,9.7601,1917.4204],[-83.9815,9.7696,1838.7988],[-83.9843,9.7717,1846.464],[-83.9877,9.7714,1865.144],[-83.9888,9.777,1867.6299],[-83.9919,9.779,1863.6528],[-83.9918,9.7837,1882.5011],[-83.9946,9.7833,1888.1274],[-83.9992,9.7853,1798.0134],[-84.0021,9.7788,1757.2568],[-84.0187,9.7722,1582.5881],[-84.0195,9.7703,1523.7931],[-84.0249,9.7704,1464.8895],[-84.0289,9.7681,1445.4504],[-84.0296,9.7647,1417.8921],[-84.0317,9.7642,1411.6394],[-84.0371,9.7649,1378.0042],[-84.0411,9.7678,1383.0049],[-84.0467,9.7659,1332.1548],[-84.0493,9.7673,1368.1843],[-84.0553,9.7661,1271.9026],[-84.058,9.7674,1297.851],[-84.0634,9.764,1234.1295],[-84.0666,9.7656,1272.7004],[-84.0714,9.7638,1245.066],[-84.0788,9.7662,1175.0898],[-84.0817,9.7655,1181.1636],[-84.0885,9.7696,1137.5831],[-84.0866,9.7746,1232.7161],[-84.0845,9.7758,1192.4226],[-84.084,9.7868,1219.7313],[-84.082,9.7875,1235.4346],[-84.0823,9.7902,1243.5212],[-84.0768,9.7956,1308.0935],[-84.0753,9.8019,1349.1284],[-84.0653,9.8088,1435.1614],[-84.0462,9.8135,1621.0599],[-84.0416,9.8192,1717.6907],[-84.0344,9.8233,1796.7935],[-84.0302,9.8238,1893.6249],[-84.0255,9.8391,1842.8718],[-84.0165,9.8443,1797.8176],[-84.0186,9.8479,1790.5769],[-84.0168,9.8542,1707.7906],[-84.0125,9.8589,1709.5764],[-83.9992,9.8681,1599.9539],[-83.9987,9.8762,1592.9744],[-84.0203,9.8842,1371.0129],[-84.0318,9.8836,1211.5859],[-84.0349,9.8873,1173.4308],[-84.0373,9.8866,1180.6221],[-84.0361,9.8886,1171.4417],[-84.0374,9.8885,1177.2612],[-84.0403,9.8957,1167.2688],[-84.0418,9.8963,1170.2114],[-84.0343,9.894,1180.7394],[-84.0305,9.8959,1230.8984],[-84.0263,9.8936,1312.7368],[-84.0157,9.8991,1242.4543],[-84.0177,9.9048,1237.4296],[-84.0159,9.9095,1237.2393],[-84.0051,9.9245,1344.2422],[-84.0054,9.9313,1359.7175],[-84.0084,9.9398,1356.6577],[-83.9693,9.9437,1693.2079],[-83.9635,9.9503,1785.9412],[-83.9565,9.9496,1811.6035],[-83.9523,9.9538,1925.446],[-83.9479,9.9532,1955.4132],[-83.9388,9.9583,2051.3242],[-83.937,9.9553,2162.9644],[-83.9314,9.9518,2168.0354],[-83.9214,9.9518,2293.5186],[-83.9153,9.9546,2369.0508],[-83.9106,9.9607,2595.5591],[-83.906,9.9613,2673.4204],[-83.9041,9.9661,2781.0305],[-83.8991,9.9686,2920.9453],[-83.8912,9.9678,3003.9414],[-83.8855,9.9707,2995.2161],[-83.8727,9.9696,3152.5918],[-83.8592,9.9722,3390.9116],[-83.8592,9.9792,3049.801],[-83.8662,9.9865,2811.7681],[-83.8688,9.9946,2372.3101],[-83.8671,10.0041,1975.7932],[-83.8718,10.014,1791.8431],[-83.877,10.0204,1724.181],[-83.8752,10.0345,1508.4402],[-83.8792,10.038,1432.7762],[-83.8816,10.0446,1406.0365],[-83.8949,10.0606,1196.9225],[-83.9083,10.0685,1062.6663],[-83.9124,10.0733,1020.1208],[-83.9169,10.0745,1000.4568],[-83.9181,10.077,977.0717],[-83.9216,10.0759,975.8729],[-83.9234,10.079,970.8759],[-83.9262,10.0792,960.6834],[-83.9317,10.0837,908.7759],[-83.9325,10.0986,771.4249],[-83.9377,10.1102,713.4905],[-83.9362,10.1158,765.2194],[-83.9379,10.1174,685.7578],[-83.9381,10.1245,654.8297],[-83.9415,10.1297,566.9847],[-83.947,10.1473,473.381],[-83.9426,10.1627,406.5967],[-83.9375,10.1707,374.2995],[-83.9365,10.1795,429.6457],[-83.9339,10.1854,337.2241],[-83.9295,10.19,338.0164],[-83.9527,10.1796,405.8527],[-83.9593,10.1735,458.4234],[-83.9719,10.1695,547.1394],[-83.974,10.167,535.1856],[-83.9764,10.1548,595.8252],[-83.9794,10.1496,656.5607],[-83.9772,10.1326,736.5411],[-83.9805,10.1238,778.9161],[-83.9805,10.1164,792.7803],[-83.9788,10.1148,833.724],[-83.9801,10.1025,877.0974],[-83.9844,10.1011,896.8868],[-83.985,10.0977,909.1794],[-83.9892,10.0942,943.5798],[-83.9942,10.0954,988.2943],[-84.0018,10.0921,1060.5121],[-84.0057,10.0862,1113.7568],[-84.0156,10.0795,1169.0216],[-84.0217,10.0822,1279.115],[-84.0283,10.0829,1289.5195],[-84.0283,10.06,2067.9856],[-84.0206,10.0527,1684.9454],[-84.0172,10.0514,1644.8571],[-84.0142,10.0473,1603.9785],[-84.0125,10.0395,1504.9236],[-84.0101,10.0369,1475.0737],[-84.011,10.026,1402.2075],[-84.0126,10.0215,1378.1382],[-84.0199,10.019,1365.8555],[-84.0197,10.0162,1355.3003],[-84.0231,10.0139,1337.4927],[-84.0255,9.9917,1289.5305],[-84.0317,9.992,1265.9135],[-84.0324,9.9899,1285.1143],[-84.0346,9.991,1256.9812],[-84.0398,9.9868,1242.9939],[-84.043,9.9872,1271.6384],[-84.0408,9.9846,1295.0713],[-84.0447,9.9824,1244.5283],[-84.0442,9.9805,1209.4556],[-84.046,9.9813,1234.4982],[-84.0482,9.9763,1212.4414],[-84.0542,9.9767,1191.5747],[-84.0523,9.9735,1168.9568],[-84.0574,9.9727,1160.8491],[-84.056,9.971,1152.8007],[-84.0577,9.9691,1167.7604],[-84.0604,9.9705,1201.031],[-84.0606,9.969,1173.2888],[-84.0639,9.9683,1153.2087],[-84.0646,9.9696,1164.4501],[-84.069,9.9668,1163.8616],[-84.0702,9.9686,1139.1414],[-84.0732,9.9691,1156.3431],[-84.0761,9.9692,1141.6693],[-84.0764,9.9674,1111.3838],[-84.0793,9.9678,1125.3176],[-84.0794,9.9694,1121.3274],[-84.0832,9.9706,1106.3051],[-84.0862,9.9667,1100.4502],[-84.0885,9.9673,1115.7102],[-84.094,9.9628,1082.4821],[-84.1064,9.9634,1031.3315],[-84.1072,9.9603,1039.8481],[-84.1089,9.9622,1050.8016],[-84.1135,9.9596,1008.9287],[-84.1159,9.9622,1018.8143],[-84.1333,9.9675,996.4274],[-84.1379,9.964,991.1828],[-84.1456,9.9623,952.9376],[-84.1469,9.9642,963.692],[-84.1539,9.9664,953.0205],[-84.1555,9.9688,960.788],[-84.1627,9.9661,944.7072],[-84.1689,9.9657,932.7045],[-84.1739,9.972,919.2748],[-84.1826,9.9685,882.843],[-84.1843,9.9729,860.4781],[-84.1901,9.9733,873.1307],[-84.198,9.9657,833.8779],[-84.2015,9.965,817.2317],[-84.2028,9.9619,827.27],[-84.2064,9.9608,804.1832],[-84.2128,9.963,802.5475],[-84.2176,9.9587,817.63],[-84.2205,9.9478,784.3521],[-84.2247,9.9456,782.2913],[-84.2269,9.9483,755.7794],[-84.2312,9.9484,755.0708],[-84.2338,9.9457,762.631],[-84.2363,9.938,672.5905],[-84.2391,9.9385,681.1368],[-84.246,9.9348,680.6634],[-84.2468,9.9319,673.6696],[-84.2489,9.9316,653.7532],[-84.2513,9.9282,611.1757],[-84.2584,9.93,648.5986],[-84.2604,9.9325,650.0134],[-84.2663,9.9313,590.9818],[-84.2692,9.9333,590.7415],[-84.2839,9.929,566.3411],[-84.2866,9.9308,593.741],[-84.2887,9.9287,564.4728],[-84.2933,9.9304,550.3284],[-84.2989,9.9252,525.0505],[-84.3102,9.9232,469.7645],[-84.311,9.9196,453.0936],[-84.3146,9.9176,470.9992],[-84.3197,9.9203,425.6278],[-84.321,9.9157,447.1237],[-84.3269,9.9166,416.3959],[-84.3283,9.9143,412.7468],[-84.3346,9.9176,402.1031],[-84.3385,9.915,432.1641],[-84.3436,9.9155,399.7365],[-84.345,9.9173,405.944],[-84.349,9.9164,403.468],[-84.3516,9.9197,358.2107],[-84.3544,9.9192,336.6701],[-84.3547,9.9224,348.9861],[-84.3583,9.9224,370.0971],[-84.3677,9.9301,301.5892],[-84.373,9.9259,316.8351],[-84.381,9.9298,276.0779],[-84.3823,9.9333,316.5582],[-84.3861,9.9314,273.3152],[-84.3892,9.9362,279.949],[-84.394,9.9358,315.6206],[-84.394,9.9305,259.6095],[-84.3995,9.9313,246.7489],[-84.4065,9.9271,230.1873],[-84.413,9.9288,255.1847],[-84.4135,9.9238,217.7025],[-84.4211,9.9203,258.3635],[-84.4241,9.9255,231.6195],[-84.4359,9.9209,195.9905],[-84.4402,9.924,192.8948],[-84.442,9.9224,178.8354],[-84.4528,9.923,167.0287],[-84.4553,9.921,164.9829],[-84.458,9.9221,203.1119],[-84.461,9.9211,155.0964],[-84.4627,9.9242,159.9762],[-84.4661,9.9213,144.9708],[-84.4677,9.9166,155.9758],[-84.4751,9.9159,127.7697],[-84.4827,9.9105,113.1957],[-84.4945,9.9073,97.608],[-84.4962,9.9078,123.4118],[-84.4965,9.9106,102.4289],[-84.4986,9.911,124.9636],[-84.501,9.9009,78.988],[-84.5073,9.8884,90.3831],[-84.5099,9.8925,77.7149],[-84.5133,9.8929,73.8655],[-84.5188,9.8864,66.4513],[-84.5259,9.8841,66.0673],[-84.5283,9.8773,54.3446],[-84.5336,9.878,61.6875],[-84.5349,9.8762,48.3622],[-84.5335,9.8731,43.248],[-84.5372,9.8732,41.5249],[-84.5408,9.8762,48.6731],[-84.5424,9.8755,40.0056],[-84.5437,9.873,61.1415],[-84.5376,9.8629,29.6043],[-84.5392,9.8613,58.3329],[-84.5485,9.8625,27.6637],[-84.5471,9.8485,52.1682],[-84.5489,9.8476,25.301],[-84.5547,9.8494,18.3977],[-84.5586,9.8436,31.4283],[-84.563,9.8419,14.6458],[-84.5637,9.8388,14.7952],[-84.56,9.8369,25.903199999999998],[-84.5597,9.834,13.9549],[-84.5675,9.827,57.035],[-84.5714,9.8295,14.7402],[-84.5815,9.8242,9.8556],[-84.5828,9.8173,7.5],[-84.58,9.8112,9.4368],[-84.583,9.8061,6.3504],[-84.578,9.8091,10.1207],[-84.5676,9.81,36.1133],[-84.5676,9.8053,50.7889],[-84.5609,9.7936,60.6195],[-84.563,9.7925,80.9913],[-84.5616,9.7901,62.7061],[-84.5585,9.7898,78.1334],[-84.5574,9.788,142.8127],[-84.5581,9.7841,145.1663],[-84.552,9.7798,170.1395],[-84.5501,9.7802,137.0959],[-84.5499,9.7779,169.0559],[-84.544,9.7821,178.9834],[-84.5414,9.7816,141.6597],[-84.5388,9.7771,172.1194],[-84.5491,9.7652,458.6871],[-84.552,9.757,633.149],[-84.5543,9.7558,612.4865],[-84.5659,9.7587,483.7428],[-84.5661,9.747,448.3126],[-84.5728,9.7382,429.0248],[-84.5749,9.7391,430.4667],[-84.5749,9.7407,444.1587],[-84.5773,9.7399,451.4787],[-84.5779,9.7419,432.1167],[-84.583,9.7411,431.5844],[-84.5903,9.744,263.7917],[-84.5927,9.7433,205.4151],[-84.592,9.736,254.4673],[-84.5897,9.7324,304.8277],[-84.5894,9.7233,369.7526],[-84.5833,9.71,487.2141],[-84.5847,9.6938,595.2454],[-84.5846,9.6909,597.0493],[-84.5827,9.6894,647.2791],[-84.5855,9.6837,582.9604],[-84.5801,9.6719,703.0172],[-84.5807,9.6655,680.4201],[-84.5723,9.6542,772.2749],[-84.5739,9.652,779.5305],[-84.5719,9.6441,736.5175],[-84.5687,9.6413,643.6028],[-84.5636,9.6312,521.021],[-84.5644,9.6276,492.9547],[-84.5614,9.625,447.0688],[-84.5557,9.6267,360.3883],[-84.5509,9.6182,247.3285],[-84.5498,9.61,102.377],[-84.5518,9.6037,83.0529],[-84.5496,9.5932,61.0296],[-84.5437,9.585,29.9415],[-84.5388,9.5861,19.691],[-84.5354,9.5816,15.662],[-84.5345,9.5829,16.6164],[-84.5294,9.5793,10.5771],[-84.5312,9.5769,10.3323],[-84.5301,9.5746,6.3577],[-84.5272,9.576,19.639],[-84.521,9.5726,10.7115],[-84.511,9.5725,24.1422],[-84.5076,9.5708,26.9591],[-84.503,9.573,19.8665],[-84.4948,9.57,61.0144],[-84.4899,9.5724,41.2708],[-84.4846,9.5696,38.9423],[-84.4839,9.5752,75.8189],[-84.4819,9.5768,23.8175],[-84.4784,9.5734,46.9404],[-84.4747,9.5743,42.0717],[-84.4728,9.5719,35.0136],[-84.4723,9.5743,53.2741],[-84.4696,9.5761,56.8173],[-84.4645,9.5731,30.8708],[-84.4639,9.57,31.901],[-84.4621,9.5723,29.952],[-84.4621,9.5765,60.0715],[-84.4575,9.5822,51.1428],[-84.4534,9.5771,45.9055],[-84.4513,9.578,40.4511],[-84.4495,9.5757,32.879],[-84.4447,9.5777,36.6261],[-84.4452,9.5755,36.1379],[-84.4417,9.5756,30.9696],[-84.442,9.5729,35.9909],[-84.4392,9.5722,42.6184],[-84.4398,9.5689,35.4642],[-84.4342,9.5693,88.5199],[-84.4383,9.5651,39.9689],[-84.4348,9.5648,37.9727],[-84.4366,9.5626,62.0372],[-84.4318,9.5595,39.2924],[-84.4309,9.5566,47.5321],[-84.4294,9.5605,53.0687],[-84.4284,9.5586,41.1853],[-84.4249,9.5587,58.0923],[-84.4281,9.5649,48.965],[-84.4264,9.566,83.7882],[-84.4227,9.5621,47.6808],[-84.4234,9.5693,53.9623],[-84.4174,9.569,69.8719],[-84.418,9.5721,76.2693],[-84.4143,9.5727,56.928],[-84.415,9.5751,56.6446],[-84.4128,9.5746,60.5624],[-84.4146,9.5777,57.6715],[-84.4128,9.5799,67.7267],[-84.4155,9.5798,62.1957],[-84.4143,9.5833,60.3003],[-84.4097,9.5833,65.7696],[-84.4078,9.5813,63.7809],[-84.4052,9.5815,75.1676],[-84.4047,9.5834,68.4575],[-84.4018,9.5828,66.9801],[-84.4024,9.5873,89.0477],[-84.401,9.5896,71.1819],[-84.3985,9.5894,79.6745],[-84.3991,9.5927,113.3501],[-84.3972,9.5968,114.4572],[-84.394,9.5972,103.8703],[-84.3918,9.6002,96.605],[-84.3975,9.6093,106.7008],[-84.3978,9.6165,119.062],[-84.394,9.6211,130.1186],[-84.3969,9.6249,141.7057],[-84.3964,9.6321,163.2377],[-84.3982,9.6351,139.1641],[-84.3883,9.6386,230.8167],[-84.3848,9.6369,245.1371],[-84.3857,9.6355,237.0772],[-84.384,9.6335,253.8798],[-84.3803,9.6355,257.7839],[-84.3783,9.6341,258.256],[-84.3761,9.6395,270.0469],[-84.376,9.6365,266.562],[-84.3724,9.6349,279.8544],[-84.3687,9.6374,274.4519],[-84.3692,9.6349,274.7458],[-84.3657,9.6315,268.3275],[-84.3601,9.6326,304.9639],[-84.361,9.6361,307.9844],[-84.3594,9.6387,308.426],[-84.357,9.6375,314.409],[-84.3502,9.6397,321.0067],[-84.3457,9.6306,339.2141],[-84.3411,9.6335,343.8181],[-84.3416,9.6358,353.7876],[-84.3368,9.635,305.6382],[-84.3369,9.6377,355.9603],[-84.3344,9.641,320.6898],[-84.3247,9.6365,294.9835],[-84.3122,9.6428,262.951],[-84.3091,9.6416,179.5399],[-84.3042,9.644,185.3834],[-84.305,9.6466,129.4634],[-84.3036,9.6499,66.1192],[-84.2951,9.6467,60.8109],[-84.2971,9.6346,50.9464],[-84.2954,9.6338,57.2729],[-84.2939,9.6351,58.5984],[-84.2924,9.6342,58.5984],[-84.2882,9.6381,61.6104],[-84.284,9.6296,72.8934],[-84.266,9.6308,117.6605],[-84.2593,9.627,182.2507],[-84.2572,9.6281,239.8834],[-84.2464,9.6271,633.0018],[-84.2435,9.6236,565.6714],[-84.2387,9.6226,610.6184],[-84.2268,9.6282,898.6487],[-84.2226,9.6272,863.1903],[-84.2173,9.6207,904.943],[-84.2107,9.6216,674.7206],[-84.2084,9.6196,613.5396],[-84.2033,9.6204,598.3173],[-84.2001,9.6183,622.2842],[-84.191,9.6173,814.291],[-84.1815,9.6242,1029.5085],[-84.1606,9.6258,1661.7566],[-84.158,9.6282,1758.126],[-84.1503,9.6294,2119.8896],[-84.1482,9.623,2091.584],[-84.1392,9.6215,1652.9818],[-84.1306,9.6088,1717.55],[-84.1309,9.6047,1646.8828],[-84.1337,9.6,1528.2179],[-84.142,9.6005,1304.2773],[-84.1393,9.5898,853.1245],[-84.143,9.5803,583.187],[-84.136,9.572,479.2133],[-84.1291,9.57,395.1192],[-84.1264,9.5663,379.2853],[-84.1241,9.5579,318.9205],[-84.1204,9.555,265.0345],[-84.1188,9.56,341.1114],[-84.11,9.5616,356.5192],[-84.1091,9.5638,383.8582],[-84.1064,9.5635,400.9312],[-84.0992,9.569,447.4162],[-84.0921,9.568,494.7343],[-84.0828,9.5636,722.8255],[-84.075,9.5666,1004.8929],[-84.0719,9.571,1213.3929],[-84.0761,9.5581,975.4578],[-84.072,9.5527,684.3438],[-84.0718,9.5345,202.0572],[-84.0693,9.5304,193.3495],[-84.0739,9.5234,166.0119],[-84.0736,9.5185,149.6738],[-84.0844,9.5142,70.752],[-84.0873,9.51,81.1673],[-84.0839,9.5096,88.8361],[-84.0831,9.5115,69.827],[-84.0799,9.5115,101.0775],[-84.0787,9.5131,84.1878],[-84.0747,9.5027,343.4726],[-84.0642,9.4992,444.7342],[-84.0594,9.4951,414.5662],[-84.0553,9.4897,413.4379],[-84.0529,9.4888,423.5836],[-84.0514,9.4843,375.6417],[-84.0437,9.4769,256.1719],[-84.0331,9.4709,557.4243],[-84.0271,9.461,598.8013],[-84.0187,9.4593,609.8338],[-84.0012,9.4498,83.2523],[-84.0017,9.4432,284.5823],[-83.9981,9.4382,368.8584],[-83.9895,9.4334,607.5403],[-83.9827,9.433,662.734],[-83.9799,9.4211,517.4246],[-83.9741,9.4199,594.1414],[-83.9721,9.4168,602.9207],[-83.9681,9.4156,616.0134],[-83.9617,9.4096,732.0175],[-83.9654,9.402,709.7531],[-83.9617,9.396,765.238],[-83.9584,9.3973,769.5244],[-83.9541,9.3942,731.2786],[-83.9501,9.3958,742.4208],[-83.9456,9.3949,763.5074],[-83.9426,9.3886,670.2651],[-83.9364,9.3871,711.7712],[-83.9337,9.3882,727.8232],[-83.9329,9.3908,719.1678],[-83.9362,9.3953,727.9974],[-83.9357,9.3972,757.1702],[-83.9269,9.401,829.6292],[-83.9245,9.4038,919.188],[-83.922,9.403,890.0598],[-83.9093,9.4051,1164.6305],[-83.902,9.4002,1024.4333],[-83.8976,9.3868,999.0389],[-83.8953,9.3868,1032.8584],[-83.8914,9.3828,908.9004],[-83.8874,9.3749,586.4018],[-83.8915,9.3673,478.3674],[-83.8907,9.3622,418.6846],[-83.8778,9.3602,313.4935],[-83.8698,9.3543,238.7977],[-83.8705,9.3482,240.9156],[-83.8641,9.3429,171.5961],[-83.8606,9.3432,171.1943],[-83.8515,9.3398,190.2168],[-83.8478,9.342,167.8382],[-83.8416,9.3429,121.9156],[-83.8405,9.3371,120.7295],[-83.8472,9.3344,109.995],[-83.8455,9.33,149.3384],[-83.8499,9.325,92.4629],[-83.8539,9.3244,82.4573],[-83.8558,9.3104,176.333],[-83.8601,9.308,70.1845],[-83.8587,9.3033,92.1053],[-83.8546,9.302,81.1572],[-83.8565,9.3004,100.5805],[-83.8568,9.2962,98.6678],[-83.855,9.2931,49.8634],[-83.8579,9.2905,33.5066],[-83.8556,9.2876,57.1845],[-83.8486,9.2655,362.829],[-83.8422,9.2564,421.1251],[-83.8332,9.2535,430.4532],[-83.8192,9.2424,516.8653],[-83.8095,9.2289,566.2468],[-83.802,9.2288,524.1702],[-83.7958,9.2247,570.5634],[-83.7865,9.2242,617.5568],[-83.7804,9.2207,610.3345],[-83.7766,9.2217,549.6075],[-83.7741,9.2179,593.1927],[-83.7715,9.22,681.0681],[-83.7676,9.216,720.3828],[-83.7569,9.2174,695.6821],[-83.7526,9.2221,757.8814],[-83.7544,9.224,765.3099],[-83.7534,9.2274,763.7623],[-83.7555,9.2322,752.9825],[-83.7606,9.2383,809.9199],[-83.7574,9.244,839.2875],[-83.753,9.2422,804.2615],[-83.7498,9.2441,820.9194],[-83.7469,9.2435,759.3428],[-83.7458,9.241,709.2167],[-83.7411,9.2376,463.2725],[-83.7361,9.2282,323.8665],[-83.7352,9.2238,275.9937],[-83.7362,9.2229,269.0388],[-83.7229,9.2205,705.9133],[-83.7108,9.2206,960.8181],[-83.7095,9.2249,996.0801],[-83.7055,9.2251,1130.1334],[-83.7025,9.2158,1104.5912],[-83.6896,9.2116,1052.6985],[-83.6854,9.2085,963.6251],[-83.6814,9.1996,876.6317],[-83.675,9.1935,1083.4672],[-83.6695,9.1821,1137.3225],[-83.6717,9.1768,952.7809],[-83.6774,9.1754,943.201],[-83.6734,9.1575,1027.1477],[-83.6546,9.1451,1043.9147],[-83.6466,9.1316,1120.0549],[-83.639,9.1283,1119.7294],[-83.6259,9.1267,1115.0391],[-83.6206,9.1244,1093.4379],[-83.6138,9.1251,1118.1022],[-83.6057,9.118,996.4843],[-83.6053,9.114,1015.7552],[-83.5833,9.1023,1059.1885],[-83.5769,9.0925,1074.0089],[-83.5688,9.086,998.3342],[-83.5621,9.0847,977.0967],[-83.5581,9.0857,959.8495],[-83.5501,9.0834,937.5177],[-83.5474,9.0806,883.9892],[-83.5419,9.0786,840.2908],[-83.5333,9.079,691.2534],[-83.5284,9.0819,484.0186],[-83.5211,9.077,460.4283],[-83.5167,9.0769,420.8607],[-83.5137,9.0749,398.1493],[-83.5067,9.0778,413.5937],[-83.5074,9.0807,423.4373],[-83.5052,9.0807,392.7668],[-83.5038,9.0828,376.2875]]]]}
,"properties": {"GID_1": "CRI.7_1","GID_0": "CRI","country": "CostaRica","province": "SanJosé","VARNAME_1": "NA","NL_NAME_1": "NA","TYPE_1": "Provincia","ENGTYPE_1": "Province","CC_1": "1","HASC_1": "CR.SJ","ISO_1": "NA","name": "San_José.province","area_km2": 4989.616,"hist_schema_id": "Elevation0-9000","hist_area_km2": {"0": 1.4,"25": 21.258,"50": 25.501,"75": 31.645,"100": 34.926,"125": 33.799,"150": 36.224,"175": 37.604,"200": 42.434,"225": 43.793,"250": 46.03,"275": 57.149,"300": 60.095,"325": 65.467,"350": 66.304,"375": 62.461,"400": 62.321,"425": 64.034,"450": 64.431,"475": 63.599,"500": 63.664,"525": 66.741,"550": 72.124,"575": 81.832,"600": 84.344,"625": 91.079,"650": 88.755,"675": 93.775,"700": 97.207,"725": 104.634,"750": 93.228,"775": 79.958,"800": 78.258,"825": 78.779,"850": 79.835,"875": 75.095,"900": 73.403,"925": 69.762,"950": 67.23,"975": 68.901,"1000": 69.168,"1025": 62.752,"1050": 58.111,"1075": 57.129,"1100": 57.208,"1125": 61.193,"1150": 63.509,"1175": 56.194,"1200": 52.057,"1225": 51.076,"1250": 48.422,"1275": 45.832,"1300": 45.037,"1325": 46.583,"1350": 46.521,"1375": 44.619,"1400": 45.393,"1425": 47.065,"1450": 47.711,"1475": 47.982,"1500": 45.622,"1525": 45.83,"1550": 46.375,"1575": 42.927,"1600": 43.429,"1625": 41.383,"1650": 40.401,"1675": 39.334,"1700": 38.269,"1725": 37.078,"1750": 35.134,"1775": 34.947,"1800": 32.961,"1825": 32.147,"1850": 33.36,"1875": 32.168,"1900": 30.684,"1925": 31.206,"1950": 29.786,"1975": 26.755,"2000": 27.069,"2025": 24.603,"2050": 24.958,"2075": 24.415,"2100": 22.576,"2125": 21.113,"2150": 20.653,"2175": 19.838,"2200": 18.731,"2225": 17.435,"2250": 17.058,"2275": 17.205,"2300": 15.951,"2325": 16.85,"2350": 14.989,"2375": 15.324,"2400": 14.529,"2425": 14.488,"2450": 13.568,"2475": 12.92,"2500": 12.836,"2525": 12.084,"2550": 11.331,"2575": 11.248,"2600": 11.039,"2625": 11.29,"2650": 10.663,"2675": 10.955,"2700": 11.08,"2725": 10.432,"2750": 10.098,"2775": 10.224,"2800": 8.969,"2825": 8.844,"2850": 8.907,"2875": 9.45,"2900": 7.819,"2925": 8.656,"2950": 7.924,"2975": 8.97,"3000": 8.112,"3025": 7.025,"3050": 7.004,"3075": 6.754,"3100": 6.336,"3125": 5.228,"3150": 4.308,"3175": 4.099,"3200": 3.869,"3225": 3.659,"3250": 2.739,"3275": 2.53,"3300": 2.196,"3325": 2.175,"3350": 1.777,"3375": 2.405,"3400": 1.945,"3425": 1.401,"3450": 1.924,"3475": 1.631,"3500": 1.61,"3525": 1.485,"3550": 1.568,"3575": 1.464,"3600": 1.422,"3625": 1.359,"3650": 1.276,"3675": 1.129,"3700": 0.857,"3725": 0.586,"3750": 0.167,"3775": 0.042}}}