{"type": "Feature","bbox": [-85.0793,10.0926,-84.9526,10.2008],"geometry": {"type": "MultiPolygon","coordinates": [[[[-84.9967,10.0926,0.0],[-84.9959,10.0933,0.0],[-84.996,10.0955,0.0],[-84.9976,10.0943,0.0],[-84.9967,10.0926,0.0]]],
[[[-85.0777,10.144,2.3185],[-85.0793,10.1425,0.8148],[-85.0792,10.1385,0.0],[-85.0755,10.1352,0.0],[-85.0626,10.135,6.4225],[-85.0625,10.1332,0.8807],[-85.0588,10.1332,2.1617],[-85.0502,10.1407,9.0912],[-85.046,10.1409,3.6486],[-85.0435,10.1374,0.0],[-85.0364,10.1332,4.7326],[-85.0255,10.1314,0.909],[-85.0242,10.128,0.0],[-85.0163,10.1244,5.8383],[-85.0138,10.1172,25.5113],[-85.0089,10.1142,3.1322],[-85.0032,10.1029,1.4825],[-84.993,10.0986,0.0],[-84.9853,10.096,10.3742],[-84.9835,10.1052,261.6906],[-84.973,10.1002,180.3953],[-84.9607,10.0966,104.8196],[-84.955,10.0963,71.9336],[-84.9526,10.098,16.9611],[-84.9609,10.1029,39.2213],[-84.9621,10.1062,43.9622],[-84.9589,10.1106,83.1996],[-84.9599,10.1128,72.7822],[-84.9633,10.1132,89.9212],[-84.9625,10.117,87.9859],[-84.954,10.1246,80.2279],[-84.9717,10.1393,51.5674],[-84.9773,10.1397,39.9487],[-84.9798,10.1415,40.6078],[-84.9812,10.1485,47.9312],[-84.9841,10.1511,52.0279],[-85.0039,10.1605,48.0192],[-85.0044,10.1652,24.6214],[-85.0023,10.1694,17.9851],[-85.0043,10.1736,19.1764],[-85.0097,10.1795,30.5675],[-85.0256,10.1865,33.1656],[-85.029,10.1924,86.7343],[-85.0263,10.1989,38.3312],[-85.0278,10.2008,31.5174],[-85.0306,10.1974,35.3731],[-85.0349,10.1964,29.0643],[-85.036,10.1925,27.0998],[-85.0398,10.191,22.3689],[-85.0366,10.1878,24.5073],[-85.0382,10.1823,13.5318],[-85.0356,10.1821,10.9107],[-85.0366,10.1803,11.8339],[-85.0343,10.1767,11.7534],[-85.0357,10.1746,25.5351],[-85.0346,10.1719,13.9107],[-85.0317,10.1689,10.6185],[-85.0316,10.1704,10.6185],[-85.0275,10.1693,22.7125],[-85.0279,10.1652,16.8779],[-85.0299,10.1627,18.9966],[-85.0275,10.1595,12.8818],[-85.039,10.1593,9.1483],[-85.0409,10.1605,8.8112],[-85.0415,10.1635,9.2121],[-85.0426,10.1606,16.236],[-85.0485,10.1597,8.7878],[-85.0582,10.1669,4.8428],[-85.058,10.1643,10.7568],[-85.0605,10.166,8.6175],[-85.0607,10.1627,16.7948],[-85.0623,10.1621,20.4541],[-85.0675,10.167,20.7965],[-85.0685,10.1643,12.9928],[-85.0664,10.1591,29.7216],[-85.0691,10.1583,5.2586],[-85.0738,10.1599,8.0752],[-85.0762,10.1571,19.8707],[-85.0755,10.1547,8.0055],[-85.0701,10.151,0.0],[-85.0704,10.1465,8.6281],[-85.0733,10.1437,5.1957],[-85.0777,10.144,2.3185]]]]}
,"properties": {"GID_3": "CRI.6.11.12_1","GID_0": "CRI","country": "CostaRica","GID_1": "CRI.6_1","province": "Puntarenas","NL_NAME_1": "NA","GID_2": "CRI.6.11_1","county": "Puntarenas","NL_NAME_2": "NA","city": "Manzanillo","VARNAME_3": "NA","NL_NAME_3": "NA","TYPE_3": "Distrito","ENGTYPE_3": "District","CC_3": "6","HASC_3": "NA","name": "Manzanillo.city","area_km2": 60.58852,"hist_schema_id": "Elevation0-9000","hist_area_km2": {"0": 11.3536,"25": 18.38679,"50": 9.45443,"75": 5.36386,"100": 3.96563,"125": 2.77596,"150": 2.08724,"175": 1.75328,"200": 1.48195,"225": 1.08538,"250": 0.83491,"275": 1.08538,"300": 0.48007,"325": 0.43832,"350": 0.04175}}}