{"type": "Feature","bbox": [-84.334,10.0767,-84.2486,10.1888],"geometry": {"type": "MultiPolygon","coordinates": [[[[-84.2486,10.1795,2510.1201],[-84.2565,10.1803,2367.022],[-84.2588,10.1821,2310.4097],[-84.2646,10.1815,2313.7874],[-84.2678,10.1832,2314.7949],[-84.2707,10.1888,2191.3994],[-84.2768,10.1845,1972.4648],[-84.2813,10.1765,1845.1118],[-84.2885,10.1712,1746.4978],[-84.2947,10.1691,1736.8673],[-84.2946,10.1652,1642.2411],[-84.2977,10.1621,1628.474],[-84.2979,10.1596,1597.9331],[-84.3001,10.1582,1579.6759],[-84.3007,10.1555,1557.197],[-84.3051,10.1543,1560.9543],[-84.3057,10.1517,1485.5658],[-84.3106,10.1479,1463.2943],[-84.3173,10.1364,1358.6874],[-84.3167,10.1303,1308.4747],[-84.3199,10.1282,1271.6859],[-84.3215,10.121,1229.4297],[-84.325,10.1172,1184.744],[-84.3248,10.11,1092.483],[-84.3227,10.1085,1091.0835],[-84.3249,10.1059,1058.6688],[-84.3229,10.0995,1028.7285],[-84.3283,10.0911,959.2026],[-84.3275,10.0901,963.1562],[-84.3297,10.0888,998.1381],[-84.3303,10.0819,912.2006],[-84.3325,10.0808,911.0335],[-84.334,10.077,896.275],[-84.3294,10.0767,915.6785],[-84.3235,10.0827,947.7477],[-84.3188,10.084,967.9938],[-84.3092,10.0966,1026.5591],[-84.3046,10.0994,1053.6962],[-84.3022,10.1038,1098.0061],[-84.3043,10.1069,1099.8696],[-84.3025,10.1076,1139.9307],[-84.2993,10.1149,1172.078],[-84.2956,10.1181,1205.8569],[-84.2959,10.1201,1224.0107],[-84.2914,10.1228,1264.3748],[-84.291,10.1278,1297.5823],[-84.2864,10.1332,1361.5565],[-84.2854,10.1372,1406.5612],[-84.2821,10.139099999999999,1448.176],[-84.2824,10.1426,1499.2555],[-84.2759,10.1544,1658.0142],[-84.2743,10.1622,1787.8391],[-84.2564,10.177,2196.96],[-84.2493,10.1781,2464.4165],[-84.2486,10.1795,2510.1201]]]]}
,"properties": {"GID_3": "CRI.1.4.1_1","GID_0": "CRI","country": "CostaRica","GID_1": "CRI.1_1","province": "Alajuela","NL_NAME_1": "NA","GID_2": "CRI.1.4_1","county": "Grecia","NL_NAME_2": "NA","city": "Bolivar","VARNAME_3": "NA","NL_NAME_3": "NA","TYPE_3": "Distrito","ENGTYPE_3": "District","CC_3": "8","HASC_3": "NA","name": "Bolivar.city","area_km2": 30.80598,"hist_schema_id": "Elevation0-9000","hist_area_km2": {"900": 0.14613,"925": 0.10437,"950": 0.39662,"975": 0.62624,"1000": 0.7306,"1025": 0.70972,"1050": 0.83495,"1075": 0.83494,"1100": 0.98104,"1125": 0.66794,"1150": 0.70968,"1175": 0.77229,"1200": 0.8349,"1225": 0.6053,"1250": 0.91838,"1275": 0.70965,"1300": 0.81401,"1325": 0.83488,"1350": 0.87661,"1375": 0.89747,"1400": 0.75137,"1425": 1.10618,"1450": 0.91833,"1475": 0.89745,"1500": 0.77222,"1525": 0.79309,"1550": 0.68873,"1575": 0.66785,"1600": 0.60524,"1625": 0.56349,"1650": 0.64697,"1675": 0.64697,"1700": 0.39653,"1725": 0.58435,"1750": 0.33391,"1775": 0.31304,"1800": 0.52174,"1825": 0.41739,"1850": 0.35478,"1875": 0.37564,"1900": 0.43825,"1925": 0.35477,"1950": 0.37564,"1975": 0.27129,"2000": 0.27129,"2025": 0.25043,"2050": 0.16695,"2075": 0.29216,"2100": 0.20869,"2125": 0.29216,"2150": 0.14608,"2175": 0.35476,"2200": 0.14608,"2225": 0.22955,"2250": 0.04174,"2275": 0.12521,"2300": 0.12521,"2325": 0.08347,"2350": 0.08347,"2375": 0.08347,"2400": 0.02087,"2425": 0.02087,"2450": 0.04174,"2475": 0.02087}}}