{"type": "Feature","bbox": [-84.3623,9.8573,-84.3263,9.8994],"geometry": {"type": "MultiPolygon","coordinates": [[[[-84.3623,9.8785,1062.3772],[-84.3465,9.8714,966.9462],[-84.3395,9.8573,1035.5609],[-84.336,9.8649,850.9769],[-84.3363,9.87,762.8275],[-84.331,9.8763,650.5759],[-84.33,9.8807,664.0204],[-84.3274,9.8803,606.7661],[-84.3279,9.8877,567.3439],[-84.3263,9.8909,538.0553],[-84.3298,9.8969,539.9835],[-84.3293,9.8994,523.0029],[-84.3359,9.8983,506.5905],[-84.3341,9.8941,506.6992],[-84.3359,9.8907,543.3578],[-84.3436,9.8894,608.5157],[-84.3498,9.8849,731.1752],[-84.3546,9.8849,874.8639],[-84.3623,9.8785,1062.3772]]]]}
,"properties": {"GID_3": "CRI.7.14.4_1","GID_0": "CRI","country": "CostaRica","GID_1": "CRI.7_1","province": "SanJosé","NL_NAME_1": "NA","GID_2": "CRI.7.14_1","county": "Puriscal","NL_NAME_2": "NA","city": "Desamparaditos","VARNAME_3": "NA","NL_NAME_3": "NA","TYPE_3": "Distrito","ENGTYPE_3": "District","CC_3": "7","HASC_3": "NA","name": "Desamparaditos.city","area_km2": 7.268943,"hist_schema_id": "Elevation0-9000","hist_area_km2": {"500": 0.146206,"525": 0.208868,"550": 0.20887,"575": 0.375968,"600": 0.375972,"625": 0.375972,"650": 0.480413,"675": 0.501303,"700": 0.375978,"725": 0.396867,"750": 0.396869,"775": 0.396872,"800": 0.313322,"825": 0.271544,"850": 0.334211,"875": 0.292435,"900": 0.522204,"925": 0.417766,"950": 0.355099,"975": 0.22977,"1000": 0.104442,"1025": 0.062664,"1050": 0.041776,"1075": 0.020888,"1100": 0.062663}}}