{"type": "Feature","bbox": [-85.0281,10.3655,-84.919,10.4548],"geometry": {"type": "MultiPolygon","coordinates": [[[[-84.948,10.3655,1004.7228],[-84.919,10.3894,611.5747],[-84.9231,10.3916,584.5504],[-84.925,10.3894,560.4079],[-84.9305,10.3919,520.1115],[-84.9341,10.389,511.9952],[-84.9349,10.3936,474.0844],[-84.9385,10.3984,473.6146],[-84.9473,10.4035,411.6017],[-84.9532,10.4089,426.3139],[-84.954,10.4121,383.9804],[-84.9571,10.4116,368.9182],[-84.9604,10.4139,363.6365],[-84.9606,10.4275,638.1587],[-84.9698,10.4328,607.393],[-84.9711,10.4352,560.5307],[-84.9759,10.4329,511.3173],[-84.9792,10.4342,537.6197],[-84.9843,10.4334,464.6062],[-84.9881,10.4355,407.6396],[-84.9874,10.4411,377.6178],[-84.9904,10.4458,346.0351],[-84.9964,10.4473,341.3982],[-84.9977,10.4503,312.8478],[-85.0017,10.4514,303.6606],[-85.0023,10.4543,276.4649],[-85.0075,10.4548,267.3795],[-85.0098,10.4511,264.0601],[-85.016,10.4547,233.575],[-85.0183,10.4533,248.0689],[-85.0242,10.4541,249.9754],[-85.028,10.4523,218.0147],[-85.0281,10.4295,441.2541],[-85.0181,10.367,590.4337],[-84.948,10.3655,1004.7228]]]]}
,"properties": {"GID_3": "CRI.3.11.3_1","GID_0": "CRI","country": "CostaRica","GID_1": "CRI.3_1","province": "Guanacaste","NL_NAME_1": "NA","GID_2": "CRI.3.11_1","county": "Tilarán","NL_NAME_2": "NA","city": "Libano","VARNAME_3": "NA","NL_NAME_3": "NA","TYPE_3": "Distrito","ENGTYPE_3": "District","CC_3": "5","HASC_3": "NA","name": "Libano.city","area_km2": 72.7167,"hist_schema_id": "Elevation0-9000","hist_area_km2": {"175": 0.0417,"200": 0.66724,"225": 1.41789,"250": 1.89754,"275": 2.91932,"300": 3.56575,"325": 3.71173,"350": 3.85771,"375": 3.85776,"400": 3.96207,"425": 3.67014,"450": 3.9413,"475": 4.08731,"500": 3.52429,"525": 3.46177,"550": 2.79449,"575": 3.73293,"600": 4.71315,"625": 4.60892,"650": 4.04587,"675": 2.00208,"700": 1.16788,"725": 1.18875,"750": 0.87592,"775": 0.9802,"800": 0.54225,"825": 0.41711,"850": 0.33369,"875": 0.33369,"900": 0.16685,"925": 0.10428,"950": 0.06257,"975": 0.04171,"1025": 0.02086}}}