{"type":"Feature","properties":{"GID_3":"CRI.1.13.3_1","GID_0":"CRI","country":"CostaRica","GID_1":"CRI.1_1","province":"Alajuela","NL_NAME_1":"NA","GID_2":"CRI.1.13_1","county":"SanRamón","NL_NAME_2":"NA","city":"LosÁngeles","VARNAME_3":"NA","NL_NAME_3":"NA","TYPE_3":"Distrito","ENGTYPE_3":"District","CC_3":"8","HASC_3":"NA","name":"Los_Ángeles.city"},
"geometry":{"type": "MultiPolygon","coordinates": [[[[-84.4714,10.1008,1094.6348],[-84.4687,10.1096,1083.356],[-84.4711,10.1187,1100.334],[-84.4678,10.1277,1026.9851],[-84.4697,10.1291,1029.2844],[-84.4705,10.1342,1040.7031],[-84.4656,10.1373,1073.4653],[-84.4652,10.1435,1075.1234],[-84.4632,10.1457,1128.8042],[-84.4617,10.1535,1204.4033],[-84.463,10.1549,1211.2715],[-84.4608,10.1553,1215.4285],[-84.4596,10.1582,1177.2454],[-84.4598,10.165,1140.807],[-84.4633,10.1699,1116.9515],[-84.4669,10.1684,1112.5768],[-84.4685,10.1743,1105.0243],[-84.4731,10.1792,1084.996],[-84.4716,10.1803,1084.996],[-84.474,10.1819,1098.3691],[-84.4721,10.1835,1056.5068],[-84.4721,10.188,1033.1615],[-84.4691,10.1895,1031.6654],[-84.4686,10.192,1002.1396],[-84.4729,10.1933,986.3183],[-84.4721,10.2021,936.3942],[-84.4746,10.2038,931.9286],[-84.4732,10.2053,911.4093],[-84.4768,10.2071,876.6558],[-84.4765,10.2119,875.2084],[-84.4808,10.2149,924.2209],[-84.4794,10.2166,869.9152],[-84.4852,10.2199,822.1372],[-84.4875,10.2192,828.6165],[-84.4913,10.2245,788.7538],[-84.4942,10.2247,809.7515],[-84.4942,10.2274,709.9497],[-84.4984,10.2298,728.7338],[-84.5067,10.2317,648.0089],[-84.5071,10.2336,629.8375],[-84.5103,10.2324,638.5912],[-84.511,10.2352,639.3092],[-84.5169,10.235,592.1729],[-84.515,10.2402,659.0201],[-84.5183,10.2453,501.6942],[-84.5294,10.2302,792.8751],[-84.5586,10.2145,1019.8868],[-84.5877,10.1951,1179.709],[-84.5856,10.1813,1492.2771],[-84.576,10.1822,1440.4625],[-84.5611,10.1871,1356.2479],[-84.558,10.1828,1337.2684],[-84.5541,10.1809,1396.7742],[-84.5527,10.1759,1413.1753],[-84.5497,10.1749,1386.1853],[-84.5449,10.1686,1382.3619],[-84.5374,10.1663,1280.4064],[-84.5338,10.1632,1254.1244],[-84.5275,10.1623,1207.3721],[-84.5271,10.1609,1196.9224],[-84.5237,10.1616,1174.4386],[-84.5221,10.1601,1183.0092],[-84.5204,10.1631,1156.7222],[-84.5167,10.1638,1144.3647],[-84.5102,10.1612,1115.1866],[-84.5087,10.1588,1114.1659],[-84.5105,10.1556,1084.5723],[-84.5062,10.1518,1088.1743],[-84.5071,10.1505,1086.9089],[-84.5055,10.1459,1041.377],[-84.5018,10.1422,1042.5081],[-84.5018,10.1394,1030.9868],[-84.5008,10.14,1030.9868],[-84.4956,10.1342,1013.4895],[-84.4871,10.1327,1027.127],[-84.4831,10.1267,1024.8186],[-84.4792,10.1276,1023.3013],[-84.4776,10.1227,978.0964],[-84.4826,10.1143,957.2457],[-84.4751,10.1087,1064.2997],[-84.4756,10.1014,1107.902],[-84.4714,10.1008,1094.6348]]]]}}