{"type":"Feature","properties":{"GID_2":"CRI.7.13_1","GID_0":"CRI","country":"CostaRica","GID_1":"CRI.7_1","province":"SanJosé","NL_NAME_1":"NA","county":"PérezZeledón","VARNAME_2":"NA","NL_NAME_2":"NA","TYPE_2":"Cantón","ENGTYPE_2":"Canton","CC_2":"19","HASC_2":"CR.SJ.PZ","name":"Pérez_Zeledón.county"},
"geometry":{"type": "MultiPolygon","coordinates": [[[[-83.5031,9.0834,376.2875],[-83.5108,9.0897,467.1324],[-83.5104,9.0916,439.527],[-83.5046,9.0932,458.9899],[-83.4989,9.1003,558.2002],[-83.4905,9.1025,652.3328],[-83.489,9.1076,790.1364],[-83.486,9.1087,799.4675],[-83.4817,9.1149,868.9272],[-83.4792,9.114,918.4052],[-83.4732,9.12,818.2639],[-83.4739,9.1259,792.0508],[-83.4826,9.1327,559.3615],[-83.4815,9.138,458.5597],[-83.4831,9.1437,365.5006],[-83.4795,9.1488,383.7841],[-83.4805,9.1517,323.5845],[-83.4762,9.1514,300.6053],[-83.4739,9.1491,299.4706],[-83.4711,9.1521,284.7436],[-83.4721,9.155,293.0554],[-83.4705,9.1594,332.8488],[-83.4738,9.1635,303.1413],[-83.474,9.1669,298.2941],[-83.4768,9.1676,304.7737],[-83.4781,9.1713,304.9514],[-83.4737,9.1812,318.5993],[-83.4763,9.1844,338.2249],[-83.4817,9.1866,355.6497],[-83.4834,9.1907,337.8242],[-83.4815,9.1948,360.3953],[-83.4866,9.1998,341.7033],[-83.4897,9.1963,345.3218],[-83.4882,9.1941,350.075],[-83.4899,9.1925,364.7641],[-83.5036,9.202,355.6808],[-83.5133,9.2003,399.7525],[-83.517,9.2063,411.9434],[-83.5143,9.2115,425.9901],[-83.517,9.2152,375.58],[-83.5194,9.2144,387.6186],[-83.5228,9.2079,381.9664],[-83.5257,9.211,391.1442],[-83.5227,9.2138,425.2052],[-83.5239,9.2161,395.8536],[-83.5219,9.2186,417.0962],[-83.5177,9.2208,428.6781],[-83.5153,9.2243,455.7936],[-83.5154,9.2281,494.9586],[-83.5134,9.2293,458.7016],[-83.5121,9.2331,472.3994],[-83.5127,9.2369,465.5559],[-83.511,9.2408,484.1239],[-83.5122,9.2435,486.3514],[-83.5096,9.2485,502.2415],[-83.51,9.253,526.4],[-83.5061,9.2619,591.7708],[-83.4967,9.2636,639.0241],[-83.491,9.2673,688.1262],[-83.4764,9.2911,964.8685],[-83.468,9.3159,1328.4781],[-83.4574,9.3304,1664.5776],[-83.4578,9.3332,1761.6602],[-83.4544,9.3435,2176.0417],[-83.4463,9.3497,2825.8704],[-83.4384,9.3595,2919.8081],[-83.4324,9.3633,3051.041],[-83.4293,9.3673,3107.0334],[-83.4314,9.3722,3117.6396],[-83.4346,9.3706,3093.1865],[-83.4385,9.3715,3111.502],[-83.4401,9.3771,3142.6621],[-83.4499,9.3773,3114.1968],[-83.4547,9.3793,3039.5515],[-83.4583,9.3832,2875.0317],[-83.4659,9.4055,3239.4268],[-83.4703,9.4102,3200.9954],[-83.4726,9.4196,3132.0352],[-83.4826,9.4298,3422.7075],[-83.4798,9.4372,3370.6423],[-83.4808,9.4436,3448.4155],[-83.4783,9.45,3469.2507],[-83.4841,9.4741,3695.1963],[-83.4867,9.4765,3710.4033],[-83.4895,9.4849,3753.5232],[-83.4968,9.4881,3736.1807],[-83.5009,9.4945,3691.5249],[-83.5041,9.4947,3715.709],[-83.5058,9.4967,3692.6262],[-83.5089,9.4962,3704.5322],[-83.5143,9.5025,3672.3599],[-83.5343,9.5097,3589.7314],[-83.542,9.5195,3305.1985],[-83.5465,9.529,3286.5312],[-83.55,9.5322,3311.7939],[-83.5563,9.5305,3278.9866],[-83.5614,9.5334,3228.8274],[-83.5715,9.5346,3164.6665],[-83.5933,9.545,2938.7666],[-83.5962,9.5524,2992.1633],[-83.6064,9.552,2896.8015],[-83.6111,9.5566,3028.7295],[-83.6188,9.5577,3131.2102],[-83.6298,9.569,3295.8555],[-83.6296,9.5753,3335.0413],[-83.6361,9.5816,3302.7461],[-83.6471,9.5844,3253.7456],[-83.6534,9.5837,3232.8362],[-83.663,9.5745,3083.2964],[-83.6654,9.5673,2989.3496],[-83.6711,9.5596,2884.8794],[-83.6836,9.5511,2830.981],[-83.6894,9.5531,2830.7769],[-83.7011,9.5529,2845.905],[-83.7087,9.5583,3024.6418],[-83.712,9.5545,3055.2808],[-83.7186,9.5513,3095.719],[-83.7277,9.5596,3092.9956],[-83.7343,9.5602,3037.3831],[-83.7437,9.5585,3200.9028],[-83.7542,9.5607,3454.3032],[-83.7579,9.5674,3392.6548],[-83.7562,9.5703,3362.6475],[-83.7575,9.5748,3356.188],[-83.7667,9.5872,3270.7578],[-83.7676,9.5938,3113.7188],[-83.7739,9.5985,2890.4634],[-83.7765,9.5982,2875.6428],[-83.7824,9.5928,2780.3726],[-83.7881,9.5906,2719.3015],[-83.8,9.5775,2442.5737],[-83.8012,9.5728,2388.1194],[-83.7991,9.5676,2331.531],[-83.8025,9.5617,2303.9575],[-83.8026,9.5575,2298.2468],[-83.8112,9.5467,2172.3313],[-83.8171,9.5437,2169.3503],[-83.8186,9.5359,2078.9668],[-83.8211,9.5366,2041.632],[-83.8234,9.5353,1969.056],[-83.8251,9.531,1875.4969],[-83.8353,9.5313,1731.6128],[-83.8397,9.5346,1645.0745],[-83.8431,9.5332,1651.1486],[-83.8458,9.535,1621.3245],[-83.8488,9.5347,1525.2634],[-83.852,9.5314,1519.7627],[-83.8573,9.5302,1449.4896],[-83.8625,9.5251,1402.396],[-83.8679,9.5269,1345.2632],[-83.8685,9.5231,1285.0596],[-83.8728,9.5193,1218.6682],[-83.8767,9.5201,1251.4612],[-83.875,9.5135,1129.0476],[-83.8837,9.5062,1020.1182],[-83.8849,9.503,1006.3943],[-83.8896,9.5021,952.9652],[-83.8913,9.5049,971.3811],[-83.8942,9.4992,879.6028],[-83.8993,9.4981,839.1416],[-83.9013,9.496,864.5424],[-83.9059,9.4972,793.2565],[-83.911,9.4952,713.2734],[-83.9158,9.4983,633.7705],[-83.9179,9.4976,665.7249],[-83.919,9.4945,602.9456],[-83.9175,9.4902,644.5789],[-83.925299999999993,9.4847,503.9048],[-83.9336,9.4855,467.6616],[-83.9365,9.4912,425.0494],[-83.9403,9.4903,420.1471],[-83.9437,9.4824,404.4595],[-83.945,9.4702,490.2014],[-83.9437,9.4679,356.748],[-83.9453,9.4556,313.7755],[-83.9418,9.452,352.8342],[-83.9454,9.4496,317.217],[-83.9444,9.4433,316.8995],[-83.947,9.4423,272.5237],[-83.9525,9.4316,229.3371],[-83.9625,9.4316,212.669],[-83.9665,9.4386,191.4388],[-83.965,9.4428,189.3731],[-83.9674,9.4468,278.9385],[-83.9654,9.4501,176.4832],[-83.9724,9.4526,190.6271],[-83.9759,9.4611,143.5768],[-83.9838,9.4648,174.2399],[-83.9855,9.4684,133.7055],[-83.9867,9.4683,128.7939],[-83.9874,9.4647,191.7765],[-83.9946,9.4621,121.6475],[-83.9916,9.4556,112.7447],[-83.9967,9.4536,103.2936],[-83.9945,9.4468,92.4215],[-83.9971,9.4468,89.2891],[-83.9981,9.4504,103.2003],[-84.0016,9.4499,83.2523],[-84.0017,9.4432,284.5823],[-83.996,9.4369,412.1688],[-83.9895,9.4334,607.5403],[-83.9827,9.433,662.734],[-83.9799,9.4211,517.4246],[-83.9741,9.4199,594.1414],[-83.9721,9.4168,602.9207],[-83.9681,9.4156,616.0134],[-83.9623,9.4103,732.0175],[-83.9629,9.4053,681.2009],[-83.9654,9.402,709.7531],[-83.9624,9.3965,765.238],[-83.9609,9.3958,747.8997],[-83.9584,9.3973,769.5244],[-83.9541,9.3942,731.2786],[-83.9501,9.3958,742.4208],[-83.9456,9.3949,763.5074],[-83.9426,9.3886,670.2651],[-83.9364,9.3871,711.7712],[-83.9337,9.3882,727.8232],[-83.9329,9.3908,719.1678],[-83.9362,9.3953,727.9974],[-83.9357,9.3972,757.1702],[-83.9269,9.401,829.6292],[-83.9245,9.4038,919.188],[-83.922,9.403,890.0598],[-83.9093,9.4051,1164.6305],[-83.902,9.4002,1024.4333],[-83.8976,9.3868,999.0389],[-83.8953,9.3868,1032.8584],[-83.8914,9.3828,908.9004],[-83.8874,9.3749,586.4018],[-83.8915,9.3673,478.3674],[-83.8907,9.3622,418.6846],[-83.8778,9.3602,313.4935],[-83.8698,9.3543,238.7977],[-83.8705,9.3482,240.9156],[-83.8641,9.3429,171.5961],[-83.8606,9.3432,171.1943],[-83.8515,9.3398,190.2168],[-83.8478,9.342,167.8382],[-83.8416,9.3429,121.9156],[-83.8405,9.3371,120.7295],[-83.8472,9.3344,109.995],[-83.8455,9.33,149.3384],[-83.8499,9.325,92.4629],[-83.8539,9.3244,82.4573],[-83.8558,9.3104,176.333],[-83.86,9.3084,70.1845],[-83.8587,9.3033,92.1053],[-83.8546,9.302,81.1572],[-83.8565,9.3004,100.5805],[-83.8568,9.2962,98.6678],[-83.855,9.2931,49.8634],[-83.8579,9.2905,33.5066],[-83.8556,9.2876,57.1845],[-83.8504,9.2695,295.436],[-83.8459,9.2604,411.1419],[-83.8422,9.2564,421.1251],[-83.837,9.2557,428.7531],[-83.8319,9.2527,430.4532],[-83.8192,9.2424,516.8653],[-83.8095,9.2289,566.2468],[-83.802,9.2288,524.1702],[-83.7948,9.2244,570.5634],[-83.7865,9.2242,617.5568],[-83.7804,9.2207,610.3345],[-83.7766,9.2217,549.6075],[-83.7739,9.2178,593.1927],[-83.772,9.2201,643.3995],[-83.7686,9.2163,728.2722],[-83.7613,9.2159,691.1572],[-83.7563,9.2176,695.6821],[-83.7524,9.2226,757.8814],[-83.7544,9.224,765.3099],[-83.7534,9.2274,763.7623],[-83.7555,9.2322,752.9825],[-83.759,9.2353,778.6495],[-83.7606,9.2391,860.606],[-83.7574,9.244,839.2875],[-83.753,9.2422,804.2615],[-83.7488,9.2443,793.1979],[-83.7411,9.2376,463.2725],[-83.7361,9.2282,323.8665],[-83.7352,9.2238,275.9937],[-83.7362,9.2229,269.0388],[-83.7229,9.2205,705.9133],[-83.7108,9.2206,960.8181],[-83.7095,9.2249,996.0801],[-83.7055,9.2251,1130.1334],[-83.7025,9.2158,1104.5912],[-83.6896,9.2116,1052.6985],[-83.6854,9.2085,963.6251],[-83.6814,9.1996,876.6317],[-83.675,9.1935,1083.4672],[-83.6695,9.1821,1137.3225],[-83.6717,9.1768,952.7809],[-83.6774,9.1754,943.201],[-83.6734,9.1575,1027.1477],[-83.6546,9.1451,1043.9147],[-83.6466,9.1316,1120.0549],[-83.639,9.1283,1119.7294],[-83.6259,9.1267,1115.0391],[-83.6206,9.1244,1093.4379],[-83.6138,9.1251,1118.1022],[-83.6057,9.118,996.4843],[-83.6053,9.114,1015.7552],[-83.5833,9.1023,1059.1885],[-83.5769,9.0925,1074.0089],[-83.5688,9.086,998.3342],[-83.5621,9.0847,977.0967],[-83.5581,9.0857,959.8495],[-83.5501,9.0834,937.5177],[-83.5474,9.0806,883.9892],[-83.5419,9.0786,840.2908],[-83.5333,9.079,691.2534],[-83.5284,9.0819,484.0186],[-83.5211,9.077,460.4283],[-83.5167,9.0769,420.8607],[-83.5137,9.0749,398.1493],[-83.5067,9.0778,413.5937],[-83.5074,9.0807,423.4373],[-83.5052,9.0807,392.7668],[-83.5031,9.0834,376.2875]]]]}}