{"type": "Feature","bbox": [-84.1217,9.8936,-84.105,9.9316],"geometry": {"type": "MultiPolygon","coordinates": [[[[-84.1058,9.9104,1108.304],[-84.1062,9.9121,1100.339],[-84.1105,9.9146,1088.4565],[-84.1145,9.9244,1073.8577],[-84.1194,9.9316,1057.9594],[-84.1213,9.9301,1036.3259],[-84.1217,9.8952,1473.6991],[-84.1198,9.8961,1423.2869],[-84.1135,9.8936,1276.7334],[-84.1113,9.8961,1205.4557],[-84.105,9.8978,1155.592],[-84.1058,9.9104,1108.304]]]]}
,"properties": {"GID_3": "CRI.7.2.4_1","GID_0": "CRI","country": "CostaRica","GID_1": "CRI.7_1","province": "SanJosé","NL_NAME_1": "NA","GID_2": "CRI.7.2_1","county": "Alajuelita","NL_NAME_2": "NA","city": "SanFelipe","VARNAME_3": "NA","NL_NAME_3": "NA","TYPE_3": "Distrito","ENGTYPE_3": "District","CC_3": "5","HASC_3": "NA","name": "San_Felipe.city","area_km2": 5.158816,"hist_schema_id": "Elevation0-9000","hist_area_km2": {"1025": 0.020885,"1050": 0.083539,"1075": 0.459471,"1100": 1.503754,"1125": 1.190504,"1150": 0.480386,"1175": 0.229749,"1200": 0.187978,"1225": 0.22975,"1250": 0.187978,"1275": 0.104433,"1300": 0.083546,"1325": 0.104433,"1350": 0.125319,"1375": 0.083547,"1400": 0.06266,"1450": 0.020887}}}