{"type":"Feature","properties":{"GID_3":"CRI.4.1.4_1","GID_0":"CRI","country":"CostaRica","GID_1":"CRI.4_1","province":"Heredia","NL_NAME_1":"NA","GID_2":"CRI.4.1_1","county":"Barva","NL_NAME_2":"NA","city":"SanPedro","VARNAME_3":"NA","NL_NAME_3":"NA","TYPE_3":"Distrito","ENGTYPE_3":"District","CC_3":"2","HASC_3":"NA","name":"San_Pedro.city"},
"geometry":{"type": "MultiPolygon","coordinates": [[[[-84.1216,10.0672,1500.7556],[-84.1283,10.06,1369.4298],[-84.1333,10.0594,1334.1724],[-84.1414,10.0454,1196.7073],[-84.1428,10.0415,1168.3333],[-84.1417,10.0251,1134.6614],[-84.146,10.0221,1114.7214],[-84.145,10.0207,1093.3434],[-84.1405,10.0222,1127.224],[-84.1309,10.0315,1190.1213],[-84.1255,10.0323,1252.8108],[-84.1216,10.0361,1296.5924],[-84.1216,10.0672,1500.7556]]]]}}