{"type":"Feature","properties":{"GID_3":"CRI.3.9.1_1","GID_0":"CRI","country":"CostaRica","GID_1":"CRI.3_1","province":"Guanacaste","NL_NAME_1":"NA","GID_2":"CRI.3.9_1","county":"Nicoya","NL_NAME_2":"NA","city":"BeléndeNosarita","VARNAME_3":"NA","NL_NAME_3":"NA","TYPE_3":"Distrito","ENGTYPE_3":"District","CC_3":"7","HASC_3":"NA","name":"Belénde_Nosarita.city"},
"geometry":{"type": "MultiPolygon","coordinates": [[[[-85.4636,10.0442,182.4765],[-85.4668,10.0486,295.745],[-85.472,10.0509,366.3745],[-85.4766,10.0497,404.2071],[-85.4809,10.0555,250.8704],[-85.4958,10.0633,143.4184],[-85.4998,10.0608,147.4081],[-85.5011,10.0564,145.0081],[-85.5075,10.0547,144.6026],[-85.5087,10.0517,139.0673],[-85.5206,10.0513,141.3253],[-85.5214,10.0501,156.47],[-85.5258,10.0517,136.0804],[-85.5323,10.0501,143.2645],[-85.5358,10.0519,131.2691],[-85.5378,10.0481,131.5435],[-85.5457,10.0485,120.4723],[-85.5479,10.0457,122.7207],[-85.5426,10.0406,116.2874],[-85.5465,10.0376,121.7782],[-85.5452,10.0365,117.886],[-85.5416,10.0372,133.3139],[-85.545,10.0275,113.2824],[-85.5438,10.0243,121.6124],[-85.5451,10.0201,110.7317],[-85.5368,10.0146,95.6646],[-85.5392,10.0132,101.2826],[-85.5443,10.016,108.786],[-85.5499,10.0128,131.5984],[-85.55,10.0158,85.7139],[-85.5523,10.0162,98.7733],[-85.5555,10.0088,79.5344],[-85.5609,10.0064,76.6743],[-85.5629,10.0074,75.6455],[-85.5642,10.0027,230.5046],[-85.5631,9.9986,330.0056],[-85.5544,9.9907,577.4069],[-85.5564,9.9868,573.4605],[-85.565,9.9791,675.9526],[-85.5723,9.9777,531.3434],[-85.5787,9.9692,353.6155],[-85.5841,9.9681,308.3036],[-85.588,9.9543,478.9205],[-85.5813,9.954,393.4994],[-85.5802,9.9562,389.9394],[-85.574,9.9585,397.1581],[-85.5705,9.9638,462.4956],[-85.57,9.957,292.0977],[-85.5656,9.9533,246.3203],[-85.5636,9.9493,149.0062],[-85.5611,9.9495,149.7419],[-85.5583,9.9427,143.4883],[-85.5627,9.9343,70.6883],[-85.5279,9.9353,106.7797],[-85.5256,9.9383,86.8234],[-85.5275,9.9392,100.8486],[-85.5276,9.9414,102.166],[-85.519,9.95,105.7189],[-85.51,9.94,223.8687],[-85.5047,9.9369,161.875],[-85.4997,9.9395,164.2787],[-85.4946,9.9457,214.8372],[-85.4927,9.9449,192.3105],[-85.4904,9.9468,214.8323],[-85.489,9.9452,209.8185],[-85.4868,9.9455,225.3505],[-85.4762,9.9507,320.656],[-85.4627,9.945,558.4613],[-85.4605,9.9505,574.7463],[-85.4658,9.9546,644.5276],[-85.4637,9.9582,569.7375],[-85.464,9.9636,567.9706],[-85.4624,9.9673,548.5108],[-85.469,9.9761,726.9713],[-85.4697,9.9795,753.9031],[-85.474,9.9825,740.3305],[-85.4745,9.9846,692.2679],[-85.473,9.9867,604.2321],[-85.4729,9.9937,658.7062],[-85.4688,9.9963,687.5385],[-85.4704,9.999,742.0248],[-85.4706,10.0122,732.8368],[-85.4745,10.0205,581.5765],[-85.4723,10.0271,402.883],[-85.4647,10.0363,275.7656],[-85.4636,10.0442,182.4765]]]]}}