{"type": "Feature","bbox": [-84.1088,9.9853,-84.0741,10.0126],"geometry": {"type": "MultiPolygon","coordinates": [[[[-84.1087,9.9934,1149.9288],[-84.0999,9.9913,1174.2703],[-84.0955,9.9853,1142.8557],[-84.09,9.9925,1179.0518],[-84.0832,9.9929,1205.6519],[-84.0833,9.9944,1206.3352],[-84.0776,9.9953,1215.2725],[-84.0753,9.9981,1228.8623],[-84.0759,10.0036,1257.9233],[-84.0741,10.0044,1271.8477],[-84.0752,10.0126,1351.5868],[-84.0913,10.0061,1234.4055],[-84.0937,10.0065,1242.4116],[-84.0933,10.0036,1228.0234],[-84.1053,10.0036,1188.1731],[-84.1088,9.9997,1155.1085],[-84.1087,9.9934,1149.9288]]]]}
,"properties": {"GID_3": "CRI.4.6.2_1","GID_0": "CRI","country": "CostaRica","GID_1": "CRI.4_1","province": "Heredia","NL_NAME_1": "NA","GID_2": "CRI.4.6_1","county": "SanPablo","NL_NAME_2": "NA","city": "SanPablo","VARNAME_3": "NA","NL_NAME_3": "NA","TYPE_3": "Distrito","ENGTYPE_3": "District","CC_3": "1","HASC_3": "NA","name": "San_Pablo.city","area_km2": 5.950836,"hist_schema_id": "Elevation0-9000","hist_area_km2": {"1150": 0.292327,"1175": 1.064903,"1200": 1.524263,"1225": 1.941842,"1250": 0.480235,"1275": 0.354954,"1300": 0.187916,"1325": 0.062638,"1350": 0.041759}}}