{"type": "Feature","bbox": [-84.5081,9.8849,-84.4038,9.9255],"geometry": {"type": "MultiPolygon","coordinates": [[[[-84.4577,9.922,183.9506],[-84.4614,9.9213,217.3374],[-84.4615,9.9237,196.6274],[-84.4634,9.924,201.8965],[-84.4687,9.916,155.9758],[-84.4751,9.9159,127.7697],[-84.4811,9.9112,110.7367],[-84.4931,9.9075,102.2563],[-84.4962,9.9078,123.4118],[-84.4965,9.9106,102.4289],[-84.4986,9.911,124.9636],[-84.501,9.9009,78.988],[-84.5081,9.8877,90.3831],[-84.5049,9.8849,96.7822],[-84.499,9.8897,94.465],[-84.4904,9.8882,270.6893],[-84.4886,9.8923,364.2107],[-84.4812,9.8944,450.0216],[-84.4792,9.8979,482.5032],[-84.4754,9.896,481.4153],[-84.4741,9.899,493.8666],[-84.4721,9.8992,503.9301],[-84.4702,9.8964,564.7614],[-84.4637,9.9001,543.7668],[-84.4521,9.8997,455.0533],[-84.4486,9.9017,431.9959],[-84.4453,9.9004,406.9576],[-84.4411,9.8942,487.5267],[-84.4375,9.8932,509.407],[-84.4266,9.8983,735.0549],[-84.4219,9.8978,836.7267],[-84.4192,9.8957,882.3246],[-84.4085,9.8953,731.3147],[-84.4059,9.9044,519.7899],[-84.4038,9.9064,485.64],[-84.404,9.9127,365.7629],[-84.4058,9.9128,361.4713],[-84.4077,9.92,307.9387],[-84.4105,9.9225,270.9338],[-84.4143,9.9233,219.3027],[-84.4211,9.9203,258.3635],[-84.4241,9.9255,231.6195],[-84.4359,9.9209,195.9905],[-84.4402,9.924,192.8948],[-84.4433,9.9222,192.9243],[-84.4528,9.923,167.0287],[-84.4553,9.921,164.9829],[-84.4577,9.922,183.9506]]]]}
,"properties": {"GID_3": "CRI.7.19.4_1","GID_0": "CRI","country": "CostaRica","GID_1": "CRI.7_1","province": "SanJosé","NL_NAME_1": "NA","GID_2": "CRI.7.19_1","county": "Turrubares","NL_NAME_2": "NA","city": "SanPablo","VARNAME_3": "NA","NL_NAME_3": "NA","TYPE_3": "Distrito","ENGTYPE_3": "District","CC_3": "1","HASC_3": "NA","name": "San_Pablo.city","area_km2": 26.73411,"hist_schema_id": "Elevation0-9000","hist_area_km2": {"75": 0.31331,"100": 0.66837,"125": 0.62659,"150": 0.66836,"175": 0.79366,"200": 1.16961,"225": 0.93986,"250": 0.96074,"275": 0.75189,"300": 1.04429,"325": 2.56894,"350": 2.29744,"375": 1.83797,"400": 1.92152,"425": 1.46203,"450": 1.60823,"475": 1.23228,"500": 0.87722,"525": 0.83545,"550": 0.45949,"575": 0.7519,"600": 0.52215,"625": 0.33418,"650": 0.37595,"675": 0.33418,"700": 0.22975,"725": 0.3133,"750": 0.22975,"775": 0.14621,"800": 0.12532,"825": 0.06266,"850": 0.06266,"875": 0.12532,"900": 0.04177,"925": 0.04177}}}