{"type": "Feature","bbox": [-84.1059,9.8243,-84.0607,9.8691],"geometry": {"type": "MultiPolygon","coordinates": [[[[-84.1059,9.8322,1810.7642],[-84.1055,9.8267,1867.4695],[-84.0969,9.8243,1707.7501],[-84.0887,9.8261,1644.6755],[-84.078,9.8244,1538.5964],[-84.0772,9.827,1568.1726],[-84.0823,9.8273,1641.6371],[-84.0826,9.8305,1706.4142],[-84.0792,9.8297,1679.8948],[-84.0786,9.8319,1677.6091],[-84.0722,9.8313,1734.7799],[-84.0698,9.834,1634.7141],[-84.0655,9.8313,1677.0471],[-84.0624,9.8313,1666.9087],[-84.0658,9.8368,1560.151],[-84.0675,9.8468,1337.6494],[-84.07,9.8506,1272.1897],[-84.0614,9.8591,1215.4026],[-84.0607,9.8633,1225.149],[-84.0805,9.8668,1228.1342],[-84.0817,9.8691,1209.7961],[-84.0871,9.8588,1282.7709],[-84.0945,9.8571,1352.6915],[-84.0957,9.8528,1373.4965],[-84.0987,9.8507,1425.3458],[-84.0999,9.8475,1480.5125],[-84.0989,9.8461,1486.1603],[-84.1004,9.8462,1517.6506],[-84.0986,9.8436,1557.8319],[-84.0978,9.8365,1657.2233],[-84.1059,9.8322,1810.7642]]]]}
,"properties": {"GID_3": "CRI.7.3.4_1","GID_0": "CRI","country": "CostaRica","GID_1": "CRI.7_1","province": "SanJosé","NL_NAME_1": "NA","GID_2": "CRI.7.3_1","county": "Aserrí","NL_NAME_2": "NA","city": "Salitrillos","VARNAME_3": "NA","NL_NAME_3": "NA","TYPE_3": "Distrito","ENGTYPE_3": "District","CC_3": "7","HASC_3": "NA","name": "Salitrillos.city","area_km2": 14.43499,"hist_schema_id": "Elevation0-9000","hist_area_km2": {"1225": 0.25067,"1250": 0.62667,"1275": 0.5849,"1300": 0.75201,"1325": 0.94002,"1350": 0.98181,"1375": 0.89825,"1400": 1.14893,"1425": 1.12805,"1450": 0.81471,"1475": 0.58492,"1500": 0.58493,"1525": 0.60582,"1550": 0.52226,"1575": 0.50137,"1600": 0.4387,"1625": 0.41781,"1650": 0.41782,"1675": 0.54316,"1700": 0.62673,"1725": 0.35515,"1750": 0.33426,"1775": 0.16713,"1800": 0.14624,"1825": 0.06267}}}