{"type": "Feature","bbox": [-83.5162,9.4844,-82.869,9.897],"geometry": {"type": "MultiPolygon","coordinates": [[[[-83.4891,9.4844,3753.5232],[-83.4799,9.4859,3630.542],[-83.4792,9.4893,3669.9233],[-83.4813,9.493,3581.3069],[-83.4822,9.502,3684.9155],[-83.4773,9.5059,3645.0723],[-83.4756,9.5154,3590.4863],[-83.4693,9.5214,3576.5391],[-83.4699,9.5257,3592.1968],[-83.4732,9.5269,3550.1162],[-83.4767,9.5366,3563.2222],[-83.4716,9.5423,3347.7495],[-83.4705,9.5498,3216.5159],[-83.4573,9.5584,2849.4441],[-83.4411,9.5629,2574.7607],[-83.438,9.5619,2531.5239],[-83.4285,9.5634,2547.8389],[-83.4231,9.5671,2586.8516],[-83.424,9.5718,2555.0156],[-83.421,9.5753,2549.1594],[-83.4171,9.5757,2544.1521],[-83.4155,9.5808,2541.8325],[-83.4126,9.5829,2558.7224],[-83.4112,9.5897,2474.0664],[-83.4043,9.5983,2580.843],[-83.3927,9.6037,2655.335],[-83.378,9.6016,2289.8325],[-83.3683,9.6111,1995.2932],[-83.3652,9.6196,2107.074],[-83.3527,9.6213,2232.0159],[-83.3505,9.6231,2242.7148],[-83.3444,9.6235,2236.6189],[-83.3411,9.6256,2182.9143],[-83.3398,9.6303,2053.2749],[-83.3428,9.6362,2046.8043],[-83.3373,9.6481,2103.4138],[-83.3322,9.6503,2183.3394],[-83.3294,9.6615,2374.2236],[-83.3272,9.6643,2265.9575],[-83.3219,9.6653,2158.0564],[-83.3209,9.6687,1988.0449],[-83.3149,9.6722,2140.2251],[-83.3059,9.6679,1873.2749],[-83.303,9.6696,1838.8093],[-83.2978,9.6666,1736.7595],[-83.2907,9.6673,1744.3385],[-83.2836,9.6656,1751.8687],[-83.2732,9.6683,1967.3708],[-83.2698,9.6733,1963.5643],[-83.2655,9.6699,1778.1304],[-83.2553,9.668,1682.2439],[-83.2532,9.6696,1634.7587],[-83.2423,9.6668,1489.0082],[-83.2388,9.6695,1504.8137],[-83.2336,9.6671,1315.863],[-83.2239,9.6687,1198.3511],[-83.216,9.664,1416.4484],[-83.2121,9.664,1442.6588],[-83.2086,9.6578,1528.8756],[-83.2033,9.6571,1394.1807],[-83.1987,9.6584,1470.257],[-83.1886,9.6532,1276.6875],[-83.1856,9.6538,1262.5999],[-83.1838,9.6507,1231.6343],[-83.1714,9.6468,1171.9574],[-83.1705,9.6423,1268.7104],[-83.1674,9.6413,1378.4929],[-83.1656,9.6429,1322.9807],[-83.16,9.6384,877.7256],[-83.1554,9.6383,823.7781],[-83.1537,9.6362,790.2731],[-83.1494,9.6392,716.0104],[-83.1407,9.6384,883.9318],[-83.1365,9.6401,1009.3648],[-83.1309,9.6339,936.8544],[-83.1353,9.619,814.9814],[-83.1338,9.6181,796.2911],[-83.1306,9.6179,768.8741],[-83.1296,9.6193,708.671],[-83.1255,9.617,722.2779],[-83.1197,9.6165,739.5392],[-83.1122,9.6218,658.4228],[-83.105,9.6221,680.9972],[-83.0954,9.6257,592.7081],[-83.0914,9.6293,684.0348],[-83.0836,9.6269,656.592],[-83.0767,9.6227,625.7957],[-83.0687,9.6224,663.5526],[-83.0584,9.6146,667.2245],[-83.0531,9.6188,653.8074],[-83.0489,9.6189,600.1528],[-83.0457,9.6233,530.2686],[-83.0402,9.6234,635.1609],[-83.0362,9.6253,566.0596],[-83.0338,9.6285,545.5794],[-83.0305,9.6285,549.0761],[-83.0266,9.6248,492.4001],[-83.0272,9.6205,466.2221],[-83.0234,9.6164,422.1322],[-83.0237,9.6124,370.8742],[-83.0209,9.6112,392.4985],[-83.0172,9.6105,388.3639],[-83.0138,9.6137,389.1455],[-83.0048,9.6109,435.1219],[-82.9943,9.6129,388.3413],[-82.9883,9.6178,367.1369],[-82.9708,9.6223,417.301],[-82.9688,9.6223,412.0944],[-82.9592,9.6131,484.8157],[-82.9524,9.6125,479.4654],[-82.9493,9.6178,528.1459],[-82.9399,9.6211,598.1854],[-82.9309,9.6299,532.974],[-82.923,9.6343,475.4135],[-82.9201,9.6494,480.3488],[-82.9227,9.6519,463.4536],[-82.9257,9.6611,427.4563],[-82.9234,9.67,497.4857],[-82.9213,9.6697,481.2967],[-82.9193,9.667,452.5499],[-82.9188,9.6708,461.4057],[-82.9168,9.6708,432.2028],[-82.9158,9.668,421.3506],[-82.9121,9.666,417.7666],[-82.9125,9.6629,427.3053],[-82.9097,9.6627,422.4481],[-82.9088,9.6596,421.5066],[-82.9004,9.6553,459.0158],[-82.8997,9.6591,483.9214],[-82.8956,9.6627,457.5252],[-82.8902,9.6634,413.6264],[-82.889,9.6666,396.8612],[-82.8913,9.6734,344.4674],[-82.8958,9.677,249.8666],[-82.8982,9.6823,288.1763],[-82.9016,9.6857,187.3043],[-82.9042,9.6859,210.319],[-82.9076,9.6949,192.4496],[-82.9099,9.694,217.0306],[-82.9139,9.6955,255.1183],[-82.9223,9.7045,185.0179],[-82.9222,9.7078,248.7697],[-82.9257,9.7086,202.583],[-82.9274,9.7107,225.4561],[-82.9268,9.7154,231.5661],[-82.9334,9.719,404.7293],[-82.925,9.7244,229.3111],[-82.9217,9.7345,123.3319],[-82.9185,9.7339,120.4695],[-82.9122,9.7359,82.415],[-82.9093,9.7396,58.3153],[-82.9033,9.7425,43.6178],[-82.9032,9.7463,42.0076],[-82.9,9.7502,35.7215],[-82.9041,9.7533,56.6016],[-82.9034,9.7574,32.1665],[-82.9059,9.7568,46.0891],[-82.9068,9.7583,31.6768],[-82.9042,9.759,23.3744],[-82.9043,9.7614,20.8251],[-82.8993,9.7647,15.8784],[-82.8968,9.764,19.162],[-82.8961,9.7676,14.4982],[-82.8923,9.7666,13.8599],[-82.8901,9.7631,14.8195],[-82.8802,9.7598,14.6789],[-82.8727,9.7628,8.7802],[-82.869,9.7603,9.3203],[-82.8913,9.7907,0.0],[-82.8934,9.7892,6.2281],[-82.8931,9.7905,3.5816],[-82.895,9.79,6.2281],[-82.8934,9.791,3.5816],[-82.8944,9.7923,0.8271],[-82.8968,9.7912,2.0519],[-82.8958,9.794,0.9747],[-82.8998,9.7965,8.2955],[-82.9043,9.8038,5.7183],[-82.9043,9.8052,5.7183],[-82.9017,9.8029,13.1933],[-82.9024,9.8063,7.0794],[-82.917,9.8236,1.1961],[-82.9198,9.8249,8.469],[-82.9193,9.8263,3.0598],[-82.9333,9.8437,1.2612],[-82.9366,9.8455,9.826],[-82.9364,9.848,3.3783],[-82.9576,9.8749,0.0],[-82.9613,9.8766,8.2842],[-82.9696,9.888,6.436],[-82.9721,9.889,14.7336],[-82.9723,9.8909,12.2444],[-82.9799,9.897,17.2691],[-82.9851,9.8916,16.0533],[-82.9866,9.8941,17.8953],[-82.987799999999993,9.8925,8.9861],[-82.9909,9.8929,7.8126],[-82.9927,9.8913,8.9697],[-82.9921,9.8894,8.6076],[-83.0005,9.8847,8.5884],[-83.0006,9.8798,10.6104],[-83.0047,9.8774,11.5297],[-83.0038,9.8757,13.6636],[-83.0066,9.876,14.9646],[-83.0055,9.8786,11.5297],[-83.0087,9.8759,15.9939],[-83.0091,9.874,18.8602],[-83.0077,9.8753,19.7344],[-83.0057,9.8741,22.0316],[-83.0064,9.871,14.6324],[-83.0112,9.8724,14.7638],[-83.0106,9.8686,14.4407],[-83.0144,9.8673,23.1704],[-83.0135,9.8648,28.6014],[-83.0155,9.8618,22.6213],[-83.0186,9.8642,22.3607],[-83.0246,9.864,56.2044],[-83.0271,9.861,25.833],[-83.0325,9.8587,50.8533],[-83.0383,9.8477,42.34],[-83.0411,9.8468,29.5212],[-83.0494,9.8469,52.793],[-83.0499,9.8499,37.5036],[-83.0466,9.8506,35.5326],[-83.0469,9.8528,42.556399999999996],[-83.0519,9.8519,41.7223],[-83.0552,9.8483,39.342],[-83.0557,9.8449,44.9849],[-83.0509,9.8396,48.7848],[-83.0475,9.8283,46.2939],[-83.0532,9.8279,54.8377],[-83.0547,9.825,61.819],[-83.0589,9.8263,60.3081],[-83.0645,9.8252,83.7239],[-83.069,9.8272,97.8884],[-83.0748,9.8238,151.4746],[-83.0771,9.8253,165.5509],[-83.0788,9.8228,151.1538],[-83.0807,9.8233,162.0506],[-83.0831,9.8188,199.4985],[-83.0846,9.819,281.0457],[-83.0888,9.81,280.15],[-83.091,9.8104,283.7955],[-83.0947,9.8075,360.7663],[-83.0993,9.7969,553.851],[-83.12,9.7947,939.2465],[-83.1302,9.7855,1465.7209],[-83.146,9.7869,1649.0278],[-83.1508,9.7914,1528.0453],[-83.1567,9.7931,1404.6716],[-83.162,9.7968,1495.1821],[-83.169,9.806,1489.2573],[-83.1745,9.8022,1448.0703],[-83.1793,9.8019,1454.3583],[-83.1851,9.8071,1424.6884],[-83.1907,9.8086,1509.8844],[-83.1948,9.8068,1518.7655],[-83.2115,9.8051,1668.8003],[-83.2227,9.7966,1789.5264],[-83.2328,9.7975,1660.6064],[-83.2394,9.7929,2022.6031],[-83.2372,9.7881,2022.0944],[-83.2379,9.783,2180.8025],[-83.2398,9.7828,2199.1665],[-83.2397,9.7889,1961.7198],[-83.2444,9.7917,1893.5933],[-83.245,9.7952,1745.6295],[-83.2579,9.7984,1407.2817],[-83.262,9.8016,1303.1666],[-83.2693,9.798,1216.7977],[-83.2761,9.8017,962.649],[-83.2843,9.8027,887.3834],[-83.2902,9.8002,841.059],[-83.2935,9.8019,804.7595],[-83.2954,9.7992,776.7926],[-83.2998,9.8005,746.4941],[-83.3021,9.7997,709.0911],[-83.3028,9.7977,664.4285],[-83.3108,9.8019,619.6677],[-83.3147,9.8019,603.6817],[-83.319,9.8055,577.0906],[-83.319,9.8101,600.4664],[-83.3223,9.812,578.4715],[-83.3224,9.8146,527.4935],[-83.3266,9.8166,518.5951],[-83.3282,9.8198,510.1329],[-83.3319,9.8208,547.1428],[-83.3311,9.8274,569.9413],[-83.336,9.8326,450.6669],[-83.3386,9.833,447.6321],[-83.3363,9.8303,457.1037],[-83.3363,9.8231,474.8091],[-83.3404,9.8213,511.2071],[-83.3463,9.8103,514.9507],[-83.3556,9.8022,551.8942],[-83.3566,9.7966,514.1466],[-83.3674,9.7856,534.4299],[-83.3686,9.7808,583.3624],[-83.3781,9.7739,556.7697],[-83.3831,9.7676,606.59],[-83.397,9.7417,635.029],[-83.4047,9.7368,691.1974],[-83.4079,9.73,660.1652],[-83.4104,9.7288,736.9778],[-83.4109,9.7256,674.6644],[-83.4292,9.7067,726.3571],[-83.4293,9.6994,737.065],[-83.4268,9.6915,791.4656],[-83.4272,9.6846,827.7598],[-83.4287,9.6782,791.5378],[-83.4331,9.6718,816.8909],[-83.4407,9.6649,855.7419],[-83.4424,9.66,924.4965],[-83.4468,9.6533,915.7955],[-83.4496,9.6522,918.8438],[-83.4513,9.6482,967.8444],[-83.4575,9.6474,1006.007],[-83.4634,9.6429,1070.9387],[-83.4681,9.6329,1057.6592],[-83.4736,9.6323,1133.1042],[-83.4821,9.6283,1115.2428],[-83.4914,9.6136,1228.4158],[-83.4939,9.6129,1209.8806],[-83.5027,9.603,1269.157],[-83.5066,9.6017,1306.5077],[-83.5118,9.5971,1307.1112],[-83.5114,9.5941,1469.9213],[-83.5068,9.5895,1559.9727],[-83.5045,9.5837,1676.7437],[-83.5078,9.575,1900.8062],[-83.5133,9.5676,2242.9932],[-83.5144,9.561,2417.6628],[-83.5131,9.5569,2382.1411],[-83.5162,9.5531,2413.2241],[-83.5138,9.5407,2602.8218],[-83.5155,9.5356,2661.1104],[-83.5073,9.5298,2800.7739],[-83.5032,9.5299,2857.4468],[-83.4962,9.5215,3114.1948],[-83.4947,9.5104,3322.9141],[-83.4865,9.4988,3486.8706],[-83.4886,9.495,3503.9116],[-83.4875,9.4917,3496.6694],[-83.4891,9.4844,3753.5232]]],
[[[-82.8929,9.7911,0.0],[-82.8924,9.7924,0.0],[-82.8945,9.7951,9.446],[-82.8944,9.7935,0.8271],[-82.8929,9.7911,0.0]]],
[[[-82.8971,9.7964,2.7604],[-82.8962,9.797,2.7604],[-82.9006,9.8044,0.0],[-82.9008,9.8031,3.2298],[-82.8971,9.7964,2.7604]]]]}
,"properties": {"GID_3": "CRI.5.2.4_1","GID_0": "CRI","country": "CostaRica","GID_1": "CRI.5_1","province": "Limón","NL_NAME_1": "NA","GID_2": "CRI.5.2_1","county": "Limón","NL_NAME_2": "NA","city": "ValledelaEstrella","VARNAME_3": "NA","NL_NAME_3": "NA","TYPE_3": "Distrito","ENGTYPE_3": "District","CC_3": "2","HASC_3": "NA","name": "Valledela_Estrella.city","area_km2": 1243.9824,"hist_schema_id": "Elevation0-9000","hist_area_km2": {"0": 27.806,"25": 74.3862,"50": 35.063,"75": 38.2597,"100": 39.9525,"125": 40.6421,"150": 38.6157,"175": 32.4313,"200": 27.8343,"225": 24.5951,"250": 24.4495,"275": 19.8949,"300": 17.9311,"325": 17.1163,"350": 16.3433,"375": 16.9913,"400": 16.8871,"425": 15.654,"450": 15.5076,"475": 13.5432,"500": 11.3278,"525": 12.1637,"550": 12.9785,"575": 12.2889,"600": 12.038,"625": 11.7451,"650": 12.2047,"675": 10.5955,"700": 11.9119,"725": 10.9085,"750": 11.5983,"775": 10.5324,"800": 10.4696,"825": 9.6126,"850": 10.2606,"875": 9.1946,"900": 9.3409,"925": 10.4067,"950": 10.2604,"975": 10.3858,"1000": 10.2604,"1025": 10.1142,"1050": 11.0545,"1075": 11.2426,"1100": 11.5563,"1125": 12.3295,"1150": 11.1802,"1175": 11.6818,"1200": 10.7414,"1225": 12.0997,"1250": 12.1207,"1275": 11.2012,"1300": 12.2671,"1325": 11.9955,"1350": 11.7656,"1375": 10.867,"1400": 11.1388,"1425": 11.3687,"1450": 10.9927,"1475": 10.8256,"1500": 10.6584,"1525": 9.4671,"1550": 9.7391,"1575": 9.0701,"1600": 8.0255,"1625": 9.1959,"1650": 7.9837,"1675": 9.3423,"1700": 8.2764,"1725": 7.2942,"1750": 7.4197,"1775": 7.336,"1800": 7.3152,"1825": 7.1061,"1850": 7.0434,"1875": 6.3747,"1900": 6.3121,"1925": 5.5806,"1950": 5.0162,"1975": 5.3507,"2000": 4.9954,"2025": 4.1385,"2050": 4.2013,"2075": 3.6788,"2100": 3.637,"2125": 2.8427,"2150": 2.4875,"2175": 2.0068,"2200": 1.5678,"2225": 1.756,"2250": 1.9651,"2275": 2.1742,"2300": 1.9442,"2325": 2.4251,"2350": 2.1115,"2375": 1.7979,"2400": 2.1324,"2425": 2.237,"2450": 1.9234,"2475": 1.798,"2500": 1.6516,"2525": 1.359,"2550": 1.2335,"2575": 1.3172,"2600": 1.0453,"2625": 1.4426,"2650": 1.0245,"2675": 1.0872,"2700": 1.0454,"2725": 1.0454,"2750": 1.0454,"2775": 0.92,"2800": 1.129,"2825": 0.7109,"2850": 0.8363,"2875": 0.7945,"2900": 0.5645,"2925": 0.8572,"2950": 0.8782,"2975": 0.5645,"3000": 0.8363,"3025": 0.5854,"3050": 0.8572,"3075": 0.5018,"3100": 0.6273,"3125": 0.6273,"3150": 0.6691,"3175": 0.69,"3200": 0.6273,"3225": 0.5018,"3250": 0.3555,"3275": 0.6064,"3300": 0.46,"3325": 0.5437,"3350": 0.5855,"3375": 0.5646,"3400": 0.6691,"3425": 0.5228,"3450": 0.6064,"3475": 0.8991,"3500": 1.171,"3525": 0.7528,"3550": 0.7319,"3575": 0.7737,"3600": 0.3137,"3625": 0.23,"3650": 0.1673,"3675": 0.0836,"3700": 0.1464,"3725": 0.0418,"3775": 0.0209}}}