{"type":"Feature","properties":{"GID_3":"CRI.6.3.3_1","GID_0":"CRI","country":"CostaRica","GID_1":"CRI.6_1","province":"Puntarenas","NL_NAME_1":"NA","GID_2":"CRI.6.3_1","county":"Corredores","NL_NAME_2":"NA","city":"LaCuesta","VARNAME_3":"NA","NL_NAME_3":"NA","TYPE_3":"Distrito","ENGTYPE_3":"District","CC_3":"2","HASC_3":"NA","name":"La_Cuesta.city"},
"geometry":{"type": "MultiPolygon","coordinates": [[[[-82.9095,8.498,10.6008],[-82.9073,8.493,12.6232],[-82.9085,8.4911,15.3278],[-82.9028,8.4867,22.1198],[-82.9002,8.4866,14.9349],[-82.8976,8.4803,13.9245],[-82.898,8.4776,12.3912],[-82.896,8.4768,18.186],[-82.8975,8.4714,20.9509],[-82.8964,8.4657,23.9101],[-82.8861,8.4535,26.7699],[-82.8821,8.4459,13.6942],[-82.8734,8.4384,21.4453],[-82.8682,8.4396,19.3833],[-82.8396,8.4801,41.4964],[-82.8315,8.5055,67.7708],[-82.8334,8.5079,67.7591],[-82.8761,8.5074,42.3719],[-82.8814,8.5007,40.6099],[-82.8844,8.5007,39.0317],[-82.8869,8.4951,28.4042],[-82.8856,8.4904,18.0968],[-82.9016,8.4941,22.0413],[-82.9095,8.498,10.6008]]]]}}