{"type":"Feature","properties":{"GID_3":"CRI.2.5.4_1","GID_0":"CRI","country":"CostaRica","GID_1":"CRI.2_1","province":"Cartago","NL_NAME_1":"NA","GID_2":"CRI.2.5_1","county":"LaUnión","NL_NAME_2":"NA","city":"SanDiego","VARNAME_3":"NA","NL_NAME_3":"NA","TYPE_3":"Distrito","ENGTYPE_3":"District","CC_3":"2","HASC_3":"NA","name":"San_Diego.city"},
"geometry":{"type": "MultiPolygon","coordinates": [[[[-83.9801,9.884,1819.1025],[-83.9759,9.8926,1480.4924],[-83.9785,9.8972,1385.704],[-83.9843,9.9013,1326.9761],[-83.99,9.9001,1300.4989],[-83.9913,9.9011,1298.7194],[-83.9957,9.899,1290.2941],[-83.9966,9.9074,1309.4186],[-83.9998,9.9073,1304.6748],[-84.0032,9.904,1279.9781],[-84.0099,9.9073,1263.5508],[-84.0104,9.9027,1274.2216],[-84.0139,9.8971,1241.1353],[-84.0125,9.8947,1240.8125],[-84.0101,9.8953,1245.1956],[-84.0116,9.889,1286.0217],[-84.0079,9.8858,1370.9534],[-84.0021,9.8837,1518.6598],[-84.002,9.8819,1529.6035],[-83.9985,9.8815,1566.995],[-83.9986,9.8761,1592.9744],[-83.9924,9.8811,1628.9674],[-83.9801,9.884,1819.1025]]]]}}