{"type": "Feature","bbox": [-84.6094,9.9932,-84.4738,10.0831],"geometry": {"type": "MultiPolygon","coordinates": [[[[-84.4978,10.0149,1187.3354],[-84.492,10.014,1153.5457],[-84.4911,10.0186,1168.5179],[-84.4955,10.0218,1084.9425],[-84.4889,10.031,1217.476],[-84.483,10.0311,1375.0564],[-84.4777,10.0341,1411.5588],[-84.4762,10.0421,1257.5857],[-84.4833,10.0529,1086.0906],[-84.4838,10.057,1075.9535],[-84.476,10.0693,1029.9082],[-84.4809,10.0754,1069.2151],[-84.4738,10.0828,1069.5116],[-84.4773,10.0831,1089.0706],[-84.4863,10.0749,1189.1305],[-84.4974,10.0711,1210.0803],[-84.4997,10.0708,1223.7963],[-84.5017,10.0746,1148.3733],[-84.5031,10.0747,1123.3293],[-84.5124,10.0728,961.783],[-84.5173,10.0738,903.731],[-84.524,10.071,700.1714],[-84.531,10.0649,670.9784],[-84.53,10.0593,570.303],[-84.5353,10.0554,500.078],[-84.5428,10.0532,430.0339],[-84.5432,10.0492,416.5041],[-84.5466,10.0481,384.9709],[-84.5466,10.0464,409.5354],[-84.5504,10.0452,387.5656],[-84.5552,10.046,361.3889],[-84.5556,10.0446,375.9511],[-84.5582,10.0463,349.722],[-84.5595,10.0437,355.6921],[-84.5649,10.0409,332.7015],[-84.5738,10.0414,308.1524],[-84.5778,10.045,286.547],[-84.5806,10.0446,277.9747],[-84.585,10.048,272.3268],[-84.5894,10.0443,241.5266],[-84.5893,10.047,228.7605],[-84.5968,10.0537,236.2125],[-84.6094,10.0461,211.9896],[-84.6026,10.044,328.883],[-84.6002,10.0375,476.2622],[-84.5927,10.0351,385.6655],[-84.5735,10.02,358.593],[-84.5663,10.0215,450.8945],[-84.5659,10.029,501.1389],[-84.5632,10.0292,499.2104],[-84.5641,10.016,394.6144],[-84.5609,10.0128,372.2104],[-84.5614,10.0099,349.1182],[-84.5595,10.0063,343.8029],[-84.5565,10.0044,331.4847],[-84.5566,9.9961,294.9696],[-84.5539,9.9932,292.2248],[-84.5516,9.9933,325.7728],[-84.5516,9.9963,304.7538],[-84.5487,9.9999,317.7376],[-84.5469,9.9999,338.4129],[-84.5448,10.003,339.1962],[-84.533,10.0102,473.8617],[-84.5267,10.0109,578.6396],[-84.5218,10.0134,691.0426],[-84.5185,10.011,750.5142],[-84.5161,10.0112,768.8144],[-84.5135,10.0135,847.9022],[-84.5081,10.0147,970.3143],[-84.5014,10.0116,1154.8101],[-84.4978,10.0149,1187.3354]]]]}
,"properties": {"GID_3": "CRI.1.13.12_1","GID_0": "CRI","country": "CostaRica","GID_1": "CRI.1_1","province": "Alajuela","NL_NAME_1": "NA","GID_2": "CRI.1.13_1","county": "SanRamón","NL_NAME_2": "NA","city": "Santiago","VARNAME_3": "NA","NL_NAME_3": "NA","TYPE_3": "Distrito","ENGTYPE_3": "District","CC_3": "2","HASC_3": "NA","name": "Santiago.city","area_km2": 61.58898,"hist_schema_id": "Elevation0-9000","hist_area_km2": {"225": 0.14614,"250": 0.48017,"275": 0.75158,"300": 1.00213,"325": 1.06478,"350": 1.79555,"375": 1.77466,"400": 2.02522,"425": 2.19224,"450": 1.96257,"475": 1.64939,"500": 1.56588,"525": 1.16918,"550": 0.93952,"575": 0.87688,"600": 1.04389,"625": 1.25267,"650": 1.04389,"675": 1.16916,"700": 1.23178,"725": 0.89773,"750": 0.9395,"775": 0.85599,"800": 1.06476,"825": 1.04389,"850": 1.10651,"875": 0.93948,"900": 1.21089,"925": 1.67019,"950": 1.89984,"975": 1.87898,"1000": 1.71196,"1025": 1.89985,"1050": 2.46349,"1075": 3.63255,"1100": 3.00627,"1125": 2.10857,"1150": 2.27559,"1175": 1.81631,"1200": 1.29439,"1225": 0.98121,"1250": 0.54281,"1275": 0.41755,"1300": 0.31317,"1325": 0.08351,"1350": 0.10439,"1375": 0.14614,"1400": 0.08351,"1425": 0.06263}}}