{"type":"Feature","properties":{"GID_3":"CRI.2.2.11_1","GID_0":"CRI","country":"CostaRica","GID_1":"CRI.2_1","province":"Cartago","NL_NAME_1":"NA","GID_2":"CRI.2.2_1","county":"Cartago","NL_NAME_2":"NA","city":"TierraBlanca","VARNAME_3":"NA","NL_NAME_3":"NA","TYPE_3":"Distrito","ENGTYPE_3":"District","CC_3":"8","HASC_3":"NA","name":"Tierra_Blanca.city"},
"geometry":{"type": "MultiPolygon","coordinates": [[[[-83.9029,9.8875,1631.1228],[-83.8936,9.8967,1811.2019],[-83.8922,9.9062,1961.984],[-83.8893,9.9115,2058.9626],[-83.888,9.9222,2231.6199],[-83.8837,9.9307,2334.3438],[-83.8851,9.9312,2330.2681],[-83.8831,9.9406,2430.5256],[-83.8778,9.9439,2536.0378],[-83.8757,9.949,2625.5771],[-83.8724,9.9509,2685.0593],[-83.8728,9.9617,2836.5693],[-83.8679,9.9712,3168.0222],[-83.8727,9.9696,3152.5918],[-83.8831,9.9705,2969.1091],[-83.8795,9.9592,2743.9639],[-83.8856,9.9538,2633.1274],[-83.8879,9.946,2476.7959],[-83.8907,9.9423,2379.811],[-83.8905,9.9381,2308.1338],[-83.8973,9.9323,2174.7974],[-83.9021,9.9212,2067.6572],[-83.9003,9.9178,2009.1283],[-83.9047,9.9115,1893.0591],[-83.9041,9.9097,1872.0884],[-83.9104,9.9071,1872.8098],[-83.9116,9.9046,1787.8147],[-83.9147,9.8956,1686.0549],[-83.9029,9.8875,1631.1228]]]]}}