{"type":"Feature","properties":{"GID_3":"CRI.4.4.2_1","GID_0":"CRI","country":"CostaRica","GID_1":"CRI.4_1","province":"Heredia","NL_NAME_1":"NA","GID_2":"CRI.4.4_1","county":"Heredia","NL_NAME_2":"NA","city":"Mercedes","VARNAME_3":"NA","NL_NAME_3":"NA","TYPE_3":"Distrito","ENGTYPE_3":"District","CC_3":"2","HASC_3":"NA","name":"Mercedes.city"},
"geometry":{"type": "MultiPolygon","coordinates": [[[[-84.1293,10.0152,1136.3776],[-84.134,10.0106,1114.4735],[-84.1346,10.0062,1097.8588],[-84.1411,10.0086,1075.8547],[-84.1494,10.0002,1042.1272],[-84.1345,9.9965,1111.1342],[-84.1249,9.9967,1134.5583],[-84.1247,10.006,1151.8655],[-84.1172,10.0068,1182.0396],[-84.1229,10.0165,1161.9434],[-84.1293,10.0152,1136.3776]]]]}}