{"type":"Feature","properties":{"GID_3":"CRI.7.20.2_1","GID_0":"CRI","country":"CostaRica","GID_1":"CRI.7_1","province":"SanJosé","NL_NAME_1":"NA","GID_2":"CRI.7.20_1","county":"VázquezdeCoronado","NL_NAME_2":"NA","city":"DulceNombredeJesus","VARNAME_3":"NA","NL_NAME_3":"NA","TYPE_3":"Distrito","ENGTYPE_3":"District","CC_3":"3","HASC_3":"NA","name":"Dulce_Nombrede_Jesus.city"},
"geometry":{"type": "MultiPolygon","coordinates": [[[[-84.0283,10.0601,2067.9856],[-84.0239,10.0636,1774.2385],[-84.0209,10.06,1700.5745],[-84.0143,10.0565,1559.5881],[-84.0104,10.0562,1545.3047],[-84.0071,10.0583,1496.7627],[-84.0005,10.0561,1417.3408],[-83.9838,10.066,1170.1094],[-83.9751,10.0667,1077.876],[-83.9777,10.0643,1080.7122],[-83.9832,10.0644,1146.2631],[-83.9812,10.0635,1227.0388],[-83.9837,10.0589,1300.4197],[-83.9866,10.0606,1285.8972],[-83.9847,10.0568,1452.9579],[-83.9862,10.0569,1439.9656],[-83.9875,10.0502,1540.6643],[-83.9864,10.0454,1512.1798],[-83.9894,10.04,1512.1017],[-83.9885,10.031,1459.7607],[-83.9936,10.0211,1467.4707],[-83.9987,10.021,1449.8641],[-84.0023,10.019,1438.9561],[-84.0023,10.0015,1392.4783],[-84.0045,10.0026,1378.8196],[-84.0073,10.0,1360.9399],[-84.0111,10.0012,1360.3456],[-84.0119,9.9974,1339.5692],[-84.0143,9.997,1334.1748],[-84.0131,9.9931,1323.0735],[-84.0172,9.9939,1322.5802],[-84.02,9.992,1303.7117],[-84.0189,9.9902,1312.2419],[-84.0233,9.9887,1321.6285],[-84.0173,9.9801,1339.0861],[-84.0135,9.9811,1352.566],[-84.0114,9.9795,1362.2305],[-84.0101,9.9834,1363.1079],[-84.0061,9.9804,1395.3417],[-84.0045,9.9861,1394.1133],[-84.0072,9.9911,1375.5929],[-84.005,9.9901,1378.6344],[-84.0052,9.9934,1377.6248],[-83.9994,9.997,1421.49],[-83.9999,10.0016,1420.1274],[-83.9825,10.0023,1538.0286],[-83.9771,10.0095,1599.4291],[-83.9731,10.0114,1609.1691],[-83.97,10.0189,1579.6663],[-83.9744,10.0292,1457.7548],[-83.973,10.0368,1376.0966],[-83.9745,10.0371,1309.9583],[-83.9708,10.0514,1175.5796],[-83.9737,10.0569,1107.1366],[-83.9689,10.0621,1050.7249],[-83.9698,10.0651,1004.0328],[-83.9666,10.07,1003.2108],[-83.9689,10.0726,979.3881],[-83.969,10.0771,934.9816],[-83.9674,10.0767,945.655],[-83.9647,10.0792,868.0002],[-83.9642,10.0873,872.8451],[-83.9623,10.0904,840.1381],[-83.9639,10.0917,861.4592],[-83.962,10.0943,803.2055],[-83.9637,10.0958,846.2408],[-83.9605,10.0979,770.6482],[-83.9611,10.1003,866.8491],[-83.9597,10.1011,756.2286],[-83.9627,10.106,718.0205],[-83.9596,10.1091,636.6721],[-83.9593,10.1129,642.532],[-83.9554,10.1192,654.1285],[-83.9521,10.1218,628.476],[-83.9489,10.135,557.9996],[-83.9527,10.1414,551.5797],[-83.9468,10.1475,473.381],[-83.9426,10.1627,406.5967],[-83.9375,10.1707,374.2995],[-83.9365,10.1795,429.6457],[-83.9339,10.1854,337.2241],[-83.9295,10.19,338.0164],[-83.9527,10.1796,405.8527],[-83.9593,10.1735,458.4234],[-83.9719,10.1695,547.1394],[-83.974,10.167,535.1856],[-83.9764,10.1548,595.8252],[-83.9794,10.1496,656.5607],[-83.9772,10.1326,736.5411],[-83.9805,10.1238,778.9161],[-83.9805,10.1164,792.7803],[-83.9788,10.1148,833.724],[-83.9801,10.1025,877.0974],[-83.9844,10.1011,896.8868],[-83.985,10.0977,909.1794],[-83.9892,10.0942,943.5798],[-83.9942,10.0954,988.2943],[-84.0018,10.0921,1060.5121],[-84.0057,10.0862,1113.7568],[-84.0156,10.0795,1169.0216],[-84.0217,10.0822,1279.115],[-84.0283,10.0829,1289.5195],[-84.0283,10.0601,2067.9856]]]]}}