{"type": "Feature","bbox": [-84.1612,10.5739,-83.9351,10.7926],"geometry": {"type": "MultiPolygon","coordinates": [[[[-84.1612,10.5754,55.0213],[-84.1579,10.5754,53.622],[-84.1537,10.5784,52.6055],[-84.1497,10.5747,56.8594],[-84.1471,10.5759,51.687],[-84.1425,10.5739,49.8205],[-84.1411,10.5782,51.8273],[-84.1354,10.5763,50.5724],[-84.1313,10.5771,44.6665],[-84.1299,10.5785,44.6665],[-84.1318,10.5823,43.6183],[-84.1305,10.5841,58.6716],[-84.1231,10.5851,49.3043],[-84.1236,10.5882,50.1312],[-84.121,10.5899,52.1994],[-84.1175,10.5882,48.439],[-84.1143,10.591,45.4341],[-84.1091,10.5897,43.4516],[-84.1061,10.5907,45.3737],[-84.109,10.5948,42.2906],[-84.1068,10.5945,41.0844],[-84.1066,10.593,41.8764],[-84.1023,10.593,39.8311],[-84.0997,10.5899,42.4001],[-84.0986,10.5914,43.4353],[-84.0959,10.591,44.0237],[-84.0928,10.5874,40.5982],[-84.09,10.592,41.4686],[-84.0871,10.5932,41.2585],[-84.0843,10.5932,39.6369],[-84.0832,10.5905,39.7992],[-84.0805,10.5928,38.7393],[-84.0805,10.589,39.4936],[-84.0781,10.5879,48.7737],[-84.0767,10.5914,39.4739],[-84.071,10.5919,38.0672],[-84.0666,10.6034,33.3643],[-84.0611,10.6048,37.8071],[-84.056,10.616,31.8092],[-84.0537,10.6172,30.1929],[-84.0494,10.6159,29.2562],[-84.0479,10.6197,30.9572],[-84.0423,10.6219,31.4357],[-84.0382,10.6335,31.6974],[-84.0317,10.6337,28.2163],[-84.0314,10.6372,43.5855],[-84.0298,10.6385,31.3385],[-84.0231,10.6386,34.1579],[-84.0246,10.6425,29.7537],[-84.0195,10.6455,31.3784],[-84.0198,10.6493,38.5596],[-84.0163,10.6484,42.6673],[-84.0155,10.6551,28.5328],[-84.0071,10.6584,25.8869],[-83.9984,10.6727,21.8608],[-83.9924,10.6761,18.6584],[-83.99,10.6805,23.1006],[-83.9874,10.6802,17.8615],[-83.9823,10.6756,18.3502],[-83.9784,10.678,17.1662],[-83.9738,10.6846,19.1171],[-83.9714,10.6848,16.1605],[-83.9619,10.6787,17.129],[-83.955,10.6769,14.5692],[-83.9498,10.6925,15.7315],[-83.9444,10.6967,16.3816],[-83.9366,10.698,12.5],[-83.9352,10.7,14.8594],[-83.9351,10.7046,13.0538],[-83.942,10.7079,11.5],[-83.9437,10.7107,11.5],[-83.9423,10.7136,23.0269],[-83.9368,10.7144,12.7453],[-83.937,10.7203,14.9926],[-83.9406,10.7222,11.0],[-83.9551,10.724,17.7891],[-83.9677,10.7293,14.3527],[-83.9722,10.7453,15.9101],[-83.9835,10.7495,13.3652],[-83.991,10.7545,18.9082],[-83.9939,10.7592,13.0],[-83.9981,10.7599,28.3708],[-84.0053,10.7644,13.0],[-84.0093,10.7731,15.1446],[-84.0146,10.7791,15.7977],[-84.0149,10.7845,13.3412],[-84.0198,10.7903,15.842],[-84.0245,10.7926,14.0],[-84.028,10.7916,16.1195],[-84.0311,10.7883,15.0315],[-84.0322,10.7799,18.0992],[-84.0358,10.7713,15.9444],[-84.0431,10.7714,16.231],[-84.0474,10.7771,14.0],[-84.0541,10.7787,16.2113],[-84.0612,10.7741,15.4521],[-84.0625,10.7634,17.6399],[-84.0699,10.76,18.6187],[-84.0796,10.7583,18.2789],[-84.0836,10.7594,23.0886],[-84.0999,10.7732,17.2857],[-84.1056,10.7744,16.5],[-84.1159,10.7652,18.5412],[-84.1216,10.7638,17.0],[-84.1267,10.765,23.9228],[-84.1324,10.7719,25.8918],[-84.1332,10.7845,17.7599],[-84.1354,10.7869,17.9286],[-84.1462,10.7876,17.0],[-84.1611,10.7854,19.7528],[-84.1612,10.5754,55.0213]]]]}
,"properties": {"GID_3": "CRI.4.10.1_1","GID_0": "CRI","country": "CostaRica","GID_1": "CRI.4_1","province": "Heredia","NL_NAME_1": "NA","GID_2": "CRI.4.10_1","county": "Sarapiquí","NL_NAME_2": "NA","city": "Cureña","VARNAME_3": "NA","NL_NAME_3": "NA","TYPE_3": "Distrito","ENGTYPE_3": "District","CC_3": "5","HASC_3": "NA","name": "Cureña.city","area_km2": 369.2443,"hist_schema_id": "Elevation0-9000","hist_area_km2": {"0": 0.9999,"25": 130.0814,"50": 207.0723,"75": 11.3552,"100": 4.1262,"125": 3.3344,"150": 2.7509,"175": 2.1882,"200": 1.959,"225": 1.6047,"250": 1.2713,"275": 1.1254,"300": 0.9587,"325": 0.3751,"350": 0.0417}}}