{"type":"Feature","properties":{"GID_3":"CRI.1.14.6_1","GID_0":"CRI","country":"CostaRica","GID_1":"CRI.1_1","province":"Alajuela","NL_NAME_1":"NA","GID_2":"CRI.1.14_1","county":"Upala","NL_NAME_2":"NA","city":"SanJoseoPizote","VARNAME_3":"NA","NL_NAME_3":"NA","TYPE_3":"Distrito","ENGTYPE_3":"District","CC_3":"3","HASC_3":"NA","name":"San_Joseo_Pizote.city"},
"geometry":{"type": "MultiPolygon","coordinates": [[[[-85.1223,10.8296,384.5738],[-85.1177,10.829,325.9103],[-85.1161,10.8322,303.7691],[-85.1164,10.8391,253.2134],[-85.1137,10.8424,244.7095],[-85.1132,10.8467,223.6346],[-85.0951,10.8688,100.3283],[-85.0949,10.8746,92.0997],[-85.092,10.8774,82.5364],[-85.0902,10.8822,74.8481],[-85.0922,10.8862,71.0735],[-85.0874,10.8999,57.7011],[-85.0881,10.9032,57.4127],[-85.0867,10.9072,58.1566],[-85.0883,10.9132,55.246],[-85.0922,10.916,53.7952],[-85.0943,10.9226,55.5725],[-85.0922,10.9322,48.0015],[-85.0934,10.9344,49.3581],[-85.0919,10.94,48.7616],[-85.0928,10.9468,46.3627],[-85.0967,10.957,44.4225],[-85.1024,10.9597,44.9097],[-85.1032,10.9656,43.5626],[-85.1152,10.9779,46.6064],[-85.113,10.9839,42.6107],[-85.1198,10.9927,41.4769],[-85.1215,11.0077,40.2761],[-85.1242,11.0113,44.0088],[-85.1265,11.0189,38.6336],[-85.1296,11.022,41.0997],[-85.1274,11.0246,37.5887],[-85.1324,11.0243,37.8038],[-85.1323,11.027,36.6708],[-85.2291,11.0633,40.042],[-85.2332,11.0622,41.3765],[-85.2353,11.0655,42.1353],[-85.2393,11.0636,44.9659],[-85.2428,11.0656,40.6033],[-85.2432,11.0622,42.6074],[-85.245,11.0611,44.82],[-85.2481,11.0624,64.7152],[-85.2497,11.0612,47.3035],[-85.2492,11.0571,61.7314],[-85.2517,11.0494,56.7265],[-85.2543,11.0492,54.269],[-85.2567,11.0441,56.8857],[-85.2587,11.0451,56.3395],[-85.2635,11.0424,76.082],[-85.2608,11.039,81.6583],[-85.2613,11.0355,93.887],[-85.2589,11.0339,95.4527],[-85.2582,11.0209,132.0806],[-85.2627,11.0128,119.3013],[-85.265,11.014099999999999,154.8344],[-85.2688,11.0117,133.2143],[-85.2685,11.016,129.7905],[-85.272,11.016,145.4375],[-85.2732,11.014099999999999,144.2101],[-85.2772,11.0148,159.7516],[-85.2762,11.0166,161.0528],[-85.2789,11.0171,151.8237],[-85.2787,11.0191,156.905],[-85.2849,11.0247,150.3015],[-85.2862,11.0227,158.7463],[-85.2881,11.0241,190.1561],[-85.2898,11.0224,184.2342],[-85.2896,11.0174,177.4308],[-85.2781,11.0071,137.7405],[-85.2712,11.0038,124.868],[-85.2665,10.9968,89.8533],[-85.2596,10.9921,88.3656],[-85.2595,10.9898,83.1415],[-85.2639,10.9868,93.0745],[-85.2628,10.9796,81.9137],[-85.2646,10.9769,82.6062],[-85.2583,10.9736,77.4379],[-85.2517,10.9727,75.0492],[-85.2505,10.9706,92.4847],[-85.2521,10.9675,73.8036],[-85.2495,10.9684,77.6288],[-85.2469,10.9668,71.4139],[-85.2478,10.962,74.6051],[-85.244,10.9603,76.0814],[-85.245,10.9575,73.4157],[-85.2436,10.9546,70.5478],[-85.2477,10.9515,86.2247],[-85.2446,10.9494,81.5005],[-85.247,10.9453,75.8656],[-85.2434,10.9419,80.6511],[-85.2407,10.9431,67.2838],[-85.2374,10.9419,72.1829],[-85.234,10.9383,78.0763],[-85.2316,10.9384,67.5032],[-85.2332,10.9404,67.5643],[-85.2323,10.9412,76.9983],[-85.2285,10.9372,67.7936],[-85.2285,10.9346,66.2839],[-85.2216,10.9345,66.6975],[-85.2191,10.93,66.5645],[-85.2227,10.9291,67.0828],[-85.2192,10.9266,75.1484],[-85.2154,10.9277,69.1257],[-85.2146,10.9228,68.4377],[-85.2134,10.9232,68.1244],[-85.2136,10.927,63.9614],[-85.2126,10.9268,63.9614],[-85.2005,10.9123,56.6436],[-85.1946,10.9101,55.5812],[-85.189,10.9119,56.4103],[-85.1853,10.9107,54.574],[-85.1827,10.9129,54.27],[-85.1819,10.9096,53.9064],[-85.1832,10.9071,53.2391],[-85.1803,10.903,54.7135],[-85.1784,10.9043,52.6891],[-85.1771,10.9015,53.4367],[-85.178,10.8979,54.618899999999996],[-85.1745,10.8938,55.2956],[-85.1739,10.8897,55.4207],[-85.1713,10.889,59.8345],[-85.1706,10.8865,57.5461],[-85.1656,10.8852,59.9375],[-85.1581,10.8735,75.6187],[-85.1567,10.8649,125.9821],[-85.1511,10.8594,133.8151],[-85.1512,10.8563,169.6308],[-85.1469,10.8563,142.2028],[-85.1433,10.8541,171.9458],[-85.1296,10.8414,311.0657],[-85.1255,10.8345,351.2812],[-85.1205,10.8319,348.576],[-85.1223,10.8296,384.5738]]]]}}