{"type":"Feature","properties":{"GID_3":"CRI.7.15.10_1","GID_0":"CRI","country":"CostaRica","GID_1":"CRI.7_1","province":"SanJosé","NL_NAME_1":"NA","GID_2":"CRI.7.15_1","county":"SanJosé","NL_NAME_2":"NA","city":"Uruca","VARNAME_3":"NA","NL_NAME_3":"NA","TYPE_3":"Distrito","ENGTYPE_3":"District","CC_3":"7","HASC_3":"NA","name":"Uruca.city"},
"geometry":{"type": "MultiPolygon","coordinates": [[[[-84.1764,9.9718,900.9674],[-84.1803,9.9688,875.3232],[-84.175,9.9681,896.9995],[-84.1672,9.9633,909.6438],[-84.1564,9.9632,941.4003],[-84.1495,9.9582,958.2559],[-84.146,9.9603,977.0159],[-84.1376,9.9611,978.0439],[-84.1292,9.959,1010.4319],[-84.1216,9.9545,1030.8284],[-84.1216,9.9502,1064.933],[-84.1198,9.9479,1064.4854],[-84.1132,9.9447,1072.7196],[-84.1079,9.9436,1090.5939],[-84.1018,9.9452,1079.2323],[-84.101,9.9438,1079.2323],[-84.0998,9.946,1098.4932],[-84.0993,9.9436,1105.2495],[-84.098,9.9447,1097.0112],[-84.0953,9.9432,1102.1295],[-84.0922,9.9458,1125.3047],[-84.0916,9.9445,1113.2167],[-84.0853,9.9442,1116.0509],[-84.089,9.9464,1126.8687],[-84.0886,9.9495,1119.9692],[-84.0971,9.952,1106.8776],[-84.0981,9.9569,1096.9187],[-84.1047,9.9571,1081.5725],[-84.1088,9.9621,1050.8016],[-84.1138,9.9597,1008.9287],[-84.1159,9.9622,1018.8143],[-84.1333,9.9675,996.4274],[-84.1379,9.964,991.1828],[-84.1456,9.9623,952.9376],[-84.1469,9.9642,963.692],[-84.1539,9.9664,953.0205],[-84.1555,9.9688,960.788],[-84.1627,9.9661,944.7072],[-84.1691,9.9658,932.7045],[-84.1736,9.9718,919.2748],[-84.1764,9.9718,900.9674]]]]}}