{"type":"Feature","properties":{"GID_3":"CRI.1.1.8_1","GID_0":"CRI","country":"CostaRica","GID_1":"CRI.1_1","province":"Alajuela","NL_NAME_1":"NA","GID_2":"CRI.1.1_1","county":"Alajuela","NL_NAME_2":"NA","city":"SanAntonio","VARNAME_3":"NA","NL_NAME_3":"NA","TYPE_3":"Distrito","ENGTYPE_3":"District","CC_3":"4","HASC_3":"NA","name":"San_Antonio.city"},
"geometry":{"type": "MultiPolygon","coordinates": [[[[-84.2291,10.0072,886.0936],[-84.2395,10.0035,871.35],[-84.2442,9.9968,859.061],[-84.2485,9.9939,847.2943],[-84.2519,9.9944,838.0574],[-84.2543,9.9876,820.7704],[-84.2588,9.9854,819.579],[-84.2614,9.9816,803.3938],[-84.2728,9.9755,776.4418],[-84.2755,9.9715,768.822],[-84.2798,9.9703,750.5031],[-84.2802,9.9665,749.2065],[-84.2778,9.9634,753.0333],[-84.2736,9.9644,755.2398],[-84.2725,9.967,740.3758],[-84.2668,9.9703,780.351],[-84.2633,9.9744,775.4933],[-84.2591,9.9734,801.8345],[-84.2581,9.9763,786.3596],[-84.2549,9.9776,799.2456],[-84.2557,9.9794,806.2751],[-84.2512,9.9826,816.0918],[-84.2446,9.9835,817.1339],[-84.2431,9.982,829.077],[-84.2396,9.9866,826.0531],[-84.2359,9.9866,836.2554],[-84.234,9.9893,853.4673],[-84.2309,9.9893,850.1491],[-84.2276,9.9939,864.4434],[-84.226,9.9925,864.6718],[-84.2242,9.9941,871.3778],[-84.222,9.9931,874.2476],[-84.2193,9.9967,875.6269],[-84.2131,9.9994,888.6452],[-84.2134,10.0035,897.124],[-84.2291,10.0072,886.0936]]]]}}