{"type": "Feature","bbox": [-84.3622,9.9928,-84.2304,10.1888],"geometry": {"type": "MultiPolygon","coordinates": [[[[-84.3464,9.9965,546.004],[-84.3418,9.9928,534.2025],[-84.3393,9.9959,613.0192],[-84.339,10.0005,564.182],[-84.3369,10.0017,568.4473],[-84.333,10.0013,575.6401],[-84.3293,9.9973,629.2042],[-84.3236,9.9979,605.1081],[-84.3214,9.9957,598.8793],[-84.3179,9.9979,616.1146],[-84.3104,9.9986,674.3767],[-84.3096,10.0054,644.3944],[-84.2999,10.0148,699.8454],[-84.294,10.0255,770.5808],[-84.2891,10.0284,777.1357],[-84.2846,10.0386,832.1929],[-84.2802,10.0404,845.2266],[-84.2804,10.0438,868.601],[-84.2776,10.0482,916.3104],[-84.2782,10.0552,997.3996],[-84.273,10.0645,984.8159],[-84.2734,10.068,1000.094],[-84.2705,10.0743,1023.1913],[-84.273,10.0792,1026.3979],[-84.2722,10.0831,1038.1333],[-84.2738,10.084,1037.3821],[-84.2711,10.091,1069.7493],[-84.2718,10.1006,1163.8088],[-84.2703,10.1045,1191.821],[-84.2603,10.1135,1274.9988],[-84.2548,10.1209,1356.5215],[-84.2509,10.1228,1424.8501],[-84.2507,10.1288,1497.0453],[-84.2432,10.1351,1624.7224],[-84.2428,10.1442,1838.693],[-84.2394,10.1542,2034.1395],[-84.2362,10.1599,2229.6528],[-84.2304,10.1639,2398.9067],[-84.2307,10.1681,2447.0588],[-84.2327,10.1676,2470.1382],[-84.2324,10.1709,2472.0654],[-84.2368,10.1744,2527.4812],[-84.2377,10.1813,2529.1868],[-84.2364,10.185,2553.4148],[-84.239,10.1866,2554.1345],[-84.2436,10.184,2568.7654],[-84.2429,10.18,2596.0103],[-84.2509,10.1793,2483.3281],[-84.2588,10.1821,2310.4097],[-84.2646,10.1815,2313.7874],[-84.2678,10.1832,2314.7949],[-84.2707,10.1888,2191.3994],[-84.2768,10.1845,1972.4648],[-84.2813,10.1765,1845.1118],[-84.2885,10.1712,1746.4978],[-84.2947,10.1691,1736.8673],[-84.2946,10.1652,1642.2411],[-84.2962,10.1645,1642.2411],[-84.3007,10.1555,1557.197],[-84.3051,10.1543,1560.9543],[-84.3143,10.1417,1389.0673],[-84.3173,10.1362,1358.6874],[-84.3167,10.1303,1308.4747],[-84.3199,10.1282,1271.6859],[-84.3215,10.121,1229.4297],[-84.3249,10.1175,1184.744],[-84.3248,10.11,1092.483],[-84.3227,10.1085,1091.0835],[-84.3249,10.1059,1058.6688],[-84.3229,10.0995,1028.7285],[-84.3283,10.0911,959.2026],[-84.3275,10.0901,963.1562],[-84.3297,10.0888,998.1381],[-84.3303,10.0819,912.2006],[-84.3389,10.0724,873.5363],[-84.339,10.0692,873.9036],[-84.3422,10.0686,867.1523],[-84.3443,10.0625,821.3164],[-84.3498,10.0631,810.3202],[-84.3515,10.0619,811.2223],[-84.3572,10.0499,755.7234],[-84.3571,10.0442,757.701],[-84.36,10.0407,731.5746],[-84.3596,10.039,731.8936],[-84.3565,10.0377,719.0883],[-84.359,10.0314,688.7484],[-84.3582,10.0244,684.6779],[-84.3622,10.0161,594.3394],[-84.3573,10.0121,606.1965],[-84.3575,10.0071,628.3805],[-84.3535,9.998,572.1531],[-84.3506,9.9959,538.0275],[-84.3464,9.9965,546.004]]]]}
,"properties": {"GID_2": "CRI.1.4_1","GID_0": "CRI","country": "CostaRica","GID_1": "CRI.1_1","province": "Alajuela","NL_NAME_1": "NA","county": "Grecia","VARNAME_2": "NA","NL_NAME_2": "NA","TYPE_2": "Cantón","ENGTYPE_2": "Canton","CC_2": "3","HASC_2": "CR.AL.GR","name": "Grecia.county","area_km2": 143.2395,"hist_schema_id": "Elevation0-9000","hist_area_km2": {"525": 0.0209,"550": 0.1462,"575": 0.4802,"600": 0.8143,"625": 1.5242,"650": 2.0253,"675": 2.6099,"700": 4.1132,"725": 5.3241,"750": 4.4262,"775": 5.0107,"800": 4.3634,"825": 4.3634,"850": 4.8017,"875": 6.2213,"900": 4.1544,"925": 2.693,"950": 2.7765,"975": 4.7178,"1000": 6.4296,"1025": 5.7406,"1050": 3.5904,"1075": 2.818,"1100": 2.7553,"1125": 2.0038,"1150": 1.9621,"1175": 2.0456,"1200": 1.8785,"1225": 1.5654,"1250": 2.1707,"1275": 2.0872,"1300": 1.8785,"1325": 2.0455,"1350": 2.2124,"1375": 1.8576,"1400": 1.8784,"1425": 2.0037,"1450": 1.8575,"1475": 1.8575,"1500": 1.6071,"1525": 1.4401,"1550": 1.3983,"1575": 1.3566,"1600": 1.2314,"1625": 1.1479,"1650": 1.2522,"1675": 1.294,"1700": 1.1061,"1725": 1.2522,"1750": 0.8765,"1775": 0.8348,"1800": 1.0226,"1825": 0.8765,"1850": 0.8348,"1875": 0.7304,"1900": 0.8556,"1925": 0.8765,"1950": 0.6887,"1975": 0.6678,"2000": 0.5426,"2025": 0.7722,"2050": 0.5009,"2075": 0.5843,"2100": 0.48,"2125": 0.6678,"2150": 0.4383,"2175": 0.6052,"2200": 0.4591,"2225": 0.5009,"2250": 0.2922,"2275": 0.2713,"2300": 0.2922,"2325": 0.3339,"2350": 0.3339,"2375": 0.3965,"2400": 0.3965,"2425": 0.2922,"2450": 0.5426,"2475": 0.313,"2500": 0.3339,"2525": 0.3756,"2550": 0.5008,"2575": 0.313,"2600": 0.1252}}}