{"type":"Feature","properties":{"GID_3":"CRI.1.14.8_1","GID_0":"CRI","country":"CostaRica","GID_1":"CRI.1_1","province":"Alajuela","NL_NAME_1":"NA","GID_2":"CRI.1.14_1","county":"Upala","NL_NAME_2":"NA","city":"Yolillal","VARNAME_3":"NA","NL_NAME_3":"NA","TYPE_3":"Distrito","ENGTYPE_3":"District","CC_3":"7","HASC_3":"NA","name":"Yolillal.city"},
"geometry":{"type": "MultiPolygon","coordinates": [[[[-84.8976,10.8273,67.2716],[-84.8906,10.8392,54.4521],[-84.8928,10.8415,44.7598],[-84.8904,10.8445,47.6527],[-84.8867,10.8436,47.7042],[-84.8847,10.8479,47.8606],[-84.8859,10.8527,47.0873],[-84.8842,10.8583,46.8219],[-84.8863,10.8631,46.2366],[-84.8899,10.8648,42.9109],[-84.8905,10.8701,41.2998],[-84.8924,10.8725,42.2566],[-84.8891,10.885,37.1199],[-84.885,10.8904,40.0946],[-84.8882,10.8938,37.1509],[-84.8887,10.8983,36.6],[-84.8871,10.9001,36.4364],[-84.8913,10.9059,34.975],[-84.8865,10.9141,34.9288],[-84.8877,10.9197,34.0569],[-84.8869,10.9292,34.2271],[-84.8849,10.93,33.794],[-84.885,10.9348,32.45],[-84.8812,10.9416,32.9759],[-84.8816,10.9609,32.81],[-84.9108,10.9438,41.2092],[-84.9912,10.9742,35.7988],[-84.9925,10.9678,41.3618],[-84.9977,10.9643,42.3204],[-84.9935,10.9511,42.8413],[-84.9967,10.9437,36.518],[-84.9967,10.9337,38.4185],[-84.9906,10.9293,47.4371],[-84.9891,10.925,39.1213],[-84.9937,10.9207,40.6042],[-84.9966,10.9142,44.641],[-84.9886,10.8946,55.9382],[-84.9901,10.8943,61.4962],[-84.9914,10.8894,45.6588],[-84.9858,10.8717,48.7503],[-84.9854,10.8594,49.1702],[-84.9805,10.8549,56.9144],[-84.935,10.855,61.0681],[-84.9071,10.8319,76.1865],[-84.902,10.8282,64.1541],[-84.8976,10.8273,67.2716]]]]}}