{"type": "Feature","bbox": [-85.5548,10.2216,-85.4891,10.3449],"geometry": {"type": "MultiPolygon","coordinates": [[[[-85.5001,10.2337,527.6277],[-85.4986,10.2368,518.9607],[-85.505,10.2447,456.8203],[-85.5059,10.2488,267.0768],[-85.5048,10.2547,127.2919],[-85.5022,10.2575,75.5413],[-85.4994,10.2571,62.9419],[-85.4967,10.2651,44.2808],[-85.4951,10.2661,37.6451],[-85.4978,10.2726,31.4175],[-85.4942,10.2858,19.4834],[-85.4891,10.2962,15.462],[-85.4911,10.3032,16.5925],[-85.4934,10.3043,20.0837],[-85.4955,10.309,22.4182],[-85.4957,10.3161,19.1383],[-85.493,10.32,14.0889],[-85.4963,10.3241,10.0106],[-85.4989,10.324,12.5714],[-85.5008,10.3314,9.8357],[-85.5029,10.3297,8.8259],[-85.5118,10.3308,11.9498],[-85.515,10.3372,10.8503],[-85.5134,10.3445,16.7725],[-85.5179,10.3449,10.0826],[-85.5224,10.3425,9.9762],[-85.5337,10.3445,17.134],[-85.5339,10.3278,23.7687],[-85.5358,10.3225,18.4296],[-85.5457,10.32,47.8615],[-85.5506,10.3131,124.7976],[-85.5516,10.3015,185.5848],[-85.5486,10.3002,216.4583],[-85.5487,10.2984,197.4345],[-85.5493,10.2951,185.6416],[-85.5526,10.2931,252.4749],[-85.5548,10.2891,263.3492],[-85.5544,10.2827,276.8371],[-85.5506,10.2786,190.653],[-85.5434,10.2747,143.1371],[-85.5423,10.2667,220.0918],[-85.5524,10.2399,105.3853],[-85.5462,10.2261,80.918],[-85.5301,10.2235,114.1926],[-85.5261,10.2216,103.9849],[-85.525,10.226,222.077],[-85.5206,10.2267,240.1389],[-85.5182,10.2302,246.0076],[-85.5152,10.2294,290.7663],[-85.5081,10.2328,478.1946],[-85.5001,10.2337,527.6277]]]]}
,"properties": {"GID_3": "CRI.3.10.5_1","GID_0": "CRI","country": "CostaRica","GID_1": "CRI.3_1","province": "Guanacaste","NL_NAME_1": "NA","GID_2": "CRI.3.10_1","county": "SantaCruz","NL_NAME_2": "NA","city": "Diriá","VARNAME_3": "NA","NL_NAME_3": "NA","TYPE_3": "Distrito","ENGTYPE_3": "District","CC_3": "7","HASC_3": "NA","name": "Diriá.city","area_km2": 66.19417,"hist_schema_id": "Elevation0-9000","hist_area_km2": {"0": 6.79994,"25": 26.49301,"50": 10.63989,"75": 7.55263,"100": 3.88061,"125": 2.46183,"150": 1.60643,"175": 1.73162,"200": 1.00144,"225": 0.79279,"250": 0.50073,"275": 0.39641,"300": 0.41729,"325": 0.31296,"350": 0.37556,"375": 0.3547,"400": 0.27124,"425": 0.12519,"450": 0.20865,"475": 0.18778,"525": 0.02086,"550": 0.06259}}}