{"type":"Feature","properties":{"GID_3":"CRI.5.1.3_1","GID_0":"CRI","country":"CostaRica","GID_1":"CRI.5_1","province":"Limón","NL_NAME_1":"NA","GID_2":"CRI.5.1_1","county":"Guácimo","NL_NAME_2":"NA","city":"Mercedes","VARNAME_3":"NA","NL_NAME_3":"NA","TYPE_3":"Distrito","ENGTYPE_3":"District","CC_3":"2","HASC_3":"NA","name":"Mercedes.city"},
"geometry":{"type": "MultiPolygon","coordinates": [[[[-83.7252,10.0398,2414.7217],[-83.7187,10.0443,2211.5557],[-83.7143,10.0486,2040.8553],[-83.7119,10.0538,1854.5208],[-83.7068,10.0571,1757.9021],[-83.7006,10.0593,1646.926],[-83.6919,10.0588,1418.9421],[-83.6868,10.0603,1363.0653],[-83.675,10.0704,969.5932],[-83.6708,10.0771,833.1595],[-83.6654,10.0805,818.7347],[-83.6639,10.0844,822.8865],[-83.6659,10.0885,707.6367],[-83.6612,10.096,574.0864],[-83.6605,10.1005,550.2696],[-83.6573,10.1034,528.4681],[-83.6582,10.1113,448.7991],[-83.6534,10.1156,438.3708],[-83.6516,10.1245,350.1591],[-83.6466,10.1263,339.4428],[-83.6428,10.1309,301.1041],[-83.642,10.1347,282.795],[-83.6376,10.139,260.0681],[-83.6369,10.1422,233.5077],[-83.6247,10.1535,183.7872],[-83.6162,10.1653,141.4691],[-83.6098,10.1694,109.2613],[-83.6048,10.1771,90.7985],[-83.6,10.1795,76.1963],[-83.5985,10.1852,71.4648],[-83.5916,10.1894,60.0037],[-83.5906,10.1992,53.3986],[-83.5885,10.1996,52.6207],[-83.5848,10.2045,39.3964],[-83.5845,10.2087,40.6668],[-83.5874,10.2126,35.9231],[-83.5866,10.2156,41.2867],[-83.5895,10.2183,41.5126],[-83.5869,10.2209,36.8251],[-83.5858,10.2269,31.4328],[-83.5818,10.229,21.8937],[-83.5813,10.2342,20.8874],[-83.5827,10.2364,23.7016],[-83.5859,10.2327,22.9322],[-83.5854,10.2305,23.4331],[-83.5922,10.2291,29.8662],[-83.5947,10.2237,36.259],[-83.6033,10.2277,29.9485],[-83.606,10.2253,30.7665],[-83.6078,10.2274,25.3399],[-83.6096,10.2263,24.8522],[-83.6124,10.2277,31.9326],[-83.6149,10.226,30.2269],[-83.6134,10.2229,32.8251],[-83.6162,10.2207,33.2642],[-83.616,10.2178,35.168],[-83.6182,10.2152,37.6273],[-83.6291,10.2109,43.9315],[-83.6324,10.2051,54.1277],[-83.6367,10.204,62.4862],[-83.6451,10.1952,79.4789],[-83.6517,10.1918,97.652],[-83.6525,10.1891,105.2244],[-83.6576,10.1878,108.5309],[-83.6594,10.1805,140.8784],[-83.6612,10.1802,149.6175],[-83.6612,10.1775,155.5273],[-83.665,10.1715,195.8248],[-83.6636,10.17,200.6876],[-83.6649,10.1689,193.7199],[-83.6634,10.1676,194.5067],[-83.6637,10.1643,197.5951],[-83.6584,10.1579,247.5138],[-83.6587,10.1508,307.0838],[-83.6644,10.1458,357.1079],[-83.6653,10.142,399.0363],[-83.6689,10.139,442.3011],[-83.67,10.1335,484.8123],[-83.674,10.1306,493.5069],[-83.6739,10.125,534.7044],[-83.6756,10.1203,570.562],[-83.6825,10.1189,637.8252],[-83.6898,10.115,718.1743],[-83.6913,10.1098,753.8193],[-83.6992,10.1052,851.34],[-83.7055,10.0961,968.2077],[-83.7156,10.09,1174.3589],[-83.7246,10.0782,1707.4187],[-83.7223,10.0704,2102.7061],[-83.7242,10.0658,2024.5128],[-83.7299,10.062,2142.2358],[-83.7314,10.0535,2183.2964],[-83.7282,10.05,2258.5188],[-83.7252,10.0398,2414.7217]]]]}}