{"type":"Feature","properties":{"GID_3":"CRI.6.3.1_1","GID_0":"CRI","country":"CostaRica","GID_1":"CRI.6_1","province":"Puntarenas","NL_NAME_1":"NA","GID_2":"CRI.6.3_1","county":"Corredores","NL_NAME_2":"NA","city":"Canoas","VARNAME_3":"NA","NL_NAME_3":"NA","TYPE_3":"Distrito","ENGTYPE_3":"District","CC_3":"3","HASC_3":"NA","name":"Canoas.city"},
"geometry":{"type": "MultiPolygon","coordinates": [[[[-82.9453,8.5419,11.5375],[-82.9426,8.5424,7.505],[-82.9417,8.54,11.8616],[-82.9378,8.5377,10.0119],[-82.9356,8.5316,16.1058],[-82.9285,8.5231,7.4914],[-82.9285,8.5211,9.3727],[-82.9314,8.519,13.1353],[-82.9305,8.517,17.0824],[-82.921,8.5053,20.2495],[-82.9167,8.503,17.9865],[-82.9168,8.5009,22.6453],[-82.8918,8.4911,20.39],[-82.8856,8.4904,18.0968],[-82.8869,8.4951,28.4042],[-82.8844,8.5007,39.0317],[-82.8814,8.5007,40.6099],[-82.8761,8.5074,42.3719],[-82.8334,8.5079,67.7591],[-82.8332,8.5241,108.6101],[-82.8384,8.5324,126.6119],[-82.839,8.5444,117.4839],[-82.8351,8.552,132.1474],[-82.8285,8.5571,175.4408],[-82.8223,8.5671,259.444],[-82.8252,8.5713,266.0558],[-82.824,8.5745,275.7786],[-82.8261,8.5803,324.5951],[-82.8332,8.5923,555.1176],[-82.8268,8.6007,675.0012],[-82.8287,8.6052,666.5026],[-82.8382,8.6134,595.9692],[-82.8371,8.6153,587.131],[-82.8311,8.6142,603.989],[-82.8286,8.6161,610.2429],[-82.828,8.6229,713.9881],[-82.83,8.6361,897.0344],[-82.8361,8.6337,736.0758],[-82.8403,8.6268,544.4325],[-82.8492,8.6265,437.3446],[-82.8556,8.6221,365.0074],[-82.8573,8.6191,317.1755],[-82.8585,8.6092,227.4014],[-82.8649,8.603,108.3379],[-82.8675,8.5966,80.0983],[-82.8703,8.5975,73.2348],[-82.8729,8.5954,76.0095],[-82.8743,8.5985,62.1447],[-82.8842,8.5977,53.311],[-82.8875,8.6015,53.2544],[-82.8911,8.6031,46.4709],[-82.8945,8.6023,44.1754],[-82.9026,8.605,32.9555],[-82.9009,8.6001,38.7575],[-82.8845,8.5878,61.3097],[-82.8864,8.584,60.5025],[-82.8936,8.5798,50.524],[-82.9011,8.5792,49.9121],[-82.9031,8.572,44.3153],[-82.9137,8.5724,40.9062],[-82.9203,8.5775,31.7485],[-82.9245,8.5762,33.672],[-82.9264,8.5777,35.9099],[-82.931,8.5767,34.2254],[-82.9338,8.5779,31.9536],[-82.9401,8.5754,23.1745],[-82.9444,8.5692,12.1291],[-82.9466,8.5586,14.5876],[-82.9508,8.5554,5.6476],[-82.9519,8.5519,14.323],[-82.9505,8.5472,9.4887],[-82.9453,8.5419,11.5375]]]]}}