{"type": "Feature","bbox": [-84.4339,9.975,-84.3641,9.9983],"geometry": {"type": "MultiPolygon","coordinates": [[[[-84.3641,9.9959,572.3738],[-84.3655,9.9977,618.2967],[-84.3724,9.9983,589.6705],[-84.3741,9.9953,661.3174],[-84.3792,9.9942,623.3198],[-84.3827,9.9954,641.8341],[-84.3864,9.9923,648.3079],[-84.3922,9.9974,689.0132],[-84.3977,9.9946,691.1993],[-84.4023,9.9949,704.7446],[-84.4066,9.9913,718.1681],[-84.4121,9.9924,741.8677],[-84.413,9.9845,853.8898],[-84.4278,9.9837,923.4711],[-84.4339,9.9781,970.6913],[-84.4266,9.975,891.2828],[-84.4248,9.9763,873.9684],[-84.4228,9.9756,860.8433],[-84.4188,9.9788,848.4531],[-84.4151,9.9787,810.9776],[-84.414,9.977,824.8706],[-84.4049,9.9773,764.093],[-84.3861,9.9863,680.0205],[-84.3779,9.9847,671.6397],[-84.3705,9.9937,640.8397],[-84.3641,9.9959,572.3738]]]]}
,"properties": {"GID_3": "CRI.1.3.5_1","GID_0": "CRI","country": "CostaRica","GID_1": "CRI.1_1","province": "Alajuela","NL_NAME_1": "NA","GID_2": "CRI.1.3_1","county": "Atenas","NL_NAME_2": "NA","city": "Mercedes","VARNAME_3": "NA","NL_NAME_3": "NA","TYPE_3": "Distrito","ENGTYPE_3": "District","CC_3": "3","HASC_3": "NA","name": "Mercedes.city","area_km2": 7.746834,"hist_schema_id": "Elevation0-9000","hist_area_km2": {"575": 0.041761,"600": 0.125282,"625": 0.146164,"650": 0.438492,"675": 1.127557,"700": 0.814348,"725": 0.709947,"750": 0.939643,"775": 0.835242,"800": 0.689078,"825": 0.438506,"850": 0.459389,"875": 0.396746,"900": 0.271458,"925": 0.187932,"950": 0.083526,"975": 0.041763}}}