{"type":"Feature","properties":{"GID_3":"CRI.3.10.6_1","GID_0":"CRI","country":"CostaRica","GID_1":"CRI.3_1","province":"Guanacaste","NL_NAME_1":"NA","GID_2":"CRI.3.10_1","county":"SantaCruz","NL_NAME_2":"NA","city":"SantaCruz","VARNAME_3":"NA","NL_NAME_3":"NA","TYPE_3":"Distrito","ENGTYPE_3":"District","CC_3":"1","HASC_3":"NA","name":"Santa_Cruz.city"},
"geometry":{"type": "MultiPolygon","coordinates": [[[[-85.6426,10.329,15.7379],[-85.6451,10.328,19.6991],[-85.6472,10.3238,19.4443],[-85.6498,10.324,20.4248],[-85.6521,10.3219,21.0378],[-85.6518,10.3187,16.3098],[-85.6566,10.3132,16.6649],[-85.656,10.3118,16.8844],[-85.6576,10.3119,17.0041],[-85.6586,10.3094,17.4751],[-85.6625,10.3087,20.5856],[-85.6659,10.3022,21.4259],[-85.6704,10.3021,21.4413],[-85.6756,10.2953,19.2035],[-85.6766,10.2963,21.6802],[-85.6814,10.2935,19.6231],[-85.6882,10.2955,22.3936],[-85.6949,10.2925,25.5097],[-85.7033,10.2812,26.7813],[-85.704,10.2782,29.8291],[-85.709,10.2765,33.0496],[-85.7121,10.2736,29.2701],[-85.717,10.2729,39.5103],[-85.6952,10.2658,309.301],[-85.6893,10.2602,204.6889],[-85.686,10.2594,271.1021],[-85.6839,10.2549,189.2592],[-85.68,10.2561,206.7457],[-85.629,10.2447,225.7225],[-85.6289,10.1784,523.3442],[-85.6208,10.1653,666.6558],[-85.622,10.1605,692.9639],[-85.6238,10.1586,734.1246],[-85.6254,10.1593,729.2222],[-85.6287,10.1555,783.6094],[-85.6285,10.1453,906.5247],[-85.6306,10.1429,924.4707],[-85.6325,10.1299,834.2797],[-85.6384,10.1234,657.1974],[-85.6396,10.1173,631.935],[-85.6444,10.1107,531.0977],[-85.6412,10.1073,439.8164],[-85.6397,10.1012,386.0438],[-85.6379,10.1003,421.8196],[-85.6345,10.1026,531.6762],[-85.6178,10.1027,593.0511],[-85.616,10.1015,553.2709],[-85.6096,10.092,367.6646],[-85.6124,10.0877,359.3406],[-85.6104,10.084,318.1243],[-85.6101,10.0782,289.0358],[-85.6079,10.0774,282.148],[-85.6049,10.0739,262.4507],[-85.6046,10.0712,248.6094],[-85.6014,10.0699,282.2849],[-85.5985,10.0649,250.6538],[-85.5943,10.0688,320.0562],[-85.5923,10.0684,336.2397],[-85.592,10.0727,328.7945],[-85.5947,10.074,326.183],[-85.5944,10.0763,336.7772],[-85.5962,10.0756,348.0077],[-85.5961,10.0791,370.8838],[-85.5899,10.0814,445.3221],[-85.5909,10.0844,489.1025],[-85.5889,10.0875,535.7783],[-85.5923,10.0967,655.1353],[-85.5914,10.107,758.0826],[-85.597,10.107,833.3618],[-85.5985,10.1105,865.1659],[-85.5988,10.1149,829.0272],[-85.5958,10.1236,762.9337],[-85.592,10.1273,756.2136],[-85.5845,10.1285,830.0866],[-85.5831,10.1333,792.9265],[-85.5738,10.1399,674.9205],[-85.5664,10.15,696.4672],[-85.5607,10.1535,885.6923],[-85.5586,10.1583,903.5534],[-85.5504,10.1625,749.4309],[-85.5512,10.1641,735.3981],[-85.5473,10.1643,704.1561],[-85.5439,10.1701,649.2303],[-85.5429,10.1757,471.5714],[-85.5407,10.1789,345.1833],[-85.5363,10.1809,280.0113],[-85.5274,10.2077,220.9255],[-85.5261,10.2216,103.9849],[-85.5301,10.2235,114.1926],[-85.5462,10.2261,80.918],[-85.5524,10.2399,105.3853],[-85.5423,10.2667,220.0918],[-85.5434,10.2747,143.1371],[-85.5506,10.2786,190.653],[-85.5544,10.2827,276.8371],[-85.5548,10.2891,263.3492],[-85.5526,10.2931,252.4749],[-85.5493,10.2951,185.6416],[-85.5487,10.2984,197.4345],[-85.5486,10.3002,216.4583],[-85.5516,10.3015,185.5848],[-85.5504,10.3136,124.7976],[-85.5457,10.32,47.8615],[-85.5358,10.3225,18.4296],[-85.5339,10.3278,23.7687],[-85.5337,10.3445,17.134],[-85.5224,10.3425,9.9762],[-85.5179,10.3449,10.0826],[-85.5132,10.3442,16.7725],[-85.5111,10.3465,17.0626],[-85.5211,10.3517,18.771],[-85.5286,10.3517,21.0061],[-85.533,10.3495,17.4775],[-85.5351,10.3516,15.2175],[-85.5338,10.3547,14.6872],[-85.5367,10.3526,16.4836],[-85.5421,10.3535,15.971],[-85.542,10.3573,13.8988],[-85.5436,10.3592,14.3677],[-85.5457,10.3553,16.3419],[-85.5498,10.3583,16.0922],[-85.5508,10.3612,15.6749],[-85.5567,10.3581,20.3418],[-85.559,10.3617,16.3662],[-85.5582,10.3646,17.1943],[-85.5608,10.3583,18.5115],[-85.5686,10.3535,20.8022],[-85.5692,10.3512,19.2016],[-85.5717,10.3527,18.7369],[-85.5728,10.3506,19.5809],[-85.5817,10.3494,16.5387],[-85.5891,10.3407,19.2578],[-85.5913,10.3404,14.0668],[-85.593,10.336,15.294],[-85.604,10.3359,14.4419],[-85.603,10.3379,29.7976],[-85.6064,10.3381,17.7588],[-85.6084,10.3358,15.3546],[-85.6185,10.3347,14.976],[-85.6213,10.3308,15.3896],[-85.6243,10.3285,19.5822],[-85.6267,10.3287,18.8886],[-85.6276,10.3257,19.5984],[-85.6299,10.3253,19.3982],[-85.6367,10.3294,15.5204],[-85.6426,10.329,15.7379]]]]}}