{"type": "Feature","bbox": [-84.7429,10.6294,-84.5189,10.7922],"geometry": {"type": "MultiPolygon","coordinates": [[[[-84.7429,10.775,43.5357],[-84.742,10.7717,40.6113],[-84.7384,10.7679,42.5863],[-84.7387,10.7645,45.3307],[-84.7352,10.7604,47.4576],[-84.7311,10.7599,47.9825],[-84.7311,10.7577,43.0161],[-84.7236,10.7577,48.4568],[-84.7188,10.7537,59.2072],[-84.7115,10.7528,50.0829],[-84.7065,10.7478,47.8096],[-84.7033,10.7421,47.9548],[-84.7059,10.7394,45.6568],[-84.7054,10.7303,50.2611],[-84.7001,10.728,49.5316],[-84.6967,10.7197,50.8349],[-84.6866,10.7171,68.1023],[-84.6843,10.7086,62.7005],[-84.6797,10.6999,83.9968],[-84.6825,10.6963,90.2975],[-84.6791,10.6886,98.6153],[-84.6776,10.687,98.8005],[-84.6727,10.6871,66.912],[-84.6685,10.6795,70.7745],[-84.6624,10.6749,93.5323],[-84.6626,10.6729,72.7916],[-84.6596,10.6719,73.2543],[-84.658,10.6676,74.4624],[-84.6539,10.6643,73.1033],[-84.6515,10.6643,83.9321],[-84.6511,10.6621,76.9072],[-84.6426,10.6623,106.5512],[-84.6329,10.6518,126.432],[-84.629,10.65,132.4032],[-84.6223,10.639,137.5963],[-84.6204,10.6294,137.0459],[-84.6158,10.6322,138.214],[-84.6145,10.6475,128.8978],[-84.5846,10.6476,121.717],[-84.5854,10.6507,123.5711],[-84.5776,10.6546,116.2299],[-84.5764,10.6594,106.2528],[-84.5731,10.6584,107.9335],[-84.5704,10.6598,102.056],[-84.5708,10.6621,101.7176],[-84.5686,10.6652,103.3693],[-84.5708,10.6723,104.8892],[-84.5665,10.6743,91.783],[-84.564,10.6807,92.8357],[-84.5606,10.6839,98.6927],[-84.5568,10.6835,75.9088],[-84.5559,10.6814,79.7366],[-84.552,10.6845,75.7526],[-84.5505,10.6825,82.1755],[-84.5431,10.6835,74.5899],[-84.5378,10.6865,72.4206],[-84.538,10.6886,73.9827],[-84.5347,10.6913,82.5287],[-84.5353,10.6876,89.7539],[-84.5288,10.6889,94.6703],[-84.5307,10.6853,95.5057],[-84.5292,10.6843,95.5057],[-84.5254,10.6855,75.461],[-84.5232,10.6913,84.8068],[-84.5189,10.694,68.7846],[-84.5224,10.701,59.4858],[-84.5205,10.7066,76.8689],[-84.5221,10.7115,59.5581],[-84.5196,10.7166,59.9466],[-84.5224,10.7193,56.5472],[-84.521,10.7215,58.3334],[-84.5232,10.7221,67.2104],[-84.5217,10.7239,56.3515],[-84.5244,10.7257,55.2158],[-84.523,10.7286,51.9823],[-84.5245,10.7293,53.4822],[-84.5239,10.731,52.6921],[-84.5262,10.7319,51.0154],[-84.5234,10.7339,50.0484],[-84.5255,10.7375,51.481],[-84.5238,10.7401,52.0686],[-84.527,10.7384,61.3998],[-84.5194,10.7489,49.156],[-84.5221,10.7468,49.5305],[-84.5266,10.7473,50.9509],[-84.5269,10.7498,47.0575],[-84.529,10.7507,45.6659],[-84.5263,10.7513,49.3889],[-84.5307,10.7598,45.2444],[-84.5284,10.7651,46.208],[-84.5317,10.7636,64.8839],[-84.5337,10.7654,47.0212],[-84.5339,10.7682,50.3725],[-84.5364,10.7677,57.2623],[-84.5378,10.7695,66.1012],[-84.539,10.7663,51.794],[-84.5407,10.769,54.9853],[-84.5434,10.7697,44.7449],[-84.5417,10.7717,44.5831],[-84.5455,10.771,43.2957],[-84.5439,10.7741,48.4867],[-84.5474,10.7785,43.5067],[-84.5442,10.783,44.8023],[-84.5474,10.7831,45.3279],[-84.5465,10.7888,42.7504],[-84.5492,10.7882,43.7545],[-84.5499,10.7895,41.5703],[-84.547,10.7908,46.5904],[-84.548,10.7922,44.1492],[-84.5596,10.7922,68.4235],[-84.5595,10.7901,64.1007],[-84.5623,10.7887,74.3757],[-84.5725,10.7886,75.3283],[-84.573,10.7794,76.6622],[-84.5764,10.7759,84.8711],[-84.5792,10.7767,85.6337],[-84.5846,10.775,93.5669],[-84.5876,10.7801,95.3649],[-84.591,10.7793,96.3952],[-84.5949,10.7746,96.8312],[-84.5982,10.7655,86.5874],[-84.5951,10.7569,86.3599],[-84.5969,10.7545,82.9083],[-84.6069,10.7546,79.9514],[-84.6114,10.7515,91.7397],[-84.6138,10.7532,73.92],[-84.619,10.7529,73.8264],[-84.6213,10.757,74.7788],[-84.6284,10.7564,65.8602],[-84.6295,10.7581,65.9424],[-84.6355,10.7514,68.0],[-84.6404,10.7503,72.5692],[-84.6382,10.7409,98.6966],[-84.6529,10.7407,91.0757],[-84.659,10.7606,58.3417],[-84.6575,10.7647,57.7777],[-84.6658,10.7736,58.3731],[-84.6736,10.7786,67.4215],[-84.6817,10.7809,50.353],[-84.6951,10.779,52.3529],[-84.6934,10.777,46.9369],[-84.696,10.7735,51.3184],[-84.6942,10.7681,50.0966],[-84.7008,10.7638,62.9606],[-84.7097,10.7613,61.3954],[-84.7148,10.7575,49.397],[-84.7193,10.7581,59.6572],[-84.7258,10.7623,54.351],[-84.7323,10.7724,45.6722],[-84.7395,10.7733,43.786],[-84.7415,10.7759,43.8067],[-84.7429,10.775,43.5357]]]]}
,"properties": {"GID_3": "CRI.1.6.4_1","GID_0": "CRI","country": "CostaRica","GID_1": "CRI.1_1","province": "Alajuela","NL_NAME_1": "NA","GID_2": "CRI.1.6_1","county": "LosChiles","NL_NAME_2": "NA","city": "SanJorge","VARNAME_3": "NA","NL_NAME_3": "NA","TYPE_3": "Distrito","ENGTYPE_3": "District","CC_3": "4","HASC_3": "NA","name": "San_Jorge.city","area_km2": 214.1349,"hist_schema_id": "Elevation0-9000","hist_area_km2": {"50": 29.7871,"75": 62.8686,"100": 88.8298,"125": 29.8156,"150": 2.8338}}}