{"type":"Feature","properties":{"GID_3":"CRI.6.11.14_1","GID_0":"CRI","country":"CostaRica","GID_1":"CRI.6_1","province":"Puntarenas","NL_NAME_1":"NA","GID_2":"CRI.6.11_1","county":"Puntarenas","NL_NAME_2":"NA","city":"Paquera","VARNAME_3":"NA","NL_NAME_3":"NA","TYPE_3":"Distrito","ENGTYPE_3":"District","CC_3":"5","HASC_3":"NA","name":"Paquera.city"},
"geometry":{"type": "MultiPolygon","coordinates": [[[[-84.8988,9.767,0.0],[-84.8986,9.7668,0.0],[-84.8984,9.7669,0.0],[-84.8986,9.7671,0.0],[-84.8988,9.767,0.0]]],
[[[-84.8996,9.7823,84.1991],[-84.9002,9.7849,7.2215],[-84.904,9.7836,0.0],[-84.9032,9.7794,30.4299],[-84.9054,9.7774,8.9344],[-84.9029,9.7735,0.0],[-84.8975,9.7764,8.0316],[-84.8977,9.7814,10.716],[-84.8996,9.7823,84.1991]]],
[[[-84.9106,9.8422,0.0],[-84.9108,9.842,0.0],[-84.9107,9.8419,0.0],[-84.9105,9.8418,0.0],[-84.9106,9.8422,0.0]]],
[[[-84.9178,9.8471,2.379],[-84.9175,9.8466,0.0],[-84.9158,9.8476,0.0],[-84.9163,9.8477,2.379],[-84.9178,9.8471,2.379]]],
[[[-84.9181,9.785,19.058],[-84.9183,9.7848,19.058],[-84.9183,9.7846,19.058],[-84.9179,9.7849,0.0],[-84.9181,9.785,19.058]]],
[[[-85.0193,9.7222,4.6804],[-85.0169,9.7236,0.952],[-85.0139,9.7342,0.0],[-85.0087,9.7407,4.8671],[-85.0008,9.7464,0.0],[-84.995,9.7483,0.0],[-84.9912,9.7471,0.0],[-84.992,9.7457,0.0],[-84.9871,9.7447,30.6385],[-84.9855,9.7428,36.3247],[-84.9866,9.7406,0.0],[-84.9784,9.7399,13.5359],[-84.9761,9.736,9.3838],[-84.9764,9.7335,5.9995],[-84.9734,9.7307,21.6938],[-84.9693,9.7312,54.7234],[-84.9639,9.7283,0.0],[-84.9611,9.7294,79.1915],[-84.9583,9.7264,0.0],[-84.9535,9.7286,0.0],[-84.9539,9.731,68.5884],[-84.9503,9.7329,0.0],[-84.953,9.7355,30.4902],[-84.9513,9.7381,11.0788],[-84.952,9.7418,12.8425],[-84.956,9.7474,40.9874],[-84.9531,9.7528,81.0656],[-84.9543,9.7565,23.0264],[-84.951,9.7593,32.6191],[-84.9476,9.7584,0.0],[-84.9472,9.7601,36.6917],[-84.9429,9.7613,17.3982],[-84.936,9.757,0.0],[-84.9339,9.7571,0.0],[-84.9324,9.7622,101.2813],[-84.929,9.7636,8.6308],[-84.9308,9.7734,40.3019],[-84.9189,9.7848,19.058],[-84.9248,9.7835,41.6444],[-84.924,9.792,0.0],[-84.9188,9.7949,47.1473],[-84.9078,9.7958,45.8415],[-84.901,9.7983,4.9154],[-84.9038,9.8022,34.5236],[-84.9006,9.811,2.7554],[-84.8971,9.8146,1.234],[-84.8803,9.8127,9.592],[-84.8775,9.8163,11.9127],[-84.8796,9.8164,23.4512],[-84.8802,9.8186,3.8832],[-84.8769,9.8224,89.8751],[-84.8749,9.8239,124.8275],[-84.8717,9.8227,28.506],[-84.8683,9.8236,0.0],[-84.8639,9.8285,0.0],[-84.8647,9.8303,3.9701],[-84.8684,9.8284,40.0223],[-84.8713,9.831,0.0],[-84.8956,9.8342,0.0],[-84.8992,9.8309,22.9421],[-84.9111,9.8271,0.0],[-84.9145,9.8244,3.4043],[-84.9177,9.8273,0.0],[-84.9206,9.8249,8.2206],[-84.9212,9.8256,8.8774],[-84.9195,9.8273,0.0],[-84.922,9.8276,4.4463],[-84.9227,9.8293,1.1345],[-84.9245,9.8287,5.9265],[-84.9246,9.8306,1.8684],[-84.9322,9.8357,6.1064],[-84.9344,9.8352,13.514099999999999],[-84.9293,9.8395,3.3142],[-84.9297,9.8408,7.3629],[-84.9235,9.8431,1.4679],[-84.9228,9.8457,4.0718],[-84.9242,9.8468,7.0767],[-84.9229,9.8509,11.3929],[-84.9191,9.8531,23.683],[-84.9166,9.8521,5.8585],[-84.9121,9.8554,1.9041],[-84.9103,9.8532,0.0],[-84.9061,9.8528,6.9302],[-84.9091,9.8549,3.5952],[-84.9096,9.8586,0.0],[-84.9146,9.8589,4.2885],[-84.9161,9.8613,9.0098],[-84.9204,9.861,15.9793],[-84.9214,9.8645,0.0],[-84.9196,9.8661,5.0845],[-84.9202,9.8688,0.0],[-84.9228,9.8718,2.6822],[-84.9332,9.8751,23.9687],[-84.9342,9.878,0.0],[-84.936,9.8778,10.0796],[-84.9379,9.8812,3.3938],[-84.9353,9.8892,0.0],[-84.9334,9.8903,0.0],[-84.9328,9.8976,16.65],[-84.9325,9.8975,16.65],[-84.9317,9.8961,0.0],[-84.9276,9.9013,14.3057],[-84.9224,9.9012,13.9108],[-84.9142,9.904,21.1092],[-84.9208,9.9158,8.069],[-84.9194,9.9211,9.6504],[-84.9213,9.9254,7.9101],[-84.9307,9.9252,10.2829],[-84.9346,9.9268,11.2254],[-84.936,9.9286,0.0],[-84.9335,9.9321,0.0],[-84.9353,9.9313,3.4729],[-84.9378,9.9334,7.0777],[-84.9506,9.9358,0.0],[-84.9568,9.9386,9.0332],[-84.959,9.9417,0.0],[-84.9644,9.9376,1.0223],[-84.9714,9.9413,8.4019],[-84.9747,9.9382,13.211],[-84.9789,9.9385,13.7734],[-84.9806,9.9362,3.6119],[-84.9861,9.9382,7.7291],[-84.986,9.9357,7.5289],[-84.9874,9.9361,7.5289],[-84.9882,9.9331,11.2242],[-84.9957,9.9287,12.4192],[-84.9971,9.9269,14.697],[-84.9953,9.9244,28.6592],[-84.9996,9.9195,25.7861],[-85.0003,9.9168,46.7557],[-84.9985,9.9158,32.7528],[-85.0004,9.9107,58.8922],[-85.0073,9.905,58.0036],[-85.0071,9.9031,70.6438],[-85.0094,9.9057,71.8963],[-85.0166,9.9033,83.2855],[-85.0165,9.9016,91.0264],[-85.0186,9.902,91.3796],[-85.0208,9.8943,112.997],[-85.0259,9.8921,176.6471],[-85.025,9.8847,154.6007],[-85.0282,9.8818,187.4806],[-85.03,9.8836,170.3119],[-85.0315,9.8829,204.322],[-85.031,9.8806,203.1204],[-85.0381,9.8776,224.6298],[-85.0417,9.8733,293.655],[-85.0453,9.8621,502.7079],[-85.0345,9.8572,595.6998],[-85.0299,9.8576,657.9291],[-85.03,9.8531,577.9086],[-85.0317,9.8537,594.8965],[-85.0358,9.8475,643.4944],[-85.0358,9.8447,702.2634],[-85.0332,9.8445,698.3989],[-85.0382,9.8417,576.6917],[-85.0471,9.8412,374.4481],[-85.0531,9.8441,346.7734],[-85.061,9.8397,241.64],[-85.0597,9.8332,211.4345],[-85.0628,9.8279,174.7112],[-85.0703,9.827,150.1116],[-85.0734,9.824,141.8115],[-85.0751,9.8263,151.4711],[-85.0773,9.8243,137.0638],[-85.0789,9.8268,132.0149],[-85.0807,9.8258,137.8714],[-85.0804,9.8239,140.8965],[-85.0838,9.8251,128.4231],[-85.0835,9.8222,155.4625],[-85.0853,9.8218,133.871],[-85.0837,9.8206,165.6753],[-85.084,9.8185,168.883],[-85.0858,9.8191,126.4744],[-85.0849,9.8172,122.6928],[-85.0866,9.817,120.2197],[-85.0863,9.8135,122.6459],[-85.0895,9.814,121.1804],[-85.0894,9.8096,123.2427],[-85.0929,9.8096,170.1645],[-85.0922,9.8056,119.6042],[-85.096,9.8035,114.5724],[-85.0947,9.8005,110.1397],[-85.0968,9.7981,110.0493],[-85.0946,9.7975,110.926],[-85.0952,9.7955,112.3115],[-85.0978,9.7961,119.1481],[-85.0967,9.794,108.9917],[-85.1005,9.7903,107.2316],[-85.1021,9.7833,108.5999],[-85.1039,9.7803,103.0057],[-85.1072,9.7793,101.2356],[-85.1036,9.7763,98.5235],[-85.105,9.7736,95.2953],[-85.1031,9.7714,114.4985],[-85.1056,9.7672,94.4232],[-85.1086,9.7655,91.6933],[-85.106,9.7628,92.5009],[-85.1089,9.7601,89.9021],[-85.1077,9.757,93.7753],[-85.1046,9.7554,87.9579],[-85.1044,9.7535,93.8469],[-85.1032,9.7546,87.9579],[-85.1013,9.7533,97.2565],[-85.0979,9.7556,108.3601],[-85.0954,9.7502,99.5661],[-85.0914,9.7489,102.803],[-85.0898,9.7528,112.5507],[-85.0896,9.7505,103.1321],[-85.0879,9.7516,105.3085],[-85.0864,9.7487,120.2703],[-85.0847,9.7508,111.8248],[-85.086,9.7519,111.8248],[-85.085,9.7539,121.4306],[-85.0832,9.7535,131.3023],[-85.0833,9.7561,118.2404],[-85.0803,9.758,130.5732],[-85.0792,9.7569,133.6307],[-85.0798,9.7591,144.5701],[-85.0779,9.7587,137.4575],[-85.0763,9.7613,178.2999],[-85.078,9.7624,157.1321],[-85.077,9.7648,183.3969],[-85.0709,9.7673,211.4904],[-85.07,9.7743,205.1725],[-85.0678,9.7732,191.2366],[-85.0656,9.7752,208.1604],[-85.0618,9.7757,229.9984],[-85.0613,9.774,258.0958],[-85.0509,9.7683,386.8359],[-85.0506,9.7643,428.6637],[-85.0564,9.7585,571.114],[-85.0538,9.7484,343.1576],[-85.0601,9.7356,129.5002],[-85.071,9.7359,108.2652],[-85.0744,9.734,106.5638],[-85.0798,9.7343,97.8189],[-85.0834,9.7298,95.9684],[-85.0843,9.7219,123.7666],[-85.0863,9.7207,88.0716],[-85.083,9.7109,62.3735],[-85.0745,9.7142,51.252],[-85.0704,9.7107,47.1101],[-85.0682,9.7105,33.3034],[-85.0671,9.712,35.3909],[-85.0627,9.7105,30.8708],[-85.0622,9.7137,26.9085],[-85.0588,9.7124,22.1848],[-85.0567,9.7155,47.2404],[-85.0538,9.7123,27.1284],[-85.0422,9.7133,23.3333],[-85.0391,9.7167,25.8025],[-85.0394,9.719,14.0611],[-85.0331,9.7203,25.5435],[-85.0311,9.7266,16.0926],[-85.0273,9.7221,12.5824],[-85.0223,9.7241,7.1736],[-85.0193,9.7222,4.6804]]],
[[[-84.918,9.8502,0.0],[-84.918,9.8505,0.0],[-84.9182,9.8505,0.0],[-84.9182,9.8502,0.0],[-84.918,9.8502,0.0]]],
[[[-84.9207,9.8817,0.0],[-84.918,9.8814,0.0],[-84.9171,9.8818,0.0],[-84.9208,9.8833,5.8112],[-84.9207,9.8817,0.0]]],
[[[-84.9133,9.8537,0.0],[-84.9135,9.8535,0.0],[-84.9135,9.8533,0.0],[-84.9132,9.8534,0.0],[-84.9133,9.8537,0.0]]],
[[[-84.918,9.8667,5.0845],[-84.9181,9.8666,5.0845],[-84.9182,9.8664,5.0845],[-84.9179,9.8664,0.0],[-84.918,9.8667,5.0845]]],
[[[-84.9128,9.8686,0.0],[-84.9132,9.868,0.0],[-84.9116,9.8691,0.0],[-84.9124,9.8689,0.0],[-84.9128,9.8686,0.0]]],
[[[-84.9111,9.8687,0.0],[-84.9092,9.8692,0.0],[-84.909,9.8701,0.0],[-84.9098,9.8701,0.0],[-84.9111,9.8687,0.0]]],
[[[-84.9211,9.8841,0.0],[-84.9201,9.8841,0.0],[-84.918,9.8853,0.0],[-84.9206,9.8847,0.0],[-84.9211,9.8841,0.0]]],
[[[-84.9238,9.8896,10.2441],[-84.928,9.8912,6.2741],[-84.928,9.8877,4.6928],[-84.9231,9.883,0.0],[-84.9216,9.8888,0.0],[-84.9238,9.8896,10.2441]]],
[[[-84.9232,9.9276,0.0],[-84.9229,9.9272,0.0],[-84.9224,9.9273,0.0],[-84.9226,9.9278,0.0],[-84.9232,9.9276,0.0]]],
[[[-84.9243,9.9277,0.0],[-84.9245,9.9275,0.0],[-84.9241,9.9274,0.0],[-84.9241,9.9277,0.0],[-84.9243,9.9277,0.0]]],
[[[-84.8938,9.7733,13.3403],[-84.8963,9.7738,0.0],[-84.9016,9.7717,0.0],[-84.8951,9.7635,0.0],[-84.8907,9.7641,0.0],[-84.8904,9.7668,0.0],[-84.8886,9.767,0.0],[-84.8864,9.7706,36.4984],[-84.8838,9.7701,0.7035],[-84.8868,9.7731,5.4507],[-84.8882,9.772,43.4881],[-84.8938,9.7733,13.3403]]],
[[[-84.8824,9.7703,0.0732],[-84.8823,9.7696,0.0732],[-84.8818,9.7694,0.0732],[-84.8818,9.7707,0.0],[-84.8824,9.7703,0.0732]]],
[[[-84.8809,9.7708,0.0],[-84.8811,9.7706,0.0],[-84.8809,9.7704,0.0732],[-84.8808,9.7706,0.0],[-84.8809,9.7708,0.0]]],
[[[-84.8905,9.7818,0.1788],[-84.8903,9.7814,0.1788],[-84.8896,9.782,0.1788],[-84.8898,9.7821,0.0],[-84.8905,9.7818,0.1788]]],
[[[-84.849,9.8229,17.7917],[-84.8514,9.8244,0.0],[-84.8526,9.8232,20.8386],[-84.8592,9.8235,27.2803],[-84.8651,9.8193,0.0],[-84.8627,9.8164,0.0],[-84.86,9.816,0.0],[-84.8606,9.8176,51.828],[-84.8489,9.8212,24.0869],[-84.8476,9.8222,0.0],[-84.849,9.8229,17.7917]]],
[[[-84.8368,9.8251,30.4236],[-84.8421,9.8261,0.0],[-84.8423,9.8234,0.0],[-84.8378,9.8214,13.6699],[-84.8327,9.8231,20.8018],[-84.8277,9.8207,29.3964],[-84.8236,9.8228,4.0551],[-84.8336,9.8253,28.4633],[-84.8368,9.8251,30.4236]]],
[[[-84.8893,9.8404,0.0],[-84.8874,9.8432,13.4718],[-84.8895,9.8456,0.0],[-84.8964,9.8404,0.0],[-84.895,9.8394,2.9296],[-84.8905,9.8414,9.0365],[-84.8893,9.8404,0.0]]],
[[[-84.8677,9.8499,15.351],[-84.8681,9.8518,17.7338],[-84.8704,9.8525,0.0],[-84.8721,9.8513,17.4809],[-84.8768,9.8524,0.0],[-84.8788,9.85,9.2317],[-84.8811,9.8512,0.0],[-84.8828,9.8498,8.4878],[-84.883,9.8451,0.0],[-84.8805,9.8412,13.3953],[-84.8901,9.839,0.0],[-84.89,9.8372,10.2838],[-84.8842,9.8369,0.0],[-84.8778,9.8397,13.5434],[-84.8735,9.8397,0.0],[-84.8714,9.8412,0.0],[-84.8753,9.8429,2.0406],[-84.8731,9.8434,0.0],[-84.8764,9.845,2.3304],[-84.8649,9.8505,0.0],[-84.8677,9.8499,15.351]]],
[[[-84.8638,9.8483,6.7226],[-84.8625,9.8477,6.7226],[-84.8613,9.8478,4.0902],[-84.8643,9.8496,8.0187],[-84.8638,9.8483,6.7226]]],
[[[-84.8788,9.9106,7.4222],[-84.8768,9.9115,7.4222],[-84.8791,9.9128,6.4889],[-84.8816,9.9107,0.0],[-84.88,9.9111,8.9882],[-84.8788,9.9106,7.4222]]],
[[[-84.9083,9.8713,0.0],[-84.9086,9.871,0.0],[-84.9076,9.8717,0.0],[-84.908,9.8718,0.0],[-84.9083,9.8713,0.0]]],
[[[-84.8995,9.9229,9.8519],[-84.8999,9.925,38.2987],[-84.9025,9.9261,0.0],[-84.9025,9.9234,0.0],[-84.8995,9.9229,9.8519]]],
[[[-84.9137,9.9275,0.0],[-84.9138,9.9272,0.0],[-84.913,9.9268,0.0],[-84.9132,9.9273,0.0],[-84.9137,9.9275,0.0]]],
[[[-84.9254,9.9277,0.0],[-84.9251,9.9274,0.0],[-84.9249,9.9274,0.0],[-84.925299999999993,9.9282,0.0],[-84.9254,9.9277,0.0]]],
[[[-84.9237,9.9338,0.0],[-84.9234,9.9334,0.0],[-84.9231,9.9339,0.0],[-84.9233,9.934,0.0],[-84.9237,9.9338,0.0]]],
[[[-84.9251,9.934,0.0],[-84.9247,9.9337,0.0],[-84.9245,9.9339,0.0],[-84.925,9.9343,0.0],[-84.9251,9.934,0.0]]]]}}