{"type": "Feature","bbox": [-83.8192,9.9435,-83.6882,10.0836],"geometry": {"type": "MultiPolygon","coordinates": [[[[-83.7622,9.9511,1549.1982],[-83.7226,9.9509,1088.1866],[-83.7137,9.9435,975.3801],[-83.7193,9.9573,1339.6973],[-83.7144,9.9564,1322.5183],[-83.7114,9.9532,1272.3196],[-83.7027,9.9518,1217.3015],[-83.7013,9.953,1230.3251],[-83.7075,9.9555,1181.3307],[-83.7089,9.9582,1211.7371],[-83.707,9.9561,1181.3307],[-83.7017,9.9552,1166.3452],[-83.6936,9.9609,1029.5204],[-83.6892,9.9603,926.2991],[-83.6882,9.9645,990.4969],[-83.6922,9.9696,1053.4879],[-83.7,9.9716,1183.8491],[-83.7059,9.9781,1262.5607],[-83.7088,9.9841,1475.0437],[-83.7066,9.987,1422.2632],[-83.7071,9.989,1475.6833],[-83.7042,9.9878,1429.924],[-83.7038,9.9909,1434.7074],[-83.6996,9.9919,1402.434],[-83.6996,9.9986,1408.3757],[-83.6962,10.0028,1472.8447],[-83.6909,10.0037,1430.298],[-83.6927,10.0097,1462.3524],[-83.6893,10.0126,1368.8593],[-83.6908,10.0159,1467.5197],[-83.69,10.0207,1406.2451],[-83.7028,10.0233,1661.9968],[-83.7066,10.0295,1803.0848],[-83.7114,10.0297,1870.8359],[-83.7211,10.0357,2212.4814],[-83.7282,10.0363,2327.6931],[-83.7252,10.0398,2414.7217],[-83.8177,10.0836,934.67],[-83.8192,10.0692,1194.564],[-83.8148,10.0665,1123.9673],[-83.8134,10.0594,1170.2286],[-83.8162,10.055,1199.335],[-83.8081,10.0411,1320.5947],[-83.8005,10.0367,1432.731],[-83.8034,10.0291,1478.296],[-83.8131,10.016,1721.4934],[-83.8135,10.0135,1833.5848],[-83.8103,10.0085,1959.1875],[-83.8102,10.0002,2082.2246],[-83.8058,9.994,2244.4912],[-83.7991,9.9894,2579.3872],[-83.7924,9.9882,2697.2261],[-83.7839,9.9815,2415.1567],[-83.7821,9.9778,2336.9229],[-83.7832,9.9744,2307.167],[-83.781,9.9678,2200.0071],[-83.7756,9.9631,1885.7271],[-83.771,9.9556,1677.3818],[-83.7634,9.9535,1566.6765],[-83.7622,9.9511,1549.1982]]]]}
,"properties": {"GID_3": "CRI.2.8.6_1","GID_0": "CRI","country": "CostaRica","GID_1": "CRI.2_1","province": "Cartago","NL_NAME_1": "NA","GID_2": "CRI.2.8_1","county": "Turrialba","NL_NAME_2": "NA","city": "SantaCruz","VARNAME_3": "NA","NL_NAME_3": "NA","TYPE_3": "Distrito","ENGTYPE_3": "District","CC_3": "4","HASC_3": "NA","name": "Santa_Cruz.city","area_km2": 125.1102,"hist_schema_id": "Elevation0-9000","hist_area_km2": {"925": 0.02087,"950": 0.06264,"975": 0.08352,"1000": 0.12528,"1025": 0.14616,"1050": 0.29233,"1075": 0.25057,"1100": 0.4385,"1125": 0.43849,"1150": 0.41762,"1175": 0.81436,"1200": 0.64735,"1225": 0.79349,"1250": 1.27379,"1275": 1.06495,"1300": 1.10671,"1325": 1.27373,"1350": 1.39904,"1375": 1.35723,"1400": 1.67047,"1425": 1.21105,"1450": 1.54513,"1475": 1.73301,"1500": 1.94177,"1525": 1.71213,"1550": 2.10885,"1575": 2.63095,"1600": 2.46391,"1625": 2.25504,"1650": 1.87919,"1675": 2.088,"1700": 1.79565,"1725": 2.06706,"1750": 1.69123,"1775": 1.75387,"1800": 1.69121,"1825": 1.58683,"1850": 1.94177,"1875": 1.46154,"1900": 1.39893,"1925": 1.6077,"1950": 1.85825,"1975": 1.7121,"2000": 1.64947,"2025": 1.83737,"2050": 1.92086,"2075": 2.15051,"2100": 1.69119,"2125": 2.17139,"2150": 2.35933,"2175": 1.75384,"2200": 2.06703,"2225": 1.85825,"2250": 2.08795,"2275": 1.8165,"2300": 1.85826,"2325": 1.81649,"2350": 1.58682,"2375": 1.77475,"2400": 1.48244,"2425": 1.75385,"2450": 1.58682,"2475": 1.6077,"2500": 1.33628,"2525": 1.6077,"2550": 1.39892,"2575": 1.83736,"2600": 2.12968,"2625": 2.56816,"2650": 2.81876,"2675": 2.98577,"2700": 1.69123,"2725": 1.58682,"2750": 1.16923,"2775": 1.02307,"2800": 0.98131,"2825": 0.83515,"2850": 0.77251,"2875": 0.64725,"2900": 0.43845,"2925": 0.64724,"2950": 0.73076,"2975": 0.48021,"3000": 0.43845,"3025": 0.3967,"3050": 0.45933,"3075": 0.3967,"3100": 0.45933,"3125": 0.27142,"3150": 0.58461,"3175": 0.66812,"3200": 0.35494,"3225": 0.2923,"3250": 0.2923,"3275": 0.12527,"3300": 0.04176}}}