{"type": "Feature","bbox": [-87.1018,5.4986,-87.0276,5.563],"geometry": {"type": "MultiPolygon","coordinates": [[[[-87.1018,5.5088,0.0],[-87.1013,5.5088,0.0],[-87.1013,5.5093,0.0],[-87.1018,5.5092,0.0],[-87.1018,5.5088,0.0]]],
[[[-87.1005,5.5129,0.0],[-87.0997,5.5131,0.0],[-87.0997,5.5134,0.0],[-87.1001,5.5135,0.0],[-87.1005,5.5129,0.0]]],
[[[-87.0361,5.5215,0.0],[-87.0356,5.5215,0.0],[-87.0352,5.5214,0.0],[-87.0359,5.5219,0.0],[-87.0361,5.5215,0.0]]],
[[[-87.0282,5.5319,0.0],[-87.0281,5.5319,0.0],[-87.028,5.5319,0.0],[-87.0281,5.532,0.0],[-87.0282,5.5319,0.0]]],
[[[-87.0838,5.5371,61.878],[-87.0838,5.537,188.9843],[-87.0837,5.537,188.9843],[-87.0837,5.5371,61.878],[-87.0838,5.5371,61.878]]],
[[[-87.0296,5.5415,2.4044],[-87.0294,5.5413,2.4044],[-87.0293,5.5416,2.4044],[-87.0295,5.5417,2.4044],[-87.0296,5.5415,2.4044]]],
[[[-87.0623,5.5437,0.0],[-87.0622,5.5437,0.0],[-87.0621,5.5438,0.0],[-87.0623,5.5438,0.0],[-87.0623,5.5437,0.0]]],
[[[-87.0461,5.563,0.0901],[-87.0478,5.5626,0.0941],[-87.0481,5.559,0.8775],[-87.047,5.5596,0.0],[-87.0461,5.563,0.0901]]],
[[[-87.0311,5.5453,0.0],[-87.0311,5.5451,0.0],[-87.0308,5.5452,0.0],[-87.0309,5.5453,0.0],[-87.0311,5.5453,0.0]]],
[[[-87.0819,5.5472,0.0],[-87.0817,5.5472,0.0],[-87.0821,5.5475,0.0],[-87.082,5.5473,0.0],[-87.0819,5.5472,0.0]]],
[[[-87.0329,5.5504,9.9125],[-87.0325,5.5498,9.9125],[-87.0319,5.5507,0.0],[-87.0325,5.5507,0.0],[-87.0329,5.5504,9.9125]]],
[[[-87.0318,5.5476,55.9032],[-87.0317,5.5475,55.9032],[-87.0317,5.5476,55.9032],[-87.0318,5.5476,55.9032]]],
[[[-87.0355,5.5513,6.2571],[-87.0353,5.5512,0.0],[-87.0352,5.5513,0.0],[-87.0354,5.5514,6.2571],[-87.0355,5.5513,6.2571]]],
[[[-87.0536,5.5542,0.0],[-87.0538,5.5549,0.0],[-87.0545,5.5553,0.0483],[-87.0545,5.5543,0.0483],[-87.0536,5.5542,0.0]]],
[[[-87.0642,5.5508,0.0],[-87.0641,5.5507,0.0],[-87.0641,5.5508,0.0],[-87.0642,5.5508,0.0]]],
[[[-87.0685,5.5039,0.0],[-87.0679,5.5043,-0.0226],[-87.0689,5.5051,0.0],[-87.069,5.5041,0.0],[-87.0685,5.5039,0.0]]],
[[[-87.0566,5.5057,0.0],[-87.0563,5.5059,0.0],[-87.0564,5.506,0.0],[-87.0567,5.5059,0.0],[-87.0566,5.5057,0.0]]],
[[[-87.0856,5.5075,0.0],[-87.0854,5.5075,0.0],[-87.0853,5.5077,0.0],[-87.0856,5.5076,0.0],[-87.0856,5.5075,0.0]]],
[[[-87.0544,5.5089,0.0],[-87.0544,5.5093,0.0],[-87.0549,5.509,0.0],[-87.0548,5.5089,0.0],[-87.0544,5.5089,0.0]]],
[[[-87.0895,5.5126,35.3975],[-87.0894,5.5125,35.3975],[-87.0893,5.5126,35.3975],[-87.0894,5.5127,35.3975],[-87.0895,5.5126,35.3975]]],
[[[-87.0919,5.5139,73.2427],[-87.0918,5.5139,73.2427],[-87.0919,5.514,73.2427],[-87.0919,5.5139,73.2427]]],
[[[-87.0932,5.514,0.0],[-87.0931,5.514,0.0],[-87.093,5.5141,0.0],[-87.0931,5.5141,0.0],[-87.0932,5.514,0.0]]],
[[[-87.093,5.5156,0.0],[-87.0929,5.5156,100.7622],[-87.0928,5.5156,100.7622],[-87.093,5.5157,0.0],[-87.093,5.5156,0.0]]],
[[[-87.049,5.5172,0.0],[-87.0489,5.5171,0.0],[-87.0489,5.5172,0.0],[-87.0489,5.5173,0.0],[-87.049,5.5172,0.0]]],
[[[-87.0925,5.513,8.7015],[-87.0924,5.513,8.7015],[-87.0924,5.5131,8.7015],[-87.0925,5.513,8.7015]]],
[[[-87.0551,5.5134,0.0],[-87.0549,5.5132,0.0],[-87.0548,5.5131,0.0],[-87.055,5.5135,0.0],[-87.0551,5.5134,0.0]]],
[[[-87.0938,5.5135,0.0],[-87.0937,5.5135,0.0],[-87.0938,5.5136,0.0],[-87.0938,5.5135,0.0]]],
[[[-87.0479,5.5561,0.6476],[-87.0507,5.5565,-0.0157],[-87.0497,5.5521,105.5295],[-87.0529,5.5501,80.7593],[-87.0577,5.551,0.0],[-87.0599,5.549,15.6647],[-87.062,5.5497,9.2504],[-87.062,5.5483,8.321],[-87.0567,5.5465,11.1207],[-87.0565,5.5425,9.4494],[-87.0586,5.5438,0.0],[-87.0603,5.5417,29.4942],[-87.0654,5.5413,23.9336],[-87.0695,5.5416,37.7467],[-87.0711,5.5433,1.3088],[-87.0746,5.5407,10.9822],[-87.0794,5.5412,6.9491],[-87.0825,5.5396,32.9659],[-87.0845,5.5351,270.2872],[-87.091,5.5315,10.8356],[-87.0889,5.5291,63.4731],[-87.0918,5.5265,15.8502],[-87.0904,5.5259,148.0653],[-87.0908,5.5235,222.0409],[-87.0942,5.5214,0.0],[-87.0945,5.5192,5.2625],[-87.0914,5.518,133.0052],[-87.0918,5.5148,73.2427],[-87.0888,5.5132,80.1924],[-87.0847,5.5085,192.9783],[-87.0848,5.5063,0.0],[-87.0835,5.507,49.0286],[-87.0834,5.5055,49.0286],[-87.0799,5.5042,71.3389],[-87.0794,5.5008,0.0],[-87.0741,5.4986,0.0],[-87.0721,5.5046,20.6121],[-87.0686,5.5079,126.4303],[-87.0669,5.5124,47.4823],[-87.064,5.5104,0.0],[-87.0618,5.511,4.2263],[-87.0567,5.5132,0.0],[-87.0514,5.5187,0.0],[-87.0447,5.5184,0.0],[-87.0434,5.5223,70.196],[-87.0412,5.5225,17.8754],[-87.0399,5.5249,94.4736],[-87.0361,5.5256,78.9386],[-87.034,5.5243,21.6503],[-87.0301,5.5273,0.0],[-87.0305,5.5292,5.7402],[-87.0286,5.5319,0.0],[-87.0276,5.5325,17.3085],[-87.028,5.537,13.4965],[-87.0332,5.5496,9.9125],[-87.0371,5.551,6.2571],[-87.043,5.5477,15.4408],[-87.0461,5.5497,44.7638],[-87.0449,5.5535,0.0],[-87.0479,5.5561,0.6476]]]]}
,"properties": {"GID_3": "CRI.6.11.10_1","GID_0": "CRI","country": "CostaRica","GID_1": "CRI.6_1","province": "Puntarenas","NL_NAME_1": "NA","GID_2": "CRI.6.11_1","county": "Puntarenas","NL_NAME_2": "NA","city": "IsladelCoco","VARNAME_3": "NA","NL_NAME_3": "NA","TYPE_3": "Distrito","ENGTYPE_3": "District","CC_3": "10","HASC_3": "NA","name": "Isladel_Coco.city","area_km2": 23.63601,"hist_schema_id": "Elevation0-9000","hist_area_km2": {"0": 0.612,"25": 0.97076,"50": 0.78083,"75": 0.86524,"100": 0.82303,"125": 1.41393,"150": 1.60386,"175": 1.73048,"200": 1.75159,"225": 2.02593,"250": 2.00484,"275": 2.30031,"300": 1.81493,"325": 1.22402,"350": 1.1185,"375": 0.65421,"400": 0.5909,"425": 0.37987,"450": 0.35876,"475": 0.27435,"500": 0.25324,"525": 0.04221,"550": 0.04221}}}