{"type": "Feature","bbox": [-85.5517,10.6386,-85.3254,10.8275],"geometry": {"type": "MultiPolygon","coordinates": [[[[-85.3514,10.8275,1867.3341],[-85.3547,10.8192,1453.894],[-85.3528,10.8145,1357.293],[-85.352,10.7947,1080.7405],[-85.3506,10.7899,1006.4803],[-85.3514,10.7829,898.4227],[-85.3501,10.7785,842.7383],[-85.3507,10.7746,796.0285],[-85.3549,10.7673,727.3091],[-85.3624,10.7649,659.8249],[-85.366,10.7604,618.4146],[-85.3812,10.7566,547.6147],[-85.3838,10.7513,499.6177],[-85.3867,10.7516,491.1588],[-85.3883,10.7501,482.6012],[-85.3952,10.739,451.1728],[-85.4084,10.7323,352.9318],[-85.4129,10.7257,328.1249],[-85.422,10.7267,312.0112],[-85.4307,10.7253,285.5964],[-85.4335,10.7234,276.953],[-85.4347,10.7243,277.9864],[-85.4356,10.7227,267.4127],[-85.438,10.7241,269.2947],[-85.4479,10.714,201.4633],[-85.45,10.715,193.4267],[-85.4491,10.7129,194.792],[-85.4517,10.713,187.0363],[-85.4564,10.7038,162.6395],[-85.4563,10.701,151.7886],[-85.4588,10.6984,146.178],[-85.4576,10.6941,144.2583],[-85.4607,10.6892,138.4583],[-85.4673,10.6866,124.1212],[-85.4773,10.6765,108.1193],[-85.4814,10.6748,107.9462],[-85.4812,10.6694,104.7271],[-85.487,10.664,102.7247],[-85.4913,10.6656,95.7456],[-85.4961,10.6647,93.3959],[-85.5039,10.6698,80.3489],[-85.5121,10.6693,72.0125],[-85.5149,10.6711,67.6106],[-85.5168,10.6692,69.0613],[-85.5205,10.6696,67.411],[-85.5207,10.667,65.7277],[-85.5305,10.6603,59.2469],[-85.5307,10.6572,57.9125],[-85.5419,10.6557,53.5697],[-85.5477,10.6506,50.9353],[-85.5509,10.6506,49.7901],[-85.5501,10.6482,49.9151],[-85.5517,10.6462,49.1892],[-85.549,10.6447,51.8552],[-85.5493,10.6411,52.8826],[-85.5432,10.6442,53.8034],[-85.5363,10.6438,56.8925],[-85.534,10.6451,55.576],[-85.5311,10.6427,54.7292],[-85.5274,10.6426,56.9643],[-85.5252,10.6402,62.6479],[-85.5217,10.6413,66.1621],[-85.5216,10.6396,69.0604],[-85.5181,10.6386,66.7563],[-85.5147,10.6411,71.8105],[-85.5119,10.6405,71.1716],[-85.5113,10.6389,69.7785],[-85.5045,10.6432,76.4272],[-85.4916,10.6413,100.5459],[-85.4904,10.6422,105.3449],[-85.4909,10.6448,113.8677],[-85.4858,10.6443,111.8484],[-85.4853,10.6463,115.7873],[-85.4822,10.641,118.371],[-85.4798,10.6472,122.3901],[-85.4776,10.6463,122.3781],[-85.4763,10.6484,121.385],[-85.4748,10.6478,124.9701],[-85.472,10.6497,121.1197],[-85.4666,10.6474,129.7954],[-85.4587,10.6563,136.0551],[-85.4485,10.6619,154.4144],[-85.4478,10.664,152.0997],[-85.4439,10.6651,179.5555],[-85.4416,10.6678,156.8809],[-85.4392,10.6678,155.3696],[-85.4383,10.6722,174.5483],[-85.4308,10.6778,176.8496],[-85.4207,10.6903,220.0138],[-85.4015,10.6954,266.6793],[-85.3951,10.7034,299.7935],[-85.3877,10.7059,317.9918],[-85.3772,10.7135,371.4776],[-85.3772,10.7373,493.6262],[-85.3756,10.7376,467.4886],[-85.3755,10.7394,500.9552],[-85.3743,10.7388,512.0156],[-85.3736,10.7423,518.2322],[-85.3708,10.7443,525.1155],[-85.3718,10.7484,540.6548],[-85.3616,10.751,596.3074],[-85.3538,10.7551,636.8954],[-85.3478,10.7637,705.6052],[-85.3482,10.768,741.0411],[-85.3464,10.7726,774.5765],[-85.3476,10.7855,972.9078],[-85.3455,10.7945,1113.5793],[-85.3411,10.8028,1201.0706],[-85.341,10.81,1309.8754],[-85.3345,10.8113,1416.9871],[-85.3286,10.8101,1641.0028],[-85.3254,10.8121,1742.1074],[-85.3286,10.8162,1739.7095],[-85.3368,10.8184,1741.9644],[-85.3514,10.8275,1867.3341]]]]}
,"properties": {"GID_3": "CRI.3.7.2_1","GID_0": "CRI","country": "CostaRica","GID_1": "CRI.3_1","province": "Guanacaste","NL_NAME_1": "NA","GID_2": "CRI.3.7_1","county": "Liberia","NL_NAME_2": "NA","city": "Curubandé","VARNAME_3": "NA","NL_NAME_3": "NA","TYPE_3": "Distrito","ENGTYPE_3": "District","CC_3": "5","HASC_3": "NA","name": "Curubandé.city","area_km2": 81.37549,"hist_schema_id": "Elevation0-9000","hist_area_km2": {"50": 5.27175,"75": 8.04294,"100": 3.85473,"125": 7.66773,"150": 5.22964,"175": 3.87522,"200": 4.39601,"225": 4.22927,"250": 5.2292,"275": 4.37493,"300": 3.3124,"325": 2.70822,"350": 2.72903,"375": 2.29152,"400": 1.97901,"425": 1.27071,"450": 0.58327,"475": 1.22901,"500": 1.35399,"525": 0.8957,"550": 0.91652,"575": 0.52075,"600": 0.62489,"625": 0.66655,"650": 0.49991,"675": 0.52073,"700": 0.33327,"725": 0.20829,"750": 0.18746,"775": 0.16663,"800": 0.10414,"825": 0.12497,"850": 0.08331,"875": 0.04166,"900": 0.08331,"925": 0.06248,"950": 0.02083,"975": 0.04166,"1000": 0.12496,"1025": 0.10414,"1050": 0.08331,"1075": 0.08331,"1100": 0.10414,"1125": 0.10413,"1150": 0.18744,"1175": 0.18744,"1200": 0.20827,"1225": 0.20826,"1250": 0.18744,"1275": 0.18744,"1300": 0.22909,"1325": 0.31239,"1350": 0.16661,"1375": 0.20826,"1400": 0.20826,"1425": 0.22908,"1450": 0.18743,"1475": 0.37486,"1500": 0.18743,"1525": 0.22908,"1550": 0.22908,"1575": 0.1666,"1600": 0.29156,"1625": 0.18743,"1650": 0.10413,"1675": 0.20825,"1700": 0.0833,"1725": 0.10413,"1750": 0.0833,"1775": 0.06248,"1800": 0.02082}}}