{"type":"Feature","properties":{"GID_3":"CRI.7.19.5_1","GID_0":"CRI","country":"CostaRica","GID_1":"CRI.7_1","province":"SanJosé","NL_NAME_1":"NA","GID_2":"CRI.7.19_1","county":"Turrubares","NL_NAME_2":"NA","city":"SanPedro","VARNAME_3":"NA","NL_NAME_3":"NA","TYPE_3":"Distrito","ENGTYPE_3":"District","CC_3":"2","HASC_3":"NA","name":"San_Pedro.city"},
"geometry":{"type": "MultiPolygon","coordinates": [[[[-84.4171,9.8958,918.5039],[-84.4266,9.8983,735.0549],[-84.4375,9.8932,509.407],[-84.4411,9.8942,487.5267],[-84.4453,9.9004,406.9576],[-84.448,9.9017,431.9959],[-84.4521,9.8997,455.0533],[-84.4637,9.9001,543.7668],[-84.4702,9.8964,564.7614],[-84.4721,9.8992,503.9301],[-84.4738,9.8991,493.8666],[-84.4754,9.896,481.4153],[-84.4792,9.8979,482.5032],[-84.4812,9.8944,450.0216],[-84.4886,9.8923,364.2107],[-84.4904,9.8882,270.6893],[-84.499,9.8897,94.465],[-84.5048,9.8849,96.7822],[-84.5,9.873,98.0305],[-84.4967,9.8727,92.9045],[-84.4859,9.8783,109.6326],[-84.482,9.8736,143.9778],[-84.4799,9.8735,124.0223],[-84.4808,9.8713,140.4671],[-84.4794,9.8698,164.2856],[-84.4716,9.8713,144.9563],[-84.4724,9.8679,146.1417],[-84.4705,9.8651,161.8098],[-84.4677,9.8645,176.5284],[-84.4683,9.8619,161.3258],[-84.4565,9.8625,202.3865],[-84.4588,9.8595,204.7635],[-84.4563,9.8597,205.4659],[-84.4517,9.8546,214.1295],[-84.4473,9.8546,231.6626],[-84.4485,9.8531,229.9785],[-84.4479,9.8482,255.846],[-84.4451,9.8472,247.3428],[-84.4421,9.8483,265.1709],[-84.4405,9.845,260.8905],[-84.4344,9.84,299.8298],[-84.4222,9.8377,304.4089],[-84.4211,9.8388,333.7663],[-84.4231,9.8397,316.492],[-84.4205,9.8412,323.8846],[-84.417,9.8522,411.3105],[-84.4176,9.8561,407.7246],[-84.414,9.8613,444.8668],[-84.4137,9.8685,541.9857],[-84.4158,9.8722,658.7847],[-84.4144,9.8815,830.9338],[-84.417,9.8841,834.6434],[-84.4171,9.8958,918.5039]]]]}}