{"type": "Feature","bbox": [-84.2883,9.8428,-84.2383,9.8788],"geometry": {"type": "MultiPolygon","coordinates": [[[[-84.2684,9.8778,725.86],[-84.2662,9.8745,768.0181],[-84.2685,9.8709,835.6022],[-84.2682,9.8685,938.4255],[-84.2725,9.8695,891.8926],[-84.2824,9.8626,1010.4402],[-84.2872,9.8648,1011.4277],[-84.2883,9.8638,1009.0905],[-84.2866,9.858,974.2021],[-84.2811,9.8529,865.4708],[-84.276,9.852,800.3643],[-84.2703,9.8428,699.1746],[-84.2697,9.8442,745.3218],[-84.2587,9.8442,753.3004],[-84.2592,9.85,854.4303],[-84.2542,9.8523,808.5657],[-84.2543,9.8576,868.6114],[-84.2455,9.8639,1011.2196],[-84.2446,9.8664,1075.2147],[-84.2459,9.8681,1088.788],[-84.2383,9.8701,1205.9738],[-84.2405,9.8702,1230.744],[-84.2412,9.873,1167.1311],[-84.2453,9.875,980.6993],[-84.2547,9.8765,857.7561],[-84.2583,9.8755,820.182],[-84.2656,9.8788,780.4233],[-84.2684,9.8778,725.86]]]]}
,"properties": {"GID_3": "CRI.7.11.2_1","GID_0": "CRI","country": "CostaRica","GID_1": "CRI.7_1","province": "SanJosé","NL_NAME_1": "NA","GID_2": "CRI.7.11_1","county": "Mora","NL_NAME_2": "NA","city": "Guayabo","VARNAME_3": "NA","NL_NAME_3": "NA","TYPE_3": "Distrito","ENGTYPE_3": "District","CC_3": "2","HASC_3": "NA","name": "Guayabo.city","area_km2": 10.507126,"hist_schema_id": "Elevation0-9000","hist_area_km2": {"725": 0.062668,"750": 0.125334,"775": 0.271561,"800": 0.584899,"825": 0.647561,"850": 0.835567,"875": 0.940009,"900": 0.898226,"925": 1.35778,"950": 1.107107,"975": 1.378662,"1000": 1.148882,"1025": 0.543106,"1050": 0.167108,"1075": 0.146219,"1100": 0.125331,"1125": 0.041777,"1175": 0.020888,"1200": 0.041777,"1225": 0.041777,"1250": 0.020888}}}