{"type": "Feature","bbox": [-84.0693,9.9004,-84.0474,9.9158],"geometry": {"type": "MultiPolygon","coordinates": [[[[-84.0524,9.9137,1165.3354],[-84.0581,9.9143,1163.8124],[-84.0599,9.913,1162.808],[-84.0626,9.9153,1155.8662],[-84.0693,9.9158,1139.3318],[-84.0673,9.9045,1144.7037],[-84.0583,9.9016,1151.7181],[-84.058,9.9004,1154.1011],[-84.0547,9.9028,1163.8014],[-84.0509,9.9006,1161.3667],[-84.0487,9.9016,1168.4934],[-84.0492,9.9032,1166.6514],[-84.0474,9.9042,1171.6295],[-84.0493,9.9049,1171.207],[-84.0524,9.9137,1165.3354]]]]}
,"properties": {"GID_3": "CRI.7.15.8_1","GID_0": "CRI","country": "CostaRica","GID_1": "CRI.7_1","province": "SanJosé","NL_NAME_1": "NA","GID_2": "CRI.7.15_1","county": "SanJosé","NL_NAME_2": "NA","city": "SanFranciscodeDosRios","VARNAME_3": "NA","NL_NAME_3": "NA","TYPE_3": "Distrito","ENGTYPE_3": "District","CC_3": "6","HASC_3": "NA","name": "San_Franciscode_Dos_Rios.city","area_km2": 2.610746,"hist_schema_id": "Elevation0-9000","hist_area_km2": {"1150": 1.462018,"1175": 1.148728}}}