{"type": "Feature","bbox": [-84.1567,9.4054,-84.0016,9.5591],"geometry": {"type": "MultiPolygon","coordinates": [[[[-84.0761,9.5581,975.4578],[-84.0848,9.5591,855.8155],[-84.0866,9.5566,807.7401],[-84.095,9.558,856.1732],[-84.0972,9.555,843.235],[-84.0977,9.5497,851.9936],[-84.1069,9.5445,609.6528],[-84.1176,9.5317,558.0101],[-84.1169,9.5272,531.7037],[-84.1189,9.5198,421.948],[-84.1174,9.5168,279.8175],[-84.1136,9.5154,216.2983],[-84.1094,9.5072,118.1763],[-84.1121,9.5055,61.1256],[-84.1117,9.5009,27.8209],[-84.1131,9.4992,31.3136],[-84.1179,9.4969,33.7053],[-84.1213,9.4982,22.625],[-84.1228,9.4952,38.5435],[-84.1269,9.4971,25.6754],[-84.1324,9.4955,19.903],[-84.1331,9.492,23.1643],[-84.1363,9.4947,19.9946],[-84.1413,9.4933,15.647],[-84.1424,9.4915,16.9866],[-84.1433,9.4941,18.1094],[-84.1451,9.4938,18.8586],[-84.1462,9.4914,14.8618],[-84.1439,9.4905,16.9866],[-84.1461,9.4855,19.9394],[-84.1495,9.4865,16.6087],[-84.1522,9.4847,18.0216],[-84.1567,9.4864,18.998],[-84.1531,9.483,20.305],[-84.1488,9.4687,15.9011],[-84.1453,9.465,46.6497],[-84.1331,9.4643,51.494],[-84.1264,9.4681,51.1984],[-84.1152,9.4694,60.9843],[-84.1114,9.4678,60.4503],[-84.1125,9.4624,50.7748],[-84.0953,9.4489,35.1127],[-84.0948,9.4453,30.1326],[-84.0869,9.4359,32.0481],[-84.0702,9.4231,24.6831],[-84.0658,9.4147,19.7987],[-84.0605,9.4108,17.1632],[-84.0614,9.4081,14.8413],[-84.0563,9.4054,17.4972],[-84.0413,9.4054,24.3834],[-84.043,9.4087,17.0436],[-84.0409,9.4145,31.1712],[-84.0457,9.424,37.749],[-84.0446,9.432,38.0426],[-84.0331,9.438,44.6659],[-84.0285,9.4383,52.6498],[-84.0241,9.435,66.4477],[-84.0228,9.4376,70.2955],[-84.0238,9.4438,99.6439],[-84.0136,9.4486,73.2767],[-84.0103,9.4462,79.5939],[-84.0016,9.4499,83.2523],[-84.0187,9.4593,609.8338],[-84.0271,9.461,598.8013],[-84.0331,9.4709,557.4243],[-84.0437,9.4769,256.1719],[-84.0514,9.4843,375.6417],[-84.0529,9.4888,423.5836],[-84.0553,9.4897,413.4379],[-84.0594,9.4951,414.5662],[-84.0642,9.4992,444.7342],[-84.0747,9.5027,343.4726],[-84.0787,9.5131,84.1878],[-84.0799,9.5115,101.0775],[-84.0831,9.5115,69.827],[-84.0843,9.5095,88.8361],[-84.0876,9.5103,81.1673],[-84.0839,9.5146,70.752],[-84.0736,9.5185,149.6738],[-84.0739,9.5234,166.0119],[-84.0693,9.5304,193.3495],[-84.0718,9.5345,202.0572],[-84.072,9.5527,684.3438],[-84.0761,9.5581,975.4578]]]]}
,"properties": {"GID_3": "CRI.6.12.1_1","GID_0": "CRI","country": "CostaRica","GID_1": "CRI.6_1","province": "Puntarenas","NL_NAME_1": "NA","GID_2": "CRI.6.12_1","county": "Quepos","NL_NAME_2": "NA","city": "Naranjito","VARNAME_3": "NA","NL_NAME_3": "NA","TYPE_3": "Distrito","ENGTYPE_3": "District","CC_3": "3","HASC_3": "NA","name": "Naranjito.city","area_km2": 105.21195,"hist_schema_id": "Elevation0-9000","hist_area_km2": {"0": 0.35558,"25": 10.6454,"50": 16.501,"75": 13.86564,"100": 9.871,"125": 8.92982,"150": 8.42786,"175": 5.45822,"200": 4.24527,"225": 3.53416,"250": 2.23757,"275": 2.40485,"300": 1.8193,"325": 1.86112,"350": 1.88195,"375": 1.46373,"400": 1.21282,"425": 1.48464,"450": 1.21282,"475": 0.83642,"500": 0.5855,"525": 0.66915,"550": 0.89915,"575": 0.60638,"600": 0.56455,"625": 0.31363,"650": 0.39726,"675": 0.29272,"700": 0.43908,"725": 0.22999,"750": 0.41817,"775": 0.35544,"800": 0.29271,"825": 0.33453,"850": 0.18817,"875": 0.10454,"900": 0.12545,"925": 0.04182,"950": 0.04182,"975": 0.04182,"1000": 0.02091}}}