{"type": "Feature","bbox": [-83.8425,9.8711,-83.7605,10.0169],"geometry": {"type": "MultiPolygon","coordinates": [[[[-83.7873,9.8918,1264.541],[-83.7866,9.8939,1270.1249],[-83.7854,9.8922,1302.2379],[-83.7828,9.8936,1299.5846],[-83.7853,9.8955,1376.7775],[-83.7836,9.8956,1377.835],[-83.7811,9.8992,1407.0875],[-83.7801,9.9077,1468.2078],[-83.7755,9.899,1403.7407],[-83.7741,9.8986,1364.4059],[-83.7752,9.9077,1499.855],[-83.7727,9.9089,1499.0118],[-83.7727,9.9107,1507.395],[-83.7698,9.911,1494.6866],[-83.7704,9.918,1511.2921],[-83.7693,9.9195,1508.0779],[-83.7675,9.919,1537.6416],[-83.7669,9.9214,1561.7936],[-83.7745,9.9343,1717.0276],[-83.7754,9.9406,1722.6606],[-83.7781,9.9427,1745.2734],[-83.7737,9.9431,1684.6097],[-83.7656,9.9488,1615.9443],[-83.7606,9.9469,1534.924],[-83.7605,9.9485,1516.125],[-83.7633,9.9517,1549.1982],[-83.763,9.9533,1566.6765],[-83.771,9.9556,1677.3818],[-83.7756,9.9631,1885.7271],[-83.781,9.9678,2200.0071],[-83.7832,9.9744,2307.167],[-83.7821,9.9778,2336.9229],[-83.7839,9.9815,2415.1567],[-83.7924,9.9882,2697.2261],[-83.7991,9.9894,2579.3872],[-83.809,9.9976,2117.8113],[-83.8103,10.0085,1959.1875],[-83.8135,10.0135,1833.5848],[-83.813,10.0169,1721.4934],[-83.8161,10.0151,1780.3048],[-83.8155,10.0131,1856.6235],[-83.8176,10.0126,1906.0686],[-83.8197,10.0088,1959.0039],[-83.8212,9.9996,2205.0159],[-83.8265,9.9872,2726.2051],[-83.8273,9.9804,3222.9429],[-83.8288,9.9789,3233.0107],[-83.8321,9.9801,3269.7913],[-83.8348,9.9788,3247.0234],[-83.838,9.9709,3116.5918],[-83.8377,9.9673,3078.0081],[-83.8425,9.9606,2909.0205],[-83.8405,9.9526,2776.7031],[-83.8368,9.9524,2730.6023],[-83.8293,9.9458,2423.5144],[-83.834,9.9365,2435.418],[-83.8355,9.9357,2435.418],[-83.8371,9.9371,2467.1782],[-83.8353,9.9317,2283.1492],[-83.8305,9.9265,2102.5962],[-83.8309,9.9175,2025.8555],[-83.8295,9.913,1951.5927],[-83.8322,9.9062,1838.4971],[-83.8314,9.9023,1773.3436],[-83.834,9.8987,1756.5684],[-83.8294,9.8989,1745.5391],[-83.825,9.9034,1708.4149],[-83.8226,9.8934,1618.8712],[-83.8249,9.8926,1624.4148],[-83.8257,9.8896,1624.3494],[-83.8291,9.8886,1622.1904],[-83.8292,9.8864,1599.5602],[-83.8239,9.8769,1500.5725],[-83.8036,9.8711,1120.5361],[-83.7939,9.8754,1154.1462],[-83.7887,9.8815,1209.1713],[-83.7882,9.8859,1238.5131],[-83.786,9.8875,1261.4023],[-83.7873,9.8918,1264.541]]]]}
,"properties": {"GID_2": "CRI.2.1_1","GID_0": "CRI","country": "CostaRica","GID_1": "CRI.2_1","province": "Cartago","NL_NAME_1": "NA","county": "Alvarado","VARNAME_2": "NA","NL_NAME_2": "NA","TYPE_2": "Cantón","ENGTYPE_2": "Canton","CC_2": "6","HASC_2": "CR.CA.AL","name": "Alvarado.county","area_km2": 79.83993,"hist_schema_id": "Elevation0-9000","hist_area_km2": {"1125": 0.10444,"1150": 0.14622,"1175": 0.22977,"1200": 0.33421,"1225": 0.31332,"1250": 0.45953,"1275": 0.52219,"1300": 0.87727,"1325": 0.8146,"1350": 1.27411,"1375": 0.98169,"1400": 1.107,"1425": 1.08611,"1450": 1.19055,"1475": 1.14878,"1500": 2.00511,"1525": 1.67092,"1550": 1.77531,"1575": 1.9424,"1600": 1.92149,"1625": 1.94234,"1650": 1.69168,"1675": 1.5455,"1700": 1.3784,"1725": 1.75431,"1750": 1.3784,"1775": 1.67077,"1800": 1.23219,"1825": 1.46192,"1850": 1.21132,"1875": 1.37837,"1900": 1.10687,"1925": 1.35748,"1950": 1.10681,"1975": 1.08597,"2000": 0.79357,"2025": 0.79359,"2050": 1.00241,"2075": 1.1486,"2100": 0.81445,"2125": 0.83534,"2150": 0.79356,"2175": 0.77267,"2200": 0.73092,"2225": 0.98149,"2250": 0.87709,"2275": 1.06504,"2300": 1.16945,"2325": 1.16943,"2350": 1.00237,"2375": 1.16942,"2400": 0.98148,"2425": 0.79354,"2450": 0.96058,"2475": 1.23205,"2500": 0.75177,"2525": 1.0441,"2550": 0.87706,"2575": 0.81441,"2600": 0.79352,"2625": 0.70999,"2650": 0.83528,"2675": 0.79352,"2700": 0.73087,"2725": 0.75175,"2750": 0.87705,"2775": 0.87704,"2800": 0.85616,"2825": 0.89792,"2850": 0.6891,"2875": 0.98145,"2900": 0.50117,"2925": 0.62646,"2950": 0.50117,"2975": 0.56381,"3000": 0.50117,"3025": 0.60557,"3050": 0.50116,"3075": 0.6891,"3100": 0.50116,"3125": 0.25058,"3150": 0.25058,"3175": 0.18794,"3200": 0.18793,"3225": 0.14617,"3250": 0.14617,"3275": 0.10441}}}