{"type": "Feature","bbox": [-85.5827,10.4187,-85.292,10.8121],"geometry": {"type": "MultiPolygon","coordinates": [[[[-85.3254,10.8121,1742.1074],[-85.3286,10.8101,1641.0028],[-85.3345,10.8113,1416.9871],[-85.341,10.81,1309.8754],[-85.3411,10.8028,1201.0706],[-85.3455,10.7945,1113.5793],[-85.3476,10.7855,972.9078],[-85.3464,10.7726,774.5765],[-85.3482,10.768,741.0411],[-85.3478,10.7637,705.6052],[-85.3538,10.7551,636.8954],[-85.3616,10.751,596.3074],[-85.3718,10.7484,540.6548],[-85.3708,10.7443,525.1155],[-85.3736,10.7423,518.2322],[-85.3743,10.7388,512.0156],[-85.3755,10.7394,500.9552],[-85.3756,10.7376,467.4886],[-85.3772,10.7373,493.6262],[-85.3772,10.7135,371.4776],[-85.3842,10.7081,336.3695],[-85.3951,10.7034,299.7935],[-85.4015,10.6954,266.6793],[-85.4207,10.6903,220.0138],[-85.4308,10.6778,176.8496],[-85.4383,10.6722,174.5483],[-85.4392,10.6678,155.3696],[-85.4416,10.6678,156.8809],[-85.4439,10.6651,179.5555],[-85.4478,10.664,152.0997],[-85.4485,10.6619,154.4144],[-85.4587,10.6563,136.0551],[-85.4655,10.6479,129.7954],[-85.472,10.6497,121.1197],[-85.4748,10.6478,124.9701],[-85.4763,10.6484,121.385],[-85.4776,10.6463,122.3781],[-85.4798,10.6472,122.3901],[-85.4815,10.6412,119.2886],[-85.4853,10.6463,115.7873],[-85.4858,10.6443,111.8484],[-85.4909,10.6448,113.8677],[-85.4904,10.6422,105.3449],[-85.4916,10.6413,100.5459],[-85.5045,10.6432,76.4272],[-85.5111,10.639,69.7785],[-85.5147,10.6411,71.8105],[-85.5181,10.6386,66.7563],[-85.5216,10.6396,69.0604],[-85.5217,10.6413,66.1621],[-85.5255,10.6403,62.6479],[-85.5274,10.6426,56.9643],[-85.5311,10.6427,54.7292],[-85.5339,10.6451,55.576],[-85.5363,10.6438,56.8925],[-85.5405,10.6446,55.3964],[-85.549,10.6414,52.8826],[-85.55,10.6378,49.4732],[-85.5548,10.6403,46.5933],[-85.5627,10.6354,33.3579],[-85.5345,10.6079,77.5123],[-85.5425,10.6061,77.438],[-85.55,10.5998,65.8649],[-85.555,10.6001,68.2756],[-85.5581,10.6023,57.5551],[-85.5667,10.5937,54.8816],[-85.572,10.5819,38.6568],[-85.5804,10.5822,38.0864],[-85.5814,10.5786,35.234],[-85.5796,10.5745,38.4324],[-85.5793,10.5631,31.0337],[-85.5762,10.5624,31.1624],[-85.5781,10.5519,29.2425],[-85.5698,10.5502,28.9874],[-85.5689,10.5484,30.2221],[-85.5772,10.5378,24.3273],[-85.5774,10.5346,15.9921],[-85.5819,10.5304,24.1807],[-85.5827,10.5267,24.4971],[-85.5733,10.5236,18.6244],[-85.5702,10.5203,14.5752],[-85.5687,10.5145,22.4935],[-85.571,10.5088,17.3539],[-85.5696,10.5029,14.6631],[-85.5706,10.4992,17.9278],[-85.5689,10.4936,22.7254],[-85.5627,10.4852,16.0644],[-85.5591,10.4773,13.8523],[-85.5585,10.4658,14.8679],[-85.5464,10.4439,18.2085],[-85.5372,10.4419,13.6294],[-85.5326,10.4358,13.945],[-85.5272,10.432,16.8358],[-85.529,10.4241,12.3245],[-85.528,10.4223,13.2785],[-85.5225,10.4218,15.8897],[-85.5143,10.4244,13.7004],[-85.4968,10.4208,14.3775],[-85.488,10.4232,15.741],[-85.4853,10.4187,13.4852],[-85.4793,10.4192,14.5092],[-85.4712,10.4255,15.8182],[-85.4718,10.4294,22.5102],[-85.4762,10.435,14.7108],[-85.4717,10.4432,14.8574],[-85.4732,10.4513,9.9054],[-85.4717,10.4535,12.8032],[-85.4657,10.4568,12.6366],[-85.4536,10.4551,12.3204],[-85.4513,10.4492,11.1688],[-85.4459,10.4461,11.9643],[-85.4446,10.4433,9.3714],[-85.4393,10.4442,7.7188],[-85.4335,10.4402,7.3651],[-85.4319,10.4428,7.0705],[-85.4336,10.4447,7.0177],[-85.4324,10.4489,8.0518],[-85.4182,10.4602,13.2125],[-85.4233,10.4757,22.8654],[-85.4176,10.4765,18.2508],[-85.4101,10.4845,22.2699],[-85.4096,10.4902,34.9189],[-85.4078,10.492,30.8651],[-85.408,10.5011,36.5107],[-85.4039,10.5076,41.4378],[-85.4101,10.5157,65.6949],[-85.4068,10.524,52.8721],[-85.4057,10.5254,52.8721],[-85.4035,10.5243,60.4691],[-85.3987,10.5324,81.7332],[-85.3999,10.5374,114.0625],[-85.3985,10.5416,98.3218],[-85.4003,10.5434,101.0973],[-85.3944,10.5548,101.2344],[-85.3961,10.5599,105.7194],[-85.393,10.5631,108.3157],[-85.3894,10.5637,113.2986],[-85.3876,10.5664,109.1026],[-85.3886,10.5702,109.7891],[-85.3816,10.5764,116.369],[-85.3813,10.5814,116.3988],[-85.3798,10.5815,121.1137],[-85.379,10.584,119.9035],[-85.3808,10.5862,127.0011],[-85.3797,10.5903,121.8266],[-85.369,10.5982,128.4284],[-85.3653,10.5993,138.1658],[-85.362799999999993,10.607,144.4145],[-85.3589,10.6067,155.5492],[-85.3532,10.6122,153.4653],[-85.3462,10.6234,178.701],[-85.3481,10.6247,222.1159],[-85.3479,10.6293,233.1233],[-85.3449,10.6317,227.1165],[-85.3423,10.6393,225.0622],[-85.3438,10.6412,236.5554],[-85.3449,10.6551,272.3166],[-85.3485,10.6612,312.9266],[-85.3509,10.6727,323.6955],[-85.3444,10.6857,379.5245],[-85.3446,10.6891,378.6531],[-85.3414,10.6912,395.0135],[-85.3404,10.6942,423.5127],[-85.3339,10.6982,417.0309],[-85.3326,10.7022,434.2072],[-85.3341,10.7041,447.5009],[-85.3321,10.7101,472.2391],[-85.3218,10.7177,511.7465],[-85.3131,10.7298,591.4299],[-85.3132,10.732,634.2563],[-85.3101,10.7346,595.9804],[-85.3113,10.7396,621.5178],[-85.3085,10.7521,755.2107],[-85.2954,10.7574,808.4973],[-85.292,10.7609,814.624],[-85.2947,10.7643,846.544],[-85.2923,10.7735,995.9601],[-85.2959,10.7771,1114.2285],[-85.3018,10.7885,1318.0085],[-85.3056,10.8001,1566.9318],[-85.3184,10.8084,1873.246],[-85.3192,10.8112,1854.7695],[-85.3242,10.8107,1722.9838],[-85.3254,10.8121,1742.1074]]]]}
,"properties": {"GID_3": "CRI.3.7.3_1","GID_0": "CRI","country": "CostaRica","GID_1": "CRI.3_1","province": "Guanacaste","NL_NAME_1": "NA","GID_2": "CRI.3.7_1","county": "Liberia","NL_NAME_2": "NA","city": "Liberia","VARNAME_3": "NA","NL_NAME_3": "NA","TYPE_3": "Distrito","ENGTYPE_3": "District","CC_3": "1","HASC_3": "NA","name": "Liberia.city","area_km2": 565.424,"hist_schema_id": "Elevation0-9000","hist_area_km2": {"0": 55.6895,"25": 97.5862,"50": 22.239,"75": 34.2842,"100": 43.3502,"125": 100.8951,"150": 50.3748,"175": 19.9437,"200": 13.232,"225": 10.0643,"250": 9.2098,"275": 9.8763,"300": 8.0426,"325": 7.6257,"350": 6.688,"375": 4.3543,"400": 4.2292,"425": 4.4166,"450": 3.7707,"475": 3.4582,"500": 3.2915,"525": 3.3747,"550": 3.0414,"575": 3.4163,"600": 2.6455,"625": 3.6037,"650": 1.8122,"675": 1.4998,"700": 1.3956,"725": 1.4997,"750": 2.5412,"775": 1.7497,"800": 1.5622,"825": 1.5205,"850": 0.8956,"875": 1.1039,"900": 1.1247,"925": 1.1664,"950": 0.9165,"975": 1.0414,"1000": 1.208,"1025": 0.8748,"1050": 0.7706,"1075": 0.7915,"1100": 0.6248,"1125": 0.5832,"1150": 0.8748,"1175": 0.9581,"1200": 0.5415,"1225": 0.6456,"1250": 0.5415,"1275": 0.5623,"1300": 0.6873,"1325": 0.5207,"1350": 0.4998,"1375": 0.479,"1400": 0.7498,"1425": 0.4374,"1450": 0.6248,"1475": 0.479,"1500": 0.5623,"1525": 0.3541,"1550": 0.3749,"1575": 0.5207,"1600": 0.354,"1625": 0.2083,"1650": 0.1666,"1675": 0.1666,"1700": 0.2083,"1725": 0.1458,"1750": 0.1041,"1775": 0.0417,"1800": 0.0833,"1825": 0.0417,"1850": 0.1041}}}