{"type": "Feature","bbox": [-84.0714,9.7035,-84.0313,9.744],"geometry": {"type": "MultiPolygon","coordinates": [[[[-84.0676,9.741,1236.9692],[-84.0646,9.7291,1446.7957],[-84.0591,9.7253,1733.0562],[-84.0714,9.7248,1426.0927],[-84.0634,9.7152,1655.723],[-84.0602,9.7151,1690.8573],[-84.0552,9.7062,1930.2043],[-84.0534,9.7075,1945.3159],[-84.0489,9.7035,1965.3059],[-84.0465,9.7045,2017.2509],[-84.0435,9.7092,1961.5668],[-84.0417,9.7077,2068.4617],[-84.0392,9.7101,2098.6829],[-84.0372,9.7097,2098.6829],[-84.0345,9.7059,2080.6492],[-84.0313,9.7066,2146.606],[-84.0339,9.7116,1895.8309],[-84.0341,9.7157,1735.1119],[-84.0423,9.7245,1600.3075],[-84.0437,9.7354,1504.5514],[-84.0516,9.7396,1398.5936],[-84.0521,9.7438,1371.6062],[-84.0552,9.744,1352.9502],[-84.0569,9.7422,1331.5865],[-84.0582,9.7432,1298.8945],[-84.0589,9.7414,1287.6493],[-84.0608,9.7425,1288.2598],[-84.0676,9.741,1236.9692]]]]}
,"properties": {"GID_3": "CRI.7.9.3_1","GID_0": "CRI","country": "CostaRica","GID_1": "CRI.7_1","province": "SanJosé","NL_NAME_1": "NA","GID_2": "CRI.7.9_1","county": "LeónCortésCastro","NL_NAME_2": "NA","city": "SanAntonio","VARNAME_3": "NA","NL_NAME_3": "NA","TYPE_3": "Distrito","ENGTYPE_3": "District","CC_3": "6","HASC_3": "NA","name": "San_Antonio.city","area_km2": 10.156255,"hist_schema_id": "Elevation0-9000","hist_area_km2": {"1225": 0.020897,"1250": 0.06269,"1275": 0.083586,"1300": 0.083586,"1325": 0.188069,"1350": 0.208967,"1375": 0.06269,"1400": 0.208967,"1425": 0.250762,"1450": 0.208969,"1475": 0.376146,"1500": 0.292557,"1525": 0.250765,"1550": 0.271663,"1575": 0.355254,"1600": 0.459742,"1625": 0.459744,"1650": 0.417951,"1675": 0.397054,"1700": 0.313464,"1725": 0.438853,"1750": 0.334365,"1775": 0.480653,"1800": 0.438855,"1825": 0.438858,"1850": 0.438859,"1875": 0.417962,"1900": 0.417964,"1925": 0.62695,"1950": 0.313474,"1975": 0.229883,"2000": 0.188087,"2025": 0.167189,"2050": 0.041797,"2075": 0.062696,"2100": 0.104493,"2125": 0.020898,"2150": 0.020899}}}