{"type": "Feature","bbox": [-84.1639,10.0301,-84.1553,10.0468],"geometry": {"type": "MultiPolygon","coordinates": [[[[-84.161,10.0468,1179.9089],[-84.1611,10.0392,1145.1263],[-84.1639,10.0381,1119.5381],[-84.1618,10.0305,1091.0872],[-84.1553,10.0301,1077.7944],[-84.1554,10.0448,1176.9048],[-84.161,10.0468,1179.9089]]]]}
,"properties": {"GID_3": "CRI.4.8.5_1","GID_0": "CRI","country": "CostaRica","GID_1": "CRI.4_1","province": "Heredia","NL_NAME_1": "NA","GID_2": "CRI.4.8_1","county": "SantaBárbara","NL_NAME_2": "NA","city": "SantaBárbara","VARNAME_3": "NA","NL_NAME_3": "NA","TYPE_3": "Distrito","ENGTYPE_3": "District","CC_3": "1","HASC_3": "NA","name": "Santa_Bárbara.city","area_km2": 1.336172,"hist_schema_id": "Elevation0-9000","hist_area_km2": {"1075": 0.020878,"1100": 0.187902,"1125": 0.396679,"1150": 0.501063,"1175": 0.22965}}}