{"type":"Feature","properties":{"GID_3":"CRI.2.8.5_1","GID_0":"CRI","country":"CostaRica","GID_1":"CRI.2_1","province":"Cartago","NL_NAME_1":"NA","GID_2":"CRI.2.8_1","county":"Turrialba","NL_NAME_2":"NA","city":"Peralta","VARNAME_3":"NA","NL_NAME_3":"NA","TYPE_3":"Distrito","ENGTYPE_3":"District","CC_3":"3","HASC_3":"NA","name":"Peralta.city"},
"geometry":{"type": "MultiPolygon","coordinates": [[[[-83.6135,9.9584,367.6346],[-83.6081,9.9738,342.4889],[-83.604,9.9789,337.3812],[-83.6034,9.982,340.4409],[-83.6164,9.9873,470.1051],[-83.6164,9.9841,435.6774],[-83.6145,9.9827,411.367],[-83.6256,9.9817,580.766],[-83.641,9.9561,565.4391],[-83.6391,9.9524,529.4651],[-83.6364,9.9515,490.2187],[-83.6334,9.9475,447.0308],[-83.6248,9.9497,388.3667],[-83.6135,9.9584,367.6346]]]]}}