{"type": "Feature","bbox": [-84.0895,9.9685,-84.0625,9.9885],"geometry": {"type": "MultiPolygon","coordinates": [[[[-84.0625,9.9799,1166.1415],[-84.0658,9.9885,1208.3843],[-84.0865,9.9836,1174.9344],[-84.087,9.9776,1158.5234],[-84.0895,9.975,1140.3427],[-84.0884,9.9708,1135.3802],[-84.0848,9.9685,1092.8733],[-84.0787,9.9741,1149.2621],[-84.0678,9.9755,1165.9707],[-84.0625,9.9799,1166.1415]]]]}
,"properties": {"GID_3": "CRI.4.9.7_1","GID_0": "CRI","country": "CostaRica","GID_1": "CRI.4_1","province": "Heredia","NL_NAME_1": "NA","GID_2": "CRI.4.9_1","county": "SantoDomingo","NL_NAME_2": "NA","city": "SantoTomás","VARNAME_3": "NA","NL_NAME_3": "NA","TYPE_3": "Distrito","ENGTYPE_3": "District","CC_3": "5","HASC_3": "NA","name": "Santo_Tomás.city","area_km2": 3.570722,"hist_schema_id": "Elevation0-9000","hist_area_km2": {"1100": 0.10441,"1125": 0.104409,"1150": 0.73086,"1175": 0.960545,"1200": 1.670498}}}