{"type": "Feature","bbox": [-84.7012,9.5377,-84.5294,9.8788],"geometry": {"type": "MultiPolygon","coordinates": [[[[-84.6482,9.6193,0.0],[-84.6477,9.6192,0.0],[-84.6477,9.6198,0.0],[-84.6479,9.6198,0.0],[-84.6482,9.6193,0.0]]],
[[[-84.6534,9.6208,0.0],[-84.6533,9.6206,0.0],[-84.6531,9.6207,0.0],[-84.6532,9.6209,0.0],[-84.6534,9.6208,0.0]]],
[[[-84.6456,9.6209,0.0],[-84.6454,9.6209,0.0],[-84.6453,9.6212,0.0],[-84.6455,9.6212,0.0],[-84.6456,9.6209,0.0]]],
[[[-84.5583,9.5411,0.0],[-84.5556,9.5392,0.5958],[-84.5545,9.541,3.7973],[-84.5507,9.5377,3.3923],[-84.545,9.5386,6.8134],[-84.5451,9.5408,4.3005],[-84.548,9.5433,6.4444],[-84.5478,9.5462,5.1215],[-84.5459,9.5488,3.1971],[-84.5411,9.5492,3.8287],[-84.5459,9.5527,7.4075],[-84.5385,9.5586,5.8256],[-84.5397,9.5612,14.1074],[-84.5383,9.5657,6.7942],[-84.533,9.5695,5.5594],[-84.5294,9.5792,10.5771],[-84.5345,9.5829,16.6164],[-84.5354,9.5816,15.662],[-84.5388,9.5861,19.691],[-84.5437,9.585,29.9415],[-84.549,9.5922,79.9918],[-84.5518,9.6037,83.0529],[-84.5498,9.61,102.377],[-84.5513,9.6191,256.4583],[-84.5543,9.6223,379.2617],[-84.5557,9.6267,360.3883],[-84.5614,9.625,447.0688],[-84.5644,9.6276,492.9547],[-84.5636,9.6312,521.021],[-84.5654,9.6356,559.6918],[-84.5719,9.6441,736.5175],[-84.5739,9.652,779.5305],[-84.5723,9.6542,772.2749],[-84.5807,9.6655,680.4201],[-84.5801,9.6719,703.0172],[-84.5855,9.6837,582.9604],[-84.5827,9.6894,647.2791],[-84.5846,9.6909,597.0493],[-84.5847,9.6938,595.2454],[-84.5834,9.711,481.7388],[-84.5894,9.7233,369.7526],[-84.5897,9.7324,304.8277],[-84.592,9.736,254.4673],[-84.5927,9.7433,205.4151],[-84.5903,9.744,263.7917],[-84.583,9.7411,431.5844],[-84.5779,9.7419,432.1167],[-84.5773,9.7399,451.4787],[-84.5749,9.7407,444.1587],[-84.5749,9.7391,430.4667],[-84.5728,9.7382,429.0248],[-84.5661,9.747,448.3126],[-84.5659,9.7587,483.7428],[-84.5543,9.7558,612.4865],[-84.552,9.757,633.149],[-84.5491,9.7652,458.6871],[-84.5388,9.7771,172.1194],[-84.5414,9.7816,141.6597],[-84.544,9.7821,178.9834],[-84.5499,9.7779,169.0559],[-84.5501,9.7802,137.0959],[-84.552,9.7798,170.1395],[-84.5581,9.7841,145.1663],[-84.5574,9.788,142.8127],[-84.5585,9.7898,78.1334],[-84.5616,9.7901,62.7061],[-84.563,9.7925,80.9913],[-84.5609,9.7936,60.6195],[-84.5676,9.8053,50.7889],[-84.5676,9.81,36.1133],[-84.578,9.8091,10.1207],[-84.583,9.8061,6.3504],[-84.5799,9.8121,17.0635],[-84.5828,9.8173,7.5],[-84.5823,9.823,13.5928],[-84.5714,9.8295,14.7402],[-84.568,9.8268,57.035],[-84.5605,9.8325,21.9742],[-84.56,9.8369,25.903199999999998],[-84.5637,9.8388,14.7952],[-84.563,9.8419,14.6458],[-84.5746,9.8459,177.4723],[-84.5801,9.8411,175.9821],[-84.5904,9.8406,174.8282],[-84.5965,9.8486,142.5808],[-84.5999,9.8492,123.4461],[-84.5955,9.8534,111.2862],[-84.5969,9.8583,91.1674],[-84.5996,9.8575,92.6298],[-84.6006,9.8596,98.0583],[-84.6027,9.8598,82.9733],[-84.603,9.862,82.0572],[-84.6133,9.8623,56.9471],[-84.6153,9.8607,45.1598],[-84.6184,9.8622,47.3498],[-84.6292,9.8622,36.1594],[-84.638,9.8661,31.8264],[-84.6407,9.8647,27.1264],[-84.6429,9.8659,26.503],[-84.6455,9.8649,22.0075],[-84.6466,9.8663,16.7217],[-84.6476,9.8652,22.2717],[-84.6473,9.8701,20.6383],[-84.6559,9.8728,13.1252],[-84.6586,9.8759,18.7482],[-84.6604,9.8764,11.1425],[-84.6611,9.875,13.9945],[-84.6646,9.8756,7.704],[-84.6651,9.8774,10.1713],[-84.6696,9.8771,14.0321],[-84.6708,9.8788,14.1928],[-84.6745,9.8773,32.3031],[-84.6771,9.8785,32.1729],[-84.678,9.8752,25.3791],[-84.6809,9.8747,29.6057],[-84.6845,9.8703,18.7911],[-84.6907,9.8701,14.8677],[-84.6917,9.8653,9.3342],[-84.6953,9.8658,2.0295],[-84.6953,9.8631,12.195],[-84.6984,9.8633,0.0],[-84.6987,9.8615,0.0],[-84.6952,9.86,7.1343],[-84.698,9.8592,3.7437],[-84.7007,9.8604,2.7702],[-84.7012,9.8579,1.2187],[-84.6897,9.8517,0.0],[-84.6812,9.8447,4.8444],[-84.6745,9.8363,5.4402],[-84.6745,9.8355,5.4402],[-84.6763,9.8356,0.0],[-84.675299999999993,9.8339,0.0],[-84.6646,9.8237,1.1475],[-84.6503,9.8053,6.3546],[-84.6409,9.7867,1.2109],[-84.6363,9.7848,0.334],[-84.6367,9.7819,8.6472],[-84.6393,9.7837,0.0],[-84.6409,9.7818,0.0],[-84.633,9.7712,0.0],[-84.6297,9.7705,9.6385],[-84.6306,9.7668,0.0],[-84.6266,9.7555,6.4872],[-84.6275,9.7524,12.6371],[-84.6307,9.75,5.2608],[-84.6322,9.7395,3.7906],[-84.6391,9.7366,28.0192],[-84.6454,9.7299,53.5274],[-84.6468,9.7294,30.3447],[-84.6479,9.7309,0.0],[-84.6503,9.7295,31.0345],[-84.652,9.7223,9.833],[-84.6554,9.7216,8.4311],[-84.6582,9.7176,25.1956],[-84.6606,9.7065,65.5895],[-84.6621,9.7051,12.3196],[-84.6667,9.7051,31.2669],[-84.6682,9.7005,20.9363],[-84.6749,9.6964,29.5621],[-84.6735,9.6925,3.0121],[-84.6757,9.6889,2.87],[-84.6729,9.685,35.8115],[-84.6744,9.6824,0.0],[-84.6685,9.6727,22.0171],[-84.6696,9.6669,55.062],[-84.6721,9.6657,13.4757],[-84.6719,9.6595,28.0048],[-84.6791,9.658,23.7894],[-84.6797,9.6548,5.4972],[-84.6784,9.6535,34.935],[-84.6805,9.6512,13.4473],[-84.6776,9.6491,0.9934],[-84.6769,9.6503,0.0],[-84.6752,9.6491,0.0],[-84.6743,9.6513,13.6481],[-84.6703,9.6504,0.0],[-84.6691,9.6521,79.8854],[-84.6662,9.6509,1.0837],[-84.6622,9.6526,5.5651],[-84.6582,9.6494,1.6789],[-84.6583,9.6512,4.3127],[-84.6568,9.6497,1.6789],[-84.6578,9.6489,1.6789],[-84.6552,9.6431,0.0],[-84.6553,9.6388,0.0],[-84.6584,9.6343,15.0761],[-84.6633,9.6314,0.0],[-84.6551,9.6268,0.0],[-84.6505,9.6218,0.0],[-84.6432,9.6226,10.7111],[-84.642,9.6261,13.1132],[-84.6426,9.6238,31.0879],[-84.6398,9.6206,2.9552],[-84.6312,9.614,1.44],[-84.6243,9.6059,0.941],[-84.6231,9.6076,10.4381],[-84.6228,9.6069,6.8663],[-84.6235,9.6048,1.7696],[-84.6204,9.5968,4.7021],[-84.6254,9.5915,34.7883],[-84.6198,9.5834,0.0],[-84.6184,9.5839,29.052],[-84.6178,9.5813,7.3721],[-84.6015,9.5728,2.6643],[-84.5583,9.5411,0.0]]],
[[[-84.6684,9.6266,0.0],[-84.6683,9.6265,0.0],[-84.6682,9.6266,0.0],[-84.6683,9.6267,0.0],[-84.6684,9.6266,0.0]]],
[[[-84.6693,9.6266,0.0],[-84.6692,9.6265,0.0],[-84.6691,9.6268,0.0],[-84.6692,9.6269,0.0],[-84.6693,9.6266,0.0]]],
[[[-84.6665,9.629,29.8176],[-84.6653,9.6309,14.8503],[-84.6718,9.6307,4.2658],[-84.6756,9.6291,0.0],[-84.6767,9.6265,18.3136],[-84.6717,9.6266,1.6946],[-84.6665,9.629,29.8176]]],
[[[-84.6806,9.6463,0.0],[-84.6798,9.6471,0.0],[-84.6801,9.6476,0.0],[-84.6807,9.6474,0.0],[-84.6806,9.6463,0.0]]],
[[[-84.679,9.6481,0.0],[-84.6787,9.6481,0.0],[-84.6787,9.6485,0.0],[-84.6789,9.6484,0.0],[-84.679,9.6481,0.0]]],
[[[-84.6796,9.6492,0.0],[-84.6793,9.6493,0.0],[-84.6795,9.6498,0.0],[-84.6797,9.6497,0.0],[-84.6796,9.6492,0.0]]],
[[[-84.6837,9.6557,0.0],[-84.6832,9.6557,0.0],[-84.6828,9.6566,0.0],[-84.6836,9.6562,0.0],[-84.6837,9.6557,0.0]]],
[[[-84.654,9.6231,0.0],[-84.6539,9.623,0.0],[-84.6538,9.6232,0.0],[-84.654,9.6232,0.0],[-84.654,9.6231,0.0]]],
[[[-84.6676,9.6267,0.0],[-84.6675,9.6265,0.0],[-84.6668,9.6266,0.0],[-84.6672,9.627,0.0],[-84.6676,9.6267,0.0]]]]}
,"properties": {"GID_2": "CRI.6.6_1","GID_0": "CRI","country": "CostaRica","GID_1": "CRI.6_1","province": "Puntarenas","NL_NAME_1": "NA","county": "Garabito","VARNAME_2": "NA","NL_NAME_2": "NA","TYPE_2": "Cantón","ENGTYPE_2": "Canton","CC_2": "11","HASC_2": "CR.PU.GA","name": "Garabito.county","area_km2": 315.6452,"hist_schema_id": "Elevation0-9000","hist_area_km2": {"0": 46.4401,"25": 53.726,"50": 30.425,"75": 25.1801,"100": 22.234,"125": 16.8641,"150": 13.8343,"175": 10.6371,"200": 8.5269,"225": 7.5032,"250": 7.6074,"275": 7.2314,"300": 6.9178,"325": 5.8936,"350": 5.3084,"375": 4.3262,"400": 4.18,"425": 5.5802,"450": 6.2698,"475": 4.8276,"500": 5.0993,"525": 4.5559,"550": 4.0752,"575": 2.7168,"600": 2.0272,"625": 1.1286,"650": 0.9823,"675": 0.6479,"700": 0.3344,"725": 0.2508,"750": 0.1881,"775": 0.1254}}}