{"type":"Feature","properties":{"GID_3":"CRI.1.1.4_1","GID_0":"CRI","country":"CostaRica","GID_1":"CRI.1_1","province":"Alajuela","NL_NAME_1":"NA","GID_2":"CRI.1.1_1","county":"Alajuela","NL_NAME_2":"NA","city":"Garita","VARNAME_3":"NA","NL_NAME_3":"NA","TYPE_3":"Distrito","ENGTYPE_3":"District","CC_3":"13","HASC_3":"NA","name":"Garita.city"},
"geometry":{"type": "MultiPolygon","coordinates": [[[[-84.2706,9.9758,778.5328],[-84.2718,9.9848,791.5283],[-84.2697,9.9904,815.5687],[-84.2703,9.9956,816.4744],[-84.266,10.0025,831.6405],[-84.26,10.0041,838.741],[-84.2616,10.0092,847.4399],[-84.2635,10.0087,845.0776],[-84.2635,10.0152,805.6672],[-84.2675,10.0123,784.1425],[-84.271,10.0125,773.563],[-84.2736,10.0154,777.1826],[-84.2811,10.014099999999999,741.844],[-84.2867,10.0149,738.323],[-84.2911,10.0126,727.4788],[-84.294,10.0075,730.8514],[-84.3019,10.0037,708.802],[-84.3095,10.0034,644.0821],[-84.3109,10.0017,641.7053],[-84.3104,9.9986,674.3767],[-84.3179,9.9979,616.1146],[-84.3214,9.9957,598.8793],[-84.3236,9.9979,605.1081],[-84.3293,9.9973,629.2042],[-84.3331,10.0013,575.6401],[-84.3381,10.0013,564.182],[-84.3393,9.9959,613.0192],[-84.3418,9.9928,534.2025],[-84.3409,9.987,481.1554],[-84.3439,9.9859,496.5301],[-84.3425,9.982,461.1945],[-84.3457,9.9763,507.9156],[-84.3521,9.971,426.3825],[-84.3492,9.9696,416.7608],[-84.3506,9.9682,436.8692],[-84.3486,9.9668,424.4262],[-84.3486,9.9636,468.88],[-84.3458,9.9644,491.3163],[-84.3447,9.9672,510.8855],[-84.3385,9.9696,529.5198],[-84.3224,9.964,615.1428],[-84.3139,9.9674,653.9398],[-84.311,9.9669,658.8669],[-84.3107,9.9694,662.7918],[-84.300299999999993,9.9676,689.6981],[-84.2961,9.97,701.7838],[-84.2868,9.97,726.3429],[-84.281,9.9681,741.3699],[-84.2798,9.9703,750.5031],[-84.2738,9.9727,773.236],[-84.2728,9.9755,776.4418],[-84.2706,9.9758,778.5328]]]]}}