{"type": "Feature","bbox": [-84.0835,9.9668,-84.0331,10.0],"geometry": {"type": "MultiPolygon","coordinates": [[[[-84.0445,10.0,1260.2126],[-84.0445,9.9953,1260.2091],[-84.0475,9.9893,1237.2572],[-84.0528,9.9893,1231.3777],[-84.0574,9.9865,1207.5972],[-84.0593,9.9832,1186.4324],[-84.0584,9.9801,1184.5542],[-84.0625,9.9799,1166.1415],[-84.0678,9.9755,1165.9707],[-84.0763,9.9751,1132.0294],[-84.0835,9.9705,1106.3051],[-84.0794,9.9694,1121.3274],[-84.0791,9.9678,1125.3176],[-84.0764,9.9674,1111.3838],[-84.0759,9.9693,1141.6693],[-84.0676,9.9668,1170.5873],[-84.0646,9.9696,1164.4501],[-84.0639,9.9683,1153.2087],[-84.0605,9.969,1173.2888],[-84.0604,9.9705,1201.031],[-84.0577,9.9691,1167.7604],[-84.056,9.9709,1152.8007],[-84.0571,9.9729,1160.8491],[-84.053,9.9725,1168.9568],[-84.0521,9.9746,1178.6553],[-84.0542,9.9767,1191.5747],[-84.0482,9.9763,1212.4414],[-84.046,9.9813,1234.4982],[-84.0442,9.9805,1209.4556],[-84.0447,9.9824,1244.5283],[-84.0408,9.9846,1295.0713],[-84.043,9.9872,1271.6384],[-84.0398,9.9868,1242.9939],[-84.0332,9.9922,1281.4473],[-84.0348,9.9943,1290.4049],[-84.0331,9.9965,1303.7607],[-84.0337,9.9981,1310.2642],[-84.0421,9.9981,1283.8503],[-84.0445,10.0,1260.2126]]]]}
,"properties": {"GID_3": "CRI.4.9.3_1","GID_0": "CRI","country": "CostaRica","GID_1": "CRI.4_1","province": "Heredia","NL_NAME_1": "NA","GID_2": "CRI.4.9_1","county": "SantoDomingo","NL_NAME_2": "NA","city": "SanMiguel","VARNAME_3": "NA","NL_NAME_3": "NA","TYPE_3": "Distrito","ENGTYPE_3": "District","CC_3": "3","HASC_3": "NA","name": "San_Miguel.city","area_km2": 6.076459,"hist_schema_id": "Elevation0-9000","hist_area_km2": {"1100": 0.083528,"1125": 0.229701,"1150": 0.396757,"1175": 0.730861,"1200": 1.252905,"1225": 0.668202,"1250": 0.981407,"1275": 0.939638,"1300": 0.79346}}}