{"type": "Feature","bbox": [-83.6524,8.3744,-83.2711,8.6929],"geometry": {"type": "MultiPolygon","coordinates": [[[[-83.4862,8.6764,10.8696],[-83.4846,8.6746,4.1858],[-83.4851,8.6714,5.3507],[-83.4822,8.6699,7.3586],[-83.4809,8.6673,6.544],[-83.4831,8.6654,9.3276],[-83.4814,8.6608,13.6532],[-83.4838,8.6565,14.3791],[-83.4827,8.6522,16.6835],[-83.4847,8.6458,17.77],[-83.4842,8.6412,30.3175],[-83.4831,8.6398,18.0919],[-83.4792,8.6402,22.1165],[-83.4772,8.6375,21.7063],[-83.4765,8.6328,26.8902],[-83.4799,8.6299,39.6816],[-83.4776,8.627,28.1872],[-83.4863,8.6185,31.0759],[-83.4951,8.6166,37.5273],[-83.494,8.6138,34.4809],[-83.4979,8.6109,38.3235],[-83.4952,8.6084,37.7393],[-83.497,8.6042,41.6432],[-83.5,8.6049,63.0079],[-83.5062,8.5977,93.4896],[-83.5087,8.5979,104.1931],[-83.5116,8.5955,70.5799],[-83.5125,8.5972,90.8781],[-83.5146,8.5968,123.1829],[-83.515,8.5945,95.4507],[-83.5195,8.5952,115.2301],[-83.5236,8.5857,104.0609],[-83.5245,8.587,104.0609],[-83.5288,8.5851,121.3943],[-83.5325,8.5901,136.6018],[-83.5401,8.5899,141.1241],[-83.5408,8.5932,139.3317],[-83.5523,8.5929,160.3933],[-83.5522,8.5945,149.6121],[-83.5567,8.5963,166.7699],[-83.5587,8.6009,192.5088],[-83.5685,8.6033,244.0685],[-83.5688,8.6056,237.2462],[-83.5726,8.6095,336.0217],[-83.57,8.6096,382.9236],[-83.5683,8.6132,381.368],[-83.5702,8.6141,393.1922],[-83.5733,8.6247,397.0558],[-83.5838,8.6328,494.1266],[-83.5852,8.633,537.8994],[-83.5851,8.6315,481.1558],[-83.5805,8.6252,370.7296],[-83.579,8.6186,291.338],[-83.5859,8.6117,212.4896],[-83.5893,8.6137,202.537],[-83.5912,8.6116,189.7009],[-83.5988,8.6122,191.93],[-83.5994,8.6138,210.4089],[-83.6015,8.6137,187.7602],[-83.6009,8.6169,202.4937],[-83.6053,8.621,195.9786],[-83.6058,8.6238,165.5399],[-83.6101,8.6269,149.3679],[-83.6123,8.6252,177.6327],[-83.6162,8.6266,140.359],[-83.619,8.6238,150.2503],[-83.6213,8.6287,101.1339],[-83.6275,8.6293,84.8529],[-83.6306,8.6236,130.594],[-83.6303,8.6204,140.755],[-83.6284,8.6193,90.1989],[-83.6298,8.6135,156.5181],[-83.6277,8.612,126.9156],[-83.6309,8.6098,108.3457],[-83.6298,8.6075,100.4383],[-83.6329,8.6065,83.4127],[-83.6359,8.6012,75.531],[-83.6397,8.6024,80.5902],[-83.644,8.5944,49.9754],[-83.6332,8.5874,37.4278],[-83.6322,8.5822,26.1759],[-83.6283,8.5819,25.4006],[-83.6269,8.5769,21.6037],[-83.6238,8.5754,23.7962],[-83.6193,8.5768,19.4724],[-83.6173,8.575,19.3677],[-83.608,8.5729,25.6607],[-83.6021,8.5687,24.2715],[-83.5961,8.5608,15.2801],[-83.6029,8.5569,4.1282],[-83.6062,8.5518,4.4859],[-83.613,8.5485,5.0389],[-83.6177,8.5402,4.5293],[-83.6238,8.5382,13.2115],[-83.6239,8.5347,15.1298],[-83.63,8.5374,25.5578],[-83.6302,8.5354,23.9352],[-83.634,8.5353,18.9438],[-83.6316,8.5309,17.8543],[-83.633,8.5289,11.871],[-83.631,8.5251,27.3226],[-83.6292,8.5255,16.265],[-83.6243,8.5222,9.0038],[-83.6241,8.5238,18.029],[-83.6226,8.5234,8.8517],[-83.6212,8.5191,9.5704],[-83.6183,8.5191,5.3401],[-83.6202,8.5181,22.8631],[-83.6192,8.5149,15.6444],[-83.6092,8.5125,16.1031],[-83.6078,8.5108,16.1784],[-83.61,8.5086,15.1647],[-83.6224,8.5042,26.4313],[-83.6248,8.5075,21.6554],[-83.627,8.5077,12.7172],[-83.6293,8.5123,17.8092],[-83.6343,8.5136,20.6644],[-83.6343,8.5154,17.9902],[-83.637,8.5145,13.1701],[-83.6354,8.5175,14.2321],[-83.6392,8.5171,19.8208],[-83.6419,8.5222,18.3009],[-83.6446,8.5207,16.8639],[-83.6431,8.522,13.0681],[-83.6441,8.5245,18.6904],[-83.6513,8.5266,0.5103],[-83.6524,8.5242,0.0],[-83.6215,8.4997,0.0],[-83.6104,8.492,0.0],[-83.6097,8.4931,2.788],[-83.593,8.4712,0.0],[-83.5935,8.467,0.0],[-83.5903,8.4659,13.6171],[-83.5911,8.4641,1.3882],[-83.5894,8.459,5.2999],[-83.571,8.4504,0.0],[-83.5686,8.4479,0.0],[-83.5702,8.4433,0.0],[-83.5668,8.4405,16.927],[-83.5629,8.4422,20.3778],[-83.5453,8.4396,0.0],[-83.5408,8.4433,0.0],[-83.513,8.4484,0.0],[-83.4886,8.4469,0.0],[-83.4601,8.4416,0.0],[-83.4239,8.4296,3.9569],[-83.3793,8.4094,0.0],[-83.3189,8.3862,6.7961],[-83.3016,8.3767,0.0],[-83.2914,8.3744,4.1203],[-83.2872,8.3799,39.1507],[-83.2828,8.3819,0.0],[-83.2781,8.3874,27.0258],[-83.2797,8.3914,5.4615],[-83.2782,8.3946,14.0511],[-83.2811,8.3989,5.9908],[-83.2799,8.404,0.0],[-83.2811,8.4095,6.3055],[-83.2795,8.413,0.0],[-83.2803,8.4167,4.611],[-83.2738,8.4251,2.6217],[-83.2724,8.4297,3.1517],[-83.2739,8.4336,10.4001],[-83.2775,8.4362,0.0],[-83.2837,8.4454,0.0],[-83.2839,8.4477,0.0],[-83.2797,8.4567,0.0],[-83.2711,8.4651,0.0],[-83.2758,8.4736,0.0],[-83.2776,8.4805,0.0],[-83.284,8.4845,0.0],[-83.292,8.5001,0.0],[-83.285,8.5324,0.0],[-83.2855,8.5423,0.0],[-83.2903,8.5397,0.6257],[-83.2912,8.5367,0.0],[-83.2896,8.5352,3.9348],[-83.2909,8.5347,3.2356],[-83.2946,8.5354,7.0747],[-83.2991,8.5399,4.492],[-83.3043,8.5415,0.0],[-83.3057,8.5401,8.4213],[-83.3074,8.5445,0.6326],[-83.3104,8.5453,6.2645],[-83.3139,8.5491,3.92],[-83.3135,8.5509,2.15],[-83.3155,8.5519,10.9192],[-83.3231,8.5634,5.8103],[-83.3234,8.5666,9.8565],[-83.3263,8.5688,0.0],[-83.3354,8.5686,6.614],[-83.3397,8.5723,0.0],[-83.3526,8.5766,3.987],[-83.3743,8.575,6.5353],[-83.3776,8.5804,9.7375],[-83.3776,8.5842,1.5093],[-83.3795,8.5822,9.3677],[-83.3795,8.5853,5.8084],[-83.3863,8.5843,1.2259],[-83.3992,8.5928,0.0],[-83.4104,8.6061,4.1222],[-83.4132,8.6068,8.0866],[-83.4164,8.6125,0.502],[-83.4268,8.6183,3.5409],[-83.4281,8.6214,0.0],[-83.4274,8.6262,0.0],[-83.4307,8.6274,3.1497],[-83.4345,8.6336,7.6484],[-83.4365,8.634,7.147],[-83.4329,8.6469,3.2429],[-83.4344,8.6505,12.1817],[-83.4327,8.6523,5.4226],[-83.4344,8.6586,6.6056],[-83.4429,8.6673,0.0],[-83.446,8.6663,6.5968],[-83.4464,8.6681,8.2695],[-83.443,8.669,0.0],[-83.4496,8.6752,6.7125],[-83.4513,8.6747,2.042],[-83.4507,8.6719,5.6028],[-83.4541,8.6716,8.3423],[-83.453,8.6723,6.4323],[-83.4509,8.6722,4.0246],[-83.4518,8.6755,0.0],[-83.4563,8.6774,5.1083],[-83.4564,8.6813,1.1337],[-83.4587,8.682,5.7131],[-83.4572,8.6831,3.7957],[-83.4581,8.6855,0.0],[-83.4611,8.687,2.8812],[-83.4645,8.6865,1.0226],[-83.4678,8.6812,3.5557],[-83.4663,8.6879,3.057],[-83.4681,8.6929,2.7607],[-83.4722,8.6878,5.7502],[-83.4728,8.6896,6.7373],[-83.4811,8.69,2.2403],[-83.4819,8.6876,8.5874],[-83.479,8.6855,4.9539],[-83.482,8.684,4.0477],[-83.4817,8.6807,4.8131],[-83.4862,8.6764,10.8696]]]]}
,"properties": {"GID_3": "CRI.6.7.4_1","GID_0": "CRI","country": "CostaRica","GID_1": "CRI.6_1","province": "Puntarenas","NL_NAME_1": "NA","GID_2": "CRI.6.7_1","county": "Golfito","NL_NAME_2": "NA","city": "PuertoJiménez","VARNAME_3": "NA","NL_NAME_3": "NA","TYPE_3": "Distrito","ENGTYPE_3": "District","CC_3": "2","HASC_3": "NA","name": "Puerto_Jiménez.city","area_km2": 726.1118,"hist_schema_id": "Elevation0-9000","hist_area_km2": {"0": 59.338,"25": 141.6555,"50": 53.9709,"75": 44.5995,"100": 44.9986,"125": 44.6212,"150": 45.544,"175": 45.1036,"200": 39.7988,"225": 34.2634,"250": 30.363,"275": 25.4352,"300": 19.564,"325": 16.2091,"350": 12.6025,"375": 11.1346,"400": 10.5894,"425": 9.2475,"450": 7.6118,"475": 5.431,"500": 3.5647,"525": 3.4598,"550": 3.1872,"575": 2.5791,"600": 2.3485,"625": 1.8243,"650": 1.8243,"675": 1.8033,"700": 1.363,"725": 1.363,"750": 0.65,"775": 0.0629}}}