{"type":"Feature","properties":{"GID_3":"CRI.3.7.4_1","GID_0":"CRI","country":"CostaRica","GID_1":"CRI.3_1","province":"Guanacaste","NL_NAME_1":"NA","GID_2":"CRI.3.7_1","county":"Liberia","NL_NAME_2":"NA","city":"Mayorga","VARNAME_3":"NA","NL_NAME_3":"NA","TYPE_3":"Distrito","ENGTYPE_3":"District","CC_3":"3","HASC_3":"NA","name":"Mayorga.city"},
"geometry":{"type": "MultiPolygon","coordinates": [[[[-85.4489,10.9342,1596.1426],[-85.4579,10.9336,1445.8171],[-85.4596,10.9352,1384.7178],[-85.458,10.9618,1154.965],[-85.4631,10.9603,1081.4912],[-85.4654,10.9641,1009.1576],[-85.469,10.9652,944.0681],[-85.477,10.9619,825.7056],[-85.4862,10.9606,674.1129],[-85.4972,10.9558,548.7218],[-85.502,10.9516,505.4073],[-85.5092,10.9505,439.7732],[-85.5155,10.9457,392.2152],[-85.5203,10.9449,389.7682],[-85.5252,10.9409,337.8846],[-85.5254,10.9324,304.114],[-85.5281,10.9311,294.9637],[-85.5302,10.9275,284.3816],[-85.5254,10.925,270.4302],[-85.5274,10.9224,271.1852],[-85.5265,10.9203,276.3988],[-85.5338,10.916,265.0398],[-85.5343,10.9135,245.0327],[-85.5385,10.911,252.4708],[-85.5449,10.9035,234.4505],[-85.547,10.9049,209.0513],[-85.5509,10.9039,210.8888],[-85.559,10.8981,173.6588],[-85.5596,10.8946,164.187],[-85.5572,10.8948,167.1151],[-85.5559,10.8926,162.0999],[-85.5537,10.8923,182.615],[-85.5534,10.8895,150.82],[-85.5497,10.8868,157.0354],[-85.5489,10.8772,139.4321],[-85.5458,10.8717,132.9113],[-85.5525,10.8664,137.5171],[-85.551,10.8622,126.6965],[-85.5604,10.8596,121.2227],[-85.5637,10.8561,122.7858],[-85.5598,10.8522,113.8905],[-85.5597,10.8459,107.5455],[-85.5567,10.8444,109.0186],[-85.5535,10.8372,106.2317],[-85.5544,10.8325,101.6276],[-85.552,10.8275,100.4995],[-85.5423,10.8224,94.7077],[-85.5414,10.8205,99.7404],[-85.5484,10.8064,89.631],[-85.5484,10.8018,91.7875],[-85.5509,10.8,88.9687],[-85.5505,10.794,87.8369],[-85.5531,10.7903,86.4629],[-85.5499,10.7886,88.9672],[-85.5513,10.7843,88.0531],[-85.551,10.7795,85.77],[-85.5484,10.7752,89.0548],[-85.5493,10.7678,88.4542],[-85.5475,10.7638,88.8253],[-85.5445,10.7627,77.0319],[-85.550299999999993,10.7544,76.4318],[-85.5465,10.7463,74.8887],[-85.5454,10.7458,79.438],[-85.5429,10.7485,76.0452],[-85.5398,10.748,71.0206],[-85.534,10.7388,67.9386],[-85.5264,10.7364,62.7401],[-85.5253,10.7329,61.1751],[-85.5177,10.7375,73.3091],[-85.5198,10.7392,74.2888],[-85.5172,10.7487,81.3137],[-85.5178,10.7511,84.1213],[-85.5141,10.7572,87.6382],[-85.5167,10.7647,93.8473],[-85.5127,10.7661,95.0413],[-85.5141,10.7709,97.8105],[-85.5106,10.7797,118.4519],[-85.5043,10.785,174.4642],[-85.5043,10.7933,183.5802],[-85.5057,10.7942,152.8431],[-85.504,10.7965,178.8581],[-85.5046,10.7995,152.4988],[-85.498,10.8031,162.1882],[-85.495,10.8029,167.4522],[-85.4891,10.7973,179.308],[-85.4836,10.7997,198.6823],[-85.4811,10.7992,203.3556],[-85.4804,10.8086,246.6703],[-85.4786,10.8119,252.581],[-85.4772,10.8117,275.117],[-85.4775,10.8141,250.905],[-85.476,10.8139,250.905],[-85.4735,10.8176,268.863],[-85.4712,10.8151,292.4662],[-85.4673,10.8156,285.5356],[-85.466,10.8182,276.7804],[-85.4668,10.8212,288.9696],[-85.4653,10.822,288.9696],[-85.4673,10.8269,319.514],[-85.4634,10.8282,327.5419],[-85.4623,10.8306,338.8889],[-85.4525,10.8323,361.6995],[-85.4428,10.8434,391.0007],[-85.4428,10.8451,392.3124],[-85.4351,10.8449,418.1914],[-85.4332,10.8502,448.9108],[-85.4347,10.8516,501.2479],[-85.4331,10.8535,458.4721],[-85.4293,10.8527,467.3224],[-85.4259,10.8561,490.7741],[-85.425,10.8544,503.0866],[-85.418,10.8515,559.733],[-85.4156,10.8481,604.8587],[-85.4168,10.8466,610.422],[-85.4089,10.8431,715.5513],[-85.4018,10.8425,819.9126],[-85.3987,10.8407,912.4792],[-85.3953,10.8425,978.2916],[-85.3812,10.834,1317.6953],[-85.3777,10.8353,1459.8328],[-85.3814,10.8441,1161.2815],[-85.3945,10.8644,718.6066],[-85.4051,10.8716,648.1708],[-85.4087,10.8799,696.312],[-85.4139,10.8794,684.8885],[-85.4205,10.8902,810.3322],[-85.4227,10.8907,866.9504],[-85.4271,10.8965,932.7153],[-85.4343,10.8986,923.9818],[-85.4366,10.9082,997.8392],[-85.4471,10.9169,1311.2067],[-85.4477,10.9226,1326.4753],[-85.4455,10.9283,1539.176],[-85.4489,10.9342,1596.1426]]]]}}