{"type":"Feature","properties":{"GID_3":"CRI.1.13.8_1","GID_0":"CRI","country":"CostaRica","GID_1":"CRI.1_1","province":"Alajuela","NL_NAME_1":"NA","GID_2":"CRI.1.13_1","county":"SanRamón","NL_NAME_2":"NA","city":"SanJuan","VARNAME_3":"NA","NL_NAME_3":"NA","TYPE_3":"Distrito","ENGTYPE_3":"District","CC_3":"3","HASC_3":"NA","name":"San_Juan.city"},
"geometry":{"type": "MultiPolygon","coordinates": [[[[-84.4517,10.1156,1075.1758],[-84.4547,10.1174,1093.9371],[-84.4549,10.1193,1108.2451],[-84.4656,10.1197,1135.5076],[-84.4678,10.1179,1124.97],[-84.4723,10.0926,1060.1158],[-84.4656,10.0917,1027.8638],[-84.4577,10.095,1001.0685],[-84.458,10.0969,1000.9884],[-84.4529,10.1021,1021.5476],[-84.4538,10.1056,1016.6398],[-84.4522,10.1066,1003.6359],[-84.4517,10.1156,1075.1758]]]]}}