{"type": "Feature","bbox": [-82.9924,8.8514,-82.7628,9.089],"geometry": {"type": "MultiPolygon","coordinates": [[[[-82.9901,8.9006,614.5841],[-82.9887,8.8961,583.2752],[-82.9855,8.8935,799.1807],[-82.9879,8.8908,557.9719],[-82.9919,8.8919,558.6692],[-82.9924,8.8865,625.5266],[-82.9881,8.8841,594.456],[-82.9815,8.8841,820.7434],[-82.9815,8.8809,672.4401],[-82.9721,8.8785,779.3414],[-82.9716,8.8767,648.8978],[-82.9671,8.8767,784.6566],[-82.9628,8.874,866.0627],[-82.9618,8.8711,667.3615],[-82.9407,8.8711,896.7713],[-82.9511,8.8612,804.9147],[-82.9522,8.8575,881.1985],[-82.9442,8.8514,834.2154],[-82.9429,8.8527,792.6073],[-82.9412,8.8517,847.1485],[-82.9402,8.8533,808.0908],[-82.9383,8.8527,823.982],[-82.9349,8.8558,846.8317],[-82.9335,8.8538,824.3426],[-82.9301,8.8549,842.2838],[-82.9281,8.853,887.3524],[-82.9245,8.8622,913.6841],[-82.924,8.861,871.6769],[-82.9215,8.8616,904.0079],[-82.922,8.8633,904.6758],[-82.9163,8.8644,914.9611],[-82.9151,8.8663,923.1188],[-82.895,8.8644,986.1575],[-82.8848,8.8682,1019.1394],[-82.8715,8.8713,1028.3721],[-82.8632,8.8713,1044.6714],[-82.8518,8.8752,1101.0858],[-82.8473,8.8821,1075.4385],[-82.8149,8.8993,1198.999],[-82.8136,8.9057,1331.0596],[-82.8175,8.9108,1333.1187],[-82.8111,8.9203,1532.4104],[-82.8098,8.9247,1499.234],[-82.8149,8.9374,1439.4515],[-82.8111,8.94,1420.0895],[-82.806,8.9368,1465.3502],[-82.7958,8.9419,1592.6239],[-82.7857,8.9495,1735.2653],[-82.773,8.9635,1951.8115],[-82.773,8.9711,1904.8221],[-82.7653,8.9794,2125.2502],[-82.7628,8.998,2520.459],[-82.7656,8.9974,2476.6953],[-82.7708,8.9997,2589.9111],[-82.7741,9.0037,2548.1226],[-82.7777,9.0031,2539.4231],[-82.7823,9.0054,2567.6199],[-82.7852,9.0036,2578.3062],[-82.7996,9.0034,2658.0107],[-82.8053,9.0096,2756.4229],[-82.8035,9.0142,2783.4316],[-82.815,9.0196,2951.6228],[-82.8138,9.0234,2935.6858],[-82.8184,9.0305,3122.2483],[-82.8233,9.0304,3100.354],[-82.8239,9.0334,3032.5564],[-82.83,9.0356,2915.8452],[-82.8356,9.0338,2912.0657],[-82.8401,9.0399,2822.9521],[-82.8446,9.0404,2818.2468],[-82.8443,9.0429,2815.5452],[-82.8465,9.042,2804.7942],[-82.8507,9.0464,2889.5259],[-82.855,9.046,2959.6528],[-82.8577,9.0507,2957.5986],[-82.8569,9.0533,2945.3445],[-82.8588,9.0537,2896.3315],[-82.8586,9.0564,2917.564],[-82.8632,9.056,2839.9695],[-82.8639,9.0578,2828.5693],[-82.8682,9.0544,2857.1326],[-82.8705,9.0556,2846.5879],[-82.8707,9.0574,2835.5842],[-82.875,9.0579,2789.354],[-82.8784,9.0612,2902.0803],[-82.8795,9.07,3063.4565],[-82.8823,9.0707,3006.1489],[-82.8871,9.0798,3037.3782],[-82.8879,9.0832,3104.2688],[-82.8868,9.0873,3208.4089],[-82.8928,9.089,3240.4541],[-82.9072,9.082,3106.811],[-82.9076,9.0778,3038.229],[-82.9112,9.0757,2998.8677],[-82.9085,9.0715,2767.896],[-82.9012,9.0672,2622.873],[-82.8956,9.0615,2409.8574],[-82.8891,9.0507,2178.2979],[-82.8913,9.0437,2032.8589],[-82.8915,9.0352,1932.0842],[-82.8888,9.0173,1740.809],[-82.8857,9.0116,1663.7521],[-82.8871,9.0055,1645.801],[-82.8859,8.994,1511.325],[-82.8904,8.9805,1350.7015],[-82.8986,8.9818,1294.2373],[-82.903,8.9758,1223.0695],[-82.9109,8.9701,1171.204],[-82.9109,8.9583,1037.4626],[-82.9146,8.9512,981.5779],[-82.9115,8.9517,1011.8743],[-82.9093,8.9488,1036.026],[-82.901,8.9514,1098.2349],[-82.8899,8.9458,1107.6313],[-82.8836,8.9459,1144.6583],[-82.8827,8.944,1148.4353],[-82.8773,8.9421,1167.5253],[-82.8739,8.9446,1183.1265],[-82.869,8.9432,1198.6364],[-82.8632,8.9449,1216.6891],[-82.8612,8.9434,1223.0853],[-82.8614,8.9397,1253.1329],[-82.8573,8.9365,1306.9661],[-82.8518,8.9359,1286.71],[-82.8512,8.934,1349.3491],[-82.8488,8.9334,1367.8928],[-82.8591,8.9295,1306.8024],[-82.8652,8.9316,1288.1727],[-82.874,8.9314,1247.6719],[-82.8827,8.9344,1194.0234],[-82.8871,8.9275,1175.6608],[-82.8934,8.9251,1128.0911],[-82.9016,8.9251,1096.9934],[-82.8982,8.9196,1167.3424],[-82.9018,8.9142,1090.5928],[-82.9022,8.9099,1113.9296],[-82.9074,8.9124,1089.9751],[-82.9103,8.9107,1062.8154],[-82.9111,8.9121,1059.3373],[-82.9141,8.9113,1054.4293],[-82.9186,8.9135,1038.999],[-82.9245,8.9126,1017.1659],[-82.9279,8.9156,1029.6223],[-82.9307,8.9135,996.8002],[-82.933,8.9148,1001.5197],[-82.9358,8.914,990.5139],[-82.9449,8.9091,948.3589],[-82.9555,8.9095,902.4207],[-82.9624,8.9074,888.9534],[-82.969,8.9017,873.0325],[-82.9746,8.9035,827.7688],[-82.9769,8.9015,820.8453],[-82.982,8.9039,810.3386],[-82.9842,8.9014,696.0617],[-82.9901,8.9006,614.5841]]]]}
,"properties": {"GID_3": "CRI.6.4.2_1","GID_0": "CRI","country": "CostaRica","GID_1": "CRI.6_1","province": "Puntarenas","NL_NAME_1": "NA","GID_2": "CRI.6.4_1","county": "CotoBrus","NL_NAME_2": "NA","city": "GutiérrezBraun","VARNAME_3": "NA","NL_NAME_3": "NA","TYPE_3": "Distrito","ENGTYPE_3": "District","CC_3": "2","HASC_3": "NA","name": "Gutiérrez_Braun.city","area_km2": 248.6249,"hist_schema_id": "Elevation0-9000","hist_area_km2": {"550": 0.0419,"575": 0.0209,"600": 0.0419,"625": 0.0838,"650": 0.1885,"675": 0.1676,"700": 0.2514,"725": 0.3142,"750": 0.1257,"775": 0.6075,"800": 1.5082,"825": 2.5347,"850": 3.1003,"875": 3.9801,"900": 6.2844,"925": 5.3836,"950": 5.2579,"975": 5.0065,"1000": 5.216,"1025": 5.5511,"1050": 5.97,"1075": 5.3835,"1100": 4.5036,"1125": 5.3414,"1150": 5.2994,"1175": 4.6291,"1200": 4.65,"1225": 4.629,"1250": 4.2938,"1275": 4.3985,"1300": 4.6499,"1325": 4.7336,"1350": 4.1261,"1375": 4.3565,"1400": 3.3302,"1425": 3.3092,"1450": 2.8484,"1475": 2.8484,"1500": 2.3457,"1525": 2.5551,"1550": 2.3457,"1575": 2.1362,"1600": 2.3037,"1625": 2.2619,"1650": 2.7435,"1675": 2.4294,"1700": 2.5969,"1725": 2.2408,"1750": 2.4712,"1775": 2.534,"1800": 3.0157,"1825": 2.7853,"1850": 2.9319,"1875": 3.1832,"1900": 3.3298,"1925": 3.267,"1950": 3.8952,"1975": 3.4345,"2000": 3.4345,"2025": 3.4554,"2050": 3.0784,"2075": 3.0574,"2100": 2.7642,"2125": 2.1151,"2150": 2.7014,"2175": 2.0522,"2200": 2.1988,"2225": 2.0941,"2250": 1.8847,"2275": 1.7799,"2300": 2.1569,"2325": 2.115,"2350": 1.759,"2375": 1.5286,"2400": 1.5705,"2425": 1.5705,"2450": 1.4867,"2475": 1.2564,"2500": 1.7171,"2525": 1.4449,"2550": 1.3611,"2575": 1.3401,"2600": 1.3611,"2625": 1.0679,"2650": 1.3192,"2675": 1.4239,"2700": 1.1098,"2725": 0.8585,"2750": 1.3401,"2775": 1.026,"2800": 1.0051,"2825": 0.7957,"2850": 1.1307,"2875": 0.67,"2900": 0.8166,"2925": 0.9003,"2950": 0.7956,"2975": 0.4606,"3000": 0.3559,"3025": 0.5444,"3050": 0.4816,"3075": 0.5025,"3100": 0.3769,"3125": 0.1256,"3150": 0.2094,"3175": 0.1047,"3200": 0.0837,"3225": 0.0628}}}