{"type": "Feature","bbox": [-83.9018,9.216,-83.7527,9.4179],"geometry": {"type": "MultiPolygon","coordinates": [[[[-83.756,9.2439,874.315],[-83.7546,9.2485,1036.9305],[-83.766,9.2763,1073.4053],[-83.7611,9.2911,1177.6417],[-83.7635,9.2938,1130.0588],[-83.7639,9.3012,1055.3546],[-83.7701,9.3102,1001.6294],[-83.7706,9.3161,942.8721],[-83.7699,9.3194,879.568],[-83.7672,9.322,1013.6532],[-83.7603,9.3227,1069.3956],[-83.7588,9.3246,1067.9064],[-83.7551,9.3251,1044.6987],[-83.7539,9.3308,1125.3907],[-83.755,9.3326,1131.4213],[-83.7666,9.3366,1140.74],[-83.7676,9.3422,1145.9348],[-83.7752,9.3512,1271.0281],[-83.7785,9.3523,1246.322],[-83.7808,9.3588,1209.899],[-83.7846,9.3607,1112.2515],[-83.7874,9.3643,1055.5876],[-83.804,9.3705,1280.1172],[-83.8081,9.3836,1307.6107],[-83.8057,9.3861,1350.6794],[-83.8055,9.3888,1386.5367],[-83.8122,9.3956,1287.2673],[-83.8129,9.4031,1286.6685],[-83.8181,9.4101,1340.2373],[-83.8219,9.4113,1201.9902],[-83.8248,9.4102,1210.4066],[-83.833,9.3991,1152.6139],[-83.8403,9.4025,1100.9871],[-83.8437,9.407,1123.0098],[-83.8551,9.4121,1104.6428],[-83.8612,9.4083,937.4069],[-83.8724,9.414,865.8409],[-83.8735,9.4159,842.9988],[-83.8765,9.415,830.1205],[-83.8818,9.4179,772.1906],[-83.8852,9.4133,754.1121],[-83.8894,9.4133,828.7855],[-83.8914,9.4101,823.8241],[-83.8903,9.4024,940.8315],[-83.9018,9.3993,1024.4333],[-83.8976,9.3868,999.0389],[-83.8953,9.3868,1032.8584],[-83.8914,9.3828,908.9004],[-83.8874,9.3749,586.4018],[-83.8915,9.3673,478.3674],[-83.891,9.3626,418.6846],[-83.8865,9.3611,373.7748],[-83.8799,9.3615,324.6418],[-83.8701,9.3546,238.7977],[-83.8705,9.3482,240.9156],[-83.8641,9.3429,171.5961],[-83.8606,9.3432,171.1943],[-83.8515,9.3398,190.2168],[-83.8421,9.3433,134.9516],[-83.8403,9.3394,133.9719],[-83.8413,9.3364,111.916],[-83.8472,9.3344,109.995],[-83.8455,9.33,149.3384],[-83.8495,9.3253,92.4629],[-83.8539,9.3244,82.4573],[-83.8558,9.3104,176.333],[-83.8601,9.308,70.1845],[-83.8587,9.3033,92.1053],[-83.8546,9.3022,73.1911],[-83.8565,9.3004,100.5805],[-83.8568,9.2962,98.6678],[-83.855,9.2931,49.8634],[-83.858,9.2909,33.5066],[-83.8556,9.2876,57.1845],[-83.8504,9.2695,295.436],[-83.8459,9.2604,411.1419],[-83.8422,9.2564,421.1251],[-83.837,9.2557,428.7531],[-83.8319,9.2527,430.4532],[-83.8192,9.2424,516.8653],[-83.8095,9.2289,566.2468],[-83.802,9.2288,524.1702],[-83.7958,9.2247,570.5634],[-83.7865,9.2242,617.5568],[-83.7804,9.2207,610.3345],[-83.7766,9.2217,549.6075],[-83.7741,9.2179,593.1927],[-83.7715,9.22,681.0681],[-83.7676,9.216,720.3828],[-83.7569,9.2174,695.6821],[-83.7527,9.2218,750.2688],[-83.7544,9.224,765.3099],[-83.7534,9.2274,763.7623],[-83.7555,9.2322,752.9825],[-83.7606,9.2383,809.9199],[-83.7578,9.2436,845.2803],[-83.756,9.2439,874.315]]]]}
,"properties": {"GID_3": "CRI.7.13.1_1","GID_0": "CRI","country": "CostaRica","GID_1": "CRI.7_1","province": "SanJosé","NL_NAME_1": "NA","GID_2": "CRI.7.13_1","county": "PérezZeledón","NL_NAME_2": "NA","city": "Baru","VARNAME_3": "NA","NL_NAME_3": "NA","TYPE_3": "Distrito","ENGTYPE_3": "District","CC_3": "9","HASC_3": "NA","name": "Baru.city","area_km2": 192.3597,"hist_schema_id": "Elevation0-9000","hist_area_km2": {"0": 0.0209,"25": 0.7114,"50": 1.2764,"75": 1.6321,"100": 2.6992,"125": 4.3729,"150": 4.7913,"175": 4.8541,"200": 5.5656,"225": 6.2142,"250": 6.4025,"275": 7.0721,"300": 6.4444,"325": 6.5071,"350": 7.2395,"375": 6.9257,"400": 7.4487,"425": 7.4277,"450": 6.7371,"475": 5.8375,"500": 5.2935,"525": 5.7329,"550": 5.6282,"575": 4.7285,"600": 4.5401,"625": 4.7075,"650": 5.1886,"675": 5.0213,"700": 5.3351,"725": 4.2262,"750": 4.1842,"775": 3.8076,"800": 3.0963,"825": 2.7196,"850": 2.7196,"875": 2.7404,"900": 2.5312,"925": 2.1756,"950": 1.8618,"975": 2.1756,"1000": 2.1548,"1025": 1.8828,"1050": 1.4226,"1075": 1.2343,"1100": 1.0251,"1125": 0.8159,"1150": 0.7113,"1175": 0.6276,"1200": 0.3138,"1225": 0.4811,"1250": 0.4602,"1275": 0.2719,"1300": 0.4393,"1325": 0.5648,"1350": 0.7112,"1375": 0.523,"1400": 0.1046,"1425": 0.0209}}}