{"type":"Feature","properties":{"GID_3":"CRI.7.2.1_1","GID_0":"CRI","country":"CostaRica","GID_1":"CRI.7_1","province":"SanJosé","NL_NAME_1":"NA","GID_2":"CRI.7.2_1","county":"Alajuelita","NL_NAME_2":"NA","city":"Alajuelita","VARNAME_3":"NA","NL_NAME_3":"NA","TYPE_3":"Distrito","ENGTYPE_3":"District","CC_3":"1","HASC_3":"NA","name":"Alajuelita.city"},
"geometry":{"type": "MultiPolygon","coordinates": [[[[-84.0943,9.9022,1102.3538],[-84.0962,9.9061,1104.8182],[-84.0983,9.9057,1104.6924],[-84.1003,9.9093,1110.9449],[-84.1058,9.9104,1108.304],[-84.1041,9.8986,1155.592],[-84.1001,9.8967,1149.113],[-84.0965,9.8973,1128.7034],[-84.0935,9.9008,1109.9845],[-84.0943,9.9022,1102.3538]]]]}}