{"type":"Feature","properties":{"GID_3":"CRI.4.10.5_1","GID_0":"CRI","country":"CostaRica","GID_1":"CRI.4_1","province":"Heredia","NL_NAME_1":"NA","GID_2":"CRI.4.10_1","county":"Sarapiquí","NL_NAME_2":"NA","city":"PuertoViejo","VARNAME_3":"NA","NL_NAME_3":"NA","TYPE_3":"Distrito","ENGTYPE_3":"District","CC_3":"1","HASC_3":"NA","name":"Puerto_Viejo.city"},
"geometry":{"type": "MultiPolygon","coordinates": [[[[-84.0,10.6695,19.0457],[-84.0004,10.6533,30.8871],[-83.9966,10.6476,20.0309],[-84.0002,10.636,23.9731],[-83.9958,10.6339,23.4825],[-83.9956,10.6316,25.8865],[-83.9989,10.6269,24.0752],[-83.9941,10.6227,21.472],[-84.0004,10.6206,25.0783],[-84.0019,10.6176,21.7907],[-84.0006,10.6143,21.1225],[-83.9933,10.6127,23.726],[-83.992,10.611,20.9957],[-83.9964,10.6063,22.8995],[-83.9942,10.5966,23.8076],[-83.995,10.5929,24.4748],[-83.9972,10.5912,25.5582],[-84.0011,10.5928,24.8914],[-84.0046,10.5914,24.555],[-84.0028,10.585,23.0],[-84.009,10.5764,33.7214],[-84.0091,10.5736,30.6776],[-84.0114,10.5725,32.5866],[-84.0093,10.571,33.3833],[-84.0109,10.5648,32.8141],[-84.013,10.5651,33.7164],[-84.015,10.5624,46.9385],[-84.0187,10.5614,39.9555],[-84.0192,10.5586,29.9002],[-84.02,10.5603,34.7843],[-84.0242,10.5581,31.8003],[-84.0233,10.5549,30.1317],[-84.026,10.5562,30.6367],[-84.027,10.5532,32.9785],[-84.0271,10.5552,29.4465],[-84.0286,10.5556,33.2716],[-84.0302,10.5499,42.1553],[-84.0355,10.5466,32.7932],[-84.0407,10.5465,33.5201],[-84.0449,10.5437,35.8389],[-84.0432,10.5423,34.6793],[-84.0432,10.5387,30.2708],[-84.0456,10.5328,33.2442],[-84.048,10.5349,35.8022],[-84.0516,10.5293,38.4286],[-84.0534,10.531,33.9915],[-84.0571,10.5281,38.167],[-84.0563,10.5264,37.353],[-84.06,10.526,39.6587],[-84.0622,10.5281,36.898],[-84.0643,10.5255,40.0464],[-84.0683,10.5255,39.7343],[-84.0685,10.5234,37.2315],[-84.0709,10.5229,38.8731],[-84.0694,10.5218,41.2091],[-84.07,10.5195,42.5347],[-84.0741,10.5206,48.1375],[-84.0735,10.5194,42.8048],[-84.0754,10.5199,40.9415],[-84.0783,10.5178,42.5846],[-84.0759,10.5172,42.404],[-84.0757,10.5145,61.0821],[-84.0786,10.5156,44.3442],[-84.0808,10.514,48.292],[-84.079,10.5118,53.661],[-84.0821,10.511,52.303],[-84.082,10.509,50.2168],[-84.0778,10.5086,66.1331],[-84.0776,10.4986,112.0907],[-84.0716,10.489,144.7005],[-84.0727,10.4855,148.799],[-84.0682,10.4805,163.3491],[-84.0697,10.4763,194.5792],[-84.063,10.4698,181.5872],[-84.0639,10.4627,172.0822],[-84.0746,10.4547,110.5527],[-84.075,10.4504,76.6861],[-84.0694,10.449,79.1897],[-84.0663,10.4515,74.8811],[-84.0636,10.4497,65.2201],[-84.0554,10.4502,61.0179],[-84.0449,10.4434,52.4238],[-84.041,10.4379,53.4112],[-84.0342,10.4397,50.2388],[-84.0344,10.4371,49.1045],[-84.0299,10.4362,59.6273],[-84.0268,10.4322,47.048],[-84.0244,10.433,48.5383],[-84.0243,10.4387,51.7734],[-84.0224,10.4399,45.529],[-84.0192,10.4376,35.2429],[-84.0183,10.4401,45.4223],[-84.0131,10.4409,50.084],[-84.0131,10.4445,39.9452],[-84.0109,10.4443,40.6285],[-84.011,10.4391,54.095],[-84.0069,10.4389,50.767],[-84.0059,10.4437,42.2112],[-83.994,10.44,66.1081],[-83.9874,10.4417,62.7677],[-83.978,10.4408,61.5461],[-83.9712,10.4439,61.8463],[-83.9579,10.4407,57.6017],[-83.9427,10.4451,46.9454],[-83.9351,10.4415,46.9233],[-83.9356,10.4489,48.06],[-83.941,10.4578,45.8566],[-83.9461,10.4614,46.2174],[-83.8321,10.4607,50.937],[-83.8309,10.4656,46.898],[-83.838,10.4721,45.9904],[-83.8386,10.4745,45.8632],[-83.8365,10.4787,46.3812],[-83.831,10.4819,44.5719],[-83.8281,10.4944,44.0269],[-83.8322,10.4962,45.8023],[-83.8311,10.5034,41.7883],[-83.8392,10.5115,41.4595],[-83.8376,10.5157,41.8504],[-83.8378,10.5324,37.0951],[-83.8404,10.5392,37.2527],[-83.8454,10.54,36.9661],[-83.8462,10.5463,35.9523],[-83.8431,10.5487,35.0751],[-83.8473,10.5511,35.7506],[-83.845,10.5559,35.6969],[-83.8457,10.5588,34.5898],[-83.844,10.5636,33.8289],[-83.8404,10.5663,32.8369],[-83.8437,10.5729,37.0641],[-83.8416,10.5741,43.6055],[-83.8381,10.5808,49.0398],[-83.9448,10.5805,28.3791],[-83.942,10.5863,31.9028],[-83.9367,10.5881,27.7887],[-83.9348,10.5911,28.7178],[-83.9408,10.5959,27.3319],[-83.9344,10.5986,26.4568],[-83.9332,10.6011,24.9097],[-83.9339,10.6033,25.0625],[-83.9385,10.6064,28.4913],[-83.9355,10.6142,24.5489],[-83.9354,10.6247,23.3977],[-83.9323,10.6301,23.8595],[-83.9251,10.6307,24.5177],[-83.9223,10.6327,22.1859],[-83.9216,10.6432,24.7789],[-83.9238,10.6463,20.2282],[-83.922,10.6502,21.6198],[-83.9242,10.6544,20.7923],[-83.9274,10.6556,18.4462],[-83.9317,10.6606,20.0653],[-83.9337,10.6668,20.4413],[-83.9276,10.674,21.1314],[-83.9276,10.6796,17.1675],[-83.9297,10.6845,24.6201],[-83.9258,10.6898,18.2049],[-83.929,10.6911,31.6106],[-83.9303,10.6937,19.7763],[-83.9219,10.6984,18.2886],[-83.9223,10.7021,19.8037],[-83.9191,10.7087,13.6931],[-83.9217,10.7095,12.4276],[-83.9322,10.7074,15.3704],[-83.9355,10.7096,13.4089],[-83.9368,10.7144,12.7453],[-83.9423,10.7136,23.0269],[-83.9434,10.7097,11.5],[-83.9351,10.7046,13.0538],[-83.9352,10.7,14.8594],[-83.9366,10.698,12.5],[-83.9444,10.6967,16.3816],[-83.9498,10.6925,15.7315],[-83.955,10.6769,14.5692],[-83.9619,10.6787,17.129],[-83.9702,10.6846,16.0311],[-83.9738,10.6846,19.1171],[-83.9784,10.678,17.1662],[-83.9823,10.6756,18.3502],[-83.9874,10.6802,17.8615],[-83.99,10.6805,23.1006],[-83.9924,10.6761,18.6584],[-83.9981,10.6731,20.5022],[-84.0,10.6695,19.0457]]]]}}