{"type": "Feature","bbox": [-84.0515,10.0048,-84.0102,10.0601],"geometry": {"type": "MultiPolygon","coordinates": [[[[-84.0315,10.0574,1985.0303],[-84.025,10.0404,1496.0942],[-84.0272,10.0352,1466.7505],[-84.0318,10.0302,1419.295],[-84.0382,10.0295,1398.4072],[-84.042,10.0234,1378.6219],[-84.0515,10.0203,1362.0002],[-84.0461,10.0102,1296.5868],[-84.0461,10.0056,1284.0558],[-84.0422,10.0048,1278.6958],[-84.0377,10.0118,1292.2354],[-84.0282,10.014,1336.4252],[-84.0273,10.0161,1341.5403],[-84.0233,10.0138,1337.4927],[-84.0197,10.0162,1355.3003],[-84.0199,10.019,1365.8555],[-84.0126,10.0215,1378.1382],[-84.011,10.026,1402.2075],[-84.0102,10.0373,1484.842],[-84.0125,10.0395,1504.9236],[-84.0158,10.05,1602.637],[-84.0283,10.0601,2067.9856],[-84.0315,10.0574,1985.0303]]]]}
,"properties": {"GID_3": "CRI.4.5.4_1","GID_0": "CRI","country": "CostaRica","GID_1": "CRI.4_1","province": "Heredia","NL_NAME_1": "NA","GID_2": "CRI.4.5_1","county": "SanIsidro","NL_NAME_2": "NA","city": "SanJosé","VARNAME_3": "NA","NL_NAME_3": "NA","TYPE_3": "Distrito","ENGTYPE_3": "District","CC_3": "2","HASC_3": "NA","name": "San_José.city","area_km2": 11.253355,"hist_schema_id": "Elevation0-9000","hist_area_km2": {"1275": 0.146157,"1300": 0.64726,"1325": 1.148348,"1350": 1.607671,"1375": 1.315353,"1400": 1.357096,"1425": 0.918639,"1450": 0.70985,"1475": 0.688966,"1500": 0.375796,"1525": 0.250529,"1550": 0.313159,"1575": 0.250526,"1600": 0.146139,"1625": 0.146139,"1650": 0.167015,"1675": 0.146138,"1700": 0.146138,"1725": 0.146137,"1750": 0.06263,"1775": 0.083507,"1800": 0.06263,"1825": 0.06263,"1850": 0.104383,"1875": 0.020876,"1900": 0.020876,"1925": 0.062629,"1950": 0.062629,"1975": 0.041753,"2025": 0.041753}}}