{"type":"Feature","properties":{"GID_3":"CRI.7.14.3_1","GID_0":"CRI","country":"CostaRica","GID_1":"CRI.7_1","province":"SanJosé","NL_NAME_1":"NA","GID_2":"CRI.7.14_1","county":"Puriscal","NL_NAME_2":"NA","city":"Chires","VARNAME_3":"NA","NL_NAME_3":"NA","TYPE_3":"Distrito","ENGTYPE_3":"District","CC_3":"9","HASC_3":"NA","name":"Chires.city"},
"geometry":{"type": "MultiPolygon","coordinates": [[[[-84.3036,9.6499,66.1192],[-84.3053,9.6515,69.8361],[-84.3051,9.6577,78.7388],[-84.2997,9.6629,83.6075],[-84.3013,9.6687,101.7507],[-84.2972,9.6707,111.2366],[-84.2969,9.674,90.9276],[-84.3069,9.6837,159.2642],[-84.3094,9.6978,107.8832],[-84.3149,9.7002,140.1694],[-84.3184,9.7044,170.5078],[-84.323,9.7035,154.5998],[-84.3231,9.7076,131.705],[-84.3291,9.7116,133.7075],[-84.3282,9.7148,159.254],[-84.3327,9.7172,157.6169],[-84.3301,9.7201,148.8327],[-84.3329,9.7231,178.5211],[-84.3319,9.728,176.0012],[-84.334,9.7304,200.7389],[-84.3391,9.7272,247.5221],[-84.3423,9.73,296.5255],[-84.3448,9.7284,351.5652],[-84.3518,9.7308,563.6278],[-84.3597,9.7261,847.0908],[-84.3682,9.7254,1270.168],[-84.3718,9.734,1034.1809],[-84.3794,9.7356,1036.949],[-84.3834,9.7346,1039.7231],[-84.3857,9.7364,972.2175],[-84.3895,9.7473,1062.9309],[-84.3934,9.7432,829.2621],[-84.3936,9.7409,803.7244],[-84.4002,9.7397,749.6042],[-84.3996,9.7347,604.231],[-84.4025,9.732,539.6578],[-84.4029,9.7289,521.8353],[-84.4146,9.7172,416.5599],[-84.4163,9.7137,374.3291],[-84.4157,9.7038,315.6116],[-84.4217,9.7036,282.678],[-84.4272,9.7054,244.4434],[-84.4343,9.7006,215.1252],[-84.4354,9.7021,280.369],[-84.4478,9.7038,173.14],[-84.4564,9.6953,153.1837],[-84.4611,9.6953,169.1876],[-84.4697,9.6873,92.8172],[-84.4723,9.6918,79.4219],[-84.4753,9.6904,82.5892],[-84.4733,9.6885,81.8369],[-84.4737,9.6871,82.3606],[-84.4774,9.6879,80.8494],[-84.4813,9.6841,75.5564],[-84.4856,9.6846,76.5109],[-84.4857,9.6822,89.8377],[-84.4822,9.6794,63.8512],[-84.4838,9.6774,77.9275],[-84.4804,9.6767,62.6328],[-84.4807,9.6724,69.1841],[-84.4759,9.672,59.3415],[-84.4737,9.6646,90.4079],[-84.469,9.6619,128.6873],[-84.4744,9.6598,60.0937],[-84.4774,9.6602,78.7961],[-84.4767,9.6545,79.3767],[-84.4793,9.6523,83.621],[-84.4775,9.6503,175.0211],[-84.4822,9.6494,68.6],[-84.4846,9.6449,104.6461],[-84.4894,9.6419,56.5457],[-84.4865,9.6396,77.3898],[-84.4848,9.6242,44.9402],[-84.4802,9.6207,30.0166],[-84.4779,9.6156,32.3501],[-84.4818,9.6057,40.8654],[-84.4799,9.6051,26.3514],[-84.4792,9.603,23.9051],[-84.477,9.6045,34.4777],[-84.4757,9.6017,23.5577],[-84.4775,9.6004,23.4914],[-84.4806,9.6012,25.4314],[-84.4778,9.596,20.8148],[-84.4801,9.5946,28.4485],[-84.476,9.5944,21.1145],[-84.4773,9.5911,18.861],[-84.4739,9.5896,22.719],[-84.4808,9.585,36.3542],[-84.4844,9.5854,46.307],[-84.483,9.5819,54.9052],[-84.4807,9.581,20.7082],[-84.4819,9.5768,23.8175],[-84.4784,9.5734,46.9404],[-84.4747,9.5743,42.0717],[-84.4728,9.5719,35.0136],[-84.4723,9.5743,53.2741],[-84.4696,9.5761,56.8173],[-84.4645,9.5731,30.8708],[-84.4639,9.57,31.901],[-84.4621,9.5723,29.952],[-84.4621,9.5765,60.0715],[-84.4571,9.5821,51.1428],[-84.4534,9.5771,45.9055],[-84.4513,9.578,40.4511],[-84.4495,9.5757,32.879],[-84.4447,9.5777,36.6261],[-84.4452,9.5755,36.1379],[-84.4417,9.5756,30.9696],[-84.442,9.5729,35.9909],[-84.4392,9.5722,42.6184],[-84.4398,9.5689,35.4642],[-84.4342,9.5693,88.5199],[-84.4383,9.5651,39.9689],[-84.4348,9.5648,37.9727],[-84.4366,9.5626,62.0372],[-84.4318,9.5595,39.2924],[-84.4309,9.5566,47.5321],[-84.4294,9.5605,53.0687],[-84.4284,9.5586,41.1853],[-84.4249,9.5587,58.0923],[-84.4281,9.5649,48.965],[-84.4264,9.566,83.7882],[-84.4227,9.5621,47.6808],[-84.4234,9.5693,53.9623],[-84.4174,9.569,69.8719],[-84.418,9.5721,76.2693],[-84.4143,9.5727,56.928],[-84.415,9.5751,56.6446],[-84.4128,9.5746,60.5624],[-84.4146,9.5777,57.6715],[-84.4128,9.5799,67.7267],[-84.4155,9.5798,62.1957],[-84.4143,9.5833,60.3003],[-84.4097,9.5833,65.7696],[-84.4078,9.5813,63.7809],[-84.4052,9.5815,75.1676],[-84.4047,9.5834,68.4575],[-84.4018,9.5828,66.9801],[-84.4024,9.5873,89.0477],[-84.401,9.5896,71.1819],[-84.3985,9.5894,79.6745],[-84.3991,9.5927,113.3501],[-84.3972,9.5968,114.4572],[-84.394,9.5972,103.8703],[-84.3918,9.6002,96.605],[-84.3943,9.6048,95.1769],[-84.3962,9.6053,116.0515],[-84.3981,9.6136,115.5324],[-84.3977,9.6168,119.062],[-84.394,9.6211,130.1186],[-84.3969,9.6249,141.7057],[-84.3964,9.6321,163.2377],[-84.3982,9.6351,139.1641],[-84.3965,9.6367,130.8739],[-84.3877,9.6386,230.8167],[-84.3848,9.6369,245.1371],[-84.3857,9.6355,237.0772],[-84.3843,9.6336,253.8798],[-84.3803,9.6355,257.7839],[-84.3786,9.6341,258.256],[-84.3768,9.6354,258.256],[-84.3758,9.6396,270.0469],[-84.3754,9.6359,266.562],[-84.372,9.6348,279.8544],[-84.3687,9.6374,274.4519],[-84.3692,9.6349,274.7458],[-84.3659,9.6316,268.3275],[-84.3622,9.6317,284.3255],[-84.3599,9.6328,304.9639],[-84.361,9.6361,307.9844],[-84.3594,9.6387,308.426],[-84.357,9.6375,314.409],[-84.3502,9.6397,321.0067],[-84.3457,9.6306,339.2141],[-84.3411,9.6335,343.8181],[-84.3416,9.6358,353.7876],[-84.3368,9.635,305.6382],[-84.3369,9.6377,355.9603],[-84.3344,9.641,320.6898],[-84.3247,9.6365,294.9835],[-84.3122,9.6428,262.951],[-84.3091,9.6416,179.5399],[-84.3042,9.644,185.3834],[-84.305,9.6466,129.4634],[-84.3036,9.6499,66.1192]]]]}}