{"type": "Feature","bbox": [-83.9966,9.899,-83.9771,9.9145],"geometry": {"type": "MultiPolygon","coordinates": [[[[-83.9929,9.9113,1339.0182],[-83.9966,9.9074,1309.4186],[-83.9957,9.899,1290.2941],[-83.9913,9.9011,1298.7194],[-83.9868,9.9005,1317.9514],[-83.9771,9.9145,1403.6135],[-83.9919,9.9144,1389.5507],[-83.9929,9.9113,1339.0182]]]]}
,"properties": {"GID_3": "CRI.2.5.8_1","GID_0": "CRI","country": "CostaRica","GID_1": "CRI.2_1","province": "Cartago","NL_NAME_1": "NA","GID_2": "CRI.2.5_1","county": "LaUnión","NL_NAME_2": "NA","city": "TresRíos","VARNAME_3": "NA","NL_NAME_3": "NA","TYPE_3": "Distrito","ENGTYPE_3": "District","CC_3": "1","HASC_3": "NA","name": "Tres_Ríos.city","area_km2": 2.213915,"hist_schema_id": "Elevation0-9000","hist_area_km2": {"1275": 0.062659,"1300": 0.459498,"1325": 0.605697,"1350": 0.438604,"1375": 0.396829,"1400": 0.250628}}}