{"type":"Feature","properties":{"GID_3":"CRI.1.4.4_1","GID_0":"CRI","country":"CostaRica","GID_1":"CRI.1_1","province":"Alajuela","NL_NAME_1":"NA","GID_2":"CRI.1.4_1","county":"Grecia","NL_NAME_2":"NA","city":"SanIsidro","VARNAME_3":"NA","NL_NAME_3":"NA","TYPE_3":"Distrito","ENGTYPE_3":"District","CC_3":"2","HASC_3":"NA","name":"San_Isidro.city"},
"geometry":{"type": "MultiPolygon","coordinates": [[[[-84.2921,10.0784,1010.221],[-84.2935,10.0822,1020.9646],[-84.2915,10.0855,1040.5339],[-84.2862,10.0898,1057.3241],[-84.2857,10.092,1072.5669],[-84.2818,10.0927,1094.1602],[-84.2785,10.0971,1132.5815],[-84.2772,10.1015,1163.4393],[-84.2715,10.109,1231.8938],[-84.2694,10.1156,1283.3912],[-84.2606,10.123,1355.4358],[-84.257,10.1298,1441.1785],[-84.2532,10.1313,1485.9285],[-84.2466,10.1377,1638.2344],[-84.2367,10.1594,2229.6528],[-84.2307,10.1633,2346.2717],[-84.2307,10.1681,2447.0588],[-84.2327,10.1676,2470.1382],[-84.2324,10.1709,2472.0654],[-84.2368,10.1744,2527.4812],[-84.2377,10.1813,2529.1868],[-84.2364,10.185,2553.4148],[-84.239,10.1866,2554.1345],[-84.2436,10.184,2568.7654],[-84.241,10.1765,2591.5574],[-84.2443,10.1694,2450.2798],[-84.2417,10.1654,2336.1958],[-84.2476,10.1522,1870.1497],[-84.259,10.143,1590.66],[-84.2639,10.1359,1463.7766],[-84.269,10.134,1407.4795],[-84.2765,10.1274,1322.5233],[-84.2781,10.1197,1257.3235],[-84.2887,10.11,1194.3677],[-84.2927,10.1009,1111.7729],[-84.3077,10.0857,992.4355],[-84.3101,10.0804,995.717],[-84.3131,10.0797,961.1235],[-84.3078,10.0777,1017.2888],[-84.3046,10.0812,1023.9365],[-84.2978,10.0805,1026.7552],[-84.2952,10.0784,1045.3888],[-84.2955,10.076599999999999,1045.3691],[-84.2921,10.0784,1010.221]]]]}}