{"type":"Feature","properties":{"GID_3":"CRI.2.5.6_1","GID_0":"CRI","country":"CostaRica","GID_1":"CRI.2_1","province":"Cartago","NL_NAME_1":"NA","GID_2":"CRI.2.5_1","county":"LaUnión","NL_NAME_2":"NA","city":"SanRafael","VARNAME_3":"NA","NL_NAME_3":"NA","TYPE_3":"Distrito","ENGTYPE_3":"District","CC_3":"4","HASC_3":"NA","name":"San_Rafael.city"},
"geometry":{"type": "MultiPolygon","coordinates": [[[[-83.9763,9.8819,1836.038],[-83.9721,9.8844,1780.2299],[-83.97,9.889,1758.1014],[-83.962,9.8909,1660.8994],[-83.9627,9.8984,1518.5433],[-83.96,9.8965,1587.6035],[-83.9593,9.9005,1531.7584],[-83.9547,9.9026,1522.7439],[-83.9547,9.915,1594.7384],[-83.9531,9.9161,1608.4705],[-83.9629,9.9244,1683.7563],[-83.9778,9.92,1461.8289],[-83.9791,9.9168,1434.2305],[-83.9771,9.9145,1403.6135],[-83.9812,9.9098,1360.3918],[-83.9839,9.9034,1325.687],[-83.9867,9.9018,1317.9514],[-83.9763,9.8949,1444.0995],[-83.9759,9.8926,1480.4924],[-83.9801,9.884,1819.1025],[-83.9763,9.8819,1836.038]]]]}}