{"type":"Feature","properties":{"GID_3":"CRI.1.10.1_1","GID_0":"CRI","country":"CostaRica","GID_1":"CRI.1_1","province":"Alajuela","NL_NAME_1":"NA","GID_2":"CRI.1.10_1","county":"Poás","NL_NAME_2":"NA","city":"Carrillos","VARNAME_3":"NA","NL_NAME_3":"NA","TYPE_3":"Distrito","ENGTYPE_3":"District","CC_3":"4","HASC_3":"NA","name":"Carrillos.city"},
"geometry":{"type": "MultiPolygon","coordinates": [[[[-84.25,10.0529,968.1],[-84.249,10.0558,991.0859],[-84.2511,10.0586,1057.3623],[-84.254,10.0538,1120.3531],[-84.2572,10.052,1074.1121],[-84.2608,10.0528,1066.6119],[-84.2626,10.0503,996.495],[-84.2643,10.0518,992.8413],[-84.2662,10.0496,993.6579],[-84.2688,10.0515,1034.0046],[-84.2729,10.0514,1017.6588],[-84.2727,10.0543,970.9902],[-84.2768,10.0532,961.877],[-84.2779,10.0473,916.3104],[-84.2804,10.0438,868.601],[-84.2802,10.0404,845.2266],[-84.2846,10.0386,832.1929],[-84.2891,10.0284,777.1357],[-84.294,10.0255,770.5808],[-84.2998,10.015,699.8454],[-84.2961,10.0144,710.3136],[-84.2927,10.0173,730.9635],[-84.2864,10.0183,746.9636],[-84.2804,10.0233,765.1266],[-84.2754,10.0228,791.1219],[-84.2679,10.0264,806.8309],[-84.2665,10.0258,806.345],[-84.265,10.0299,822.4528],[-84.2624,10.0317,836.421],[-84.261,10.031,834.7102],[-84.2583,10.0344,870.5021],[-84.2558,10.0431,891.0012],[-84.2524,10.0445,908.2777],[-84.254,10.0473,939.2992],[-84.25,10.0529,968.1]]]]}}