{"type":"Feature","properties":{"GID_3":"CRI.4.8.6_1","GID_0":"CRI","country":"CostaRica","GID_1":"CRI.4_1","province":"Heredia","NL_NAME_1":"NA","GID_2":"CRI.4.8_1","county":"SantaBárbara","NL_NAME_2":"NA","city":"SantoDomingo","VARNAME_3":"NA","NL_NAME_3":"NA","TYPE_3":"Distrito","ENGTYPE_3":"District","CC_3":"5","HASC_3":"NA","name":"Santo_Domingo.city"},
"geometry":{"type": "MultiPolygon","coordinates": [[[[-84.168,10.0612,1249.5834],[-84.1664,10.0611,1256.0325],[-84.1638,10.0645,1278.3385],[-84.1585,10.0661,1309.6331],[-84.1568,10.07,1340.8423],[-84.1505,10.0753,1408.7474],[-84.1429,10.0854,1577.0112],[-84.1359,10.0886,1705.3282],[-84.1311,10.0934,1798.2788],[-84.1312,10.1371,2507.7744],[-84.141,10.1496,2187.084],[-84.1565,10.1536,1979.2742],[-84.1577,10.1561,1944.281],[-84.1614,10.1582,1912.1881],[-84.1613,10.0832,1488.6588],[-84.1663,10.0718,1347.5894],[-84.168,10.0612,1249.5834]]]]}}