{"type":"Feature","properties":{"GID_3":"CRI.5.2.2_1","GID_0":"CRI","country":"CostaRica","GID_1":"CRI.5_1","province":"Limón","NL_NAME_1":"NA","GID_2":"CRI.5.2_1","county":"Limón","NL_NAME_2":"NA","city":"Matama","VARNAME_3":"NA","NL_NAME_3":"NA","TYPE_3":"Distrito","ENGTYPE_3":"District","CC_3":"4","HASC_3":"NA","name":"Matama.city"},
"geometry":{"type": "MultiPolygon","coordinates": [[[[-83.1022,9.9392,33.8073],[-83.1086,9.9357,39.0794],[-83.1176,9.935,68.7055],[-83.1198,9.9363,83.0898],[-83.1234,9.9338,93.9458],[-83.1249,9.9347,97.3911],[-83.1315,9.9287,174.4419],[-83.1375,9.928,201.8317],[-83.1398,9.9255,260.1745],[-83.1466,9.9239,367.0657],[-83.1514,9.9203,443.2166],[-83.1564,9.9214,438.9193],[-83.1592,9.9193,454.4764],[-83.1623,9.9203,466.5479],[-83.1789,9.9145,501.2492],[-83.1816,9.9114,482.5081],[-83.1837,9.9114,471.2852],[-83.1876,9.9017,465.3807],[-83.1923,9.8981,428.0785],[-83.1975,9.8968,429.6848],[-83.1998,9.8989,443.982],[-83.2007,9.8947,444.4309],[-83.2045,9.8906,453.0402],[-83.2121,9.8859,521.0506],[-83.2279,9.8894,679.7684],[-83.2295,9.8884,686.1517],[-83.2298,9.885,721.4813],[-83.2339,9.8803,717.066],[-83.241,9.8782,762.1828],[-83.24,9.8702,1052.4169],[-83.244,9.8621,1022.108],[-83.2419,9.8574,1127.9594],[-83.2433,9.8543,1276.1511],[-83.2353,9.8432,1643.0367],[-83.2358,9.8409,1605.7092],[-83.2428,9.8336,1812.2281],[-83.243,9.8272,1695.6034],[-83.2472,9.8252,1733.3701],[-83.2509,9.8264,1817.5406],[-83.2574,9.8212,1646.3733],[-83.2617,9.8203,1486.1373],[-83.2642,9.8161,1419.4209],[-83.2698,9.8129,1216.2566],[-83.27,9.8096,1128.9397],[-83.2769,9.8017,962.649],[-83.2693,9.798,1216.7977],[-83.262,9.8016,1303.1666],[-83.2579,9.7984,1407.2817],[-83.245,9.7952,1745.6295],[-83.2444,9.7917,1893.5933],[-83.2397,9.7889,1961.7198],[-83.2398,9.7828,2199.1665],[-83.2384,9.7829,2180.8025],[-83.2372,9.7886,2022.0944],[-83.2395,9.7927,2022.6031],[-83.2328,9.7975,1660.6064],[-83.2227,9.7966,1789.5264],[-83.2115,9.8051,1668.8003],[-83.1948,9.8068,1518.7655],[-83.1903,9.8086,1509.8844],[-83.1851,9.8071,1424.6884],[-83.1793,9.8019,1454.3583],[-83.1745,9.8022,1448.0703],[-83.169,9.806,1489.2573],[-83.162,9.7968,1495.1821],[-83.1567,9.7931,1404.6716],[-83.1508,9.7914,1528.0453],[-83.146,9.7869,1649.0278],[-83.1296,9.7856,1330.3729],[-83.12,9.7947,939.2465],[-83.0993,9.7969,553.851],[-83.0947,9.8075,360.7663],[-83.091,9.8104,283.7955],[-83.0888,9.81,280.15],[-83.0846,9.819,281.0457],[-83.0831,9.8188,199.4985],[-83.0807,9.8233,162.0506],[-83.0788,9.8228,151.1538],[-83.0771,9.8253,165.5509],[-83.0748,9.8238,151.4746],[-83.069,9.8272,97.8884],[-83.0645,9.8252,83.7239],[-83.0589,9.8263,60.3081],[-83.0547,9.825,61.819],[-83.0532,9.8279,54.8377],[-83.0475,9.8283,46.2939],[-83.0509,9.8396,48.7848],[-83.0557,9.8449,44.9849],[-83.0552,9.8483,39.342],[-83.0509,9.8529,44.2382],[-83.0474,9.8532,42.556399999999996],[-83.0466,9.8506,35.5326],[-83.0497,9.8504,37.5036],[-83.0494,9.8469,52.793],[-83.0384,9.8475,42.34],[-83.0325,9.8587,50.8533],[-83.0271,9.861,25.833],[-83.0246,9.864,56.2044],[-83.0186,9.8642,22.3607],[-83.0155,9.8618,22.6213],[-83.0135,9.8648,28.6014],[-83.0144,9.8673,23.1704],[-83.0106,9.8686,14.4407],[-83.0112,9.8724,14.7638],[-83.006,9.8715,15.1691],[-83.0059,9.8744,22.0316],[-83.0077,9.8753,19.7344],[-83.0092,9.8742,18.8602],[-83.0081,9.8767,14.9646],[-83.0055,9.8786,11.5297],[-83.0066,9.876,14.9646],[-83.004,9.8756,13.6636],[-83.0047,9.8774,11.5297],[-83.0006,9.8798,10.6104],[-83.0005,9.8847,8.5884],[-82.9921,9.8894,8.6076],[-82.9927,9.8913,8.9697],[-82.9909,9.8929,7.8126],[-82.987799999999993,9.8925,8.9861],[-82.9866,9.8941,17.8953],[-82.9851,9.8916,16.0533],[-82.9794,9.8969,11.0006],[-82.9738,9.8926,9.3772],[-82.9721,9.889,14.7336],[-82.9696,9.888,6.436],[-82.9691,9.8856,7.8671],[-82.9604,9.8769,0.0],[-82.9778,9.9013,1.2658],[-82.9858,9.9086,4.1072],[-82.9865,9.9125,0.0],[-82.9982,9.928,3.1802],[-83.0006,9.9282,3.0168],[-83.0031,9.9344,1.0574],[-83.0161,9.9506,0.3206],[-83.061,9.953,13.1443],[-83.0735,9.9428,22.4945],[-83.074,9.9396,21.8746],[-83.0764,9.938,25.0682],[-83.0838,9.9399,22.6438],[-83.0842,9.9417,21.6153],[-83.0857,9.9417,23.0105],[-83.0858,9.9398,26.6897],[-83.0877,9.9411,24.1444],[-83.1005,9.9383,33.2559],[-83.1022,9.9392,33.8073]]]]}}