{"type": "Feature","bbox": [-85.2797,9.7581,-84.986,10.0167],"geometry": {"type": "MultiPolygon","coordinates": [[[[-85.185,9.7869,14.8664],[-85.1809,9.7943,287.7299],[-85.1749,9.7972,445.7786],[-85.1696,9.8081,476.3119],[-85.1638,9.8138,398.1898],[-85.1539,9.8137,316.6262],[-85.1513,9.8155,331.7673],[-85.1438,9.8097,693.478],[-85.1367,9.812,507.7108],[-85.1324,9.8096,445.7232],[-85.1306,9.804,215.3341],[-85.137,9.7958,131.9202],[-85.1381,9.79,112.7344],[-85.1399,9.7895,112.7344],[-85.1394,9.7868,106.5925],[-85.1326,9.7854,221.1183],[-85.1296,9.7799,491.506],[-85.1274,9.7792,538.4439],[-85.1265,9.7768,509.1566],[-85.1291,9.7721,351.5812],[-85.1239,9.7656,141.8022],[-85.1198,9.7653,118.759],[-85.1078,9.7581,88.9781],[-85.1089,9.7601,89.9021],[-85.106,9.7628,92.5009],[-85.1086,9.7656,91.6933],[-85.1056,9.7672,94.4232],[-85.1031,9.7714,114.4985],[-85.105,9.7736,95.2953],[-85.1036,9.7763,98.5235],[-85.1072,9.7794,101.2356],[-85.1039,9.7803,103.0057],[-85.1021,9.7833,108.5999],[-85.1005,9.7903,107.2316],[-85.0967,9.794,108.9917],[-85.0978,9.7961,119.1481],[-85.0952,9.7955,112.3115],[-85.0946,9.7975,110.926],[-85.0968,9.7981,110.0493],[-85.0947,9.8005,110.1397],[-85.096,9.8035,114.5724],[-85.0922,9.8056,119.6042],[-85.0929,9.8096,170.1645],[-85.0894,9.8096,123.2427],[-85.0895,9.814,121.1804],[-85.0863,9.8135,122.6459],[-85.0866,9.817,120.2197],[-85.0849,9.8172,122.6928],[-85.0858,9.8191,126.4744],[-85.084,9.8185,168.883],[-85.0837,9.8206,165.6753],[-85.0853,9.8218,133.871],[-85.0835,9.8222,155.4625],[-85.0838,9.8251,128.4231],[-85.0804,9.8239,140.8965],[-85.0807,9.8258,137.8714],[-85.0789,9.8268,132.0149],[-85.0773,9.8243,137.0638],[-85.0751,9.8263,151.4711],[-85.0734,9.824,141.8115],[-85.0703,9.827,150.1116],[-85.0628,9.8279,174.7112],[-85.0597,9.8332,211.4345],[-85.061,9.8397,241.64],[-85.0531,9.8441,346.7734],[-85.0471,9.8412,374.4481],[-85.0382,9.8417,576.6917],[-85.0332,9.8445,698.3989],[-85.0358,9.8447,702.2634],[-85.0358,9.8475,643.4944],[-85.0317,9.8537,594.8965],[-85.03,9.8531,577.9086],[-85.0299,9.8576,657.9291],[-85.0345,9.8572,595.6998],[-85.0453,9.8621,502.7079],[-85.0417,9.8733,293.655],[-85.0381,9.8776,224.6298],[-85.031,9.8806,203.1204],[-85.0315,9.8829,204.322],[-85.03,9.8836,170.3119],[-85.0282,9.8818,187.4806],[-85.025,9.8847,154.6007],[-85.0259,9.8921,176.6471],[-85.0208,9.8943,112.997],[-85.0186,9.902,91.3796],[-85.0165,9.9016,91.0264],[-85.0166,9.9033,83.2855],[-85.0094,9.9057,71.8963],[-85.0071,9.9031,70.6438],[-85.0073,9.905,58.0036],[-85.0004,9.9107,58.8922],[-84.9985,9.9158,32.7528],[-85.0003,9.9168,46.7557],[-84.9996,9.9195,25.7861],[-84.9953,9.9244,28.6592],[-84.9971,9.9271,12.2626],[-84.9936,9.9307,8.8602],[-84.9877,9.9335,13.4922],[-84.9874,9.9361,7.5289],[-84.986,9.9357,7.5289],[-84.9868,9.9375,7.7291],[-84.9899,9.9368,6.6386],[-84.9981,9.9401,3.2818],[-85.0013,9.9375,1.8402],[-85.01,9.9389,0.0],[-85.0135,9.9435,0.0],[-85.0209,9.949,3.6883],[-85.0239,9.959,1.6716],[-85.0298,9.9598,2.3981],[-85.0394,9.9638,2.177],[-85.0518,9.9758,0.0],[-85.0587,9.9753,0.0],[-85.0575,9.9716,3.5109],[-85.0597,9.9751,0.0],[-85.0613,9.9722,0.0],[-85.0659,9.9726,0.0],[-85.0669,9.9709,0.0],[-85.0639,9.9689,6.1695],[-85.0646,9.9678,4.7679],[-85.0722,9.9663,6.2557],[-85.0736,9.9671,0.7413],[-85.0713,9.9676,0.0],[-85.069,9.9711,0.0],[-85.0715,9.97,1.1056],[-85.0714,9.9714,0.0],[-85.0747,9.972,1.3753],[-85.0769,9.9686,1.2675],[-85.0792,9.9751,1.6646],[-85.0735,9.975,0.0],[-85.0785,9.9793,0.0],[-85.0949,9.9703,3.692],[-85.0955,9.9724,6.2129],[-85.0989,9.9743,0.0],[-85.1022,9.9753,3.6827],[-85.1047,9.9742,3.2045],[-85.1145,9.9799,2.9018],[-85.117,9.9754,6.7929],[-85.121,9.9792,4.1021],[-85.1206,9.9798,4.1021],[-85.1177,9.9781,2.7219],[-85.1159,9.9823,1.7811],[-85.119,9.9915,0.0],[-85.1229,9.9926,0.0],[-85.1255,9.9904,11.4682],[-85.1278,9.9918,1.9516],[-85.1298,9.9896,4.1736],[-85.1346,9.9916,4.8978],[-85.1534,10.0106,0.0],[-85.1616,10.0167,5.4489],[-85.1663,10.0113,8.6988],[-85.1704,10.0093,13.4227],[-85.1687,10.0081,13.1326],[-85.1688,10.0045,14.002],[-85.1616,9.9958,9.2192],[-85.1611,9.9876,18.8569],[-85.1636,9.9867,16.9621],[-85.1689,9.9803,18.5728],[-85.1724,9.9802,25.0873],[-85.1812,9.9765,26.4281],[-85.1802,9.976,26.4281],[-85.1813,9.973,28.2871],[-85.1856,9.9719,28.3865],[-85.1862,9.9702,34.2539],[-85.1906,9.9708,32.3571],[-85.1957,9.9689,40.8925],[-85.1977,9.9693,47.3335],[-85.1992,9.9711,43.6944],[-85.2032,9.9692,50.1964],[-85.2047,9.9709,51.9277],[-85.2126,9.9721,63.0156],[-85.2167,9.9711,76.8406],[-85.2184,9.9723,64.7322],[-85.222,9.969,73.9953],[-85.2339,9.9674,134.4898],[-85.2371,9.9675,140.7245],[-85.2432,9.972,306.9982],[-85.2469,9.9729,439.6926],[-85.2493,9.972,478.6236],[-85.252,9.9656,518.2605],[-85.2544,9.9641,548.5371],[-85.2631,9.9625,537.2181],[-85.2681,9.9633,651.3799],[-85.2713,9.9584,795.8284],[-85.2731,9.9512,995.1221],[-85.2695,9.9461,787.0747],[-85.2713,9.943,720.5995],[-85.2683,9.9373,549.6493],[-85.2706,9.934,504.6681],[-85.2747,9.9327,473.4096],[-85.2779,9.9264,459.5071],[-85.2779,9.9229,429.56],[-85.2797,9.9217,360.3728],[-85.2772,9.9159,345.0684],[-85.2729,9.9158,307.3156],[-85.2721,9.9191,336.5098],[-85.2674,9.9153,307.9204],[-85.2642,9.9174,317.2091],[-85.2654,9.9139,283.6902],[-85.2619,9.9151,222.16],[-85.2587,9.9125,162.6419],[-85.2563,9.9143,167.5511],[-85.2509,9.909,142.5204],[-85.2468,9.9079,119.9109],[-85.2422,9.9103,109.5485],[-85.2392,9.91,112.1441],[-85.2376,9.9061,96.3387],[-85.2318,9.907,92.3243],[-85.2315,9.9036,89.4267],[-85.2285,9.9007,82.0144],[-85.2271,9.9006,82.0144],[-85.2272,9.9029,92.3902],[-85.2231,9.8994,79.7264],[-85.2237,9.9008,78.8667],[-85.2215,9.9026,74.6297],[-85.2166,9.9018,73.5586],[-85.2166,9.894,71.6305],[-85.2146,9.8901,60.309],[-85.2129,9.8882,58.7945],[-85.209,9.8905,62.1938],[-85.2106,9.8857,62.2462],[-85.2045,9.8856,57.088],[-85.2062,9.8831,51.6439],[-85.2043,9.8825,54.4626],[-85.2042,9.8764,47.2029],[-85.2001,9.8744,43.9213],[-85.2003,9.8686,43.8975],[-85.1969,9.867,46.5546],[-85.1982,9.8609,47.4313],[-85.1931,9.8599,36.167],[-85.1908,9.8562,54.2486],[-85.1836,9.8569,34.6119],[-85.1825,9.8534,35.9258],[-85.1759,9.8546,28.2271],[-85.1789,9.8461,51.1247],[-85.1814,9.8447,29.3235],[-85.1852,9.8455,31.2958],[-85.1862,9.8437,29.2867],[-85.1865,9.8401,27.3988],[-85.1841,9.8415,25.313],[-85.1835,9.8375,24.0856],[-85.1865,9.8351,38.3088],[-85.19,9.8359,32.474],[-85.1858,9.8319,34.3144],[-85.1889,9.8254,27.9938],[-85.1874,9.8201,28.9692],[-85.1845,9.8177,29.2418],[-85.1877,9.8165,32.6643],[-85.1889,9.8128,25.5194],[-85.1933,9.8136,21.3595],[-85.1889,9.8077,37.6148],[-85.1898,9.8035,26.5257],[-85.1935,9.8038,29.6437],[-85.1951,9.8024,23.0024],[-85.1932,9.7994,28.2709],[-85.195,9.7951,24.208],[-85.1902,9.7932,30.3161],[-85.1944,9.7875,30.3118],[-85.1895,9.7812,28.4763],[-85.1865,9.7829,22.696],[-85.185,9.7869,14.8664]]],
[[[-85.0678,9.9679,0.0],[-85.0673,9.9676,0.0],[-85.0673,9.9689,0.0],[-85.068,9.9689,0.0],[-85.0678,9.9679,0.0]]],
[[[-85.0688,9.9691,0.0],[-85.0684,9.9691,0.0],[-85.0683,9.9698,0.0],[-85.0693,9.9696,0.0],[-85.0688,9.9691,0.0]]],
[[[-85.0765,9.974,0.0],[-85.0771,9.9744,0.0],[-85.0765,9.9731,0.0],[-85.0762,9.9735,0.0],[-85.0765,9.974,0.0]]],
[[[-85.062,9.9733,0.0],[-85.0611,9.973,0.0],[-85.0608,9.9741,0.0],[-85.0612,9.9741,0.0],[-85.062,9.9733,0.0]]],
[[[-85.0618,9.9752,0.0],[-85.0642,9.9753,0.0],[-85.0647,9.9736,0.0],[-85.0629,9.9735,0.0],[-85.0618,9.9752,0.0]]],
[[[-85.0607,9.9752,0.0],[-85.0608,9.9757,0.0],[-85.0617,9.9755,0.0],[-85.0611,9.9746,0.0],[-85.0607,9.9752,0.0]]],
[[[-85.0659,9.9776,0.0],[-85.0637,9.9785,0.0],[-85.0631,9.9794,0.0],[-85.0639,9.9796,0.0],[-85.0659,9.9776,0.0]]],
[[[-85.07,9.9774,0.0],[-85.0729,9.9766,0.0],[-85.0697,9.9727,0.7652],[-85.0677,9.9736,0.0],[-85.07,9.9737,0.7652],[-85.0702,9.976,2.9322],[-85.0687,9.9752,0.0],[-85.0679,9.9763,0.0],[-85.07,9.9774,0.0]]],
[[[-85.0721,9.9798,0.0],[-85.0738,9.9803,0.8971],[-85.0743,9.9787,0.0],[-85.0728,9.9783,0.0],[-85.0739,9.9771,0.0],[-85.0702,9.9787,0.5005],[-85.0721,9.9798,0.0]]],
[[[-85.0753,9.9809,0.0],[-85.0748,9.9805,0.0],[-85.0735,9.9816,0.0],[-85.0742,9.9819,0.0],[-85.0753,9.9809,0.0]]],
[[[-85.0606,9.9789,0.0],[-85.0613,9.98,0.0],[-85.0626,9.9787,0.0],[-85.0592,9.9778,0.0],[-85.0606,9.9789,0.0]]],
[[[-85.0631,9.9811,0.0],[-85.0638,9.9813,0.0],[-85.0641,9.9813,0.0],[-85.0633,9.9805,0.0],[-85.0631,9.9811,0.0]]],
[[[-85.0629,9.9923,0.0],[-85.0712,9.995,0.0],[-85.0709,9.9922,0.0],[-85.0741,9.9918,30.8211],[-85.0766,9.9889,0.0],[-85.0847,9.9895,0.0],[-85.0799,9.985,3.2691],[-85.0801,9.9837,0.0],[-85.0771,9.9836,0.0],[-85.0765,9.9874,16.7484],[-85.0755,9.986,3.1879],[-85.073,9.9861,11.1128],[-85.0727,9.9847,2.9427],[-85.0756,9.9847,0.0],[-85.0715,9.9816,0.0],[-85.0734,9.9807,0.0],[-85.0694,9.9794,0.0],[-85.0708,9.9811,0.0],[-85.0694,9.9816,1.5697],[-85.0671,9.9782,0.0],[-85.0668,9.9802,0.0],[-85.0658,9.9784,0.0],[-85.0644,9.9796,0.0],[-85.0676,9.9812,4.0354],[-85.0655,9.9827,11.5109],[-85.0646,9.981,0.0],[-85.0636,9.9827,7.6401],[-85.062,9.9808,0.0],[-85.0616,9.9819,1.2943],[-85.0559,9.9797,0.0],[-85.0419,9.9814,15.404],[-85.0509,9.9898,2.6068],[-85.0571,9.9923,0.0],[-85.0629,9.9923,0.0]]]]}
,"properties": {"GID_3": "CRI.6.11.11_1","GID_0": "CRI","country": "CostaRica","GID_1": "CRI.6_1","province": "Puntarenas","NL_NAME_1": "NA","GID_2": "CRI.6.11_1","county": "Puntarenas","NL_NAME_2": "NA","city": "Lepanto","VARNAME_3": "NA","NL_NAME_3": "NA","TYPE_3": "Distrito","ENGTYPE_3": "District","CC_3": "4","HASC_3": "NA","name": "Lepanto.city","area_km2": 426.3529,"hist_schema_id": "Elevation0-9000","hist_area_km2": {"0": 30.028,"25": 24.9774,"50": 30.5352,"75": 31.5797,"100": 30.7239,"125": 28.5939,"150": 26.1498,"175": 24.8759,"200": 21.6176,"225": 19.5082,"250": 17.8163,"275": 18.6102,"300": 16.5843,"325": 16.5219,"350": 15.0184,"375": 13.8697,"400": 10.7783,"425": 9.9636,"450": 7.9165,"475": 7.8122,"500": 6.6844,"525": 4.9088,"550": 3.008,"575": 1.9217,"600": 1.5248,"625": 0.7101,"650": 1.0443,"675": 0.6683,"700": 0.6474,"725": 0.3968,"750": 0.5012,"775": 0.2297,"800": 0.1671,"825": 0.1462,"850": 0.1044,"875": 0.0626,"900": 0.0209,"925": 0.0626,"950": 0.0418,"1000": 0.0209}}}