{"type":"Feature","properties":{"GID_3":"CRI.4.1.6_1","GID_0":"CRI","country":"CostaRica","GID_1":"CRI.4_1","province":"Heredia","NL_NAME_1":"NA","GID_2":"CRI.4.1_1","county":"Barva","NL_NAME_2":"NA","city":"SantaLucia","VARNAME_3":"NA","NL_NAME_3":"NA","TYPE_3":"Distrito","ENGTYPE_3":"District","CC_3":"5","HASC_3":"NA","name":"Santa_Lucia.city"},
"geometry":{"type": "MultiPolygon","coordinates": [[[[-84.1229,10.0165,1161.9434],[-84.1197,10.0115,1170.7322],[-84.105,10.0195,1265.6033],[-84.108,10.0258,1293.4062],[-84.1075,10.0412,1405.9843],[-84.1134,10.0364,1351.1338],[-84.1143,10.0302,1292.0435],[-84.118,10.026,1239.6667],[-84.1169,10.0223,1221.5221],[-84.1229,10.0165,1161.9434]]]]}}