{"type": "Feature","bbox": [-84.1011,10.1823,-83.8321,10.4614],"geometry": {"type": "MultiPolygon","coordinates": [[[[-83.9136,10.2028,266.3319],[-83.9027,10.2107,238.1959],[-83.8969,10.2188,228.8119],[-83.8733,10.2428,169.5339],[-83.8638,10.2479,154.5935],[-83.8575,10.255,139.8174],[-83.8547,10.2623,131.2979],[-83.8553,10.2656,130.5551],[-83.852,10.2712,128.1173],[-83.8525,10.2752,122.6988],[-83.85,10.2821,121.3032],[-83.8516,10.2858,118.7534],[-83.8506,10.2887,113.4131],[-83.8527,10.3014,99.6341],[-83.8512,10.3076,95.0763],[-83.8532,10.3103,91.6793],[-83.8542,10.3177,86.4561],[-83.8522,10.3207,86.8206],[-83.8532,10.3264,82.5244],[-83.85,10.3302,85.3051],[-83.8489,10.335,79.3262],[-83.8517,10.3487,77.5689],[-83.8504,10.3543,73.4617],[-83.8549,10.359,67.3641],[-83.8576,10.3673,64.5884],[-83.865,10.3755,66.1271],[-83.8653,10.3797,69.5667],[-83.8691,10.3808,62.3964],[-83.8727,10.3896,63.4067],[-83.8754,10.3904,61.3822],[-83.8802,10.4006,64.2723],[-83.8804,10.405,62.0685],[-83.8753,10.4164,59.7469],[-83.874,10.429,56.8103],[-83.8665,10.4354,56.038],[-83.8598,10.4377,54.6062],[-83.8594,10.4446,53.2413],[-83.856,10.4466,52.0775],[-83.8447,10.4451,50.7882],[-83.8393,10.4551,51.3616],[-83.8321,10.4607,50.937],[-83.9461,10.4614,46.2174],[-83.941,10.4578,45.8566],[-83.9356,10.4489,48.06],[-83.9351,10.4415,46.9233],[-83.9427,10.4451,46.9454],[-83.9579,10.4407,57.6017],[-83.9712,10.4439,61.8463],[-83.978,10.4408,61.5461],[-83.9874,10.4417,62.7677],[-83.994,10.44,66.1081],[-84.0059,10.4437,42.2112],[-84.006,10.439,44.7088],[-84.011,10.4391,54.095],[-84.0082,10.4379,50.2201],[-84.0029,10.4285,53.1924],[-84.0016,10.4306,39.7291],[-84.0009,10.4274,48.7719],[-83.9982,10.4266,42.5906],[-83.9977,10.421,43.0489],[-83.9932,10.4153,44.8373],[-83.995,10.4137,46.047],[-83.9963,10.408,59.1717],[-83.9979,10.4073,59.1717],[-83.9969,10.4049,67.0869],[-83.9998,10.4028,69.0753],[-84.0017,10.3984,80.5308],[-84.0056,10.3983,83.0239],[-84.009,10.3949,93.7494],[-84.0223,10.3895,106.1231],[-84.0229,10.3849,120.9536],[-84.0246,10.3849,120.9536],[-84.0297,10.3789,145.2211],[-84.0303,10.3706,183.5501],[-84.0321,10.3707,170.047],[-84.0309,10.3693,196.9756],[-84.0339,10.3646,216.6112],[-84.0323,10.3642,234.2879],[-84.0323,10.3602,250.9591],[-84.0357,10.3573,256.6483],[-84.0344,10.3553,259.8439],[-84.0363,10.3551,243.6848],[-84.0362,10.352,259.3065],[-84.0383,10.3516,263.5414],[-84.0396,10.3487,301.0259],[-84.0399,10.3453,317.3511],[-84.0386,10.3447,331.6827],[-84.0423,10.3381,369.2044],[-84.0408,10.3365,374.6076],[-84.045,10.3356,380.146],[-84.0439,10.3212,475.8832],[-84.0414,10.3189,475.6353],[-84.0428,10.3181,489.0518],[-84.0418,10.3157,531.5964],[-84.0459,10.3106,596.5991],[-84.0498,10.2983,697.296],[-84.053,10.2947,716.1568],[-84.0555,10.2879,755.7036],[-84.0636,10.2802,889.4986],[-84.0677,10.2682,1029.0809],[-84.0803,10.2569,1231.8641],[-84.0848,10.2323,1516.009],[-84.0913,10.2292,1554.8357],[-84.0981,10.2218,1649.7606],[-84.1011,10.1993,1874.6602],[-84.0963,10.1918,1639.0125],[-84.0916,10.1913,1536.5988],[-84.0865,10.1933,1524.5596],[-84.0832,10.1984,1436.9951],[-84.081,10.1982,1441.9187],[-84.0797,10.2019,1363.1962],[-84.075,10.2023,1327.047],[-84.0733,10.2056,1367.5793],[-84.0678,10.2066,1245.3219],[-84.0667,10.2047,1221.5813],[-84.0606,10.206,1175.511],[-84.0583,10.2081,1142.2689],[-84.0577,10.2039,1219.8373],[-84.0526,10.1998,1314.7726],[-84.0445,10.1971,1589.312],[-84.0378,10.1839,1623.1423],[-84.0349,10.1823,1516.4258],[-84.0303,10.1856,1420.7892],[-84.0226,10.1849,1184.0804],[-84.0025,10.1902,798.7792],[-83.9822,10.1863,634.864],[-83.9708,10.1873,523.0788],[-83.9552,10.1955,446.8852],[-83.9511,10.1999,415.96],[-83.946,10.1991,398.706],[-83.9427,10.2004,381.0235],[-83.9393,10.198,393.0757],[-83.9328,10.1992,334.2945],[-83.925,10.1977,306.3093],[-83.9203,10.1984,292.7639],[-83.9136,10.2028,266.3319]]]]}
,"properties": {"GID_3": "CRI.4.10.3_1","GID_0": "CRI","country": "CostaRica","GID_1": "CRI.4_1","province": "Heredia","NL_NAME_1": "NA","GID_2": "CRI.4.10_1","county": "Sarapiquí","NL_NAME_2": "NA","city": "LasHorquetas","VARNAME_3": "NA","NL_NAME_3": "NA","TYPE_3": "Distrito","ENGTYPE_3": "District","CC_3": "3","HASC_3": "NA","name": "Las_Horquetas.city","area_km2": 568.1541,"hist_schema_id": "Elevation0-9000","hist_area_km2": {"25": 0.146,"50": 108.9359,"75": 81.2759,"100": 42.5936,"125": 35.2116,"150": 28.642,"175": 23.6151,"200": 20.382,"225": 15.0,"250": 12.9767,"275": 11.3074,"300": 11.9751,"325": 10.0556,"350": 8.0527,"375": 6.5507,"400": 6.8218,"425": 6.4881,"450": 5.7163,"475": 6.1754,"500": 5.2367,"525": 4.2978,"550": 4.8195,"575": 5.2995,"600": 6.1966,"625": 4.7988,"650": 4.7153,"675": 4.8823,"700": 4.4232,"725": 4.2355,"750": 4.0478,"775": 3.2758,"800": 2.9419,"825": 2.5037,"850": 2.775,"875": 3.1088,"900": 2.775,"925": 2.6707,"950": 2.6916,"975": 2.3995,"1000": 1.9613,"1025": 2.0865,"1050": 2.4621,"1075": 2.3995,"1100": 2.1074,"1125": 1.8779,"1150": 1.8362,"1175": 1.7944,"1200": 1.7318,"1225": 1.8361,"1250": 1.5649,"1275": 1.5858,"1300": 1.5649,"1325": 1.7319,"1350": 1.1476,"1375": 1.1267,"1400": 1.398,"1425": 1.085,"1450": 1.3354,"1475": 1.252,"1500": 1.4606,"1525": 1.2937,"1550": 1.3563,"1575": 1.0016,"1600": 1.2311,"1625": 1.0016,"1650": 1.0016,"1675": 0.8973,"1700": 0.7929,"1725": 0.8138,"1750": 0.4591,"1775": 0.5425,"1800": 0.4382,"1825": 0.4382,"1850": 0.7512,"1875": 0.2713,"1900": 0.1252,"1925": 0.1043,"1950": 0.0626,"1975": 0.0417,"2000": 0.0835,"2025": 0.0417,"2075": 0.0209,"2100": 0.0209}}}