{"type": "Feature","bbox": [-84.632,10.0407,-84.5068,10.1553],"geometry": {"type": "MultiPolygon","coordinates": [[[[-84.5085,10.1093,899.7798],[-84.5071,10.1152,918.991],[-84.5085,10.1169,971.33],[-84.5068,10.1192,961.8311],[-84.5078,10.1215,953.7937],[-84.5094,10.124,978.416],[-84.5162,10.1277,1000.7683],[-84.5216,10.1361,1058.1469],[-84.529,10.1376,1105.0442],[-84.53,10.1407,1106.501],[-84.5357,10.1427,1127.3633],[-84.5408,10.1354,1220.5713],[-84.562,10.1383,1460.5239],[-84.5636,10.1401,1467.974],[-84.5679,10.139099999999999,1446.7487],[-84.576,10.1426,1445.1729],[-84.5774,10.1461,1480.179],[-84.5835,10.149,1537.5063],[-84.5879,10.1553,1591.2848],[-84.5917,10.1439,1243.8005],[-84.6007,10.1362,1000.5162],[-84.6127,10.1319,765.8636],[-84.6169,10.1233,648.5248],[-84.6253,10.1146,487.7822],[-84.6262,10.1095,457.1681],[-84.6281,10.1095,494.3144],[-84.627,10.1076,472.0889],[-84.6285,10.1036,452.3343],[-84.6278,10.0957,406.1631],[-84.6313,10.081,324.7406],[-84.632,10.0686,320.7137],[-84.6287,10.064,253.207],[-84.6282,10.0574,248.9196],[-84.6248,10.0479,197.7219],[-84.618,10.0434,187.8416],[-84.617,10.0456,205.1248],[-84.6098,10.0458,211.9896],[-84.5978,10.0538,244.4098],[-84.5952,10.053,236.2125],[-84.5895,10.0472,238.3081],[-84.5895,10.0443,241.5266],[-84.5848,10.048,272.3268],[-84.5812,10.0448,277.9747],[-84.5781,10.0452,286.547],[-84.574,10.0415,308.1524],[-84.5702,10.0407,318.0203],[-84.5642,10.0412,332.7015],[-84.5595,10.0437,355.6921],[-84.5579,10.0463,349.722],[-84.5556,10.0446,375.9511],[-84.5552,10.046,361.3889],[-84.5478,10.0457,386.2707],[-84.5466,10.0481,384.9709],[-84.5433,10.049,416.5041],[-84.5428,10.0532,430.0339],[-84.5353,10.0554,500.078],[-84.5299,10.0595,570.303],[-84.5311,10.0645,713.327],[-84.5293,10.067,639.7825],[-84.5316,10.0759,773.3342],[-84.5298,10.0798,688.3804],[-84.5225,10.0862,787.0334],[-84.5232,10.0906,856.7598],[-84.5206,10.0928,809.9481],[-84.5219,10.0954,758.2739],[-84.5193,10.0965,762.4434],[-84.5205,10.103,835.4272],[-84.5147,10.1082,863.155],[-84.5121,10.1074,869.4908],[-84.5085,10.1093,899.7798]]]]}
,"properties": {"GID_3": "CRI.1.13.6_1","GID_0": "CRI","country": "CostaRica","GID_1": "CRI.1_1","province": "Alajuela","NL_NAME_1": "NA","GID_2": "CRI.1.13_1","county": "SanRamón","NL_NAME_2": "NA","city": "PiedadesSur","VARNAME_3": "NA","NL_NAME_3": "NA","TYPE_3": "Distrito","ENGTYPE_3": "District","CC_3": "5","HASC_3": "NA","name": "Piedades_Sur.city","area_km2": 116.5814,"hist_schema_id": "Elevation0-9000","hist_area_km2": {"175": 0.12526,"200": 0.29228,"225": 0.41754,"250": 0.81419,"275": 0.93945,"300": 1.16908,"325": 1.64924,"350": 1.83711,"375": 1.75362,"400": 2.02497,"425": 2.00408,"450": 2.77646,"475": 2.90171,"500": 2.9643099999999998,"525": 2.67204,"550": 2.65117,"575": 3.11041,"600": 2.98514,"625": 2.42146,"650": 2.60933,"675": 2.42148,"700": 2.44234,"725": 2.4632,"750": 2.35882,"775": 2.15007,"800": 2.19182,"825": 2.50493,"850": 2.67192,"875": 3.29813,"900": 3.11025,"925": 3.11023,"950": 3.86162,"975": 3.81982,"1000": 3.65279,"1025": 3.84062,"1050": 3.36055,"1075": 3.44403,"1100": 3.27705,"1125": 2.65083,"1150": 2.75519,"1175": 2.62993,"1200": 3.21433,"1225": 2.21244,"1250": 1.75324,"1275": 1.94108,"1300": 1.64887,"1325": 1.08533,"1350": 1.08532,"1375": 0.68875,"1400": 0.37568,"1425": 0.91833,"1450": 0.48003,"1475": 0.45916,"1500": 0.33393,"1525": 0.16696,"1550": 0.06261,"1600": 0.02087}}}