{"type":"Feature","properties":{"GID_3":"CRI.1.1.1_1","GID_0":"CRI","country":"CostaRica","GID_1":"CRI.1_1","province":"Alajuela","NL_NAME_1":"NA","GID_2":"CRI.1.1_1","county":"Alajuela","NL_NAME_2":"NA","city":"Alajuela","VARNAME_3":"NA","NL_NAME_3":"NA","TYPE_3":"Distrito","ENGTYPE_3":"District","CC_3":"1","HASC_3":"NA","name":"Alajuela.city"},
"geometry":{"type": "MultiPolygon","coordinates": [[[[-84.1874,10.0528,1219.5361],[-84.1911,10.0511,1129.5967],[-84.1962,10.0398,1022.3179],[-84.2035,10.0362,1009.7493],[-84.2064,10.0367,993.5674],[-84.2083,10.035,1006.1063],[-84.2073,10.0339,1010.7737],[-84.2095,10.0319,979.7764],[-84.21,10.0276,970.6113],[-84.2148,10.0259,956.1371],[-84.2161,10.0228,950.6063],[-84.2258,10.0177,916.9361],[-84.224,10.0155,930.717],[-84.2252,10.0149,912.8692],[-84.2253,10.0103,904.7311],[-84.2291,10.0072,886.0936],[-84.2231,10.0066,884.0243],[-84.2165,10.0034,888.5366],[-84.2095,10.0034,896.7286],[-84.2078,10.0081,917.2627],[-84.2025,10.0118,928.7896],[-84.2018,10.015,936.6488],[-84.1978,10.0185,947.8934],[-84.1989,10.0297,1004.6786],[-84.1947,10.0345,1005.0053],[-84.1878,10.0386,1038.7764],[-84.1873,10.0437,1061.2761],[-84.1823,10.0463,1084.0848],[-84.1827,10.0488,1143.3157],[-84.1802,10.0525,1188.0352],[-84.1874,10.0528,1219.5361]]]]}}