{"type":"Feature","properties":{"GID_3":"CRI.4.9.1_1","GID_0":"CRI","country":"CostaRica","GID_1":"CRI.4_1","province":"Heredia","NL_NAME_1":"NA","GID_2":"CRI.4.9_1","county":"SantoDomingo","NL_NAME_2":"NA","city":"Pará","VARNAME_3":"NA","NL_NAME_3":"NA","TYPE_3":"Distrito","ENGTYPE_3":"District","CC_3":"8","HASC_3":"NA","name":"Pará.city"},
"geometry":{"type": "MultiPolygon","coordinates": [[[[-84.0461,10.0056,1284.0558],[-84.0466,10.0032,1270.2573],[-84.0437,9.9988,1260.2126],[-84.0337,9.9981,1310.2642],[-84.0331,9.9965,1303.7607],[-84.0348,9.9943,1290.4049],[-84.0331,9.9929,1281.4473],[-84.0328,9.9948,1275.4019],[-84.0296,9.9955,1277.3376],[-84.0298,10.0002,1301.8154],[-84.0267,10.0056,1336.7327],[-84.0254,10.016,1343.7253],[-84.0344,10.0118,1311.1599],[-84.0377,10.0118,1292.2354],[-84.0422,10.0048,1278.6958],[-84.0461,10.0056,1284.0558]]]]}}