{"type": "Feature","bbox": [-84.6597,9.9404,-84.553,10.0292],"geometry": {"type": "MultiPolygon","coordinates": [[[[-84.561,9.9815,243.0468],[-84.5592,9.9821,241.1079],[-84.5582,9.9853,238.9099],[-84.5565,9.9838,248.5626],[-84.553,9.9874,263.1357],[-84.554,9.9939,304.022],[-84.5566,9.9961,294.9696],[-84.5565,10.0044,331.4847],[-84.5595,10.0063,343.8029],[-84.5614,10.0099,349.1182],[-84.5609,10.0128,372.2104],[-84.5641,10.016,394.6144],[-84.5632,10.0292,499.2104],[-84.5659,10.029,501.1389],[-84.5663,10.0215,450.8945],[-84.5725,10.0198,358.593],[-84.5754,10.0147,367.2094],[-84.5806,10.0118,328.2366],[-84.582,10.0086,322.7176],[-84.5914,10.0053,299.0098],[-84.5912,10.0017,289.0902],[-84.599,9.9963,263.3058],[-84.6002,9.9931,269.5623],[-84.6027,9.9946,246.912],[-84.6047,9.9923,238.913],[-84.6065,9.9953,238.9307],[-84.6106,9.992,245.0181],[-84.6144,9.9919,232.9426],[-84.6153,9.9952,223.7561],[-84.6247,9.993,211.4194],[-84.6247,9.9902,216.4527],[-84.6276,9.9896,203.7905],[-84.6244,9.9872,208.0862],[-84.6252,9.9814,193.3458],[-84.6279,9.9783,210.0991],[-84.6259,9.9703,197.0348],[-84.6285,9.9695,186.1334],[-84.628,9.971,180.7048],[-84.6305,9.972,181.8136],[-84.6321,9.9658,173.7718],[-84.6338,9.9667,173.7718],[-84.6334,9.9681,180.0892],[-84.6378,9.966,178.4066],[-84.6374,9.9636,191.746],[-84.6394,9.9617,166.7619],[-84.6392,9.9638,167.083],[-84.6408,9.9644,171.0026],[-84.64,9.9566,162.1638],[-84.6558,9.9575,105.3604],[-84.6574,9.9543,88.6801],[-84.6556,9.9525,67.4129],[-84.6597,9.9459,28.0517],[-84.6528,9.9406,19.3974],[-84.6489,9.9446,35.6406],[-84.6395,9.9404,39.9961],[-84.6364,9.9454,84.025],[-84.637,9.9472,40.4134],[-84.6327,9.9501,54.7408],[-84.63,9.9491,69.4067],[-84.6151,9.9522,108.1837],[-84.6161,9.9551,88.7693],[-84.6151,9.9571,140.9701],[-84.6112,9.9559,166.4997],[-84.6085,9.9593,118.6955],[-84.6069,9.9587,146.7811],[-84.6048,9.9667,144.7332],[-84.6016,9.9706,166.8212],[-84.599,9.9688,142.7398],[-84.597,9.9732,158.5342],[-84.5962,9.9711,160.1529],[-84.5921,9.9722,195.5752],[-84.5897,9.9794,187.3604],[-84.5845,9.9785,214.814],[-84.5841,9.9805,196.1388],[-84.5815,9.9803,216.6595],[-84.5807,9.9822,218.801],[-84.5775,9.9817,223.7191],[-84.5775,9.9831,210.3175],[-84.5737,9.9835,246.4142],[-84.571,9.9868,212.4305],[-84.5706,9.9832,228.5334],[-84.5691,9.9834,231.3234],[-84.5686,9.9816,251.983],[-84.5623,9.984,246.0286],[-84.561,9.9815,243.0468]]]]}
,"properties": {"GID_3": "CRI.6.5.6_1","GID_0": "CRI","country": "CostaRica","GID_1": "CRI.6_1","province": "Puntarenas","NL_NAME_1": "NA","GID_2": "CRI.6.5_1","county": "Esparza","NL_NAME_2": "NA","city": "SanRafael","VARNAME_3": "NA","NL_NAME_3": "NA","TYPE_3": "Distrito","ENGTYPE_3": "District","CC_3": "4","HASC_3": "NA","name": "San_Rafael.city","area_km2": 34.34978,"hist_schema_id": "Elevation0-9000","hist_area_km2": {"25": 0.37591,"50": 0.56385,"75": 0.48032,"100": 0.6265,"125": 0.96062,"150": 1.98388,"175": 3.09062,"200": 4.13463,"225": 4.32248,"250": 3.88388,"275": 3.02772,"300": 2.1507,"325": 2.04627,"350": 2.17152,"375": 2.60997,"400": 1.29454,"425": 0.37583,"450": 0.06264,"475": 0.04176,"500": 0.08351,"525": 0.06263}}}