{"type": "Feature","bbox": [-82.9517,8.7696,-82.7122,8.998],"geometry": {"type": "MultiPolygon","coordinates": [[[[-82.9141,8.7696,1151.884],[-82.9092,8.7741,1111.8123],[-82.906,8.7748,1118.1754],[-82.9004,8.773,1087.3723],[-82.8982,8.7745,1091.949],[-82.8948,8.7714,1075.2103],[-82.8921,8.7724,1070.5764],[-82.8902,8.7788,1029.3884],[-82.8949,8.7832,1022.078],[-82.8904,8.7859,999.8944],[-82.8883,8.7931,955.574],[-82.8656,8.8048,983.5416],[-82.8623,8.8181,986.094],[-82.8706,8.816,941.2824],[-82.8713,8.8184,945.8517],[-82.8778,8.82,1017.0197],[-82.8764,8.8229,1002.2936],[-82.8807,8.8226,989.9832],[-82.8818,8.826,995.0587],[-82.8834,8.8265,987.6738],[-82.8837,8.8295,1002.9636],[-82.8829,8.832,987.3571],[-82.8692,8.8436,1015.1235],[-82.8674,8.8469,1043.0488],[-82.8625,8.8494,1036.0411],[-82.8622,8.8523,1043.376],[-82.8566,8.8527,1043.9291],[-82.8548,8.8561,1084.1437],[-82.8495,8.8539,1064.5328],[-82.8391,8.8563,1099.7954],[-82.834,8.8558,1097.5391],[-82.8218,8.8596,1141.1056],[-82.8129,8.8651,1191.254],[-82.8093,8.8724,1227.1652],[-82.799,8.8773,1224.6433],[-82.7888,8.8777,1271.1367],[-82.7829,8.8755,1301.932],[-82.7759,8.8772,1332.3964],[-82.7698,8.8823,1334.0553],[-82.7608,8.8851,1464.3187],[-82.7591,8.8889,1564.6052],[-82.7481,8.898,1884.8132],[-82.7471,8.9,1947.7122],[-82.7489,8.9022,2016.9094],[-82.7487,8.9065,2103.8494],[-82.7252,8.9171,2350.291],[-82.7205,8.9207,2421.8389],[-82.7122,8.9225,2406.3442],[-82.7166,8.9487,2245.8977],[-82.727,8.9551,2105.0708],[-82.7294,8.9597,2172.6724],[-82.7356,8.9617,2160.415],[-82.742,8.9664,2254.2417],[-82.7365,8.977,2334.1379],[-82.7409,8.9847,2340.4941],[-82.7444,8.9857,2365.5784],[-82.7485,8.9908,2439.6733],[-82.7628,8.998,2520.459],[-82.7653,8.9794,2125.2502],[-82.773,8.9711,1904.8221],[-82.773,8.9635,1951.8115],[-82.7857,8.9495,1735.2653],[-82.7958,8.9419,1592.6239],[-82.806,8.9368,1465.3502],[-82.8111,8.94,1420.0895],[-82.8149,8.9374,1439.4515],[-82.8098,8.9247,1499.234],[-82.8111,8.9203,1532.4104],[-82.8175,8.9108,1333.1187],[-82.8136,8.9057,1331.0596],[-82.8149,8.8993,1198.999],[-82.8473,8.8821,1075.4385],[-82.8518,8.8752,1101.0858],[-82.8632,8.8713,1044.6714],[-82.8715,8.8713,1028.3721],[-82.8848,8.8682,1019.1394],[-82.895,8.8644,986.1575],[-82.9151,8.8663,923.1188],[-82.9163,8.8644,914.9611],[-82.922,8.8633,904.6758],[-82.9215,8.8616,904.0079],[-82.924,8.861,871.6769],[-82.9245,8.8622,913.6841],[-82.9281,8.853,887.3524],[-82.9301,8.8549,842.2838],[-82.9335,8.8538,824.3426],[-82.9349,8.8558,846.8317],[-82.9383,8.8527,823.982],[-82.9464,8.8516,787.7988],[-82.9477,8.8485,791.6558],[-82.9463,8.8459,804.1499],[-82.9396,8.8443,840.0626],[-82.9386,8.8394,852.3852],[-82.9304,8.8351,870.3802],[-82.9301,8.8327,871.6685],[-82.9255,8.8314,887.9001],[-82.9316,8.8242,975.1142],[-82.932,8.821,951.5882],[-82.937,8.8221,977.9933],[-82.942,8.82,971.2875],[-82.9421,8.8079,1060.5867],[-82.9462,8.8068,1126.3218],[-82.9468,8.8016,1192.7227],[-82.9517,8.7983,1298.5897],[-82.9498,8.7943,1247.4137],[-82.9508,8.7907,1201.4944],[-82.9492,8.7833,1142.3296],[-82.9431,8.7835,1118.4944],[-82.944,8.7753,1064.604],[-82.9418,8.7738,1080.6788],[-82.9383,8.7743,1066.0571],[-82.9357,8.7779,1050.7292],[-82.9346,8.775,1085.915],[-82.927,8.7739,1104.3638],[-82.923,8.7779,1109.4424],[-82.9183,8.7788,1117.5304],[-82.9195,8.7735,1130.9149],[-82.9141,8.7696,1151.884]]]]}
,"properties": {"GID_3": "CRI.6.4.5_1","GID_0": "CRI","country": "CostaRica","GID_1": "CRI.6_1","province": "Puntarenas","NL_NAME_1": "NA","GID_2": "CRI.6.4_1","county": "CotoBrus","NL_NAME_2": "NA","city": "Sabalito","VARNAME_3": "NA","NL_NAME_3": "NA","TYPE_3": "Distrito","ENGTYPE_3": "District","CC_3": "2","HASC_3": "NA","name": "Sabalito.city","area_km2": 176.8235,"hist_schema_id": "Elevation0-9000","hist_area_km2": {"775": 0.0209,"800": 0.1047,"825": 0.2514,"850": 0.3561,"875": 0.7542,"900": 6.8092,"925": 10.7269,"950": 12.4031,"975": 11.1042,"1000": 8.569,"1025": 5.6986,"1050": 5.7824,"1075": 4.9443,"1100": 6.5158,"1125": 5.9711,"1150": 4.9231,"1175": 4.7553,"1200": 4.9647,"1225": 4.0639,"1250": 2.6185,"1275": 2.7651,"1300": 2.0109,"1325": 2.2204,"1350": 1.5501,"1375": 1.4453,"1400": 1.2987,"1425": 1.55,"1450": 1.4872,"1475": 1.7176,"1500": 2.2621,"1525": 2.4088,"1550": 2.1783,"1575": 2.1364,"1600": 1.5918,"1625": 1.3196,"1650": 1.6128,"1675": 1.6128,"1700": 1.4871,"1725": 1.5918,"1750": 1.131,"1775": 1.8222,"1800": 1.6965,"1825": 1.7384,"1850": 1.6965,"1875": 1.3824,"1900": 1.5708,"1925": 1.3823,"1950": 1.7384,"1975": 1.885,"2000": 1.8012,"2025": 1.885,"2050": 1.6755,"2075": 2.0944,"2100": 2.0944,"2125": 1.8849,"2150": 2.0316,"2175": 1.9687,"2200": 1.7383,"2225": 1.5917,"2250": 1.6336,"2275": 1.1519,"2300": 0.6911,"2325": 0.6493,"2350": 0.7749,"2375": 0.4817,"2400": 0.2932,"2425": 0.2304,"2450": 0.2304,"2475": 0.0628,"2500": 0.0838,"2525": 0.0419,"2550": 0.0628,"2575": 0.0419}}}