{"type":"Feature","properties":{"GID_2":"CRI.2.6_1","GID_0":"CRI","country":"CostaRica","GID_1":"CRI.2_1","province":"Cartago","NL_NAME_1":"NA","county":"Oreamuno","VARNAME_2":"NA","NL_NAME_2":"NA","TYPE_2":"Cantón","ENGTYPE_2":"Canton","CC_2":"7","HASC_2":"CR.CA.OR","name":"Oreamuno.county"},
"geometry":{"type": "MultiPolygon","coordinates": [[[[-83.858,9.8764,1590.3887],[-83.8542,9.8787,1617.2421],[-83.8507,9.8774,1610.6969],[-83.8439,9.8786,1632.2709],[-83.8377,9.8845,1647.9008],[-83.8312,9.8843,1605.7212],[-83.8291,9.8886,1622.1904],[-83.8257,9.8896,1624.3494],[-83.8249,9.8926,1624.4148],[-83.8226,9.8934,1618.8712],[-83.825,9.9034,1708.4149],[-83.8294,9.8989,1745.5391],[-83.834,9.8987,1756.5684],[-83.8314,9.9023,1773.3436],[-83.8322,9.9062,1838.4971],[-83.8295,9.913,1951.5927],[-83.8309,9.9175,2025.8555],[-83.8305,9.9265,2102.5962],[-83.8353,9.9317,2283.1492],[-83.8371,9.9371,2467.1782],[-83.8366,9.9371,2467.1782],[-83.8355,9.9357,2435.418],[-83.834,9.9365,2435.418],[-83.8293,9.9458,2423.5144],[-83.8368,9.9524,2730.6023],[-83.8405,9.9526,2776.7031],[-83.8425,9.9606,2909.0205],[-83.8377,9.9673,3078.0081],[-83.838,9.9709,3116.5918],[-83.8348,9.9788,3247.0234],[-83.8321,9.9801,3269.7913],[-83.8288,9.9789,3233.0107],[-83.8273,9.9804,3222.9429],[-83.8265,9.9872,2726.2051],[-83.8212,9.9996,2205.0159],[-83.8183,10.0118,1926.2814],[-83.8155,10.0131,1856.6235],[-83.8161,10.0151,1780.3048],[-83.8128,10.0169,1784.116],[-83.8034,10.0291,1478.296],[-83.8005,10.0367,1432.731],[-83.8081,10.0411,1320.5947],[-83.8162,10.055,1199.335],[-83.8134,10.0588,1170.2286],[-83.8142,10.064,1149.7096],[-83.8151,10.0669,1191.8754],[-83.8193,10.0696,1194.564],[-83.8181,10.0711,1179.2568],[-83.8184,10.0828,934.67],[-83.8163,10.0836,923.7301],[-83.947,10.1473,473.381],[-83.9415,10.1297,566.9847],[-83.9381,10.1245,654.8297],[-83.9379,10.1174,685.7578],[-83.9362,10.1158,765.2194],[-83.9377,10.1102,713.4905],[-83.9325,10.0986,771.4249],[-83.9315,10.0832,908.7759],[-83.9262,10.0792,960.6834],[-83.9234,10.079,970.8759],[-83.9216,10.0759,975.8729],[-83.9181,10.077,977.0717],[-83.9169,10.0745,1000.4568],[-83.9124,10.0733,1020.1208],[-83.9083,10.0685,1062.6663],[-83.8949,10.0606,1196.9225],[-83.8816,10.0446,1406.0365],[-83.8792,10.038,1432.7762],[-83.8752,10.0345,1508.4402],[-83.877,10.0204,1724.181],[-83.8718,10.014,1791.8431],[-83.8671,10.0041,1975.7932],[-83.869,9.9963,2302.4839],[-83.8678,9.9908,2473.8535],[-83.8662,9.9865,2811.7681],[-83.8591,9.9788,3049.801],[-83.8594,9.9719,3394.418],[-83.8679,9.9712,3168.0222],[-83.8705,9.9664,2927.0647],[-83.8728,9.9617,2836.5693],[-83.8724,9.9509,2685.0593],[-83.8757,9.949,2625.5771],[-83.8778,9.9439,2536.0378],[-83.8831,9.9406,2430.5256],[-83.8851,9.9312,2330.2681],[-83.8837,9.9307,2334.3438],[-83.888,9.9222,2231.6199],[-83.8893,9.9115,2058.9626],[-83.8922,9.9062,1961.984],[-83.894,9.8958,1811.2019],[-83.9074,9.8844,1585.3055],[-83.9052,9.8733,1475.5466],[-83.9112,9.8685,1443.351],[-83.9075,9.8662,1433.4766],[-83.9092,9.8579,1396.3042],[-83.9044,9.8556,1389.7897],[-83.8987,9.8491,1358.0708],[-83.8948,9.8478,1353.0343],[-83.8917,9.852,1363.6764],[-83.8897,9.8512,1374.5771],[-83.8881,9.8526,1383.9294],[-83.8876,9.8635,1426.7491],[-83.8755,9.862,1433.5181],[-83.8734,9.8645,1544.6533],[-83.8656,9.8655,1562.6044],[-83.862799999999993,9.8676,1571.7191],[-83.858,9.8764,1590.3887]]]]}}