{"type": "Feature","bbox": [-83.638,9.484,-83.3119,9.9819],"geometry": {"type": "MultiPolygon","coordinates": [[[[-83.6344,9.5806,3327.9302],[-83.6296,9.5753,3335.0413],[-83.6298,9.569,3295.8555],[-83.6188,9.5577,3131.2102],[-83.6111,9.5566,3028.7295],[-83.6064,9.552,2896.8015],[-83.5962,9.5524,2992.1633],[-83.5933,9.545,2938.7666],[-83.5715,9.5346,3164.6665],[-83.5614,9.5334,3228.8274],[-83.5563,9.5305,3278.9866],[-83.55,9.5322,3311.7939],[-83.5465,9.529,3286.5312],[-83.5454,9.5249,3263.9644],[-83.5347,9.51,3589.7314],[-83.5143,9.5025,3672.3599],[-83.5089,9.4962,3704.5322],[-83.5058,9.4967,3692.6262],[-83.5041,9.4947,3715.709],[-83.5009,9.4945,3691.5249],[-83.4968,9.4881,3736.1807],[-83.4938,9.4877,3700.1494],[-83.4891,9.484,3753.5232],[-83.4875,9.4917,3496.6694],[-83.4886,9.495,3503.9116],[-83.4865,9.4988,3486.8706],[-83.4947,9.5104,3322.9141],[-83.4962,9.5215,3114.1948],[-83.5032,9.5299,2857.4468],[-83.5073,9.5298,2800.7739],[-83.5155,9.5356,2661.1104],[-83.5138,9.5407,2602.8218],[-83.5162,9.5531,2413.2241],[-83.5131,9.5569,2382.1411],[-83.5144,9.561,2417.6628],[-83.5133,9.5676,2242.9932],[-83.5078,9.575,1900.8062],[-83.5045,9.5837,1676.7437],[-83.5068,9.5895,1559.9727],[-83.5114,9.5941,1469.9213],[-83.5118,9.5971,1307.1112],[-83.5066,9.6017,1306.5077],[-83.5027,9.603,1269.157],[-83.4939,9.6129,1209.8806],[-83.4914,9.6136,1228.4158],[-83.4821,9.6283,1115.2428],[-83.4736,9.6323,1133.1042],[-83.4681,9.6329,1057.6592],[-83.4634,9.6429,1070.9387],[-83.4575,9.6474,1006.007],[-83.4517,9.6479,967.8444],[-83.4496,9.6522,918.8438],[-83.4468,9.6533,915.7955],[-83.4407,9.6649,855.7419],[-83.4331,9.6718,816.8909],[-83.428,9.6799,885.483],[-83.4268,9.6915,791.4656],[-83.4293,9.6994,737.065],[-83.4292,9.7067,726.3571],[-83.4109,9.7256,674.6644],[-83.4104,9.7288,736.9778],[-83.4079,9.73,660.1652],[-83.4047,9.7368,691.1974],[-83.397,9.7417,635.029],[-83.3831,9.7676,606.59],[-83.3781,9.7739,556.7697],[-83.3686,9.7808,583.3624],[-83.3674,9.7856,534.4299],[-83.3566,9.7966,514.1466],[-83.3556,9.8022,551.8942],[-83.3463,9.8103,514.9507],[-83.3404,9.8213,511.2071],[-83.3363,9.8231,474.8091],[-83.3363,9.8303,457.1037],[-83.3387,9.8338,433.4713],[-83.3341,9.8383,453.1148],[-83.3321,9.844,450.2598],[-83.3358,9.8475,455.9419],[-83.3394,9.8601,384.008],[-83.3347,9.8719,349.0669],[-83.3366,9.8751,328.1845],[-83.3341,9.8792,304.8527],[-83.3374,9.8841,269.6485],[-83.3348,9.8851,284.975],[-83.3424,9.8890999999999991,252.6867],[-83.3403,9.894,217.9289],[-83.3438,9.8936,250.6719],[-83.3478,9.898,218.9715],[-83.3439,9.8999,186.2071],[-83.3494,9.9035,219.5695],[-83.3476,9.9056,275.9532],[-83.3489,9.9079,247.1682],[-83.3487,9.9148,163.8116],[-83.3449,9.9168,202.0484],[-83.3467,9.9201,166.5569],[-83.3498,9.9216,156.5477],[-83.3507,9.9264,204.3656],[-83.3487,9.9294,182.4863],[-83.3513,9.9318,167.7139],[-83.353,9.9383,132.4196],[-83.3482,9.9361,119.468],[-83.3453,9.9401,112.6296],[-83.3383,9.9421,101.8649],[-83.3377,9.9439,126.0694],[-83.341,9.9541,88.1486],[-83.3399,9.9602,100.7841],[-83.3331,9.9647,75.117],[-83.3278,9.9651,71.2055],[-83.3165,9.979,53.203],[-83.3119,9.9816,52.7434],[-83.5514,9.9819,265.0061],[-83.552,9.9805,341.9316],[-83.5494,9.979,370.9528],[-83.5497,9.9762,366.6758],[-83.5466,9.9743,286.8432],[-83.5484,9.9696,288.0944],[-83.5463,9.9649,292.6341],[-83.5492,9.9571,298.295],[-83.546,9.9548,315.8905],[-83.5472,9.9507,299.7503],[-83.5363,9.9444,354.9791],[-83.535,9.9407,375.8855],[-83.5368,9.9358,371.214],[-83.5434,9.933,391.9085],[-83.5456,9.9293,401.6979],[-83.5447,9.9223,390.39],[-83.5517,9.9135,458.0518],[-83.5425,9.9061,496.2497],[-83.5388,9.8982,434.1766],[-83.5354,9.8961,443.2051],[-83.5325,9.8964,485.6316],[-83.5286,9.8873,468.5737],[-83.5246,9.8864,485.8878],[-83.5257,9.8816,500.9954],[-83.5248,9.8785,506.6915],[-83.5221,9.8769,531.4844],[-83.5197,9.8798,492.6212],[-83.5177,9.8788,500.8023],[-83.5188,9.8764,504.8508],[-83.5145,9.8664,566.097],[-83.5166,9.8645,532.0008],[-83.5197,9.8648,530.9702],[-83.5216,9.8574,550.8082],[-83.5213,9.8534,551.6055],[-83.518,9.849,585.0795],[-83.5192,9.8455,567.684],[-83.5171,9.8451,584.9761],[-83.5161,9.8419,556.6713],[-83.5175,9.8393,560.631],[-83.5062,9.834,861.809],[-83.4988,9.8329,1019.3485],[-83.4931,9.8252,1066.8506],[-83.4899,9.8238,1059.0117],[-83.5036,9.8107,684.1955],[-83.5106,9.7992,927.2281],[-83.5171,9.798,996.9116],[-83.5108,9.7927,1209.9128],[-83.5108,9.7906,1222.4324],[-83.5262,9.7815,1372.4609],[-83.5397,9.7782,1291.9501],[-83.5483,9.7706,1587.3628],[-83.5543,9.7708,1657.3573],[-83.5613,9.7639,1697.4089],[-83.5646,9.7643,1737.8021],[-83.5685,9.7624,1884.0168],[-83.5743,9.7634,1879.4277],[-83.5756,9.7658,1922.8608],[-83.5788,9.7643,1949.0702],[-83.5793,9.7585,1925.3555],[-83.5822,9.7532,1785.999],[-83.5917,9.7487,1869.1844],[-83.5957,9.7401,1961.145],[-83.5933,9.7007,1356.9922],[-83.5953,9.7007,1425.4183],[-83.5948,9.6988,1398.124],[-83.5968,9.6984,1384.1273],[-83.6002,9.691,1429.0195],[-83.6052,9.6917,1481.8037],[-83.6106,9.696,1478.2817],[-83.6114,9.6935,1525.2094],[-83.6149,9.6939,1551.1008],[-83.6155,9.692,1562.7971],[-83.6171,9.6944,1551.3293],[-83.6192,9.6938,1556.3038],[-83.6196,9.6891,1579.6726],[-83.6227,9.69,1590.7682],[-83.6249,9.6879,1608.0751],[-83.6295,9.6891,1621.5356],[-83.6334,9.6855,1645.4535],[-83.6351,9.6824,1666.2339],[-83.6354,9.6745,1728.6721],[-83.6377,9.6703,1802.9607],[-83.6366,9.6608,1846.4753],[-83.638,9.6549,1955.2891],[-83.6351,9.6492,2028.9231],[-83.635,9.644,2089.9246],[-83.6305,9.6382,2222.0088],[-83.6326,9.6374,2249.2783],[-83.6363,9.6268,2449.498],[-83.6339,9.6205,2583.0493],[-83.6365,9.6039,2982.6318],[-83.6289,9.6051,3152.0381],[-83.627,9.593,3220.0215],[-83.6303,9.5846,3259.2551],[-83.6344,9.5806,3327.9302]]]]}
,"properties": {"GID_3": "CRI.2.8.1_1","GID_0": "CRI","country": "CostaRica","GID_1": "CRI.2_1","province": "Cartago","NL_NAME_1": "NA","GID_2": "CRI.2.8_1","county": "Turrialba","NL_NAME_2": "NA","city": "Chirripó","VARNAME_3": "NA","NL_NAME_3": "NA","TYPE_3": "Distrito","ENGTYPE_3": "District","CC_3": "12","HASC_3": "NA","name": "Chirripó.city","area_km2": 945.9369,"hist_schema_id": "Elevation0-9000","hist_area_km2": {"50": 0.6682,"75": 2.3597,"100": 1.3991,"125": 1.2321,"150": 1.42,"175": 1.5662,"200": 1.2321,"225": 1.253,"250": 1.4409,"275": 2.1509,"300": 2.1927,"325": 2.1719,"350": 2.9236,"375": 4.093,"400": 4.0513,"425": 4.6361,"450": 6.0353,"475": 4.9495,"500": 7.6018,"525": 6.9963,"550": 7.9153,"575": 8.354,"600": 8.1662,"625": 9.3361,"650": 9.7539,"675": 10.8403,"700": 11.446,"725": 12.4695,"750": 14.8297,"775": 16.3966,"800": 18.2975,"825": 17.2326,"850": 16.3554,"875": 17.8179,"900": 16.9621,"925": 16.0222,"950": 16.085,"975": 14.8739,"1000": 16.4197,"1025": 16.1066,"1050": 16.5869,"1075": 17.3601,"1100": 19.6795,"1125": 19.3874,"1150": 18.1762,"1175": 16.9853,"1200": 16.6722,"1225": 14.5835,"1250": 14.312,"1275": 13.3512,"1300": 12.871,"1325": 13.2472,"1350": 13.3518,"1375": 12.746,"1400": 12.3912,"1425": 12.9137,"1450": 11.3259,"1475": 10.5321,"1500": 11.159,"1525": 10.386,"1550": 10.3026,"1575": 10.0728,"1600": 9.7386,"1625": 9.2582,"1650": 8.6314,"1675": 9.342,"1700": 8.5689,"1725": 8.2763,"1750": 7.4612,"1775": 7.5867,"1800": 7.6286,"1825": 7.1478,"1850": 7.4824,"1875": 6.333,"1900": 5.9568,"1925": 5.8524,"1950": 5.288,"1975": 5.4762,"2000": 4.6402,"2025": 4.4312,"2050": 4.264,"2075": 4.1178,"2100": 3.7624,"2125": 3.4281,"2150": 3.1982,"2175": 3.4281,"2200": 3.1355,"2225": 3.3446,"2250": 3.1982,"2275": 3.6163,"2300": 2.9265,"2325": 2.7175,"2350": 2.8221,"2375": 3.1566,"2400": 3.5956,"2425": 3.0731,"2450": 3.3448,"2475": 3.0731,"2500": 3.5957,"2525": 3.0104,"2550": 3.8049,"2575": 3.4703,"2600": 3.5331,"2625": 4.1603,"2650": 3.9095,"2675": 4.0139,"2700": 4.5158,"2725": 4.014,"2750": 4.453,"2775": 4.2649,"2800": 4.7249,"2825": 5.1011,"2850": 4.6621,"2875": 4.2022,"2900": 4.2649,"2925": 3.6795,"2950": 4.0559,"2975": 3.9304,"3000": 3.3032,"3025": 2.6343,"3050": 2.2371,"3075": 1.9653,"3100": 1.8608,"3125": 1.589,"3150": 1.6308,"3175": 1.2545,"3200": 1.2127,"3225": 1.1709,"3250": 1.0664,"3275": 1.0455,"3300": 0.9827,"3325": 0.4809,"3350": 0.4809,"3375": 0.4391,"3400": 0.5437,"3425": 0.481,"3450": 0.6064,"3475": 0.5019,"3500": 0.5437,"3525": 0.5437,"3550": 0.941,"3575": 0.6064,"3600": 0.5228,"3625": 0.7528,"3650": 0.6064,"3675": 0.3555,"3700": 0.2928,"3725": 0.1673}}}