{"type": "Feature","bbox": [-84.453,10.1008,-84.4145,10.1527],"geometry": {"type": "MultiPolygon","coordinates": [[[[-84.4365,10.1121,1063.7488],[-84.4339,10.1148,1108.4814],[-84.4346,10.1225,1123.6786],[-84.4325,10.1249,1130.0936],[-84.4235,10.1285,1191.3552],[-84.4145,10.1297,1236.6603],[-84.4226,10.1414,1342.1432],[-84.4262,10.1512,1349.3318],[-84.4283,10.1504,1302.7668],[-84.4307,10.1523,1291.4852],[-84.4339,10.1527,1272.6024],[-84.4349,10.1511,1249.5294],[-84.433,10.1484,1277.6757],[-84.4341,10.1435,1310.0237],[-84.4415,10.1434,1246.0254],[-84.4399,10.1417,1202.4033],[-84.4423,10.138,1193.3844],[-84.4421,10.1314,1161.4536],[-84.4471,10.1306,1134.4895],[-84.4449,10.1285,1158.8315],[-84.445,10.126,1138.1501],[-84.4522,10.117,1075.1758],[-84.453,10.1078,1034.8158],[-84.4441,10.1008,986.4296],[-84.4396,10.1107,1043.1287],[-84.4365,10.1121,1063.7488]]]]}
,"properties": {"GID_3": "CRI.1.13.2_1","GID_0": "CRI","country": "CostaRica","GID_1": "CRI.1_1","province": "Alajuela","NL_NAME_1": "NA","GID_2": "CRI.1.13_1","county": "SanRamón","NL_NAME_2": "NA","city": "Concepción","VARNAME_3": "NA","NL_NAME_3": "NA","TYPE_3": "Distrito","ENGTYPE_3": "District","CC_3": "11","HASC_3": "NA","name": "Concepción.city","area_km2": 9.642783,"hist_schema_id": "Elevation0-9000","hist_area_km2": {"975": 0.020873,"1000": 0.083494,"1025": 0.292223,"1050": 0.542699,"1075": 0.626187,"1100": 0.563561,"1125": 0.814023,"1150": 0.751396,"1175": 1.022721,"1200": 0.960094,"1225": 0.876601,"1250": 0.772235,"1275": 0.834841,"1300": 0.93919299999999994,"1325": 0.354805,"1350": 0.166966,"1375": 0.02087}}}