{"type":"Feature","properties":{"GID_3":"CRI.7.9.6_1","GID_0":"CRI","country":"CostaRica","GID_1":"CRI.7_1","province":"SanJosé","NL_NAME_1":"NA","GID_2":"CRI.7.9_1","county":"LeónCortésCastro","NL_NAME_2":"NA","city":"SantaCruz","VARNAME_3":"NA","NL_NAME_3":"NA","TYPE_3":"Distrito","ENGTYPE_3":"District","CC_3":"5","HASC_3":"NA","name":"Santa_Cruz.city"},
"geometry":{"type": "MultiPolygon","coordinates": [[[[-84.0521,9.7438,1371.6062],[-84.0516,9.7396,1398.5936],[-84.0437,9.7354,1504.5514],[-84.0423,9.7245,1600.3075],[-84.0341,9.7157,1735.1119],[-84.0327,9.708,2104.7336],[-84.029,9.7052,2132.209],[-84.0264,9.7061,2196.2468],[-84.0229,9.7045,2178.001],[-84.0189,9.7049,2231.897],[-84.0176,9.7028,2102.7144],[-84.0142,9.7044,2110.9885],[-84.0094,9.7108,2071.5242],[-84.0047,9.7112,2040.0613],[-83.9891,9.7177,2133.595],[-83.9861,9.7167,2120.0146],[-83.9792,9.7186,2193.1035],[-83.9785,9.7159,2204.9846],[-83.9749,9.7146,2201.2856],[-83.9723,9.7144,2217.7695],[-83.9709,9.7164,2207.022],[-83.975,9.7217,2179.1282],[-83.978,9.7292,2028.8822],[-83.984,9.7334,1866.9712],[-83.9865,9.7393,1749.6992],[-83.9918,9.7363,1713.0273],[-84.0008,9.7389,1698.0005],[-84.0028,9.7372,1631.3494],[-84.0129,9.7424,1591.9985],[-84.0158,9.7404,1532.5352],[-84.015,9.7394,1532.5352],[-84.018,9.7387,1550.8834],[-84.028,9.7407,1465.4423],[-84.0287,9.7423,1513.4698],[-84.0367,9.7426,1451.0474],[-84.0365,9.7407,1432.606],[-84.0465,9.7405,1385.1355],[-84.0521,9.7438,1371.6062]]]]}}