{"type":"Feature","properties":{"GID_3":"CRI.1.7.5_1","GID_0":"CRI","country":"CostaRica","GID_1":"CRI.1_1","province":"Alajuela","NL_NAME_1":"NA","GID_2":"CRI.1.7_1","county":"Naranjo","NL_NAME_2":"NA","city":"SanJerónimo","VARNAME_3":"NA","NL_NAME_3":"NA","TYPE_3":"Distrito","ENGTYPE_3":"District","CC_3":"5","HASC_3":"NA","name":"San_Jerónimo.city"},
"geometry":{"type": "MultiPolygon","coordinates": [[[[-84.3722,10.0947,974.8258],[-84.3671,10.0903,950.4899],[-84.3672,10.0868,945.5786],[-84.3612,10.0837,904.2537],[-84.3619,10.0881,936.4377],[-84.3557,10.0999,1000.8527],[-84.3569,10.1015,1000.7717],[-84.3573,10.1068,1030.2372],[-84.3558,10.1098,1086.4216],[-84.357,10.1148,1118.4658],[-84.3521,10.1208,1179.3895],[-84.3528,10.1262,1213.3997],[-84.3472,10.1318,1291.8386],[-84.3485,10.1349,1318.7317],[-84.3408,10.148,1480.3643],[-84.3409,10.1574,1686.0486],[-84.3344,10.1581,1623.6986],[-84.3331,10.1623,1715.9427],[-84.3349,10.169,1883.3146],[-84.3338,10.1731,2069.4612],[-84.338,10.173,2133.3435],[-84.337,10.1691,1976.9376],[-84.3382,10.1655,1866.3069],[-84.3431,10.1598,1662.7261],[-84.346,10.1503,1521.9749],[-84.3519,10.1479,1466.6052],[-84.354,10.1439,1434.1292],[-84.3532,10.1414,1393.0818],[-84.3548,10.1373,1353.5753],[-84.359,10.1363,1305.6659],[-84.3602,10.1343,1287.6625],[-84.3626,10.1234,1195.3403],[-84.3613,10.1225,1191.4414],[-84.3638,10.1198,1165.3931],[-84.362799999999993,10.1173,1143.9032],[-84.3649,10.1125,1102.8337],[-84.367,10.111,1108.6326],[-84.3682,10.0989,1014.3828],[-84.3722,10.0947,974.8258]]]]}}