{"type": "Feature","bbox": [-84.3098,9.9234,-84.2083,9.9994],"geometry": {"type": "MultiPolygon","coordinates": [[[[-84.2131,9.9994,888.6452],[-84.2193,9.9967,875.6269],[-84.222,9.9931,874.2476],[-84.2242,9.9941,871.3778],[-84.226,9.9925,864.6718],[-84.2276,9.9939,864.4434],[-84.2309,9.9893,850.1491],[-84.234,9.9893,853.4673],[-84.2359,9.9866,836.2554],[-84.2396,9.9866,826.0531],[-84.2431,9.982,829.077],[-84.2446,9.9835,817.1339],[-84.2512,9.9826,816.0918],[-84.2557,9.9794,806.2751],[-84.2549,9.9776,799.2456],[-84.2581,9.9763,786.3596],[-84.2591,9.9734,801.8345],[-84.2633,9.9744,775.4933],[-84.2668,9.9703,780.351],[-84.2725,9.967,740.3758],[-84.2736,9.9644,755.2398],[-84.2773,9.9639,734.288],[-84.2789,9.9589,704.6053],[-84.2948,9.9545,647.5712],[-84.2973,9.9512,629.1746],[-84.2981,9.9438,602.2866],[-84.2956,9.9412,582.5131],[-84.3014,9.936,586.2571],[-84.305,9.9363,545.6016],[-84.3066,9.9327,523.2938],[-84.3056,9.9297,539.4121],[-84.3098,9.9234,469.7645],[-84.2989,9.9252,525.0505],[-84.2933,9.9304,550.3284],[-84.2887,9.9287,564.4728],[-84.2866,9.9308,593.741],[-84.2839,9.929,566.3411],[-84.2692,9.9333,590.7415],[-84.2671,9.9314,590.9818],[-84.2624,9.9312,602.998],[-84.2601,9.9342,713.8831],[-84.2615,9.9377,731.4216],[-84.2598,9.9399,727.7518],[-84.2608,9.9432,760.0263],[-84.2587,9.9514,782.432],[-84.2561,9.9523,786.9268],[-84.2539,9.9559,796.0609],[-84.248,9.9563,800.8555],[-84.2421,9.9595,806.7191],[-84.2357,9.9649,815.7776],[-84.2342,9.9695,819.3728],[-84.2304,9.9718,832.2355],[-84.225,9.9724,833.1379],[-84.2246,9.9765,844.0508],[-84.2229,9.9784,839.8475],[-84.2157,9.9805,853.0762],[-84.2128,9.986,871.0054],[-84.2084,9.9881,871.9418],[-84.2083,9.9896,873.8859],[-84.2127,9.9927,903.6532],[-84.2131,9.9994,888.6452]]]]}
,"properties": {"GID_3": "CRI.1.1.5_1","GID_0": "CRI","country": "CostaRica","GID_1": "CRI.1_1","province": "Alajuela","NL_NAME_1": "NA","GID_2": "CRI.1.1_1","county": "Alajuela","NL_NAME_2": "NA","city": "Guácima","VARNAME_3": "NA","NL_NAME_3": "NA","TYPE_3": "Distrito","ENGTYPE_3": "District","CC_3": "5","HASC_3": "NA","name": "Guácima.city","area_km2": 28.60931,"hist_schema_id": "Elevation0-9000","hist_area_km2": {"450": 0.04177,"475": 0.06265,"500": 0.16708,"525": 0.31327,"550": 0.22973,"575": 0.56388,"600": 0.77272,"625": 1.39924,"650": 1.31568,"675": 1.23214,"700": 0.87712,"725": 1.6498,"750": 2.69395,"775": 3.71716,"800": 4.38532,"825": 4.19724,"850": 2.02548,"875": 1.81664,"900": 1.14844}}}