{"type": "Feature","bbox": [-84.0943,10.0069,-84.0445,10.0832],"geometry": {"type": "MultiPolygon","coordinates": [[[[-84.0695,10.0832,2245.0645],[-84.0741,10.0804,2016.6517],[-84.076,10.0697,1869.5269],[-84.0714,10.0602,1754.7723],[-84.0715,10.0569,1721.4994],[-84.0693,10.0545,1700.553],[-84.0772,10.0421,1582.965],[-84.0802,10.032,1493.1085],[-84.0863,10.0304,1443.7668],[-84.0943,10.0215,1316.7201],[-84.0932,10.0193,1305.9858],[-84.0943,10.0135,1264.0449],[-84.0905,10.0069,1230.4124],[-84.0745,10.013,1351.5868],[-84.0726,10.0196,1404.1477],[-84.0685,10.021,1408.764],[-84.0666,10.0201,1381.9243],[-84.0639,10.0226,1423.2765],[-84.0591,10.0237,1390.7526],[-84.0572,10.0227,1389.4337],[-84.0533,10.0278,1421.4536],[-84.0531,10.0342,1479.2339],[-84.0481,10.0342,1471.8369],[-84.0451,10.0408,1574.4937],[-84.0445,10.0484,1686.0436],[-84.0472,10.0596,2024.5837],[-84.0445,10.0631,2114.312],[-84.0456,10.0667,1976.9673],[-84.0506,10.0676,2088.4187],[-84.0534,10.0741,2162.5464],[-84.0608,10.0795,2242.2346],[-84.0695,10.0832,2245.0645]]]]}
,"properties": {"GID_3": "CRI.4.7.2_1","GID_0": "CRI","country": "CostaRica","GID_1": "CRI.4_1","province": "Heredia","NL_NAME_1": "NA","GID_2": "CRI.4.7_1","county": "SanRafael","NL_NAME_2": "NA","city": "Concepción","VARNAME_3": "NA","NL_NAME_3": "NA","TYPE_3": "Distrito","ENGTYPE_3": "District","CC_3": "5","HASC_3": "NA","name": "Concepción.city","area_km2": 22.71444,"hist_schema_id": "Elevation0-9000","hist_area_km2": {"1225": 0.04176,"1250": 0.37583,"1275": 0.52198,"1300": 0.48022,"1325": 0.52197,"1350": 0.3967,"1375": 0.50109,"1400": 0.70988,"1425": 1.12744,"1450": 0.9604,"1475": 1.21093,"1500": 1.31531,"1525": 1.06477,"1550": 1.12739,"1575": 1.00212,"1600": 0.83509,"1625": 0.62631,"1650": 0.60543,"1675": 0.70981,"1700": 0.70981,"1725": 0.60542,"1750": 0.50103,"1775": 0.52191,"1800": 0.50103,"1825": 0.54278,"1850": 0.56365,"1875": 0.6054,"1900": 0.48014,"1925": 0.41752,"1950": 0.66802,"1975": 0.45926,"2000": 0.31313,"2025": 0.35488,"2050": 0.29226,"2075": 0.2505,"2100": 0.18788,"2125": 0.14613,"2150": 0.12525,"2175": 0.0835,"2200": 0.12525,"2225": 0.02087,"2250": 0.0835,"2275": 0.02087}}}