{"type":"Feature","properties":{"GID_3":"CRI.4.1.2_1","GID_0":"CRI","country":"CostaRica","GID_1":"CRI.4_1","province":"Heredia","NL_NAME_1":"NA","GID_2":"CRI.4.1_1","county":"Barva","NL_NAME_2":"NA","city":"SanJosedelaMontaña","VARNAME_3":"NA","NL_NAME_3":"NA","TYPE_3":"Distrito","ENGTYPE_3":"District","CC_3":"6","HASC_3":"NA","name":"San_Josedela_Montaña.city"},
"geometry":{"type": "MultiPolygon","coordinates": [[[[-84.0883,10.0825,1936.1548],[-84.0853,10.0904,2066.9944],[-84.0872,10.098,2177.5469],[-84.0872,10.1204,2536.0767],[-84.0955,10.1243,2729.6885],[-84.0975,10.1287,2786.1445],[-84.1017,10.1312,2890.7686],[-84.1061,10.1302,2841.6711],[-84.1061,10.1324,2842.1194],[-84.1104,10.1356,2795.4429],[-84.1142,10.1342,2731.3723],[-84.1196,10.1358,2688.3354],[-84.1249,10.1335,2643.9502],[-84.1312,10.1371,2507.7744],[-84.1311,10.0824,1592.5162],[-84.1265,10.0696,1512.2239],[-84.1216,10.0672,1500.7556],[-84.1216,10.0361,1296.5924],[-84.1158,10.041,1387.4319],[-84.1156,10.0467,1437.2029],[-84.1134,10.0496,1480.0774],[-84.1087,10.0546,1558.9541],[-84.1041,10.0561,1591.0018],[-84.1002,10.0607,1692.9156],[-84.0989,10.0717,1787.8748],[-84.0909,10.0777,1864.1001],[-84.0883,10.0825,1936.1548]]]]}}