{"type":"Feature","properties":{"GID_3":"CRI.5.5.1_1","GID_0":"CRI","country":"CostaRica","GID_1":"CRI.5_1","province":"Limón","NL_NAME_1":"NA","GID_2":"CRI.5.5_1","county":"Siquirres","NL_NAME_2":"NA","city":"ElCairo","VARNAME_3":"NA","NL_NAME_3":"NA","TYPE_3":"Distrito","ENGTYPE_3":"District","CC_3":"5","HASC_3":"NA","name":"El_Cairo.city"},
"geometry":{"type": "MultiPolygon","coordinates": [[[[-83.5556,10.2147,23.5528],[-83.5565,10.2115,18.4458],[-83.5548,10.211,21.4423],[-83.5543,10.2076,16.256],[-83.5557,10.1998,16.9437],[-83.5519,10.1914,32.8897],[-83.5496,10.191,20.5985],[-83.549,10.1924,31.9332],[-83.5482,10.1907,22.836],[-83.5504,10.1898,24.6353],[-83.5509,10.1859,22.7221],[-83.5543,10.1864,22.5353],[-83.5552,10.1845,26.3252],[-83.554,10.1823,23.3548],[-83.5559,10.1801,29.8736],[-83.5533,10.1765,35.5593],[-83.5554,10.1757,26.6877],[-83.5559,10.1726,30.9553],[-83.5546,10.1696,41.5366],[-83.5557,10.1584,61.4084],[-83.5235,10.1584,41.1927],[-83.523,10.1565,40.3836],[-83.5237,10.1546,38.2627],[-83.5275,10.1553,46.0794],[-83.5263,10.152,50.0415],[-83.5313,10.1484,53.6958],[-83.5305,10.1432,59.1809],[-83.5362,10.1411,66.5242],[-83.5378,10.136,74.9058],[-83.5504,10.1307,111.2613],[-83.5505,10.1264,124.5762],[-83.5531,10.1265,124.8663],[-83.556,10.1189,140.613],[-83.5605,10.1163,162.0931],[-83.5632,10.1117,183.3208],[-83.547,10.0956,110.698],[-83.5416,10.0961,95.3883],[-83.532,10.1035,113.0058],[-83.5277,10.1105,77.5852],[-83.516,10.1206,59.6262],[-83.5101,10.13,51.3164],[-83.5099,10.1347,45.4831],[-83.5048,10.1445,33.8606],[-83.5034,10.1575,29.5678],[-83.4991,10.162,25.3894],[-83.4956,10.1705,18.8898],[-83.4971,10.1734,32.5108],[-83.4886,10.1755,18.238],[-83.4884,10.1801,24.1022],[-83.4973,10.1928,20.3235],[-83.4945,10.2023,17.9493],[-83.4861,10.2089,15.0353],[-83.4875,10.2135,20.4325],[-83.4826,10.2139,17.4661],[-83.4797,10.2191,15.3228],[-83.4756,10.2226,13.8489],[-83.4757,10.2249,17.0024],[-83.4801,10.2298,14.6264],[-83.4751,10.2302,16.0637],[-83.4723,10.2325,13.9505],[-83.4777,10.2334,13.7425],[-83.4796,10.2362,14.0491],[-83.4779,10.2385,17.776],[-83.4741,10.2382,14.7697],[-83.4733,10.2408,16.1852],[-83.4751,10.2434,12.4345],[-83.4719,10.2488,23.9993],[-83.468,10.2496,14.3999],[-83.4538,10.2449,11.4952],[-83.4497,10.2515,12.1987],[-83.4503,10.2548,9.3563],[-83.4448,10.2556,12.121],[-83.4442,10.2602,8.894],[-83.4394,10.264099999999999,8.5862],[-83.4405,10.2677,9.2888],[-83.4361,10.2706,12.3155],[-83.432,10.2771,7.3376],[-83.4273,10.2731,8.4088],[-83.4264,10.2759,8.9073],[-83.4221,10.2775,7.1566],[-83.415,10.2836,11.5422],[-83.4115,10.2822,6.2733],[-83.4109,10.285,7.2402],[-83.4143,10.286,11.3593],[-83.4164,10.2896,9.7023],[-83.4188,10.2876,10.1193],[-83.4247,10.2874,7.6435],[-83.4272,10.2907,9.063],[-83.428,10.2864,6.9767],[-83.4374,10.2877,7.2278],[-83.4374,10.2847,6.2941],[-83.4387,10.2842,6.8916],[-83.4447,10.2913,6.4962],[-83.4491,10.288,7.6956],[-83.4527,10.2892,10.5221],[-83.4544,10.2864,8.8723],[-83.4585,10.2885,6.6562],[-83.4627,10.2873,6.0903],[-83.4667,10.2894,6.9559],[-83.4717,10.2877,6.1956],[-83.4754,10.2839,7.7733],[-83.4785,10.2862,10.2813],[-83.4806,10.281,10.2171],[-83.481,10.2838,11.1729],[-83.4831,10.2844,10.2434],[-83.4884,10.2805,15.4029],[-83.4874,10.2749,8.8552],[-83.4856,10.2735,13.7463],[-83.4839,10.2762,10.5402],[-83.4792,10.2712,8.1147],[-83.4829,10.2711,9.1467],[-83.4819,10.2654,11.2963],[-83.4852,10.2638,10.7025],[-83.4808,10.2621,9.9712],[-83.4825,10.2615,9.7786],[-83.4829,10.2584,9.9382],[-83.4864,10.2568,10.5302],[-83.4847,10.2513,9.5951],[-83.4905,10.2511,11.0911],[-83.489,10.2431,13.3668],[-83.4911,10.2464,11.9992],[-83.4939,10.2424,12.6755],[-83.4994,10.2451,14.4756],[-83.4995,10.241,12.9897],[-83.5028,10.2375,11.9042],[-83.5046,10.2323,13.01],[-83.5087,10.2328,12.2894],[-83.5079,10.2373,14.174],[-83.5134,10.2349,15.0163],[-83.5158,10.2377,15.5774],[-83.5172,10.2366,14.5794],[-83.5178,10.2319,15.5866],[-83.5214,10.2324,17.5324],[-83.5276,10.2296,19.5556],[-83.5308,10.2352,15.1101],[-83.5354,10.229,16.755],[-83.5407,10.2278,18.7238],[-83.543,10.2289,19.09],[-83.5473,10.2233,19.3163],[-83.552,10.223,20.291],[-83.552,10.2203,21.6674],[-83.5536,10.2193,21.6674],[-83.5518,10.2181,27.6455],[-83.5556,10.2147,23.5528]]]]}}