{"type":"Feature","properties":{"GID_3":"CRI.4.2.2_1","GID_0":"CRI","country":"CostaRica","GID_1":"CRI.4_1","province":"Heredia","NL_NAME_1":"NA","GID_2":"CRI.4.2_1","county":"Belén","NL_NAME_2":"NA","city":"LaRibera","VARNAME_3":"NA","NL_NAME_3":"NA","TYPE_3":"Distrito","ENGTYPE_3":"District","CC_3":"2","HASC_3":"NA","name":"La_Ribera.city"},
"geometry":{"type": "MultiPolygon","coordinates": [[[[-84.1983,9.9919,882.5865],[-84.1959,9.9825,894.9395],[-84.1655,9.9922,988.2404],[-84.1714,10.0046,981.8514],[-84.1763,10.0056,967.9751],[-84.1766,10.0032,957.6014],[-84.1808,9.9989,922.7151],[-84.1852,9.9979,910.0096],[-84.1889,9.9944,895.836],[-84.1983,9.9919,882.5865]]]]}}