{"type": "Feature","bbox": [-85.2946,9.9597,-85.2206,10.0234],"geometry": {"type": "MultiPolygon","coordinates": [[[[-85.2704,9.9597,730.4941],[-85.2681,9.9633,651.3799],[-85.2631,9.9625,537.2181],[-85.2531,9.9648,525.2573],[-85.2481,9.9727,459.4419],[-85.2432,9.972,306.9982],[-85.2371,9.9675,140.7245],[-85.2276,9.9673,93.5474],[-85.2206,9.97,73.9953],[-85.2206,9.9714,75.668],[-85.2246,9.9734,75.2938],[-85.2271,9.979,89.5612],[-85.2329,9.9832,209.3892],[-85.2346,9.9993,418.8616],[-85.2366,10.0013,390.9913],[-85.2426,10.0013,293.476],[-85.245,10.0037,193.3589],[-85.2382,10.0226,32.8932],[-85.2485,10.0234,43.2106],[-85.2495,10.0201,45.3309],[-85.2565,10.0172,53.2218],[-85.2589,10.0139,61.2827],[-85.2733,10.013,96.6644],[-85.279,10.0074,117.6181],[-85.2903,10.0035,195.3881],[-85.2923,10.0015,224.6468],[-85.2928,9.9971,371.5978],[-85.2946,9.9964,471.0251],[-85.2878,9.9936,490.298],[-85.2879,9.9887,478.7408],[-85.2845,9.9834,616.1709],[-85.286,9.9735,657.7264],[-85.2887,9.9724,476.94],[-85.2938,9.9663,261.494],[-85.2795,9.9659,402.032],[-85.2702,9.9622,635.2245],[-85.2704,9.9597,730.4941]]]]}
,"properties": {"GID_3": "CRI.3.8.2_1","GID_0": "CRI","country": "CostaRica","GID_1": "CRI.3_1","province": "Guanacaste","NL_NAME_1": "NA","GID_2": "CRI.3.8_1","county": "Nandayure","NL_NAME_2": "NA","city": "Carmona","VARNAME_3": "NA","NL_NAME_3": "NA","TYPE_3": "Distrito","ENGTYPE_3": "District","CC_3": "1","HASC_3": "NA","name": "Carmona.city","area_km2": 32.21909,"hist_schema_id": "Elevation0-9000","hist_area_km2": {"25": 0.2923,"50": 1.21099,"75": 2.81883,"100": 2.44302,"125": 2.00451,"150": 1.83747,"175": 1.75396,"200": 1.67044,"225": 1.35724,"250": 1.41989,"275": 1.14844,"300": 1.00228,"325": 1.16933,"350": 1.04404,"375": 0.91876,"400": 1.08583,"425": 1.3573,"450": 1.12759,"475": 1.56612,"500": 1.64964,"525": 1.10672,"550": 0.66821,"575": 0.52205,"600": 0.25058,"625": 0.52205,"650": 0.20882,"675": 0.06265}}}