{"type": "Feature","bbox": [-84.1185,9.9057,-84.0881,9.932],"geometry": {"type": "MultiPolygon","coordinates": [[[[-84.0963,9.9062,1104.8182],[-84.0913,9.91,1126.5699],[-84.0914,9.9135,1134.676],[-84.0881,9.9191,1126.0222],[-84.0949,9.9217,1122.3237],[-84.0957,9.9245,1115.1874],[-84.0982,9.9236,1116.9552],[-84.0982,9.9255,1121.0593],[-84.1024,9.9249,1105.4626],[-84.1084,9.9282,1096.8875],[-84.1091,9.9269,1107.0491],[-84.1147,9.932,1070.2737],[-84.1185,9.9302,1058.0179],[-84.1105,9.9146,1088.4565],[-84.1038,9.9091,1098.8228],[-84.1003,9.9093,1110.9449],[-84.0983,9.9057,1104.6924],[-84.0963,9.9062,1104.8182]]]]}
,"properties": {"GID_3": "CRI.7.15.3_1","GID_0": "CRI","country": "CostaRica","GID_1": "CRI.7_1","province": "SanJosé","NL_NAME_1": "NA","GID_2": "CRI.7.15_1","county": "SanJosé","NL_NAME_2": "NA","city": "Hatillo","VARNAME_3": "NA","NL_NAME_3": "NA","TYPE_3": "Distrito","ENGTYPE_3": "District","CC_3": "10","HASC_3": "NA","name": "Hatillo.city","area_km2": 4.573884,"hist_schema_id": "Elevation0-9000","hist_area_km2": {"1050": 0.041769,"1075": 0.313273,"1100": 1.545508,"1125": 2.673334}}}