{"type": "Feature","bbox": [-83.861,9.8768,-83.8226,9.9109],"geometry": {"type": "MultiPolygon","coordinates": [[[[-83.8226,9.8934,1618.8712],[-83.825,9.9034,1708.4149],[-83.8294,9.8989,1745.5391],[-83.834,9.8987,1756.5684],[-83.8314,9.9023,1773.3436],[-83.8322,9.9062,1838.4971],[-83.8304,9.9109,1921.8369],[-83.8372,9.9105,1966.8965],[-83.8393,9.9081,1927.2333],[-83.8474,9.9066,1946.7445],[-83.8497,9.904,1940.5597],[-83.8523,9.8961,1816.1843],[-83.8577,9.8926,1773.3297],[-83.8608,9.8876,1703.0795],[-83.861,9.8816,1625.1807],[-83.858,9.8768,1590.3887],[-83.8542,9.8787,1617.2421],[-83.8507,9.8774,1610.6969],[-83.8439,9.8786,1632.2709],[-83.838,9.8844,1647.9008],[-83.8334,9.8834,1607.7031],[-83.831,9.8844,1605.7212],[-83.8291,9.8886,1622.1904],[-83.8257,9.8896,1624.3494],[-83.8249,9.8926,1624.4148],[-83.8226,9.8934,1618.8712]]]]}
,"properties": {"GID_3": "CRI.2.6.1_1","GID_0": "CRI","country": "CostaRica","GID_1": "CRI.2_1","province": "Cartago","NL_NAME_1": "NA","GID_2": "CRI.2.6_1","county": "Oreamuno","NL_NAME_2": "NA","city": "Cipreses","VARNAME_3": "NA","NL_NAME_3": "NA","TYPE_3": "Distrito","ENGTYPE_3": "District","CC_3": "4","HASC_3": "NA","name": "Cipreses.city","area_km2": 9.232032,"hist_schema_id": "Elevation0-9000","hist_area_km2": {"1600": 0.062664,"1625": 0.710178,"1650": 1.232362,"1675": 1.441223,"1700": 1.002576,"1725": 1.148783,"1750": 0.626606,"1775": 0.459509,"1800": 0.480391,"1825": 0.543048,"1850": 0.355068,"1875": 0.292408,"1900": 0.355065,"1925": 0.355063,"1950": 0.167088}}}