{"type":"Feature","properties":{"GID_3":"CRI.7.13.12_1","GID_0":"CRI","country":"CostaRica","GID_1":"CRI.7_1","province":"SanJosé","NL_NAME_1":"NA","GID_2":"CRI.7.13_1","county":"PérezZeledón","NL_NAME_2":"NA","city":"SanPedro","VARNAME_3":"NA","NL_NAME_3":"NA","TYPE_3":"Distrito","ENGTYPE_3":"District","CC_3":"5","HASC_3":"NA","name":"San_Pedro.city"},
"geometry":{"type": "MultiPolygon","coordinates": [[[[-83.4826,9.4298,3422.7075],[-83.4992,9.4254,3236.666],[-83.5014,9.4176,3196.4756],[-83.4994,9.412,3194.2346],[-83.5033,9.4082,3175.1616],[-83.5062,9.4072,3242.2114],[-83.5068,9.4139,3128.7939],[-83.5106,9.4158,3126.4631],[-83.5133,9.421,3158.5645],[-83.5153,9.4209,3054.4001],[-83.5276,9.4088,2406.0542],[-83.5375,9.4043,2138.2197],[-83.5395,9.3989,2032.7817],[-83.5464,9.3909,1849.7599],[-83.5475,9.3875,1816.4012],[-83.5463,9.3826,1727.9111],[-83.5503,9.3782,1633.717],[-83.5473,9.3732,1546.5897],[-83.5529,9.3632,1356.8245],[-83.551,9.3594,1310.5684],[-83.551,9.3521,1233.3335],[-83.5592,9.3466,1119.5964],[-83.5682,9.3342,991.4434],[-83.5668,9.3295,919.1814],[-83.5688,9.3194,856.8677],[-83.5631,9.3111,755.4852],[-83.5632,9.3017,717.4019],[-83.5585,9.2878,630.9518],[-83.5594,9.2843,619.0294],[-83.5628,9.2878,650.9204],[-83.5689,9.287,661.5534],[-83.5764,9.2753,602.1849],[-83.5737,9.2679,573.6363],[-83.5738,9.2618,548.8973],[-83.571,9.2555,528.0912],[-83.5657,9.2531,485.4871],[-83.5683,9.2342,447.2191],[-83.5643,9.2307,442.7125],[-83.5645,9.2255,439.0007],[-83.556,9.227,433.6873],[-83.5544,9.2192,427.3853],[-83.5435,9.2324,429.0357],[-83.541,9.2299,449.7919],[-83.5417,9.2257,411.2942],[-83.5404,9.2228,405.1453],[-83.5376,9.2195,416.6506],[-83.5343,9.2185,398.0509],[-83.5316,9.2127,400.5426],[-83.5239,9.2152,388.9771],[-83.5215,9.2191,431.0695],[-83.5177,9.2208,428.6781],[-83.5121,9.2331,472.3994],[-83.5127,9.2369,465.5559],[-83.511,9.2408,484.1239],[-83.5122,9.2435,486.3514],[-83.5108,9.2445,494.678],[-83.51,9.253,526.4],[-83.5061,9.2619,591.7708],[-83.4967,9.2636,639.0241],[-83.491,9.2673,688.1262],[-83.4764,9.2911,964.8685],[-83.468,9.3159,1328.4781],[-83.4574,9.3304,1664.5776],[-83.4578,9.3332,1761.6602],[-83.4544,9.3435,2176.0417],[-83.4463,9.3497,2825.8704],[-83.4384,9.3595,2919.8081],[-83.4324,9.3633,3051.041],[-83.4293,9.3673,3107.0334],[-83.4314,9.3722,3117.6396],[-83.4346,9.3706,3093.1865],[-83.4385,9.3715,3111.502],[-83.4401,9.3771,3142.6621],[-83.4499,9.3773,3114.1968],[-83.4547,9.3793,3039.5515],[-83.4583,9.3832,2875.0317],[-83.4659,9.4055,3239.4268],[-83.4703,9.4102,3200.9954],[-83.4726,9.4196,3132.0352],[-83.4826,9.4298,3422.7075]]]]}}