{"type":"Feature","properties":{"GID_3":"CRI.4.8.1_1","GID_0":"CRI","country":"CostaRica","GID_1":"CRI.4_1","province":"Heredia","NL_NAME_1":"NA","GID_2":"CRI.4.8_1","county":"SantaBárbara","NL_NAME_2":"NA","city":"Jesús","VARNAME_3":"NA","NL_NAME_3":"NA","TYPE_3":"Distrito","ENGTYPE_3":"District","CC_3":"4","HASC_3":"NA","name":"Jesús.city"},
"geometry":{"type": "MultiPolygon","coordinates": [[[[-84.1311,10.0824,1592.5162],[-84.1324,10.0832,1578.3331],[-84.1406,10.0793,1510.7247],[-84.1522,10.0659,1353.7191],[-84.1497,10.0666,1345.3748],[-84.1534,10.062,1320.7145],[-84.1541,10.0528,1270.3063],[-84.161,10.0468,1179.9089],[-84.1554,10.0448,1176.9048],[-84.1544,10.0316,1107.7716],[-84.1571,10.0276,1074.9211],[-84.15,10.0303,1123.7604],[-84.1463,10.0296,1125.5474],[-84.1421,10.0335,1150.5088],[-84.1427,10.0419,1168.3333],[-84.1333,10.0594,1334.1724],[-84.1283,10.06,1369.4298],[-84.1216,10.0672,1500.7556],[-84.1265,10.0696,1512.2239],[-84.1311,10.0824,1592.5162]]]]}}