{"type":"Feature","properties":{"GID_3":"CRI.7.5.4_1","GID_0":"CRI","country":"CostaRica","GID_1":"CRI.7_1","province":"SanJosé","NL_NAME_1":"NA","GID_2":"CRI.7.5_1","county":"Desamparados","NL_NAME_2":"NA","city":"Gravilias","VARNAME_3":"NA","NL_NAME_3":"NA","TYPE_3":"Distrito","ENGTYPE_3":"District","CC_3":"12","HASC_3":"NA","name":"Gravilias.city"},
"geometry":{"type": "MultiPolygon","coordinates": [[[[-84.0546,9.8948,1155.144],[-84.0607,9.8987,1150.6106],[-84.0635,9.8941,1156.2584],[-84.0644,9.8946,1160.0048],[-84.0651,9.8881,1158.8466],[-84.0625,9.8835,1170.8159],[-84.0628,9.8801,1178.0635],[-84.0586,9.8737,1204.2833],[-84.0551,9.8756,1299.7784],[-84.0555,9.878,1320.3895],[-84.0525,9.8765,1333.941],[-84.05,9.8799,1383.7067],[-84.05,9.8864,1190.613],[-84.0546,9.8948,1155.144]]]]}}