{"type":"Feature","properties":{"GID_3":"CRI.1.8.2_1","GID_0":"CRI","country":"CostaRica","GID_1":"CRI.1_1","province":"Alajuela","NL_NAME_1":"NA","GID_2":"CRI.1.8_1","county":"Orotina","NL_NAME_2":"NA","city":"ElMastate","VARNAME_3":"NA","NL_NAME_3":"NA","TYPE_3":"Distrito","ENGTYPE_3":"District","CC_3":"2","HASC_3":"NA","name":"El_Mastate.city"},
"geometry":{"type": "MultiPolygon","coordinates": [[[[-84.5474,9.8985,134.3898],[-84.5478,9.9027,137.6105],[-84.5437,9.9093,173.2604],[-84.5358,9.9136,203.9012],[-84.5358,9.9199,178.9473],[-84.5408,9.9205,174.9213],[-84.5427,9.9189,161.5949],[-84.5449,9.9238,162.7174],[-84.5475,9.9235,153.9528],[-84.5488,9.9205,148.3304],[-84.5529,9.921,144.2627],[-84.5543,9.9244,139.7822],[-84.5586,9.9246,167.4667],[-84.5576,9.928,158.4012],[-84.5623,9.9258,134.2485],[-84.5647,9.9274,148.0284],[-84.5665,9.9268,151.52],[-84.5703,9.9298,115.4529],[-84.5733,9.9292,112.7775],[-84.5771,9.935,111.6777],[-84.5832,9.9346,97.5153],[-84.5798,9.9304,175.0345],[-84.5813,9.9273,177.6772],[-84.58,9.9244,186.9427],[-84.5725,9.9213,192.9225],[-84.5786,9.9121,163.6198],[-84.5736,9.9127,172.935],[-84.5712,9.9086,177.057],[-84.5653,9.9092,191.9933],[-84.5635,9.9026,179.3896],[-84.558,9.9041,160.8335],[-84.5474,9.8985,134.3898]]]]}}