{"type": "Feature","bbox": [-84.6891,9.8406,-84.4621,9.9464],"geometry": {"type": "MultiPolygon","coordinates": [[[[-84.5429,9.8713,41.5635],[-84.5436,9.8737,61.1415],[-84.5413,9.8762,48.6731],[-84.5372,9.8732,41.5249],[-84.5335,9.8731,43.248],[-84.5349,9.8762,48.3622],[-84.5336,9.878,61.6875],[-84.5283,9.8773,54.3446],[-84.5259,9.8841,66.0673],[-84.5188,9.8864,66.4513],[-84.5133,9.8929,73.8655],[-84.5099,9.8925,77.7149],[-84.5073,9.8884,90.3831],[-84.501,9.9009,78.988],[-84.4986,9.911,124.9636],[-84.4965,9.9106,102.4289],[-84.4962,9.9078,123.4118],[-84.4931,9.9075,102.2563],[-84.4811,9.9112,110.7367],[-84.4751,9.9159,127.7697],[-84.4677,9.9166,155.9758],[-84.4621,9.9261,192.8636],[-84.4658,9.9324,229.5032],[-84.466,9.9356,271.3934],[-84.4682,9.9361,249.7339],[-84.4677,9.9417,297.3517],[-84.4724,9.9427,552.0739],[-84.4773,9.9464,648.7203],[-84.48,9.9443,630.1921],[-84.4863,9.9463,575.7152],[-84.4921,9.9455,522.4136],[-84.5005,9.9415,359.2641],[-84.5016,9.9363,314.8842],[-84.5062,9.9324,264.572],[-84.5115,9.932,218.7922],[-84.5136,9.93,224.0706],[-84.5185,9.9304,203.576],[-84.5211,9.9286,215.2951],[-84.5229,9.9306,214.9452],[-84.5242,9.9279,196.001],[-84.5263,9.9286,187.3463],[-84.5262,9.9263,189.4222],[-84.5338,9.9299,184.5122],[-84.535,9.9321,192.881],[-84.5384,9.9317,166.8565],[-84.5363,9.9306,171.3922],[-84.5372,9.9291,177.151],[-84.5413,9.9319,170.3751],[-84.5439,9.9304,161.464],[-84.5456,9.9237,153.9528],[-84.5477,9.9233,147.1649],[-84.5493,9.9205,148.3304],[-84.5536,9.9213,144.2627],[-84.5543,9.9244,139.7822],[-84.5583,9.9244,167.4667],[-84.5581,9.9283,131.2033],[-84.5623,9.9258,134.2485],[-84.5703,9.9298,115.4529],[-84.573,9.929,112.7775],[-84.5771,9.935,111.6777],[-84.592,9.9334,75.0975],[-84.5929,9.9312,100.7437],[-84.5966,9.9352,61.3338],[-84.597,9.9306,67.055],[-84.6021,9.9295,82.1821],[-84.6024,9.9261,90.687],[-84.605,9.9272,89.6402],[-84.611,9.9247,86.1288],[-84.6128,9.9266,64.7925],[-84.6159,9.9257,65.4788],[-84.6212,9.927,57.5684],[-84.6245,9.9255,81.7834],[-84.6231,9.923,42.2562],[-84.624,9.9214,38.7092],[-84.634,9.9207,83.0914],[-84.6385,9.9182,50.6895],[-84.6403,9.9127,15.4902],[-84.6447,9.9108,29.5289],[-84.6441,9.9072,17.9329],[-84.6459,9.9087,11.5533],[-84.6484,9.907,11.6338],[-84.6511,9.9075,12.2608],[-84.6536,9.9104,12.7858],[-84.6599,9.9093,10.7241],[-84.6595,9.9118,9.723],[-84.6634,9.9128,9.0415],[-84.6674,9.9175,8.6344],[-84.6713,9.9147,7.7335],[-84.6712,9.9118,19.7584],[-84.6741,9.911,7.3458],[-84.6752,9.9087,9.4253],[-84.6767,9.909,6.8891],[-84.6766,9.9075,9.4253],[-84.6796,9.907,6.236],[-84.6804,9.905,6.0527],[-84.6804,9.9084,7.8972],[-84.6826,9.9091,7.7035],[-84.6872,9.907,5.8155],[-84.6871,9.9045,5.2924],[-84.6891,9.904,6.7824],[-84.6883,9.9002,6.0638],[-84.6871,9.9011,5.5537],[-84.6862,9.8996,5.8048],[-84.687,9.8969,8.1972],[-84.6845,9.8974,5.2762],[-84.6857,9.8948,11.1748],[-84.6838,9.894,7.6897],[-84.6888,9.8864,7.465],[-84.685,9.8877,6.8165],[-84.6844,9.8859,7.5],[-84.683,9.8878,8.5955],[-84.6823,9.8841,5.125],[-84.6789,9.8794,17.7995],[-84.6809,9.8776,24.2288],[-84.6788,9.877,29.3833],[-84.6809,9.8747,29.6057],[-84.678,9.8752,25.3791],[-84.6771,9.8785,32.1729],[-84.6745,9.8773,32.3031],[-84.6708,9.8788,14.1928],[-84.6696,9.8771,14.0321],[-84.6647,9.8772,12.3291],[-84.6646,9.8756,7.704],[-84.6611,9.875,13.9945],[-84.6595,9.8763,11.1425],[-84.6559,9.8728,13.1252],[-84.6473,9.8701,20.6383],[-84.6476,9.8652,22.2717],[-84.6466,9.8663,16.7217],[-84.6455,9.8649,22.0075],[-84.6429,9.8659,26.503],[-84.6407,9.8647,27.1264],[-84.638,9.8661,31.8264],[-84.6292,9.8622,36.1594],[-84.6184,9.8622,47.3498],[-84.6153,9.8607,45.1598],[-84.6133,9.8623,56.9471],[-84.603,9.862,82.0572],[-84.6027,9.8598,82.9733],[-84.6006,9.8596,98.0583],[-84.5996,9.8575,92.6298],[-84.5969,9.8583,91.1674],[-84.5955,9.8534,111.2862],[-84.5999,9.8492,123.4461],[-84.5965,9.8486,142.5808],[-84.5904,9.8406,174.8282],[-84.5801,9.8411,175.9821],[-84.5746,9.8459,177.4723],[-84.563,9.8419,14.6458],[-84.5586,9.8436,31.4283],[-84.5547,9.8494,18.3977],[-84.5477,9.8478,25.301],[-84.5466,9.8528,50.1762],[-84.5485,9.8625,27.6637],[-84.5392,9.8613,58.3329],[-84.5376,9.8629,29.6043],[-84.5429,9.8713,41.5635]]]]}
,"properties": {"GID_2": "CRI.1.8_1","GID_0": "CRI","country": "CostaRica","GID_1": "CRI.1_1","province": "Alajuela","NL_NAME_1": "NA","county": "Orotina","VARNAME_2": "NA","NL_NAME_2": "NA","TYPE_2": "Cantón","ENGTYPE_2": "Canton","CC_2": "9","HASC_2": "CR.AL.OR","name": "Orotina.county","area_km2": 145.9564,"hist_schema_id": "Elevation0-9000","hist_area_km2": {"0": 5.8274,"25": 7.8747,"50": 6.9555,"75": 10.7152,"100": 20.0309,"125": 22.6207,"150": 20.8245,"175": 21.5548,"200": 8.417,"225": 5.3049,"250": 5.3257,"275": 2.2556,"300": 0.898,"325": 0.8145,"350": 0.8772,"375": 0.7727,"400": 0.6474,"425": 0.5639,"450": 0.6683,"475": 0.4177,"500": 0.543,"525": 0.6474,"550": 0.2506,"575": 0.3968,"600": 0.4177,"625": 0.188,"650": 0.0627,"675": 0.0835}}}