{"type": "Feature","bbox": [-84.3555,10.1695,-84.2266,10.2763],"geometry": {"type": "MultiPolygon","coordinates": [[[[-84.242,10.2419,1634.7338],[-84.258,10.2494,1269.7969],[-84.2655,10.2594,1136.6506],[-84.2659,10.2612,1110.1469],[-84.2624,10.268,1049.5923],[-84.265,10.2724,914.5685],[-84.2648,10.2763,742.6636],[-84.2691,10.2684,1050.765],[-84.282,10.2617,1437.8441],[-84.2917,10.26,1483.0168],[-84.2943,10.2618,1530.7566],[-84.3063,10.2615,1658.5369],[-84.3128,10.2597,1802.1244],[-84.3174,10.2563,1917.1993],[-84.3218,10.2571,1897.6445],[-84.3256,10.2604,1928.0344],[-84.329,10.2603,2030.2036],[-84.3327,10.2637,2120.4121],[-84.3352,10.2582,2174.457],[-84.3412,10.2581,2168.583],[-84.3505,10.2474,2191.0676],[-84.3555,10.2465,2260.376],[-84.3526,10.2376,2225.5945],[-84.3509,10.2376,2203.2148],[-84.3491,10.2423,2224.2075],[-84.3479,10.2423,2188.5847],[-84.3451,10.2369,2202.5156],[-84.3412,10.235,2227.2095],[-84.3401,10.2325,2209.9365],[-84.3336,10.2298,2194.0217],[-84.3304,10.2237,2191.0776],[-84.3298,10.2179,2085.9407],[-84.3246,10.2096,1694.2915],[-84.315,10.2048,1531.4141],[-84.3217,10.1969,1648.9045],[-84.3207,10.1917,1724.7305],[-84.3266,10.1766,1942.9403],[-84.3277,10.1695,2042.8936],[-84.3246,10.1718,2011.0852],[-84.3196,10.1714,2041.0731],[-84.3059,10.1816,1944.423],[-84.2953,10.1807,1988.5392],[-84.2885,10.1852,2041.0681],[-84.271,10.1889,2191.3994],[-84.2678,10.1832,2314.7949],[-84.2646,10.1815,2313.7874],[-84.2588,10.1821,2310.4097],[-84.2509,10.1793,2483.3281],[-84.2429,10.18,2596.0103],[-84.2436,10.184,2568.7654],[-84.2398,10.1854,2555.8933],[-84.2335,10.1936,2400.6084],[-84.2268,10.2064,2439.0244],[-84.2266,10.2104,2554.2319],[-84.2351,10.2255,2037.5673],[-84.2356,10.2295,1940.4368],[-84.2412,10.2352,1783.7983],[-84.242,10.2419,1634.7338]]]]}
,"properties": {"GID_3": "CRI.1.15.5_1","GID_0": "CRI","country": "CostaRica","GID_1": "CRI.1_1","province": "Alajuela","NL_NAME_1": "NA","GID_2": "CRI.1.15_1","county": "Sarchí","NL_NAME_2": "NA","city": "ToroAmarillo","VARNAME_3": "NA","NL_NAME_3": "NA","TYPE_3": "Distrito","ENGTYPE_3": "District","CC_3": "3","HASC_3": "NA","name": "Toro_Amarillo.city","area_km2": 91.18306,"hist_schema_id": "Elevation0-9000","hist_area_km2": {"950": 0.02086,"975": 0.02086,"1000": 0.10431,"1025": 0.1669,"1050": 0.20863,"1075": 0.20863,"1100": 0.20863,"1125": 0.29209,"1150": 0.43813,"1175": 0.54245,"1200": 0.60504,"1225": 0.81369,"1250": 0.83455,"1275": 1.5648,"1300": 1.33531,"1325": 1.48137,"1350": 1.46051,"1375": 2.54551,"1400": 2.16996,"1425": 3.06719,"1450": 3.00462,"1475": 2.39951,"1500": 2.52473,"1525": 2.27435,"1550": 2.42039,"1575": 2.52472,"1600": 2.37867,"1625": 2.48301,"1650": 2.46213,"1675": 2.73341,"1700": 2.60819,"1725": 2.29524,"1750": 2.44127,"1775": 2.35783,"1800": 2.29526,"1825": 2.04484,"1850": 2.04484,"1875": 1.96138,"1900": 1.83621,"1925": 2.31619,"1950": 2.3997,"1975": 2.79618,"2000": 2.08667,"2025": 1.71107,"2050": 1.46061,"2075": 1.31458,"2100": 1.14765,"2125": 0.7929,"2150": 0.98069,"2175": 0.60512,"2200": 1.48145,"2225": 1.04328,"2250": 0.56341,"2275": 0.68862,"2300": 0.87643,"2325": 0.43821,"2350": 0.66775,"2375": 0.58429,"2400": 0.85555,"2425": 0.56342,"2450": 0.47995,"2475": 0.39648,"2500": 0.39648,"2525": 0.41735,"2550": 0.50081,"2575": 0.25041,"2600": 0.14607,"2625": 0.04173}}}