{"type": "Feature","bbox": [-83.8412,9.792,-83.7605,9.8769],"geometry": {"type": "MultiPolygon","coordinates": [[[[-83.7664,9.8758,784.0847],[-83.7714,9.8726,796.3297],[-83.7728,9.8691,834.5688],[-83.7766,9.8658,825.9492],[-83.7796,9.8669,826.1129],[-83.7823,9.8652,838.4468],[-83.792,9.864,909.8959],[-83.7947,9.8659,891.019],[-83.8,9.8633,933.123],[-83.8029,9.8586,941.2501],[-83.7998,9.8542,944.9477],[-83.8018,9.853,928.4864],[-83.7997,9.8507,937.7696],[-83.8033,9.8489,930.9817],[-83.8016,9.8454,962.934],[-83.8039,9.8458,943.8271],[-83.8065,9.8425,974.1863],[-83.8044,9.8399,992.647],[-83.8092,9.8361,1002.3297],[-83.8093,9.8345,991.1823],[-83.8134,9.8326,997.1956],[-83.8188,9.8355,1002.2114],[-83.8197,9.8332,1008.3998],[-83.8177,9.8338,995.1633],[-83.8177,9.8307,1001.0469],[-83.8158,9.8306,991.3275],[-83.8176,9.8283,986.5732],[-83.822,9.8283,1007.3782],[-83.8241,9.8209,1001.1123],[-83.8316,9.817,987.903],[-83.833,9.8239,1016.5366],[-83.8376,9.8255,1016.3607],[-83.8399,9.8242,1012.9913],[-83.8385,9.8237,990.5302],[-83.8412,9.8209,996.3616],[-83.8388,9.8211,989.3632],[-83.8356,9.8152,1002.183],[-83.8367,9.8059,1243.7018],[-83.8333,9.8033,1394.8501],[-83.8235,9.8006,1441.651],[-83.8177,9.7952,1376.7732],[-83.8077,9.792,1576.1536],[-83.7991,9.7934,1641.6254],[-83.7974,9.799,1687.1293],[-83.7892,9.8048,1808.5526],[-83.7856,9.804,1835.34],[-83.7778,9.8086,1874.2688],[-83.7717,9.8096,1718.78],[-83.7716,9.8172,1825.3372],[-83.7623,9.8274,1606.0972],[-83.7621,9.8319,1600.1871],[-83.7635,9.8332,1630.142],[-83.7616,9.8354,1569.255],[-83.7605,9.8413,1507.1492],[-83.7714,9.8468,1502.0425],[-83.7667,9.8502,1305.6407],[-83.7665,9.8579,1150.0469],[-83.7608,9.8625,1076.9576],[-83.7616,9.8666,1010.559],[-83.7643,9.8699,918.1395],[-83.7644,9.8743,783.7759],[-83.763,9.8758,787.0148],[-83.7644,9.8769,781.8596],[-83.7664,9.8758,784.0847]]]]}
,"properties": {"GID_3": "CRI.2.7.1_1","GID_0": "CRI","country": "CostaRica","GID_1": "CRI.2_1","province": "Cartago","NL_NAME_1": "NA","GID_2": "CRI.2.7_1","county": "Paraíso","NL_NAME_2": "NA","city": "Cachí","VARNAME_3": "NA","NL_NAME_3": "NA","TYPE_3": "Distrito","ENGTYPE_3": "District","CC_3": "4","HASC_3": "NA","name": "Cachí.city","area_km2": 41.23878,"hist_schema_id": "Elevation0-9000","hist_area_km2": {"775": 0.12533,"800": 0.14622,"825": 0.188,"850": 0.14622,"875": 0.188,"900": 0.188,"925": 0.27155,"950": 0.35511,"975": 1.73391,"1000": 2.67405,"1025": 2.0055,"1050": 1.48325,"1075": 1.3579,"1100": 1.85927,"1125": 1.73393,"1150": 1.94282,"1175": 1.50414,"1200": 1.3161,"1225": 1.54591,"1250": 1.23257,"1275": 1.37878,"1300": 1.54592,"1325": 1.88022,"1350": 1.75487,"1375": 2.04736,"1400": 1.42061,"1425": 1.21169,"1450": 1.08635,"1475": 0.91922,"1500": 0.98191,"1525": 0.60586,"1550": 0.68943,"1575": 0.73122,"1600": 0.58496,"1625": 0.45962,"1650": 0.20892,"1675": 0.22982,"1700": 0.31339,"1725": 0.2716,"1750": 0.2716,"1775": 0.20892,"1800": 0.14624,"1825": 0.20892,"1850": 0.04178,"1875": 0.02089,"1900": 0.02089}}}