{"type":"Feature","properties":{"GID_3":"CRI.1.8.1_1","GID_0":"CRI","country":"CostaRica","GID_1":"CRI.1_1","province":"Alajuela","NL_NAME_1":"NA","GID_2":"CRI.1.8_1","county":"Orotina","NL_NAME_2":"NA","city":"Coyolar","VARNAME_3":"NA","NL_NAME_3":"NA","TYPE_3":"Distrito","ENGTYPE_3":"District","CC_3":"4","HASC_3":"NA","name":"Coyolar.city"},
"geometry":{"type": "MultiPolygon","coordinates": [[[[-84.5708,9.9086,177.057],[-84.5711,9.9031,179.0996],[-84.5784,9.8941,151.2451],[-84.5857,9.8929,138.7964],[-84.5896,9.8896,133.9111],[-84.589,9.884,115.2052],[-84.595,9.8839,114.3553],[-84.596,9.8865,103.4177],[-84.6028,9.8836,116.1259],[-84.6033,9.8817,103.7686],[-84.5995,9.881,92.7362],[-84.6009,9.8794,93.7986],[-84.5998,9.8775,87.3395],[-84.6053,9.8769,83.3449],[-84.6069,9.8719,92.1221],[-84.6116,9.869,98.4304],[-84.6171,9.8615,43.4574],[-84.6153,9.8607,45.1598],[-84.6133,9.8623,56.9471],[-84.6034,9.8621,75.8704],[-84.5996,9.8575,92.6298],[-84.5969,9.8583,91.1674],[-84.5955,9.853,111.2862],[-84.5985,9.8517,130.4181],[-84.5999,9.8492,123.4461],[-84.5965,9.8486,142.5808],[-84.5904,9.8406,174.8282],[-84.5801,9.8411,175.9821],[-84.5746,9.8459,177.4723],[-84.563,9.8419,14.6458],[-84.5586,9.8436,31.4283],[-84.5547,9.8494,18.3977],[-84.5477,9.8478,25.301],[-84.5466,9.8528,50.1762],[-84.5485,9.8625,27.6637],[-84.5392,9.8613,58.3329],[-84.5376,9.8629,29.6043],[-84.5478,9.879,67.824],[-84.5461,9.8901,101.9511],[-84.5483,9.8958,114.2419],[-84.5474,9.8985,134.3898],[-84.558,9.9041,160.8335],[-84.5635,9.9026,179.3896],[-84.5653,9.9092,191.9933],[-84.5708,9.9086,177.057]]]]}}