{"type":"Feature","properties":{"GID_3":"CRI.7.20.1_1","GID_0":"CRI","country":"CostaRica","GID_1":"CRI.7_1","province":"SanJosé","NL_NAME_1":"NA","GID_2":"CRI.7.20_1","county":"VázquezdeCoronado","NL_NAME_2":"NA","city":"Cascajal","VARNAME_3":"NA","NL_NAME_3":"NA","TYPE_3":"Distrito","ENGTYPE_3":"District","CC_3":"5","HASC_3":"NA","name":"Cascajal.city"},
"geometry":{"type": "MultiPolygon","coordinates": [[[[-83.8831,9.9705,2969.1091],[-83.8727,9.9696,3152.5918],[-83.8603,9.9716,3378.5986],[-83.8586,9.9742,3357.6519],[-83.8592,9.9792,3049.801],[-83.8662,9.9865,2811.7681],[-83.8678,9.9908,2473.8535],[-83.869,9.9963,2302.4839],[-83.8671,10.0041,1975.7932],[-83.8718,10.014,1791.8431],[-83.877,10.0204,1724.181],[-83.8752,10.0345,1508.4402],[-83.8787,10.0374,1470.2216],[-83.8816,10.0446,1406.0365],[-83.8949,10.0606,1196.9225],[-83.9083,10.0685,1062.6663],[-83.9124,10.0733,1020.1208],[-83.9169,10.0745,1000.4568],[-83.9181,10.077,977.0717],[-83.9216,10.0759,975.8729],[-83.9234,10.079,970.8759],[-83.9262,10.0792,960.6834],[-83.9315,10.0832,908.7759],[-83.9325,10.0986,771.4249],[-83.9377,10.1102,713.4905],[-83.9362,10.1158,765.2194],[-83.9379,10.1174,685.7578],[-83.9381,10.1245,654.8297],[-83.9415,10.1297,566.9847],[-83.947,10.1473,473.381],[-83.9527,10.1414,551.5797],[-83.9491,10.1362,541.5341],[-83.949,10.1316,553.1146],[-83.9514,10.1286,564.4556],[-83.9521,10.1218,628.476],[-83.9554,10.1192,654.1285],[-83.9593,10.1129,642.532],[-83.9596,10.1091,636.6721],[-83.9627,10.106,718.0205],[-83.9597,10.1011,756.2286],[-83.9611,10.1003,866.8491],[-83.9605,10.0979,770.6482],[-83.9637,10.0958,846.2408],[-83.962,10.0943,803.2055],[-83.9639,10.0917,861.4592],[-83.9623,10.0904,840.1381],[-83.9642,10.0873,872.8451],[-83.9647,10.0792,868.0002],[-83.9674,10.0767,945.655],[-83.969,10.0771,934.9816],[-83.9689,10.0726,979.3881],[-83.9666,10.07,1003.2108],[-83.9698,10.0651,1004.0328],[-83.9689,10.0621,1050.7249],[-83.9737,10.0569,1107.1366],[-83.9708,10.0514,1175.5796],[-83.9745,10.0371,1309.9583],[-83.973,10.0368,1376.0966],[-83.9744,10.0292,1457.7548],[-83.97,10.0189,1579.6663],[-83.9731,10.0114,1609.1691],[-83.9771,10.0095,1599.4291],[-83.9825,10.0023,1538.0286],[-83.9999,10.0016,1420.1274],[-83.9994,9.997,1421.49],[-84.0052,9.9934,1377.6248],[-84.005,9.9901,1378.6344],[-84.0072,9.9911,1375.5929],[-84.0045,9.9861,1394.1133],[-84.0051,9.9829,1386.7942],[-84.0008,9.9823,1408.5432],[-83.9961,9.9842,1434.7837],[-83.9954,9.9863,1456.374],[-83.989,9.9881,1485.6392],[-83.9844,9.9851,1534.3586],[-83.9818,9.9862,1545.952],[-83.9756,9.984,1614.0142],[-83.9691,9.9846,1706.4281],[-83.9604,9.9913,1772.8052],[-83.9487,9.9876,2011.717],[-83.9459,9.9894,2086.5183],[-83.9399,9.9882,2242.1475],[-83.93,9.99,2579.6504],[-83.9266,9.9881,2551.6003],[-83.923,9.9795,2633.428],[-83.9149,9.9789,2521.0088],[-83.8872,9.9701,3047.489],[-83.8831,9.9705,2969.1091]]]]}}