{"type":"Feature","properties":{"GID_3":"CRI.2.7.2_1","GID_0":"CRI","country":"CostaRica","GID_1":"CRI.2_1","province":"Cartago","NL_NAME_1":"NA","GID_2":"CRI.2.7_1","county":"Paraíso","NL_NAME_2":"NA","city":"LlanosdeSantaLucia","VARNAME_3":"NA","NL_NAME_3":"NA","TYPE_3":"Distrito","ENGTYPE_3":"District","CC_3":"5","HASC_3":"NA","name":"Llanosde_Santa_Lucia.city"},
"geometry":{"type": "MultiPolygon","coordinates": [[[[-83.8788,9.8322,1344.9907],[-83.8782,9.8353,1341.573],[-83.8747,9.8327,1338.4554],[-83.8708,9.8335,1323.3716],[-83.8714,9.838,1330.7068],[-83.8758,9.8398,1347.5559],[-83.8711,9.8398,1333.3036],[-83.8705,9.8442,1336.9283],[-83.8679,9.8439,1336.4586],[-83.869,9.8544,1356.7762],[-83.8777,9.8628,1434.6165],[-83.8876,9.8635,1426.7491],[-83.8881,9.8526,1383.9294],[-83.8897,9.8512,1374.5771],[-83.8917,9.852,1363.6764],[-83.8948,9.8478,1353.0343],[-83.8866,9.8387,1362.249],[-83.8866,9.8356,1359.1343],[-83.8788,9.8322,1344.9907]]]]}}