{"type": "Feature","bbox": [-85.2257,10.1091,-84.8271,10.3894],"geometry": {"type": "MultiPolygon","coordinates": [[[[-85.1346,10.1363,0.0],[-85.1339,10.1364,0.0],[-85.134,10.1372,0.0],[-85.1349,10.1369,0.0],[-85.1346,10.1363,0.0]]],
[[[-85.0374,10.1886,13.1652],[-85.0393,10.1894,25.3667],[-85.0396,10.1915,22.3689],[-85.036,10.1925,27.0998],[-85.0349,10.1964,29.0643],[-85.0306,10.1974,35.3731],[-85.0278,10.2008,31.5174],[-85.0263,10.1989,38.3312],[-85.029,10.1924,86.7343],[-85.0256,10.1865,33.1656],[-85.0097,10.1795,30.5675],[-85.0043,10.1736,19.1764],[-85.0023,10.1694,17.9851],[-85.0044,10.1652,24.6214],[-85.0039,10.1605,48.0192],[-84.9835,10.1507,52.1277],[-84.9812,10.1485,47.9312],[-84.9798,10.1415,40.6078],[-84.9773,10.1397,39.9487],[-84.9717,10.1393,51.5674],[-84.949,10.119,82.1075],[-84.9396,10.1146,81.2108],[-84.929,10.1148,47.6661],[-84.9216,10.1115,48.8053],[-84.9197,10.1091,37.7464],[-84.9243,10.1155,48.5281],[-84.9271,10.1149,42.4121],[-84.924,10.1198,61.7236],[-84.9291,10.1272,68.9398],[-84.9281,10.1286,51.0195],[-84.9256,10.128,69.9457],[-84.9248,10.1312,58.4267],[-84.927,10.138,73.8057],[-84.9298,10.1401,74.5617],[-84.9272,10.1471,71.9514],[-84.9317,10.1493,85.6477],[-84.9306,10.1519,84.3178],[-84.9326,10.1539,93.9673],[-84.9288,10.1594,103.8778],[-84.926,10.1593,111.27],[-84.92,10.1633,115.7069],[-84.9167,10.1628,119.1979],[-84.9127,10.1683,131.7878],[-84.9118,10.1743,153.068],[-84.9089,10.1744,129.3054],[-84.9043,10.179,149.4558],[-84.9007,10.1781,148.8068],[-84.899,10.1805,185.2022],[-84.8937,10.1816,156.235],[-84.8905,10.1798,170.9599],[-84.885,10.1813,175.6884],[-84.8749,10.1883,187.709],[-84.8744,10.2002,242.0032],[-84.8784,10.2019,221.5322],[-84.8873,10.2118,253.88],[-84.8895,10.2124,256.9124],[-84.8891,10.2187,327.1068],[-84.8869,10.2228,283.5602],[-84.8789,10.2276,296.6824],[-84.8768,10.2376,340.4999],[-84.8726,10.2414,351.6284],[-84.8706,10.248,360.7672],[-84.8723,10.2613,427.1826],[-84.8659,10.2698,483.2977],[-84.8631,10.2811,548.3046],[-84.8586,10.2843,643.6165],[-84.8472,10.2877,787.9995],[-84.8439,10.2935,813.9033],[-84.8432,10.3035,926.0832],[-84.8447,10.3113,1044.3134],[-84.8434,10.3167,1173.667],[-84.8412,10.319,1189.6539],[-84.8374,10.3302,1346.7035],[-84.8271,10.3372,1484.8562],[-84.8289,10.3416,1505.3557],[-84.8412,10.343,1361.9258],[-84.8479,10.3497,1278.9227],[-84.8564,10.3503,1082.5618],[-84.8598,10.3476,1062.8066],[-84.8666,10.3477,981.2866],[-84.8733,10.352,943.1381],[-84.885,10.3554,934.4186],[-84.8926,10.362,828.895],[-84.8941,10.3616,830.9219],[-84.8972,10.3656,864.2963],[-84.9002,10.3649,804.8549],[-84.9074,10.3779,786.0983],[-84.9096,10.3785,741.7362],[-84.9133,10.3853,681.9852],[-84.915,10.385,680.0754],[-84.919,10.3894,611.5747],[-84.948,10.3655,1004.7228],[-84.9497,10.3656,970.5795],[-84.9583,10.3507,541.8777],[-84.9673,10.3553,458.1701],[-84.9713,10.3591,439.0016],[-84.9765,10.3556,370.0421],[-84.9818,10.3553,389.1701],[-84.984,10.3569,337.4616],[-84.9869,10.3544,332.7199],[-84.9868,10.3506,332.7808],[-84.9892,10.3465,289.2607],[-84.9949,10.3451,267.2086],[-84.9957,10.3422,276.0495],[-84.9981,10.343,248.5837],[-84.9987,10.3407,256.9861],[-85.0059,10.3375,206.6248],[-85.0075,10.3339,175.1651],[-85.0144,10.3323,167.2706],[-85.015,10.3299,167.3021],[-85.0185,10.3299,165.2684],[-85.0206,10.3335,144.9869],[-85.0248,10.3319,122.6686],[-85.0247,10.3297,123.047],[-85.0273,10.3281,118.9913],[-85.0307,10.3286,124.3822],[-85.0334,10.331,114.9306],[-85.0383,10.3296,95.0807],[-85.0436,10.3212,73.6667],[-85.0446,10.3222,78.9249],[-85.0491,10.3185,75.5099],[-85.0514,10.319,64.1372],[-85.0545,10.3143,61.4684],[-85.0577,10.3131,55.452],[-85.0589,10.3077,47.2116],[-85.0569,10.3046,50.0675],[-85.0583,10.3022,53.2906],[-85.0549,10.3002,63.0771],[-85.0569,10.2986,40.162],[-85.0558,10.2951,40.0097],[-85.062,10.2943,35.5935],[-85.0648,10.2896,36.16],[-85.0637,10.288,38.1278],[-85.065,10.2858,35.9188],[-85.076,10.2879,32.6183],[-85.0816,10.292,30.4561],[-85.0889,10.2941,28.7701],[-85.0925,10.2931,31.5207],[-85.0919,10.2914,25.9535],[-85.0953,10.2895,28.0781],[-85.0999,10.2907,23.3749],[-85.1031,10.2878,27.5014],[-85.1035,10.2894,19.8303],[-85.107,10.2909,20.6656],[-85.1189,10.2905,11.3564],[-85.1214,10.2854,13.6344],[-85.1243,10.2857,11.0604],[-85.1288,10.2829,17.0073],[-85.1371,10.2824,9.0257],[-85.1444,10.2795,5.7496],[-85.2257,10.1931,0.0],[-85.2161,10.1835,14.9195],[-85.2098,10.1802,1.9293],[-85.19,10.1725,0.0],[-85.1819,10.1712,0.0],[-85.1804,10.1728,0.0],[-85.1772,10.1729,0.0],[-85.1731,10.1714,0.0],[-85.1689,10.1666,0.0],[-85.1602,10.1677,5.3443],[-85.1519,10.163,0.0],[-85.1471,10.1625,6.3052],[-85.1437,10.1597,0.0],[-85.1394,10.1621,13.3824],[-85.1344,10.1608,2.84],[-85.1339,10.1663,0.0],[-85.1302,10.1715,7.918],[-85.1234,10.1745,2.7594],[-85.1111,10.1763,3.968],[-85.1055,10.174,1.864],[-85.1038,10.1752,2.457],[-85.1028,10.1733,1.1915],[-85.0924,10.1696,0.0],[-85.0968,10.1631,3.5371],[-85.0945,10.1562,0.0],[-85.082,10.1483,2.1489],[-85.0781,10.144,2.3185],[-85.074,10.1436,5.1957],[-85.0711,10.1453,0.0],[-85.0699,10.1502,4.2383],[-85.0755,10.1547,8.0055],[-85.0762,10.1571,19.8707],[-85.0738,10.1599,8.0752],[-85.0691,10.1583,5.2586],[-85.0664,10.1591,29.7216],[-85.0685,10.1643,12.9928],[-85.0675,10.167,20.7965],[-85.0623,10.1621,20.4541],[-85.0607,10.1627,16.7948],[-85.0605,10.166,8.6175],[-85.058,10.1643,10.7568],[-85.0582,10.1669,4.8428],[-85.0485,10.1597,8.7878],[-85.0426,10.1606,16.236],[-85.0415,10.1635,9.2121],[-85.0409,10.1605,8.8112],[-85.039,10.1593,9.1483],[-85.0275,10.1595,12.8818],[-85.0299,10.1627,18.9966],[-85.0279,10.1652,16.8779],[-85.0275,10.1693,22.7125],[-85.0316,10.1704,10.6185],[-85.0319,10.169,10.6185],[-85.0356,10.1738,25.5351],[-85.0343,10.1767,11.7534],[-85.0366,10.1803,11.8339],[-85.0358,10.1823,10.9107],[-85.0382,10.1823,13.5318],[-85.0374,10.1886,13.1652]]]]}
,"properties": {"GID_2": "CRI.3.1_1","GID_0": "CRI","country": "CostaRica","GID_1": "CRI.3_1","province": "Guanacaste","NL_NAME_1": "NA","county": "Abangares","VARNAME_2": "NA","NL_NAME_2": "NA","TYPE_2": "Cantón","ENGTYPE_2": "Canton","CC_2": "7","HASC_2": "CR.GU.AB","name": "Abangares.county","area_km2": 652.4168,"hist_schema_id": "Elevation0-9000","hist_area_km2": {"0": 42.6528,"25": 93.3723,"50": 87.5535,"75": 51.0589,"100": 37.2449,"125": 33.5515,"150": 27.5836,"175": 22.075,"200": 20.0092,"225": 16.796,"250": 14.0834,"275": 12.6642,"300": 11.5581,"325": 10.7444,"350": 9.597,"375": 11.1409,"400": 8.5534,"425": 7.6353,"450": 7.3013,"475": 7.9688,"500": 7.8019,"525": 7.3637,"550": 6.2164,"575": 6.3832,"600": 5.2359,"625": 4.5683,"650": 5.1524,"675": 4.0676,"700": 4.7142,"725": 3.3166,"750": 3.5043,"775": 3.7545,"800": 3.692,"825": 3.8588,"850": 3.6084,"875": 3.7127,"900": 3.6919,"925": 3.3373,"950": 3.4833,"975": 3.1287,"1000": 2.7533,"1025": 3.4207,"1050": 3.2747,"1075": 3.2747,"1100": 3.2956,"1125": 2.4821,"1150": 1.3975,"1175": 1.1681,"1200": 0.9178,"1225": 0.7718,"1250": 0.8552,"1275": 0.7926,"1300": 1.0638,"1325": 0.9178,"1350": 0.5632,"1375": 0.6466,"1400": 0.4172,"1425": 0.2503,"1450": 0.1669,"1475": 0.0626,"1500": 0.1877}}}