{"type":"Feature","properties":{"GID_3":"CRI.4.5.2_1","GID_0":"CRI","country":"CostaRica","GID_1":"CRI.4_1","province":"Heredia","NL_NAME_1":"NA","GID_2":"CRI.4.5_1","county":"SanIsidro","NL_NAME_2":"NA","city":"SanFrancisco","VARNAME_3":"NA","NL_NAME_3":"NA","TYPE_3":"Distrito","ENGTYPE_3":"District","CC_3":"4","HASC_3":"NA","name":"San_Francisco.city"},
"geometry":{"type": "MultiPolygon","coordinates": [[[[-84.0589,10.0237,1390.7526],[-84.0639,10.0226,1423.2765],[-84.0666,10.0201,1381.9243],[-84.0685,10.021,1408.764],[-84.073,10.0192,1404.1477],[-84.0732,10.015,1358.9753],[-84.0752,10.0126,1351.5868],[-84.074,10.0052,1271.8477],[-84.076,10.0033,1257.9233],[-84.0759,9.9965,1222.0146],[-84.0608,9.9994,1242.5671],[-84.0557,10.0044,1283.6135],[-84.0564,10.0125,1326.468],[-84.0592,10.0138,1322.728],[-84.0599,10.0167,1341.2283],[-84.0589,10.0237,1390.7526]]]]}}