{"type":"Feature","properties":{"GID_3":"CRI.2.4.3_1","GID_0":"CRI","country":"CostaRica","GID_1":"CRI.2_1","province":"Cartago","NL_NAME_1":"NA","GID_2":"CRI.2.4_1","county":"Jiménez","NL_NAME_2":"NA","city":"Tucurrique","VARNAME_3":"NA","NL_NAME_3":"NA","TYPE_3":"Distrito","ENGTYPE_3":"District","CC_3":"2","HASC_3":"NA","name":"Tucurrique.city"},
"geometry":{"type": "MultiPolygon","coordinates": [[[[-83.763,9.8758,787.0148],[-83.7644,9.8743,783.7759],[-83.7643,9.8699,918.1395],[-83.7616,9.8666,1010.559],[-83.7608,9.8625,1076.9576],[-83.7665,9.8579,1150.0469],[-83.7667,9.8502,1305.6407],[-83.7714,9.8468,1502.0425],[-83.7605,9.8413,1507.1492],[-83.7616,9.8354,1569.255],[-83.7635,9.8332,1630.142],[-83.7621,9.8319,1600.1871],[-83.7623,9.8274,1606.0972],[-83.7665,9.8222,1784.7306],[-83.7638,9.8197,1653.1674],[-83.7574,9.8165,1485.8889],[-83.7562,9.8176,1501.4343],[-83.7506,9.8164,1415.5719],[-83.7452,9.8237,1300.665],[-83.7324,9.829,1242.403],[-83.7259,9.8246,1293.2045],[-83.718,9.8232,1141.04],[-83.7141,9.8195,1031.3684],[-83.705,9.8262,770.4106],[-83.6986,9.8244,736.9134],[-83.6971,9.8262,786.2176],[-83.6946,9.8255,799.6741],[-83.6922,9.8286,764.2513],[-83.6916,9.8312,649.8345],[-83.6944,9.8333,683.6957],[-83.6944,9.8373,786.1576],[-83.6995,9.8396,851.0473],[-83.6965,9.8428,889.4622],[-83.699,9.8443,890.8954],[-83.6981,9.8474,832.6111],[-83.6952,9.8492,834.2957],[-83.6977,9.8573,646.9808],[-83.708,9.8568,653.5892],[-83.7114,9.8553,734.3326],[-83.7171,9.856,663.801],[-83.7357,9.8652,701.1876],[-83.751,9.8693,725.2522],[-83.7571,9.8745,746.9125],[-83.7578,9.8769,762.2053],[-83.763,9.8758,787.0148]]]]}}