{"type":"Feature","properties":{"GID_3":"CRI.1.13.5_1","GID_0":"CRI","country":"CostaRica","GID_1":"CRI.1_1","province":"Alajuela","NL_NAME_1":"NA","GID_2":"CRI.1.13_1","county":"SanRamón","NL_NAME_2":"NA","city":"PiedadesNorte","VARNAME_3":"NA","NL_NAME_3":"NA","TYPE_3":"Distrito","ENGTYPE_3":"District","CC_3":"4","HASC_3":"NA","name":"Piedades_Norte.city"},
"geometry":{"type": "MultiPolygon","coordinates": [[[[-84.4744,10.0929,1066.2509],[-84.4723,10.0926,1060.1158],[-84.4714,10.1008,1094.6348],[-84.4756,10.1014,1107.902],[-84.4751,10.1087,1064.2997],[-84.4828,10.1153,957.2457],[-84.4811,10.1185,966.6669],[-84.4791,10.1188,980.2902],[-84.4798,10.1208,1026.7434],[-84.4781,10.1207,974.7754],[-84.4775,10.1246,1015.5399],[-84.4795,10.1278,1023.3013],[-84.4833,10.1268,1024.8186],[-84.4871,10.1327,1027.127],[-84.4956,10.1342,1013.4895],[-84.5008,10.14,1030.9868],[-84.5018,10.1394,1030.9868],[-84.5018,10.1422,1042.5081],[-84.5055,10.1459,1041.377],[-84.5071,10.1505,1086.9089],[-84.5062,10.1518,1088.1743],[-84.5105,10.1556,1084.5723],[-84.5087,10.1588,1114.1659],[-84.5102,10.1612,1115.1866],[-84.5167,10.1638,1144.3647],[-84.5204,10.1631,1156.7222],[-84.5221,10.1601,1183.0092],[-84.5237,10.1616,1174.4386],[-84.5271,10.1609,1196.9224],[-84.5275,10.1623,1207.3721],[-84.5338,10.1632,1254.1244],[-84.5374,10.1663,1280.4064],[-84.5449,10.1686,1382.3619],[-84.5497,10.1749,1386.1853],[-84.5527,10.1759,1413.1753],[-84.5541,10.1809,1396.7742],[-84.558,10.1828,1337.2684],[-84.5611,10.1871,1356.2479],[-84.576,10.1822,1440.4625],[-84.5856,10.1813,1492.2771],[-84.5947,10.1716,1475.3306],[-84.5988,10.1707,1492.9523],[-84.5997,10.1683,1498.8126],[-84.593,10.1627,1436.6973],[-84.5934,10.1573,1526.916],[-84.5879,10.1553,1591.2848],[-84.5835,10.149,1537.5063],[-84.5774,10.1461,1480.179],[-84.576,10.1426,1445.1729],[-84.5678,10.139099999999999,1446.7487],[-84.5636,10.1401,1467.974],[-84.562,10.1383,1460.5239],[-84.541,10.1354,1220.5713],[-84.5389,10.1366,1211.0634],[-84.5382,10.1403,1154.578],[-84.5357,10.1427,1127.3633],[-84.5336,10.1425,1121.0449],[-84.53,10.1407,1106.501],[-84.529,10.1376,1105.0442],[-84.5216,10.1361,1058.1469],[-84.5162,10.1277,1000.7683],[-84.5091,10.1237,959.3937],[-84.5068,10.1192,961.8311],[-84.5085,10.1169,971.33],[-84.5071,10.1152,918.991],[-84.5085,10.1093,899.7798],[-84.5019,10.112,905.2958],[-84.5001,10.1036,1050.8015],[-84.493,10.106,999.6844],[-84.4887,10.1057,986.4558],[-84.4868,10.1016,1028.5223],[-84.483,10.098,1089.623],[-84.481,10.0979,1113.3455],[-84.4796,10.0944,1085.7092],[-84.4744,10.0929,1066.2509]]]]}}