{"type": "Feature","bbox": [-84.539,10.471,-84.1858,10.9169],"geometry": {"type": "MultiPolygon","coordinates": [[[[-84.3317,10.5907,49.4849],[-84.3331,10.5963,52.8993],[-84.3309,10.5948,52.1919],[-84.3286,10.5956,50.425],[-84.3273,10.6004,46.2563],[-84.3229,10.6009,46.4445],[-84.3225,10.5975,52.0562],[-84.3208,10.5968,66.0035],[-84.3182,10.5999,50.3901],[-84.3141,10.5969,54.6201],[-84.312,10.6005,61.5005],[-84.3124,10.6045,42.8975],[-84.3098,10.6066,45.5786],[-84.3116,10.6099,52.6273],[-84.308,10.6084,69.8011],[-84.3064,10.6115,49.9845],[-84.3013,10.6108,43.8919],[-84.3017,10.6143,48.042],[-84.2975,10.6187,42.2382],[-84.2946,10.6175,43.7273],[-84.294,10.6148,45.371],[-84.2911,10.6149,53.4627],[-84.2895,10.622,39.2421],[-84.2842,10.6193,39.0876],[-84.2835,10.6205,43.7864],[-84.2852,10.623,40.1293],[-84.2772,10.6255,39.3442],[-84.2781,10.6291,55.5292],[-84.2739,10.6365,40.4097],[-84.2766,10.6401,39.9927],[-84.279,10.6406,43.0691],[-84.272,10.648,39.2824],[-84.2713,10.6513,41.4664],[-84.2665,10.6516,35.8621],[-84.2568,10.6594,27.5],[-84.2456,10.661,38.3481],[-84.2423,10.6634,34.5412],[-84.2414,10.6682,27.1949],[-84.2462,10.6761,26.0],[-84.2366,10.6753,39.6941],[-84.2252,10.6811,25.0],[-84.2172,10.6778,25.0],[-84.2142,10.6791,25.9208],[-84.2123,10.6855,27.9956],[-84.2062,10.6803,31.528199999999998],[-84.2002,10.68,23.5],[-84.1961,10.6865,23.5],[-84.1925,10.7011,27.8485],[-84.1945,10.7034,27.1185],[-84.2054,10.7077,24.8252],[-84.2073,10.713,22.9388],[-84.2021,10.7152,22.6933],[-84.2032,10.7245,22.1618],[-84.2021,10.7284,21.9369],[-84.1934,10.7356,22.6789],[-84.1858,10.7523,19.75],[-84.1869,10.7559,30.7887],[-84.1941,10.7627,19.8567],[-84.1969,10.785,17.5],[-84.2017,10.7813,19.5927],[-84.2069,10.7864,18.1871],[-84.2082,10.7923,24.281],[-84.2047,10.7947,18.5097],[-84.2062,10.7975,18.6456],[-84.2132,10.801,19.34],[-84.2231,10.801,18.9203],[-84.2266,10.8046,27.0815],[-84.2293,10.8112,41.0289],[-84.2355,10.8131,45.1725],[-84.2376,10.8158,28.68],[-84.2364,10.8199,17.9599],[-84.2209,10.8249,19.548],[-84.2149,10.8393,18.0437],[-84.2197,10.8555,19.1967],[-84.2192,10.863,20.3987],[-84.2251,10.8729,20.2953],[-84.2286,10.8753,22.1097],[-84.2373,10.8762,35.0492],[-84.2441,10.885,25.4225],[-84.2583,10.8915,18.9769],[-84.2639,10.8909,19.8875],[-84.2827,10.8937,41.4145],[-84.2857,10.8966,18.0],[-84.2917,10.911,19.0],[-84.301,10.9169,42.2693],[-84.3065,10.9137,51.7916],[-84.3104,10.9149,39.2564],[-84.316,10.9105,35.3246],[-84.3276,10.912,40.9634],[-84.3291,10.9063,50.1998],[-84.3327,10.9034,38.5911],[-84.3313,10.9,45.6267],[-84.3322,10.8974,30.2254],[-84.3344,10.8977,40.3099],[-84.3342,10.9004,29.5625],[-84.3395,10.8999,31.9471],[-84.3392,10.9026,41.691],[-84.3427,10.9046,34.4742],[-84.3418,10.9069,32.5247],[-84.348,10.9046,42.7729],[-84.3487,10.9099,33.0003],[-84.3539,10.9115,39.8441],[-84.3606,10.9113,37.4122],[-84.3671,10.9057,45.5944],[-84.3645,10.9008,46.6088],[-84.3664,10.898,30.9965],[-84.3632,10.8984,32.2615],[-84.3667,10.8922,44.0374],[-84.3637,10.8915,56.5044],[-84.3648,10.8878,52.384],[-84.3636,10.8887,66.9507],[-84.364,10.8863,55.391],[-84.3621,10.8835,58.4391],[-84.3634,10.8813,50.6345],[-84.3674,10.8809,46.2656],[-84.3665,10.8788,47.6456],[-84.3681,10.8767,44.4346],[-84.3641,10.8761,49.3344],[-84.3667,10.874,50.5057],[-84.3664,10.8719,36.5737],[-84.365,10.872,36.5737],[-84.3653,10.8661,28.0351],[-84.3671,10.8655,38.4011],[-84.3649,10.8638,30.428],[-84.3622,10.8652,35.0534],[-84.3626,10.8636,47.9111],[-84.358,10.8667,33.5175],[-84.3582,10.8641,34.9604],[-84.3559,10.8609,45.321],[-84.3567,10.8594,49.4731],[-84.3552,10.8595,47.2621],[-84.355,10.8566,38.1912],[-84.3534,10.8598,55.4893],[-84.3509,10.8524,43.9552],[-84.3538,10.85,38.525],[-84.3549,10.8522,32.4309],[-84.3582,10.8467,45.8433],[-84.3627,10.8484,44.27],[-84.3658,10.8471,48.3263],[-84.3718,10.8522,36.1096],[-84.3772,10.8526,33.9441],[-84.3793,10.8566,43.8425],[-84.3839,10.8578,36.0719],[-84.391,10.8546,33.5805],[-84.3907,10.8508,33.5262],[-84.3951,10.8474,39.8634],[-84.3991,10.8401,32.4339],[-84.3993,10.8361,32.4555],[-84.3965,10.8346,32.8443],[-84.3974,10.8304,41.4487],[-84.3962,10.8259,46.6034],[-84.3989,10.824,43.5711],[-84.3992,10.8172,37.1182],[-84.4064,10.8098,37.5551],[-84.4071,10.8052,43.2753],[-84.4096,10.8023,42.888],[-84.4105,10.7948,50.5911],[-84.4162,10.7917,48.2974],[-84.4203,10.7852,45.1413],[-84.4232,10.7848,44.2964],[-84.4236,10.7819,52.0654],[-84.4258,10.7799,49.9062],[-84.425,10.7779,52.7643],[-84.4271,10.7767,44.7054],[-84.4277,10.7718,40.8634],[-84.433,10.7707,47.88],[-84.4367,10.7668,51.0966],[-84.4358,10.7622,70.4398],[-84.4375,10.7591,52.5788],[-84.4346,10.7582,48.6723],[-84.4332,10.7503,42.958],[-84.4356,10.7473,50.2862],[-84.4388,10.7463,63.1789],[-84.4372,10.7446,49.9388],[-84.4382,10.7427,57.0042],[-84.4425,10.7417,64.1133],[-84.4421,10.7386,82.1498],[-84.4444,10.7372,63.3726],[-84.4428,10.7356,68.839],[-84.4438,10.7342,71.9652],[-84.4459,10.7349,53.7578],[-84.4467,10.7303,58.5827],[-84.4486,10.7289,58.5827],[-84.4466,10.7258,69.879],[-84.4486,10.7249,61.1225],[-84.4461,10.7238,70.7523],[-84.4498,10.7235,69.2622],[-84.4496,10.7216,72.7014],[-84.4519,10.7205,63.6041],[-84.45,10.7176,67.5174],[-84.4528,10.7173,60.2322],[-84.4526,10.7156,70.3671],[-84.4557,10.713,61.19],[-84.4582,10.713,62.9035],[-84.4607,10.7098,61.4382],[-84.4592,10.7072,68.3826],[-84.4627,10.7064,64.8806],[-84.4608,10.7022,83.6769],[-84.4629,10.7003,77.8395],[-84.4616,10.6978,84.7253],[-84.4637,10.6974,80.6256],[-84.4632,10.6945,78.2126],[-84.4651,10.694,78.2126],[-84.4633,10.6927,78.9966],[-84.4635,10.6879,88.4375],[-84.4613,10.6851,95.3561],[-84.4593,10.6861,82.9321],[-84.4561,10.6796,72.3774],[-84.4545,10.6801,74.4096],[-84.4539,10.6783,81.0107],[-84.449,10.677,73.148],[-84.4509,10.672,79.251],[-84.4475,10.6657,68.3053],[-84.4507,10.6642,72.2582],[-84.4492,10.6632,72.7641],[-84.4494,10.6567,82.1807],[-84.4452,10.6468,81.1682],[-84.4435,10.6455,90.8905],[-84.4385,10.649,94.7715],[-84.433,10.6473,99.577],[-84.4299,10.6494,97.2087],[-84.4284,10.6435,97.6503],[-84.4227,10.6409,84.4744],[-84.4217,10.6375,52.3302],[-84.4127,10.6337,43.6883],[-84.4142,10.6313,50.4158],[-84.4223,10.6338,73.8208],[-84.4214,10.6251,46.6136],[-84.4072,10.6221,61.3531],[-84.4031,10.619,50.3294],[-84.4053,10.6166,79.1418],[-84.4103,10.6182,49.148],[-84.4175,10.6096,54.1],[-84.4174,10.6037,72.0285],[-84.4265,10.6003,47.6029],[-84.4332,10.5955,52.3062],[-84.4391,10.5945,48.129],[-84.445,10.5873,49.1046],[-84.4513,10.5916,52.8862],[-84.455,10.5911,83.9065],[-84.456,10.5833,51.7792],[-84.4655,10.5744,52.6276],[-84.4744,10.5709,55.1308],[-84.4803,10.5651,56.6397],[-84.4857,10.5657,72.8556],[-84.4866,10.5583,59.2172],[-84.4926,10.5541,62.4934],[-84.4886,10.5367,62.317],[-84.4903,10.5339,63.6161],[-84.4872,10.5294,61.2754],[-84.4903,10.5219,55.8204],[-84.4928,10.5207,55.101],[-84.4953,10.5166,65.0494],[-84.5027,10.522,64.2322],[-84.5095,10.5198,59.4427],[-84.5113,10.5184,57.1822],[-84.5123,10.5134,63.6787],[-84.5094,10.5072,59.3956],[-84.5134,10.5065,64.2202],[-84.5199,10.5082,67.131],[-84.5189,10.5053,62.0882],[-84.5245,10.5047,69.2319],[-84.5234,10.5,71.6742],[-84.5293,10.5026,73.6226],[-84.5337,10.4979,71.2342],[-84.539,10.4961,70.1778],[-84.5377,10.4916,86.245],[-84.5336,10.4913,85.2102],[-84.5294,10.4935,89.3387],[-84.5248,10.4888,81.5859],[-84.5256,10.4824,79.3621],[-84.5075,10.4774,68.5204],[-84.506,10.4812,68.3334],[-84.4995,10.48,65.5476],[-84.4943,10.4844,66.7066],[-84.4917,10.4827,65.6351],[-84.4876,10.4836,64.4873],[-84.4877,10.4849,63.7076],[-84.46,10.4849,62.3713],[-84.4597,10.4834,71.2894],[-84.4544,10.482,70.3621],[-84.4506,10.4854,71.5668],[-84.4456,10.4829,78.5958],[-84.4438,10.4848,71.3045],[-84.4414,10.484,69.8779],[-84.4412,10.4852,69.8779],[-84.4395,10.4815,75.3771],[-84.4352,10.4794,76.3674],[-84.4316,10.4821,75.7251],[-84.4227,10.4832,81.1194],[-84.4229,10.4813,79.5604],[-84.4166,10.4774,76.6452],[-84.4154,10.4741,82.0284],[-84.4134,10.4765,79.1429],[-84.4116,10.4731,78.6354],[-84.4072,10.4742,80.2925],[-84.401,10.471,85.3512],[-84.4011,10.4732,81.8262],[-84.3978,10.4747,82.6852],[-84.3951,10.4726,85.179],[-84.3914,10.4728,86.9519],[-84.3904,10.4748,85.5525],[-84.385,10.4762,87.7453],[-84.3894,10.4816,83.3528],[-84.3888,10.4859,84.1642],[-84.3943,10.495,77.7888],[-84.3964,10.5023,74.9639],[-84.4,10.5048,74.6814],[-84.4045,10.5122,71.5938],[-84.4039,10.5167,71.2268],[-84.406,10.5212,71.1631],[-84.406,10.5245,69.1088],[-84.4033,10.5282,72.7819],[-84.397,10.5296,67.2224],[-84.4117,10.5424,79.9155],[-84.4092,10.5462,82.9581],[-84.4022,10.5476,73.603],[-84.4013,10.5549,79.5847],[-84.3925,10.5686,89.3777],[-84.3934,10.5712,84.9272],[-84.3887,10.5737,78.397],[-84.3875,10.5727,78.397],[-84.3855,10.5756,92.0694],[-84.3826,10.576,87.626],[-84.3826,10.5735,74.5742],[-84.3802,10.573,68.013],[-84.3754,10.5778,78.032],[-84.3708,10.5735,74.5348],[-84.3692,10.576,63.9461],[-84.3704,10.577,63.9461],[-84.3683,10.579,72.388],[-84.3602,10.5766,73.5089],[-84.3544,10.5776,66.5744],[-84.3509,10.5763,67.0722],[-84.3471,10.5779,80.9384],[-84.3474,10.5796,86.7295],[-84.3491,10.5792,67.4161],[-84.349,10.5821,94.1044],[-84.3442,10.5818,80.0277],[-84.3424,10.5833,61.9717],[-84.3408,10.5866,55.1693],[-84.3414,10.589,55.1516],[-84.3317,10.5907,49.4849]]]]}
,"properties": {"GID_3": "CRI.1.11.3_1","GID_0": "CRI","country": "CostaRica","GID_1": "CRI.1_1","province": "Alajuela","NL_NAME_1": "NA","GID_2": "CRI.1.11_1","county": "SanCarlos","NL_NAME_2": "NA","city": "Cutris","VARNAME_3": "NA","NL_NAME_3": "NA","TYPE_3": "Distrito","ENGTYPE_3": "District","CC_3": "11","HASC_3": "NA","name": "Cutris.city","area_km2": 851.916,"hist_schema_id": "Elevation0-9000","hist_area_km2": {"25": 33.1998,"50": 116.8762,"75": 343.9224,"100": 222.7886,"125": 50.634,"150": 27.9708,"175": 19.8896,"200": 13.1834,"225": 9.1639,"250": 6.498,"275": 4.1446,"300": 2.7699,"325": 0.7498,"350": 0.0625,"375": 0.0625}}}