{"type": "Feature","bbox": [-84.2254,9.6173,-84.0917,9.7548],"geometry": {"type": "MultiPolygon","coordinates": [[[[-84.1498,9.6291,2119.8896],[-84.1451,9.6401,1837.5175],[-84.1466,9.6481,1337.2645],[-84.1534,9.6553,968.8492],[-84.1587,9.6565,640.4871],[-84.1572,9.6581,666.1713],[-84.1571,9.6622,725.2374],[-84.1535,9.6623,757.6269],[-84.1534,9.6712,883.5788],[-84.1502,9.6778,1006.7413],[-84.1424,9.6813,1190.4525],[-84.1421,9.6846,1245.5012],[-84.1366,9.6909,1332.2219],[-84.1265,9.6972,1487.6349],[-84.1186,9.7055,1685.8979],[-84.1112,9.703,1850.0052],[-84.1065,9.7098,2217.3538],[-84.0917,9.709,2179.4824],[-84.0937,9.7156,2050.0776],[-84.0923,9.7256,1769.7336],[-84.0945,9.7263,1754.0524],[-84.0933,9.7307,1596.9314],[-84.0957,9.7287,1666.0986],[-84.1,9.729,1519.6962],[-84.1048,9.7453,1190.8971],[-84.1089,9.7487,1128.8085],[-84.1109,9.7548,1028.9348],[-84.1203,9.7436,1349.9323],[-84.1195,9.737,1448.6821],[-84.1289,9.7323,1901.5608],[-84.135,9.733,2134.7905],[-84.1338,9.7286,2152.9702],[-84.1391,9.7221,2469.4197],[-84.1446,9.7233,2372.2031],[-84.1508,9.7215,2249.4453],[-84.1586,9.7097,2230.3691],[-84.1683,9.7128,2099.9331],[-84.1685,9.7077,2068.7715],[-84.1703,9.7039,2167.8811],[-84.1734,9.7017,2184.928],[-84.1732,9.6985,2142.4941],[-84.185,9.69,2059.6113],[-84.1994,9.6855,1475.1387],[-84.2039,9.6818,1163.3478],[-84.208,9.6682,806.1052],[-84.207,9.6618,659.0178],[-84.2097,9.6568,527.1442],[-84.2142,9.6545,494.8276],[-84.2114,9.6508,443.5646],[-84.2118,9.6475,433.1231],[-84.2153,9.6471,429.1714],[-84.2177,9.6446,349.3412],[-84.2147,9.6415,302.6967],[-84.2208,9.64,257.0558],[-84.2192,9.638,276.0003],[-84.2254,9.6281,924.4163],[-84.2226,9.6272,863.1903],[-84.2173,9.6207,904.943],[-84.2107,9.6216,674.7206],[-84.2084,9.6196,613.5396],[-84.2033,9.6204,598.3173],[-84.2001,9.6183,622.2842],[-84.191,9.6173,814.291],[-84.1815,9.6242,1029.5085],[-84.1704,9.6242,1330.9513],[-84.16,9.6259,1661.7566],[-84.1574,9.6283,1758.126],[-84.1498,9.6291,2119.8896]]]]}
,"properties": {"GID_3": "CRI.7.3.2_1","GID_0": "CRI","country": "CostaRica","GID_1": "CRI.7_1","province": "SanJosé","NL_NAME_1": "NA","GID_2": "CRI.7.3_1","county": "Aserrí","NL_NAME_2": "NA","city": "Legua","VARNAME_3": "NA","NL_NAME_3": "NA","TYPE_3": "Distrito","ENGTYPE_3": "District","CC_3": "5","HASC_3": "NA","name": "Legua.city","area_km2": 81.90925,"hist_schema_id": "Elevation0-9000","hist_area_km2": {"250": 0.16722,"275": 0.25084,"300": 0.50168,"325": 0.41806,"350": 0.52258,"375": 0.39716,"400": 0.50168,"425": 0.56438,"450": 0.85703,"475": 1.04515,"500": 1.33778,"525": 1.19147,"550": 1.42139,"575": 1.12875,"600": 1.19146,"625": 1.31688,"650": 1.00333,"675": 1.17055,"700": 0.77341,"725": 1.10784,"750": 1.00331,"775": 0.9824,"800": 0.87789,"825": 0.81518,"850": 1.1078,"875": 1.0451,"900": 0.87788,"925": 1.04509,"950": 1.00328,"975": 0.60615,"1000": 1.08689,"1025": 1.02418,"1050": 1.08686,"1075": 0.91966,"1100": 0.89876,"1125": 0.68975,"1150": 1.02416,"1175": 0.71063,"1200": 0.81515,"1225": 0.77332,"1250": 0.79422,"1275": 0.71061,"1300": 1.02414,"1325": 0.8778,"1350": 0.87783,"1375": 1.06591,"1400": 0.60611,"1425": 0.89868,"1450": 1.10768,"1475": 0.94049,"1500": 1.06592,"1525": 1.27485,"1550": 1.35845,"1575": 1.23307,"1600": 1.33758,"1625": 0.94049,"1650": 1.44205,"1675": 1.19124,"1700": 1.29575,"1725": 1.37935,"1750": 1.33755,"1775": 1.21214,"1800": 1.29575,"1825": 1.21214,"1850": 1.67194,"1875": 1.44202,"1900": 1.31663,"1925": 1.21215,"1950": 1.44202,"1975": 1.25395,"2000": 1.23302,"2025": 1.25394,"2050": 1.35842,"2075": 1.9436,"2100": 1.25393,"2125": 1.442,"2150": 0.96134,"2175": 0.75235,"2200": 0.54336,"2225": 0.20898,"2250": 0.27168,"2275": 0.14628,"2300": 0.0418,"2325": 0.10449,"2350": 0.10449,"2375": 0.06269,"2400": 0.06269,"2425": 0.0418,"2450": 0.0209,"2500": 0.0209}}}