{"type":"Feature","properties":{"GID_3":"CRI.3.3.3_1","GID_0":"CRI","country":"CostaRica","GID_1":"CRI.3_1","province":"Guanacaste","NL_NAME_1":"NA","GID_2":"CRI.3.3_1","county":"Cañas","NL_NAME_2":"NA","city":"Palmira","VARNAME_3":"NA","NL_NAME_3":"NA","TYPE_3":"Distrito","ENGTYPE_3":"District","CC_3":"2","HASC_3":"NA","name":"Palmira.city"},
"geometry":{"type": "MultiPolygon","coordinates": [[[[-85.0125,10.6709,1838.9661],[-85.0196,10.674,1741.5804],[-85.0199,10.6806,1535.391],[-85.0267,10.6934,1497.1753],[-85.0438,10.6975,818.8522],[-85.055,10.6974,629.606],[-85.0586,10.7006,602.825],[-85.0608,10.7088,566.4731],[-85.0654,10.7046,515.9286],[-85.0817,10.68,466.783],[-85.0822,10.6749,456.4171],[-85.0867,10.6636,419.9069],[-85.0944,10.6553,405.3301],[-85.1,10.6535,365.4861],[-85.1013,10.6487,355.7622],[-85.1143,10.6363,326.9521],[-85.1189,10.6269,334.1274],[-85.1287,10.6205,259.7351],[-85.1305,10.6122,235.7775],[-85.1329,10.6095,216.5919],[-85.1316,10.6047,217.8274],[-85.1337,10.5999,202.9999],[-85.1328,10.5983,192.5289],[-85.1349,10.5963,187.42],[-85.1314,10.5959,195.4772],[-85.1337,10.5923,179.2659],[-85.135,10.5789,169.3973],[-85.137,10.5777,152.2101],[-85.1349,10.577,157.3226],[-85.1357,10.5753,154.0216],[-85.1332,10.5743,166.584],[-85.1325,10.5707,138.2029],[-85.1347,10.5698,131.0014],[-85.136,10.5582,139.0873],[-85.1377,10.5576,107.8104],[-85.1364,10.5539,106.8308],[-85.1409,10.5497,112.2155],[-85.1397,10.5478,108.2245],[-85.1412,10.5426,92.8515],[-85.1452,10.5416,92.4277],[-85.1463,10.538,105.7775],[-85.15,10.5366,79.5374],[-85.1493,10.5345,78.2255],[-85.1607,10.5258,66.3312],[-85.1626,10.5205,64.7616],[-85.161,10.5192,56.7967],[-85.1604,10.5151,59.7674],[-85.1631,10.508,58.8895],[-85.1606,10.5011,57.8329],[-85.1649,10.4968,57.8329],[-85.1637,10.4935,47.2529],[-85.1661,10.488,46.3874],[-85.1668,10.4803,43.0826],[-85.1658,10.4785,42.5841],[-85.1638,10.4779,42.2956],[-85.1561,10.4837,50.046],[-85.1539,10.4822,54.3225],[-85.1505,10.4864,52.7798],[-85.1403,10.4928,80.4031],[-85.14,10.5005,71.5338],[-85.1385,10.5029,82.826],[-85.1402,10.5063,138.319],[-85.1352,10.5114,104.6483],[-85.1349,10.5199,120.7841],[-85.1227,10.5068,175.8893],[-85.1145,10.5044,106.3838],[-85.1103,10.5114,116.7324],[-85.106,10.5111,122.4855],[-85.1033,10.5133,124.8551],[-85.0987,10.5116,147.8694],[-85.0878,10.5123,172.9229],[-85.0852,10.5171,223.3533],[-85.0831,10.5163,191.7203],[-85.083,10.5182,186.5571],[-85.0788,10.5196,194.5356],[-85.0781,10.5215,199.2727],[-85.0765,10.5209,199.2727],[-85.0744,10.5239,212.7176],[-85.0719,10.5241,220.5662],[-85.0706,10.5218,230.6065],[-85.0676,10.5223,235.4315],[-85.0651,10.5237,253.6859],[-85.065,10.5257,247.4935],[-85.0619,10.5253,282.4552],[-85.0552,10.5284,309.8497],[-85.0547,10.5299,287.6333],[-85.0529,10.5294,301.4992],[-85.051,10.5314,315.2969],[-85.0498,10.5295,320.1641],[-85.0466,10.5316,352.6262],[-85.0464,10.535,344.3531],[-85.0431,10.5377,367.0122],[-85.0436,10.6056,581.5519],[-85.0458,10.6101,571.6041],[-85.0436,10.6152,572.5989],[-85.0454,10.6183,569.2933],[-85.0424,10.6225,578.3232],[-85.0397,10.6223,610.2156],[-85.0371,10.6245,638.9802],[-85.0282,10.6245,693.8481],[-85.0209,10.63,767.954],[-85.0096,10.6308,869.6262],[-85.0081,10.6345,925.0132],[-85.0086,10.6414,1043.3574],[-85.0005,10.6532,1307.2231],[-85.0016,10.6568,1326.0597],[-85.0056,10.6588,1379.613],[-85.0101,10.664,1705.1089],[-85.0125,10.6709,1838.9661]]]]}}