{"type": "Feature","bbox": [-84.066,9.9528,-84.0246,9.9745],"geometry": {"type": "MultiPolygon","coordinates": [[[[-84.0551,9.9727,1165.5992],[-84.056,9.9689,1167.7604],[-84.0621,9.9646,1188.6294],[-84.061,9.9617,1180.7648],[-84.066,9.9547,1176.4133],[-84.0639,9.956,1178.0352],[-84.0574,9.9528,1192.634],[-84.0513,9.9532,1196.917],[-84.0442,9.9559,1209.5292],[-84.0357,9.9633,1257.447],[-84.0246,9.9671,1304.6365],[-84.0316,9.9687,1279.3174],[-84.0345,9.9673,1261.7622],[-84.0387,9.9729,1233.906],[-84.0449,9.9745,1226.3455],[-84.0551,9.9727,1165.5992]]]]}
,"properties": {"GID_3": "CRI.7.12.3_1","GID_0": "CRI","country": "CostaRica","GID_1": "CRI.7_1","province": "SanJosé","NL_NAME_1": "NA","GID_2": "CRI.7.12_1","county": "Moravia","NL_NAME_2": "NA","city": "SanVicente","VARNAME_3": "NA","NL_NAME_3": "NA","TYPE_3": "Distrito","ENGTYPE_3": "District","CC_3": "1","HASC_3": "NA","name": "San_Vicente.city","area_km2": 5.554723,"hist_schema_id": "Elevation0-9000","hist_area_km2": {"1150": 0.041764,"1175": 0.396769,"1200": 1.482665,"1225": 2.17177,"1250": 1.106758,"1275": 0.292351,"1300": 0.062647}}}