{"type":"Feature","properties":{"GID_3":"CRI.6.3.4_1","GID_0":"CRI","country":"CostaRica","GID_1":"CRI.6_1","province":"Puntarenas","NL_NAME_1":"NA","GID_2":"CRI.6.3_1","county":"Corredores","NL_NAME_2":"NA","city":"Laurel","VARNAME_3":"NA","NL_NAME_3":"NA","TYPE_3":"Distrito","ENGTYPE_3":"District","CC_3":"4","HASC_3":"NA","name":"Laurel.city"},
"geometry":{"type": "MultiPolygon","coordinates": [[[[-82.9453,8.5419,11.5375],[-82.9563,8.5449,8.3014],[-82.9651,8.5432,5.8254],[-82.9694,8.5457,6.7576],[-82.9748,8.5462,5.9833],[-82.9824,8.5436,9.2732],[-82.9901,8.5467,6.2268],[-82.9981,8.5408,5.1436],[-82.9993,8.5377,3.9204],[-82.9946,8.5321,3.8512],[-82.9966,8.5281,6.0404],[-82.9932,8.5217,7.2659],[-82.9954,8.5112,12.6365],[-82.993,8.5028,17.8285],[-82.9901,8.4987,17.9987],[-82.9918,8.4926,13.4493],[-83.0042,8.4823,24.0507],[-83.0011,8.4809,24.0592],[-83.0022,8.4794,21.8706],[-83.0003,8.4777,19.7882],[-83.0016,8.4755,19.0246],[-82.9997,8.4729,21.3351],[-82.9988,8.4736,21.3351],[-82.9995,8.4708,28.169],[-82.9975,8.469,24.1297],[-82.998,8.4663,23.0642],[-82.9944,8.4644,25.5487],[-82.9926,8.4658,24.24],[-82.9887,8.4619,27.2419],[-82.9895,8.4605,27.2419],[-82.9921,8.4607,34.2635],[-82.9922,8.4581,34.095],[-82.9961,8.4574,32.916],[-82.9942,8.4524,33.7623],[-82.9972,8.4501,36.9637],[-82.9939,8.4452,35.2935],[-82.9964,8.445,33.9391],[-82.9953,8.4427,32.1001],[-82.9993,8.4417,40.0856],[-83.0008,8.4445,39.2545],[-83.0015,8.4415,39.2156],[-83.0044,8.4421,48.5833],[-83.0059,8.4385,43.2134],[-83.0087,8.4386,42.8431],[-83.0095,8.4356,42.5165],[-83.0076,8.4326,46.4636],[-83.0128,8.4283,79.7538],[-83.0133,8.4262,86.6119],[-83.0213,8.4242,111.4061],[-83.0224,8.418,161.5104],[-83.0307,8.4148,238.1489],[-83.0409,8.3987,245.3989],[-83.0427,8.3912,249.2687],[-83.0469,8.3852,368.6002],[-83.0455,8.3828,388.2247],[-83.0546,8.3757,359.8383],[-83.0572,8.3714,401.5702],[-83.0541,8.3696,345.0353],[-83.049,8.3757,282.3813],[-83.0418,8.3791,262.3887],[-83.0373,8.3795,220.1008],[-83.0342,8.3773,199.0843],[-83.0359,8.3734,217.4266],[-83.0512,8.3602,333.2209],[-83.0504,8.3559,379.1952],[-83.0523,8.3486,515.45],[-83.0509,8.3447,515.7047],[-83.0476,8.342,495.6825],[-83.0276,8.3522,480.1946],[-83.0189,8.3506,447.3479],[-83.016,8.3553,357.4207],[-83.0104,8.3543,405.2287],[-83.0072,8.3556,422.8044],[-83.0017,8.3603,598.1462],[-83.0008,8.3647,410.4216],[-82.9941,8.369,244.5698],[-82.9897,8.3772,347.3041],[-82.9837,8.3729,370.6675],[-82.976,8.3837,314.1689],[-82.9699,8.3863,188.0397],[-82.9672,8.3942,99.2875],[-82.9618,8.3965,80.5447],[-82.961,8.4033,65.8033],[-82.955,8.4072,57.5557],[-82.9542,8.4133,47.2875],[-82.9357,8.4239,41.8111],[-82.9309,8.4352,40.7141],[-82.9141,8.4288,28.2308],[-82.8734,8.4384,21.4453],[-82.8821,8.4459,13.6942],[-82.8861,8.4535,26.7699],[-82.8964,8.4657,23.9101],[-82.8975,8.4714,20.9509],[-82.896,8.4768,18.186],[-82.898,8.4776,12.3912],[-82.8976,8.4803,13.9245],[-82.9002,8.4866,14.9349],[-82.9028,8.4867,22.1198],[-82.9076,8.49,25.6938],[-82.9082,8.4966,12.133],[-82.9168,8.5009,22.6453],[-82.9167,8.503,17.9865],[-82.921,8.5053,20.2495],[-82.9293,8.5152,17.647],[-82.9314,8.519,13.1353],[-82.9285,8.5211,9.3727],[-82.9288,8.5239,16.0551],[-82.9356,8.5316,16.1058],[-82.9389,8.5391,11.4562],[-82.9417,8.54,11.8616],[-82.9426,8.5424,7.505],[-82.9453,8.5419,11.5375]]]]}}