{"type":"Feature","properties":{"GID_3":"CRI.3.3.5_1","GID_0":"CRI","country":"CostaRica","GID_1":"CRI.3_1","province":"Guanacaste","NL_NAME_1":"NA","GID_2":"CRI.3.3_1","county":"Cañas","NL_NAME_2":"NA","city":"SanMiguel","VARNAME_3":"NA","NL_NAME_3":"NA","TYPE_3":"Distrito","ENGTYPE_3":"District","CC_3":"3","HASC_3":"NA","name":"San_Miguel.city"},
"geometry":{"type": "MultiPolygon","coordinates": [[[[-84.9497,10.3656,970.5795],[-85.0181,10.367,590.4337],[-85.0224,10.3948,423.9149],[-85.0264,10.3957,355.509],[-85.0297,10.3935,293.7141],[-85.0334,10.3937,335.0914],[-85.0379,10.4006,273.188],[-85.0443,10.3971,260.2606],[-85.047,10.3978,270.8547],[-85.0501,10.392,247.5956],[-85.0523,10.3949,213.6427],[-85.0538,10.3947,192.014],[-85.0559,10.3869,132.2158],[-85.0639,10.382,110.6555],[-85.0771,10.3826,58.211],[-85.0802,10.384,55.0483],[-85.0859,10.379,46.6157],[-85.0904,10.379,45.5042],[-85.0904,10.3753,40.9755],[-85.0958,10.3735,31.5778],[-85.0981,10.3709,31.4634],[-85.1055,10.3699,28.0131],[-85.1081,10.3663,27.8827],[-85.1136,10.3677,25.0654],[-85.1176,10.3655,23.7956],[-85.1209,10.3605,22.3887],[-85.1284,10.3564,16.6018],[-85.1299,10.353,16.8211],[-85.1336,10.3539,15.8122],[-85.1337,10.3474,15.5539],[-85.143,10.3478,14.3223],[-85.1496,10.3449,21.5815],[-85.1461,10.3357,60.7679],[-85.1422,10.3316,64.1986],[-85.1373,10.3303,54.0416],[-85.1218,10.3074,83.157],[-85.1136,10.2974,61.8562],[-85.1065,10.2932,24.4145],[-85.1034,10.288,26.8264],[-85.0999,10.2907,23.3749],[-85.0953,10.2895,28.0781],[-85.0919,10.2914,25.9535],[-85.0925,10.2931,31.5207],[-85.0885,10.2941,33.5303],[-85.0768,10.2896,30.4755],[-85.076,10.2879,32.6183],[-85.0655,10.2856,35.9188],[-85.062,10.2943,35.5935],[-85.0558,10.2951,40.0097],[-85.0569,10.2986,40.162],[-85.0549,10.3002,63.0771],[-85.0583,10.3022,53.2906],[-85.0569,10.3046,50.0675],[-85.0589,10.3077,47.2116],[-85.0577,10.3131,55.452],[-85.0545,10.3143,61.4684],[-85.0514,10.319,64.1372],[-85.0491,10.3185,75.5099],[-85.0446,10.3222,78.9249],[-85.0436,10.3212,73.6667],[-85.0383,10.3296,95.0807],[-85.0334,10.331,114.9306],[-85.0307,10.3286,124.3822],[-85.0273,10.3281,118.9913],[-85.0247,10.3297,123.047],[-85.0248,10.3319,122.6686],[-85.0206,10.3335,144.9869],[-85.0185,10.3299,165.2684],[-85.015,10.3299,167.3021],[-85.0144,10.3323,167.2706],[-85.0075,10.3339,175.1651],[-85.0059,10.3375,206.6248],[-84.9987,10.3407,256.9861],[-84.9981,10.343,248.5837],[-84.9957,10.3422,276.0495],[-84.9949,10.3451,267.2086],[-84.9892,10.3465,289.2607],[-84.9868,10.3506,332.7808],[-84.9869,10.3544,332.7199],[-84.984,10.3569,337.4616],[-84.9818,10.3553,389.1701],[-84.9765,10.3556,370.0421],[-84.9713,10.3591,439.0016],[-84.9673,10.3553,458.1701],[-84.9583,10.3507,541.8777],[-84.9497,10.3656,970.5795]]]]}}