{"type": "Feature","bbox": [-84.0084,9.931,-83.9693,9.9437],"geometry": {"type": "MultiPolygon","coordinates": [[[[-83.977,9.9345,1572.4254],[-83.9693,9.9437,1693.2079],[-84.0084,9.9398,1356.6577],[-84.006,9.9332,1362.5748],[-83.9987,9.9361,1385.9938],[-84.0018,9.931,1359.7307],[-83.9932,9.9313,1382.0576],[-83.9832,9.9352,1501.557],[-83.977,9.9345,1572.4254]]]]}
,"properties": {"GID_3": "CRI.2.5.7_1","GID_0": "CRI","country": "CostaRica","GID_1": "CRI.2_1","province": "Cartago","NL_NAME_1": "NA","GID_2": "CRI.2.5_1","county": "LaUnión","NL_NAME_2": "NA","city": "SanRamón","VARNAME_3": "NA","NL_NAME_3": "NA","TYPE_3": "Distrito","ENGTYPE_3": "District","CC_3": "7","HASC_3": "NA","name": "San_Ramón.city","area_km2": 3.362338,"hist_schema_id": "Elevation0-9000","hist_area_km2": {"1350": 0.187957,"1375": 0.542989,"1400": 0.3968,"1425": 0.271494,"1450": 0.271493,"1475": 0.208841,"1500": 0.313261,"1525": 0.292376,"1550": 0.271492,"1575": 0.125304,"1600": 0.229724,"1625": 0.10442,"1650": 0.083535,"1675": 0.020884,"1700": 0.041768}}}