{"type": "Feature","bbox": [-84.1918,10.0525,-84.1613,10.1233],"geometry": {"type": "MultiPolygon","coordinates": [[[[-84.1802,10.0525,1188.0352],[-84.1776,10.057,1206.5939],[-84.1751,10.0576,1224.5812],[-84.1753,10.0596,1234.968],[-84.1717,10.0583,1231.3372],[-84.168,10.0612,1249.5834],[-84.1663,10.0718,1347.5894],[-84.1614,10.0827,1488.6588],[-84.1613,10.1232,1877.4095],[-84.1654,10.1233,1837.1298],[-84.1696,10.1206,1751.5089],[-84.1728,10.1168,1709.051],[-84.1726,10.1146,1710.0808],[-84.1766,10.1124,1618.3208],[-84.1798,10.1076,1520.4879],[-84.1828,10.0882,1368.7814],[-84.1851,10.0869,1356.2354],[-84.1848,10.0825,1339.8792],[-84.19,10.0737,1281.6771],[-84.1879,10.0677,1236.8787],[-84.1918,10.0599,1200.078],[-84.1874,10.0528,1219.5361],[-84.1802,10.0525,1188.0352]]]]}
,"properties": {"GID_3": "CRI.1.1.2_1","GID_0": "CRI","country": "CostaRica","GID_1": "CRI.1_1","province": "Alajuela","NL_NAME_1": "NA","GID_2": "CRI.1.1_1","county": "Alajuela","NL_NAME_2": "NA","city": "Carrizal","VARNAME_3": "NA","NL_NAME_3": "NA","TYPE_3": "Distrito","ENGTYPE_3": "District","CC_3": "3","HASC_3": "NA","name": "Carrizal.city","area_km2": 16.40739,"hist_schema_id": "Elevation0-9000","hist_area_km2": {"1200": 0.10438,"1225": 0.31314,"1250": 0.58453,"1275": 2.04584,"1300": 1.35693,"1325": 0.70976,"1350": 0.73063,"1375": 0.9185,"1400": 0.81412,"1425": 0.73061,"1450": 1.35684,"1475": 1.16896,"1500": 0.81408,"1525": 0.58446,"1550": 0.56359,"1575": 0.45922,"1600": 0.50096,"1625": 0.33397,"1650": 0.41746,"1675": 0.33397,"1700": 0.39658,"1725": 0.29222,"1750": 0.14611,"1775": 0.08349,"1800": 0.31309,"1825": 0.10436,"1850": 0.16698,"1875": 0.06262}}}