{"type":"Feature","properties":{"GID_3":"CRI.3.10.7_1","GID_0":"CRI","country":"CostaRica","GID_1":"CRI.3_1","province":"Guanacaste","NL_NAME_1":"NA","GID_2":"CRI.3.10_1","county":"SantaCruz","NL_NAME_2":"NA","city":"Tamarindo","VARNAME_3":"NA","NL_NAME_3":"NA","TYPE_3":"Distrito","ENGTYPE_3":"District","CC_3":"9","HASC_3":"NA","name":"Tamarindo.city"},
"geometry":{"type": "MultiPolygon","coordinates": [[[[-85.8389,10.3076,0.0],[-85.8427,10.2995,1.8973],[-85.848,10.2953,10.8704],[-85.8523,10.2954,2.7254],[-85.8534,10.2921,7.2793],[-85.849,10.2732,0.0],[-85.8529,10.2619,2.1503],[-85.8514,10.2534,3.4937],[-85.8474,10.2422,4.9715],[-85.8419,10.2361,0.0],[-85.8384,10.2268,0.0],[-85.823,10.2302,42.491],[-85.8176,10.2287,59.2914],[-85.8128,10.231,110.2943],[-85.8074,10.2289,150.6401],[-85.8062,10.223,138.6997],[-85.8023,10.2197,213.8803],[-85.8001,10.222,183.9615],[-85.7969,10.2208,171.6115],[-85.7952,10.2251,166.5957],[-85.7914,10.2222,172.4702],[-85.789,10.2225,203.5012],[-85.7759,10.2305,287.7732],[-85.7744,10.234,267.8013],[-85.7687,10.2362,206.5617],[-85.7677,10.2407,223.7502],[-85.7614,10.2418,246.0385],[-85.76,10.24,203.9048],[-85.751,10.2446,135.713],[-85.7484,10.2528,261.5044],[-85.7519,10.2545,263.4774],[-85.752,10.2571,247.9653],[-85.7602,10.2632,93.3924],[-85.7594,10.2721,37.7116],[-85.7531,10.2747,41.6057],[-85.7576,10.2772,37.096],[-85.7577,10.2803,36.6764],[-85.7509,10.2866,79.9651],[-85.7511,10.292,112.4609],[-85.7466,10.2994,149.8554],[-85.7472,10.3024,204.5234],[-85.7423,10.3168,317.5587],[-85.7447,10.3183,336.4958],[-85.7458,10.3224,225.2504],[-85.7433,10.3261,205.2702],[-85.7456,10.3278,154.5285],[-85.748,10.3273,162.3418],[-85.7536,10.3315,286.279],[-85.7585,10.3309,245.3985],[-85.7609,10.3379,292.1564],[-85.7585,10.3395,297.358],[-85.7549,10.3467,220.4777],[-85.7595,10.3495,214.218],[-85.7594,10.3545,150.3789],[-85.7752,10.3644,47.6996],[-85.7892,10.3632,29.5438],[-85.7925,10.3564,23.0553],[-85.7936,10.3488,21.8267],[-85.7955,10.3467,18.2555],[-85.7879,10.3423,30.5215],[-85.7965,10.3372,15.466],[-85.7969,10.3336,15.2091],[-85.8059,10.3286,12.3797],[-85.8081,10.3295,14.5462],[-85.8117,10.3262,11.3544],[-85.8212,10.3267,8.4642],[-85.8277,10.3222,15.1007],[-85.8278,10.3242,9.9307],[-85.831,10.325,4.9809],[-85.8344,10.3205,5.5658],[-85.8343,10.31,1.7732],[-85.8389,10.3076,0.0]]],
[[[-85.8542,10.3006,0.0],[-85.8552,10.299,0.2285],[-85.8518,10.2993,0.0],[-85.8529,10.3007,0.0],[-85.8542,10.3006,0.0]]]]}}