{"type":"Feature","properties":{"GID_2":"CRI.7.19_1","GID_0":"CRI","country":"CostaRica","GID_1":"CRI.7_1","province":"SanJosé","NL_NAME_1":"NA","county":"Turrubares","VARNAME_2":"NA","NL_NAME_2":"NA","TYPE_2":"Cantón","ENGTYPE_2":"Canton","CC_2":"16","HASC_2":"CR.SJ.TU","name":"Turrubares.county"},
"geometry":{"type": "MultiPolygon","coordinates": [[[[-84.5302,9.5755,8.7119],[-84.5272,9.576,19.639],[-84.521,9.5726,10.7115],[-84.511,9.5725,24.1422],[-84.5076,9.5708,26.9591],[-84.503,9.573,19.8665],[-84.4941,9.57,61.0144],[-84.4899,9.5724,41.2708],[-84.4846,9.5696,38.9423],[-84.4839,9.5752,75.8189],[-84.4806,9.5808,20.7082],[-84.483,9.5819,54.9052],[-84.4844,9.5854,46.307],[-84.4808,9.585,36.3542],[-84.4796,9.5869,25.8425],[-84.474,9.5892,22.719],[-84.4773,9.5911,18.861],[-84.476,9.5944,21.1145],[-84.4801,9.5946,28.4485],[-84.4778,9.596,20.8148],[-84.4806,9.6012,25.4314],[-84.4775,9.6004,23.4914],[-84.4757,9.6017,23.5577],[-84.477,9.6045,34.4777],[-84.4792,9.603,23.9051],[-84.4799,9.6051,26.3514],[-84.4818,9.6057,40.8654],[-84.4779,9.6156,32.3501],[-84.4802,9.6207,30.0166],[-84.4848,9.6242,44.9402],[-84.4865,9.6396,77.3898],[-84.4895,9.6414,56.5457],[-84.4884,9.6434,41.6878],[-84.4846,9.6449,104.6461],[-84.4822,9.6494,68.6],[-84.4775,9.6503,175.0211],[-84.4793,9.6523,83.621],[-84.4767,9.6545,79.3767],[-84.4774,9.6602,78.7961],[-84.469,9.6615,128.6873],[-84.4737,9.6646,90.4079],[-84.4758,9.6718,59.3415],[-84.4807,9.6724,69.1841],[-84.4804,9.6767,62.6328],[-84.4838,9.6774,77.9275],[-84.4823,9.6798,63.8512],[-84.4853,9.6815,67.858],[-84.4858,9.6837,67.6902],[-84.4848,9.6851,76.5109],[-84.4813,9.6841,75.5564],[-84.4783,9.6877,79.806],[-84.4737,9.6871,82.3606],[-84.4752,9.6908,90.2819],[-84.472,9.6918,79.4219],[-84.4702,9.6907,87.4473],[-84.4674,9.698,95.3926],[-84.4686,9.7012,111.4236],[-84.4663,9.7021,123.165],[-84.4693,9.706,156.4908],[-84.4679,9.7079,116.7001],[-84.4687,9.7099,113.8716],[-84.4745,9.7139,149.161],[-84.4738,9.7173,156.3607],[-84.4764,9.7169,157.2571],[-84.4807,9.7184,202.7564],[-84.4813,9.72,154.2889],[-84.4832,9.7196,166.4586],[-84.4836,9.7218,178.5925],[-84.4871,9.7226,218.6331],[-84.4915,9.7283,218.7484],[-84.491,9.73,218.8094],[-84.4858,9.7315,222.1743],[-84.4827,9.7343,260.0147],[-84.4906,9.7439,414.9278],[-84.4908,9.747,435.1571],[-84.487799999999993,9.7504,473.2063],[-84.4866,9.757,548.705],[-84.4803,9.7658,839.8134],[-84.4806,9.7758,1288.698],[-84.4714,9.7933,1656.1034],[-84.4692,9.7943,1615.9602],[-84.4647,9.7917,1483.7953],[-84.4542,9.793,1573.6971],[-84.4504,9.7912,1561.5542],[-84.4427,9.8013,945.5815],[-84.4411,9.8054,814.5785],[-84.4421,9.8081,704.6104],[-84.4372,9.8111,637.7719],[-84.432,9.8199,470.1283],[-84.4305,9.8302,370.239],[-84.4277,9.8336,337.8115],[-84.4273,9.838,291.0224],[-84.4211,9.8385,323.3126],[-84.4231,9.8397,316.492],[-84.4203,9.8415,323.8846],[-84.4166,9.8537,411.3105],[-84.4177,9.8558,407.7246],[-84.414,9.8613,444.8668],[-84.4137,9.8685,541.9857],[-84.4158,9.8722,658.7847],[-84.4144,9.8815,830.9338],[-84.417,9.8841,834.6434],[-84.4171,9.8958,918.5039],[-84.4085,9.8953,731.3147],[-84.4059,9.9044,519.7899],[-84.4037,9.907,485.64],[-84.404,9.9127,365.7629],[-84.4058,9.9128,361.4713],[-84.4077,9.92,307.9387],[-84.4105,9.9225,270.9338],[-84.4143,9.9233,219.3027],[-84.4211,9.9203,258.3635],[-84.4241,9.9255,231.6195],[-84.4353,9.921,195.9905],[-84.438,9.9214,194.1576],[-84.4402,9.924,192.8948],[-84.442,9.9224,178.8354],[-84.4528,9.923,167.0287],[-84.4553,9.921,164.9829],[-84.458,9.9221,203.1119],[-84.461,9.9211,155.0964],[-84.4627,9.9242,159.9762],[-84.4661,9.9213,144.9708],[-84.4677,9.9166,155.9758],[-84.4751,9.9159,127.7697],[-84.4827,9.9105,113.1957],[-84.4945,9.9073,97.608],[-84.4962,9.9078,123.4118],[-84.4965,9.9106,102.4289],[-84.4986,9.911,124.9636],[-84.501,9.9009,78.988],[-84.5073,9.8884,90.3831],[-84.5099,9.8925,77.7149],[-84.5133,9.8929,73.8655],[-84.5188,9.8864,66.4513],[-84.5259,9.8841,66.0673],[-84.5283,9.8773,54.3446],[-84.5336,9.878,61.6875],[-84.5349,9.8762,48.3622],[-84.5335,9.8731,43.248],[-84.5372,9.8732,41.5249],[-84.5408,9.8762,48.6731],[-84.5424,9.8755,40.0056],[-84.5437,9.873,61.1415],[-84.5376,9.8629,29.6043],[-84.5392,9.8613,58.3329],[-84.5485,9.8625,27.6637],[-84.5471,9.8485,52.1682],[-84.5489,9.8476,25.301],[-84.5547,9.8494,18.3977],[-84.5586,9.8436,31.4283],[-84.563,9.8419,14.6458],[-84.5637,9.8388,14.7952],[-84.56,9.8369,25.903199999999998],[-84.5597,9.834,13.9549],[-84.5675,9.827,57.035],[-84.5714,9.8295,14.7402],[-84.5823,9.823,13.5928],[-84.5828,9.8173,7.5],[-84.5799,9.8121,17.0635],[-84.583,9.8061,6.3504],[-84.578,9.8091,10.1207],[-84.5676,9.81,36.1133],[-84.5676,9.8053,50.7889],[-84.5609,9.7936,60.6195],[-84.563,9.7925,80.9913],[-84.5616,9.7901,62.7061],[-84.5585,9.7898,78.1334],[-84.5574,9.788,142.8127],[-84.5581,9.7841,145.1663],[-84.552,9.7798,170.1395],[-84.5501,9.7802,137.0959],[-84.5499,9.7779,169.0559],[-84.544,9.7821,178.9834],[-84.5414,9.7816,141.6597],[-84.5388,9.7771,172.1194],[-84.5491,9.7652,458.6871],[-84.552,9.757,633.149],[-84.5543,9.7558,612.4865],[-84.5659,9.7587,483.7428],[-84.5661,9.747,448.3126],[-84.5728,9.7382,429.0248],[-84.5749,9.7391,430.4667],[-84.5749,9.7407,444.1587],[-84.5773,9.7399,451.4787],[-84.5779,9.7419,432.1167],[-84.583,9.7411,431.5844],[-84.5903,9.744,263.7917],[-84.5927,9.7433,205.4151],[-84.592,9.736,254.4673],[-84.5897,9.7324,304.8277],[-84.5894,9.7233,369.7526],[-84.5834,9.711,481.7388],[-84.5847,9.6938,595.2454],[-84.5846,9.6909,597.0493],[-84.5827,9.6894,647.2791],[-84.5855,9.6837,582.9604],[-84.5801,9.6719,703.0172],[-84.5807,9.6655,680.4201],[-84.5723,9.6542,772.2749],[-84.5739,9.652,779.5305],[-84.5719,9.6441,736.5175],[-84.5654,9.6356,559.6918],[-84.5636,9.6312,521.021],[-84.5644,9.6276,492.9547],[-84.5614,9.625,447.0688],[-84.5557,9.6267,360.3883],[-84.5543,9.6223,379.2617],[-84.5513,9.6191,256.4583],[-84.5498,9.61,102.377],[-84.5518,9.6037,83.0529],[-84.5496,9.5932,61.0296],[-84.5437,9.585,29.9415],[-84.5388,9.5861,19.691],[-84.5354,9.5816,15.662],[-84.5345,9.5829,16.6164],[-84.5294,9.5793,10.5771],[-84.5312,9.5769,10.3323],[-84.5302,9.5755,8.7119]]]]}}