{"type":"Feature","properties":{"GID_2":"CRI.1.5_1","GID_0":"CRI","country":"CostaRica","GID_1":"CRI.1_1","province":"Alajuela","NL_NAME_1":"NA","county":"Guatuso","VARNAME_2":"NA","NL_NAME_2":"NA","TYPE_2":"Cantón","ENGTYPE_2":"Canton","CC_2":"15","HASC_2":"CR.AL.GU","name":"Guatuso.county"},
"geometry":{"type": "MultiPolygon","coordinates": [[[[-84.7427,10.774,43.5357],[-84.7407,10.7767,42.4631],[-84.7425,10.7788,42.7545],[-84.7418,10.7838,44.6016],[-84.7435,10.7825,44.0188],[-84.7446,10.7834,44.0188],[-84.7478,10.7939,44.0545],[-84.7495,10.7952,40.7207],[-84.7499,10.7994,42.1456],[-84.7484,10.8006,42.8847],[-84.7506,10.8056,40.9438],[-84.7507,10.8113,40.7414],[-84.7532,10.8152,42.3612],[-84.755,10.8134,49.4748],[-84.7559,10.8157,48.6849],[-84.7584,10.8166,49.665],[-84.7557,10.8201,48.7169],[-84.7578,10.8215,46.9724],[-84.7599,10.8198,50.4216],[-84.7611,10.8268,46.2643],[-84.7638,10.8265,45.2044],[-84.7648,10.8293,42.9881],[-84.7702,10.8306,40.472],[-84.7729,10.8364,48.7804],[-84.7743,10.8342,46.0921],[-84.7803,10.8321,50.7533],[-84.7815,10.8336,50.7533],[-84.7809,10.8365,51.5217],[-84.7841,10.8368,50.7311],[-84.784,10.8397,52.4151],[-84.7872,10.8376,43.7065],[-84.7867,10.8425,47.871],[-84.7889,10.8453,46.3179],[-84.79,10.8418,40.301],[-84.7941,10.8476,36.6795],[-84.8024,10.8468,45.6073],[-84.8021,10.849,43.4167],[-84.7994,10.85,41.8205],[-84.8004,10.8515,41.2175],[-84.8026,10.8503,43.4167],[-84.8077,10.8523,39.2293],[-84.8149,10.8506,37.5389],[-84.8292,10.8415,38.1341],[-84.8342,10.8364,39.4622],[-84.8351,10.8319,40.0572],[-84.8324,10.8296,45.6369],[-84.8325,10.8235,42.7712],[-84.8383,10.8217,51.3295],[-84.8407,10.8187,42.9639],[-84.8431,10.8188,46.6323],[-84.8506,10.8108,48.5409],[-84.854,10.8103,50.8887],[-84.8562,10.8082,49.5628],[-84.8605,10.809,49.8398],[-84.8688,10.8056,57.8501],[-84.8752,10.8106,50.8852],[-84.8788,10.8089,54.1136],[-84.8814,10.8122,73.4699],[-84.8879,10.8149,83.1804],[-84.8976,10.8273,67.2716],[-84.9017,10.8284,64.1541],[-84.9032,10.8147,69.7562],[-84.9015,10.8121,62.8791],[-84.9045,10.804,69.008],[-84.9166,10.8031,72.541],[-84.9181,10.7988,101.476],[-84.9154,10.7928,95.5957],[-84.9218,10.7904,90.725],[-84.922,10.7845,107.8436],[-84.9269,10.7769,120.4812],[-84.9506,10.7728,211.2665],[-84.9633,10.7585,432.7289],[-84.9614,10.7569,419.0872],[-84.9604,10.7513,391.8763],[-84.9548,10.7485,414.9682],[-84.9496,10.7365,429.5515],[-84.9512,10.7327,406.6929],[-84.9573,10.7337,406.5208],[-84.9561,10.7307,434.3579],[-84.9574,10.7277,442.1448],[-84.9555,10.7226,483.9811],[-84.9622,10.7194,531.9785],[-84.97,10.72,590.613],[-84.9756,10.7174,668.47],[-84.9808,10.7213,715.4623],[-84.9896,10.7101,716.7377],[-84.9991,10.7045,768.9896],[-85.0004,10.6948,895.9367],[-85.0049,10.6827,1255.4011],[-85.0127,10.6695,1857.1825],[-85.0074,10.6607,1494.395],[-85.0008,10.6556,1326.0597],[-85.0008,10.6477,1217.5984],[-85.003,10.641,1144.5415],[-85.001,10.6356,1023.424],[-85.0024,10.6304,1048.7043],[-85.0017,10.6256,1112.2856],[-84.9985,10.6252,1090.8274],[-84.9982,10.623,1084.4243],[-84.9921,10.6217,1021.3281],[-84.9882,10.6184,984.0976],[-84.9872,10.609,1043.2488],[-84.9851,10.6047,1148.142],[-84.9815,10.6064,1184.3171],[-84.9748,10.6062,1184.1907],[-84.9687,10.601,1064.5819],[-84.9558,10.5946,1033.9894],[-84.9453,10.5952,938.7307],[-84.9443,10.5914,941.9136],[-84.9412,10.5898,945.4199],[-84.9392,10.5856,979.8667],[-84.9336,10.5857,819.7296],[-84.9295,10.5836,825.4218],[-84.9301,10.5801,774.0996],[-84.9252,10.5736,795.3263],[-84.9222,10.5723,760.5237],[-84.9191,10.5739,710.8466],[-84.9089,10.5688,703.2866],[-84.9032,10.5707,704.4955],[-84.8953,10.5628,752.7038],[-84.8894,10.5598,743.5453],[-84.8836,10.5639,774.4993],[-84.8793,10.562,790.9357],[-84.8718,10.5632,791.1008],[-84.8632,10.5558,798.3001],[-84.8594,10.5588,782.5184],[-84.856,10.5587,789.368],[-84.843,10.5639,669.2734],[-84.8367,10.5634,648.7053],[-84.8186,10.5764,460.9272],[-84.817,10.5792,462.9504],[-84.8188,10.5918,378.5214],[-84.8237,10.5975,302.6299],[-84.8208,10.5999,336.187],[-84.8184,10.5969,374.9959],[-84.814,10.5965,389.2153],[-84.8049,10.5898,474.7874],[-84.8049,10.5852,471.3732],[-84.7966,10.5826,476.4307],[-84.7919,10.5844,468.2218],[-84.7889,10.5883,474.4723],[-84.7898,10.5929,411.6936],[-84.7876,10.6002,347.3551],[-84.7846,10.601,289.2693],[-84.7837,10.6034,287.6466],[-84.7753,10.6052,269.3638],[-84.7741,10.6095,229.1749],[-84.771,10.6112,205.5353],[-84.773,10.6165,167.7765],[-84.7691,10.6196,146.4482],[-84.7654,10.6197,122.4273],[-84.7617,10.6257,98.9492],[-84.7599,10.6259,95.8845],[-84.7617,10.627,98.9492],[-84.7604,10.6279,89.7717],[-84.7607,10.6302,92.1176],[-84.7649,10.6314,81.3511],[-84.7619,10.6348,77.4412],[-84.7632,10.6384,124.1917],[-84.7531,10.6383,68.9196],[-84.7555,10.643,65.4612],[-84.7545,10.6464,61.6612],[-84.7517,10.6471,63.3569],[-84.7472,10.6452,79.7567],[-84.7424,10.6409,96.9499],[-84.738,10.6415,92.3194],[-84.7324,10.6396,116.9506],[-84.725,10.6337,128.8544],[-84.7195,10.6379,75.462],[-84.7161,10.6384,73.7258],[-84.7153,10.6367,70.4925],[-84.7131,10.6367,72.879],[-84.7133,10.6351,71.833],[-84.7115,10.6357,83.2692],[-84.7103,10.6307,70.4366],[-84.7085,10.6304,75.6904],[-84.7095,10.6278,79.6249],[-84.7075,10.6244,85.181],[-84.6997,10.6212,106.3237],[-84.6991,10.6183,101.069],[-84.6927,10.6198,121.519],[-84.6933,10.6176,136.6993],[-84.691,10.6171,124.9451],[-84.6914,10.6288,130.8961],[-84.6844,10.6382,87.1555],[-84.6832,10.6461,78.7331],[-84.6816,10.6466,78.7331],[-84.6818,10.6451,79.591],[-84.6768,10.643,81.0871],[-84.6737,10.6431,76.6648],[-84.6726,10.6404,88.449],[-84.6697,10.6396,89.8258],[-84.6682,10.6371,97.0289],[-84.6637,10.6374,103.1391],[-84.6605,10.6396,116.2129],[-84.6473,10.6385,102.8137],[-84.6488,10.6452,88.6111],[-84.6467,10.6509,82.1948],[-84.6493,10.6527,83.0596],[-84.6493,10.6588,81.2825],[-84.651,10.6613,75.0537],[-84.6491,10.6619,84.5149],[-84.6577,10.6673,74.4624],[-84.6596,10.6719,73.2543],[-84.6623,10.6726,72.7916],[-84.6624,10.6749,93.5323],[-84.6666,10.6773,77.5773],[-84.6727,10.6871,66.912],[-84.6776,10.687,98.8005],[-84.6791,10.6886,98.6153],[-84.6825,10.6963,90.2975],[-84.6797,10.6999,83.9968],[-84.6843,10.7086,62.7005],[-84.6866,10.7171,68.1023],[-84.6967,10.7197,50.8349],[-84.7001,10.728,49.5316],[-84.7054,10.7303,50.2611],[-84.7059,10.7394,45.6568],[-84.7033,10.7421,47.9548],[-84.7056,10.7467,50.9366],[-84.7115,10.7528,50.0829],[-84.7188,10.7537,59.2072],[-84.7236,10.7577,48.4568],[-84.7311,10.7577,43.0161],[-84.7311,10.7599,47.9825],[-84.7352,10.7604,47.4576],[-84.7384,10.764,45.3307],[-84.7384,10.7679,42.5863],[-84.7427,10.774,43.5357]]]]}}