{"type": "Feature","bbox": [-84.5126,9.9307,-84.452,9.9978],"geometry": {"type": "MultiPolygon","coordinates": [[[[-84.4541,9.9911,1229.5669],[-84.4522,9.9932,1223.1581],[-84.4535,9.9959,1256.5018],[-84.452,9.9978,1281.3362],[-84.4557,9.9977,1150.3635],[-84.4585,9.9931,1093.8866],[-84.4648,9.9893,973.059],[-84.4945,9.9796,520.3403],[-84.4917,9.9745,463.812],[-84.495,9.9652,362.2296],[-84.4951,9.955,304.7523],[-84.5002,9.9498,284.5486],[-84.5003,9.9472,267.2906],[-84.5039,9.9474,255.7862],[-84.5035,9.9444,275.2083],[-84.5073,9.9426,235.7734],[-84.5071,9.9393,223.9585],[-84.5126,9.9307,214.7196],[-84.5045,9.9336,264.572],[-84.5016,9.9363,314.8842],[-84.5005,9.9415,359.2641],[-84.4921,9.9455,522.4136],[-84.4863,9.9463,575.7152],[-84.48,9.9443,630.1921],[-84.4773,9.9464,648.7203],[-84.4724,9.9427,552.0739],[-84.4677,9.9417,297.3517],[-84.4682,9.9527,426.0909],[-84.4614,9.9593,516.8279],[-84.4568,9.9605,533.6653],[-84.4527,9.9686,762.4679],[-84.4546,9.9754,812.9859],[-84.4533,9.979,968.978],[-84.4554,9.9883,1123.8904],[-84.4541,9.9911,1229.5669]]]]}
,"properties": {"GID_3": "CRI.1.12.1_1","GID_0": "CRI","country": "CostaRica","GID_1": "CRI.1_1","province": "Alajuela","NL_NAME_1": "NA","GID_2": "CRI.1.12_1","county": "SanMateo","NL_NAME_2": "NA","city": "Desmonte","VARNAME_3": "NA","NL_NAME_3": "NA","TYPE_3": "Distrito","ENGTYPE_3": "District","CC_3": "2","HASC_3": "NA","name": "Desmonte.city","area_km2": 20.10967,"hist_schema_id": "Elevation0-9000","hist_area_km2": {"200": 0.02088,"225": 0.16707,"250": 0.31326,"275": 0.29237,"300": 0.43855,"325": 0.45943,"350": 0.71003,"375": 0.48031,"400": 0.7309,"425": 0.71002,"450": 0.75178,"475": 0.87708,"500": 0.91883,"525": 0.91884,"550": 0.83531,"575": 0.8353,"600": 0.93972,"625": 0.77265,"650": 0.73089,"675": 0.54294,"700": 0.54294,"725": 0.43852,"750": 0.4594,"775": 0.50116,"800": 0.37587,"825": 0.56381,"850": 0.62645,"875": 0.58468,"900": 0.45939,"925": 0.41763,"950": 0.43851,"975": 0.45939,"1000": 0.31322,"1025": 0.4385,"1050": 0.25057,"1075": 0.22969,"1100": 0.1044,"1125": 0.06264,"1150": 0.04176,"1175": 0.1044,"1200": 0.1044,"1225": 0.04176,"1250": 0.04176,"1275": 0.02088,"1300": 0.04176}}}