{"type": "Feature","bbox": [-84.5483,9.873,-84.5015,9.9321],"geometry": {"type": "MultiPolygon","coordinates": [[[[-84.5437,9.873,61.1415],[-84.5413,9.8762,48.6731],[-84.5372,9.8732,41.5249],[-84.5335,9.8731,43.248],[-84.5349,9.8762,48.3622],[-84.5336,9.878,61.6875],[-84.5283,9.8773,54.3446],[-84.5259,9.8841,66.0673],[-84.5188,9.8864,66.4513],[-84.5133,9.8929,73.8655],[-84.5099,9.8925,77.7149],[-84.5081,9.8882,90.3831],[-84.5052,9.8913,77.8876],[-84.5015,9.9001,88.5722],[-84.5102,9.9057,171.1198],[-84.5114,9.9084,196.2079],[-84.5086,9.9123,252.5243],[-84.505,9.9138,255.3061],[-84.5026,9.9195,259.9033],[-84.5059,9.9202,260.9448],[-84.5139,9.9264,259.7863],[-84.5146,9.93,214.8953],[-84.5178,9.9306,203.6392],[-84.5214,9.9286,215.2951],[-84.5229,9.9306,214.9452],[-84.5242,9.9279,196.001],[-84.5263,9.9286,187.3463],[-84.5266,9.9263,189.4222],[-84.5338,9.9299,184.5122],[-84.535,9.9321,192.881],[-84.5384,9.9317,166.8565],[-84.5363,9.9306,171.3922],[-84.5372,9.9291,177.151],[-84.5409,9.932,170.3751],[-84.5451,9.9284,158.2772],[-84.544,9.9269,159.643],[-84.5459,9.925,152.3094],[-84.543,9.9191,161.5949],[-84.539,9.9206,181.9515],[-84.5355,9.9194,178.9473],[-84.5358,9.9136,203.9012],[-84.5437,9.9093,173.2604],[-84.5478,9.9027,137.6105],[-84.5483,9.8958,114.2419],[-84.5461,9.8901,101.9511],[-84.5478,9.879,67.824],[-84.5437,9.873,61.1415]]]]}
,"properties": {"GID_3": "CRI.1.8.5_1","GID_0": "CRI","country": "CostaRica","GID_1": "CRI.1_1","province": "Alajuela","NL_NAME_1": "NA","GID_2": "CRI.1.8_1","county": "Orotina","NL_NAME_2": "NA","city": "Orotina","VARNAME_3": "NA","NL_NAME_3": "NA","TYPE_3": "Distrito","ENGTYPE_3": "District","CC_3": "1","HASC_3": "NA","name": "Orotina.city","area_km2": 21.59638,"hist_schema_id": "Elevation0-9000","hist_area_km2": {"25": 0.04178,"50": 0.60575,"75": 0.83549,"100": 1.85898,"125": 1.4621,"150": 2.71528,"175": 3.50888,"200": 3.92652,"225": 4.15624,"250": 2.46447,"275": 0.02089}}}