{"type": "Feature","bbox": [-85.5059,10.1598,-85.2526,10.3471],"geometry": {"type": "MultiPolygon","coordinates": [[[[-85.3395,10.2033,348.8441],[-85.3382,10.21,154.7473],[-85.3434,10.2136,311.345],[-85.3442,10.2163,429.504],[-85.3472,10.2163,445.6335],[-85.3479,10.2193,401.2744],[-85.3522,10.2209,460.9644],[-85.3516,10.2292,119.8427],[-85.354,10.2357,28.1719],[-85.3514,10.2368,27.1032],[-85.3486,10.2457,11.9183],[-85.335,10.2458,2.7133],[-85.3364,10.2384,4.3914],[-85.3312,10.229,5.6895],[-85.3131,10.2461,241.7864],[-85.273,10.2413,83.8651],[-85.269,10.2382,63.2297],[-85.2601,10.241,61.9108],[-85.2536,10.2456,34.3538],[-85.2526,10.248,13.9238],[-85.2764,10.2599,12.0171],[-85.2832,10.2652,14.518],[-85.2865,10.2651,29.1502],[-85.2899,10.2685,16.6706],[-85.291,10.2754,11.0342],[-85.2847,10.285,0.5],[-85.2844,10.2893,8.4347],[-85.2879,10.2939,3.6747],[-85.3061,10.3051,2.8131],[-85.3119,10.3194,1.0],[-85.3269,10.3222,1.0],[-85.3352,10.322,11.1741],[-85.3413,10.3184,5.8877],[-85.3485,10.318,11.3767],[-85.3538,10.3142,5.9696],[-85.3567,10.3139,3.2197],[-85.3592,10.316,2.4759],[-85.3602,10.3245,3.687],[-85.3713,10.3241,2.5484],[-85.3796,10.3297,2.1795],[-85.3794,10.3318,2.3893],[-85.3767,10.3324,3.166],[-85.372,10.3273,11.807],[-85.3697,10.3276,6.6112],[-85.3719,10.3369,5.3344],[-85.3678,10.3425,4.1797],[-85.3736,10.3436,11.0724],[-85.386,10.3367,2.908],[-85.3977,10.3369,4.6757],[-85.4035,10.3395,5.337],[-85.4094,10.3471,5.4992],[-85.4228,10.3436,8.78],[-85.4229,10.3412,10.2408],[-85.4267,10.3403,3.9785],[-85.4291,10.3341,6.5962],[-85.427,10.3282,3.2954],[-85.434,10.3319,3.8535],[-85.4356,10.3365,3.5129],[-85.438,10.3372,4.7245],[-85.4425,10.3332,5.5082],[-85.4388,10.3317,5.0702],[-85.4382,10.3282,3.5525],[-85.4428,10.3281,3.6847],[-85.4448,10.3255,3.581],[-85.4481,10.3246,3.9101],[-85.4491,10.3278,6.357],[-85.4508,10.3276,6.357],[-85.4524,10.3295,4.0977],[-85.4551,10.3287,4.6291],[-85.4597,10.3344,6.019],[-85.4714,10.3346,15.5394],[-85.4819,10.3384,19.8297],[-85.4841,10.3383,15.8954],[-85.4897,10.334,10.0868],[-85.496,10.3328,11.6205],[-85.498,10.3352,14.5929],[-85.4991,10.3346,9.4772],[-85.5009,10.3321,9.0385],[-85.5007,10.3282,13.8205],[-85.4989,10.324,12.5714],[-85.4963,10.3241,10.0106],[-85.493,10.32,14.0889],[-85.4957,10.3161,19.1383],[-85.4955,10.309,22.4182],[-85.4934,10.3043,20.0837],[-85.4911,10.3032,16.5925],[-85.4891,10.2962,15.462],[-85.4942,10.2858,19.4834],[-85.4978,10.2726,31.4175],[-85.4951,10.2661,37.6451],[-85.4967,10.2651,44.2808],[-85.4994,10.2571,62.9419],[-85.5022,10.2575,75.5413],[-85.5048,10.2547,127.2919],[-85.5059,10.2464,415.78],[-85.4986,10.2368,518.9607],[-85.4997,10.2312,458.5759],[-85.4963,10.229,412.2998],[-85.4903,10.22,236.1349],[-85.4853,10.2185,347.6412],[-85.483,10.2208,426.2825],[-85.4829,10.2179,383.7308],[-85.4789,10.2119,273.715],[-85.4742,10.2088,233.6931],[-85.4565,10.2043,493.1985],[-85.4564,10.1995,362.2061],[-85.4626,10.1903,381.6835],[-85.4586,10.1888,363.6281],[-85.4536,10.1801,355.4221],[-85.4494,10.1804,283.5378],[-85.4465,10.1768,274.2389],[-85.4401,10.1746,193.3038],[-85.4366,10.1705,152.8316],[-85.4298,10.1725,232.0599],[-85.4243,10.1677,258.0374],[-85.42,10.1669,249.6656],[-85.417,10.1682,238.6663],[-85.4175,10.1609,276.6233],[-85.4131,10.1598,287.2057],[-85.4086,10.1648,237.15],[-85.406,10.1644,202.834],[-85.3982,10.1674,91.9977],[-85.3913,10.1663,87.197],[-85.3896,10.1629,73.8101],[-85.3593,10.1628,420.03],[-85.3555,10.1654,410.1241],[-85.3591,10.1659,410.0776],[-85.3616,10.1686,392.3315],[-85.3599,10.1742,417.4818],[-85.3569,10.1758,426.5327],[-85.3542,10.1819,370.0746],[-85.3543,10.1852,476.438],[-85.3585,10.1881,484.9979],[-85.3577,10.1914,513.5361],[-85.3518,10.1981,479.6733],[-85.3481,10.1971,408.3811],[-85.3446,10.2018,366.617],[-85.3395,10.2033,348.8441]]]]}
,"properties": {"GID_3": "CRI.3.9.7_1","GID_0": "CRI","country": "CostaRica","GID_1": "CRI.3_1","province": "Guanacaste","NL_NAME_1": "NA","GID_2": "CRI.3.9_1","county": "Nicoya","NL_NAME_2": "NA","city": "SanAntonio","VARNAME_3": "NA","NL_NAME_3": "NA","TYPE_3": "Distrito","ENGTYPE_3": "District","CC_3": "3","HASC_3": "NA","name": "San_Antonio.city","area_km2": 335.8142,"hist_schema_id": "Elevation0-9000","hist_area_km2": {"0": 110.3747,"25": 85.0563,"50": 40.0185,"75": 28.127,"100": 15.4824,"125": 9.9947,"150": 6.8231,"175": 6.3223,"200": 6.1763,"225": 5.4877,"250": 4.7992,"275": 3.8394,"300": 3.1717,"325": 2.3996,"350": 1.8154,"375": 1.8363,"400": 1.1894,"425": 1.0642,"450": 0.8138,"475": 0.4173,"500": 0.2921,"525": 0.2713,"550": 0.0417}}}