{"type":"Feature","properties":{"GID_3":"CRI.6.2.4_1","GID_0":"CRI","country":"CostaRica","GID_1":"CRI.6_1","province":"Puntarenas","NL_NAME_1":"NA","GID_2":"CRI.6.2_1","county":"BuenosAires","NL_NAME_2":"NA","city":"BuenosAires","VARNAME_3":"NA","NL_NAME_3":"NA","TYPE_3":"Distrito","ENGTYPE_3":"District","CC_3":"1","HASC_3":"NA","name":"Buenos_Aires.city"},
"geometry":{"type": "MultiPolygon","coordinates": [[[[-83.3491,9.3531,2987.2344],[-83.3427,9.3466,2843.3157],[-83.3444,9.3377,2639.5364],[-83.3394,9.3267,2293.9468],[-83.3396,9.3225,2116.2771],[-83.3421,9.3164,1828.6335],[-83.347,9.3119,1753.7068],[-83.3463,9.3086,1744.9706],[-83.3507,9.305,1701.7579],[-83.3493,9.299,1695.5442],[-83.3528,9.2955,1641.9845],[-83.3526,9.2928,1610.832],[-83.355,9.2899,1655.9513],[-83.3532,9.2856,1590.5396],[-83.355,9.2799,1627.4702],[-83.3529,9.2714,1474.4551],[-83.3533,9.2667,1453.0698],[-83.3601,9.2594,1319.5659],[-83.3613,9.254,1245.3118],[-83.3529,9.2227,695.3962],[-83.3457,9.218,588.0474],[-83.3444,9.2137,593.9155],[-83.3407,9.2129,548.1568],[-83.3362,9.209,497.8056],[-83.3327,9.2089,474.9554],[-83.3331,9.2043,450.5173],[-83.3347,9.2025,440.3958],[-83.3298,9.1971,380.7828],[-83.3321,9.1944,384.5546],[-83.3392,9.191,350.6824],[-83.3561,9.1729,295.5633],[-83.3707,9.1622,296.0378],[-83.3716,9.1558,258.2367],[-83.373,9.1515,254.4211],[-83.3757,9.15,275.8072],[-83.3754,9.1458,242.2606],[-83.3783,9.1391,239.9966],[-83.3787,9.1178,216.112],[-83.3772,9.1148,216.332],[-83.3812,9.1084,237.3194],[-83.3845,9.1092,235.2831],[-83.3846,9.1065,203.3374],[-83.3865,9.1059,192.6952],[-83.386,9.1029,181.5145],[-83.3761,9.0937,193.1731],[-83.3519,9.0834,176.9622],[-83.3487,9.0837,178.1004],[-83.3458,9.089,182.993],[-83.3377,9.0888,208.5648],[-83.3329,9.0832,167.5597],[-83.319,9.0839,175.3379],[-83.3072,9.0803,196.552],[-83.3002,9.0828,161.9349],[-83.2909,9.0822,161.0269],[-83.2819,9.09,158.1461],[-83.2651,9.0929,136.646],[-83.2651,9.0878,155.5747],[-83.2714,9.0888,164.5992],[-83.276,9.0875,159.155],[-83.2815,9.0808,143.9014],[-83.2708,9.072,155.8153],[-83.2694,9.0631,125.4022],[-83.2635,9.0637,131.8257],[-83.2533,9.0579,139.1903],[-83.2443,9.061,130.7562],[-83.2389,9.0598,113.0261],[-83.2342,9.0514,116.3686],[-83.2333,9.0467,115.4182],[-83.2413,9.0371,106.9027],[-83.2393,9.0324,107.3164],[-83.2348,9.0289,108.1553],[-83.2168,9.0225,95.3316],[-83.2143,9.0186,91.7678],[-83.2172,9.0131,112.4349],[-83.2172,9.0086,94.7173],[-83.2157,9.0072,96.3449],[-83.2099,9.006,98.372],[-83.2067,9.0082,103.1527],[-83.1997,9.006,98.7842],[-83.1872,9.0178,133.9485],[-83.1874,9.0215,131.0538],[-83.1827,9.0348,162.3106],[-83.1827,9.0505,190.4235],[-83.1872,9.0591,225.8648],[-83.1944,9.0619,265.1975],[-83.195,9.065,217.3056],[-83.1974,9.0667,222.6416],[-83.1972,9.0692,222.7824],[-83.2004,9.0721,265.1582],[-83.2019,9.076,335.3865],[-83.1994,9.0793,248.8288],[-83.2014,9.0863,262.8769],[-83.2008,9.0909,268.8744],[-83.2061,9.0961,311.3794],[-83.2065,9.1068,309.9818],[-83.2105,9.1129,372.0656],[-83.2088,9.1153,339.1605],[-83.2135,9.1205,369.7538],[-83.2119,9.1296,385.1158],[-83.2153,9.1346,409.3318],[-83.2139,9.1367,426.2867],[-83.2147,9.1449,443.8598],[-83.2074,9.1546,485.6695],[-83.2058,9.1698,609.9819],[-83.2102,9.1738,594.6612],[-83.2085,9.1841,593.2433],[-83.214,9.1936,660.7278],[-83.2146,9.1997,651.2821],[-83.2076,9.2078,721.5573],[-83.2073,9.2102,698.5439],[-83.1987,9.214,765.3317],[-83.1938,9.221,782.8009],[-83.197,9.2287,842.6559],[-83.1999,9.2305,868.7328],[-83.2007,9.2366,869.2188],[-83.2023,9.2383,892.9479],[-83.2011,9.2413,917.2388],[-83.202,9.2459,941.8595],[-83.1983,9.2533,1031.6746],[-83.1994,9.2671,1186.3451],[-83.1971,9.2701,1253.6091],[-83.1978,9.2753,1202.5807],[-83.1946,9.2776,1265.4607],[-83.1926,9.2818,1315.1912],[-83.1896,9.2824,1359.1852],[-83.1868,9.2858,1476.8582],[-83.1848,9.2918,1651.2987],[-83.1858,9.2957,1705.4011],[-83.1826,9.3055,2132.96],[-83.1833,9.3133,2479.7739],[-83.1781,9.3231,2946.6814],[-83.1785,9.3265999999999991,3039.5366],[-83.1885,9.3227,2853.7576],[-83.1973,9.3236,2648.6606],[-83.2068,9.3207,2612.4326],[-83.2241,9.3205,2539.1023],[-83.229,9.3268,2337.0916],[-83.2358,9.3296,2316.8306],[-83.2374,9.3343,2308.134],[-83.2416,9.3393,2259.5161],[-83.257,9.3416,2288.5042],[-83.2619,9.3454,2306.8022],[-83.2687,9.3477,2553.7327],[-83.2719,9.3523,2619.3503],[-83.279,9.3557,2682.3594],[-83.2874,9.3553,2809.812],[-83.2909,9.3634,2865.0378],[-83.2991,9.3685,3063.042],[-83.3029,9.3746,3253.5603],[-83.3075,9.3769,3169.8997],[-83.3121,9.3826,3138.0564],[-83.3172,9.3838,3069.1028],[-83.3256,9.3837,2952.52],[-83.3276,9.3815,2978.7834],[-83.3323,9.3833,3071.0977],[-83.3347,9.3742,3007.6841],[-83.3386,9.371,2923.3059],[-83.342,9.3707,2909.8491],[-83.3448,9.3669,2989.3137],[-83.3439,9.3583,2934.5342],[-83.3477,9.3555,2929.689],[-83.3483,9.3548,2974.1797],[-83.3491,9.3531,2987.2344]]]]}}