{"type": "Feature","bbox": [-84.1855,9.8597,-84.1208,9.9725],"geometry": {"type": "MultiPolygon","coordinates": [[[[-84.1298,9.8869,1562.845],[-84.1217,9.8952,1473.6991],[-84.1208,9.9282,1061.5646],[-84.1223,9.9311,1045.2531],[-84.1219,9.9345,1039.4104],[-84.1259,9.9374,1036.0851],[-84.1379,9.9391,1022.3919],[-84.1434,9.9418,995.8652],[-84.1445,9.9449,985.0691],[-84.1508,9.9481,979.9542],[-84.1519,9.9512,975.4801],[-84.1553,9.9523,974.4654],[-84.1585,9.9557,968.6749],[-84.1648,9.9571,954.3585],[-84.1695,9.9647,904.7377],[-84.1752,9.9682,892.7675],[-84.183,9.9686,882.843],[-84.1841,9.9725,860.4781],[-84.1855,9.9724,867.4911],[-84.184,9.9655,939.1644],[-84.1783,9.9607,982.2194],[-84.1763,9.9552,1059.7754],[-84.1668,9.9487,1061.5801],[-84.1638,9.9371,1084.667],[-84.1598,9.9311,1115.8639],[-84.1605,9.9259,1181.8013],[-84.1585,9.9225,1282.1349],[-84.1629,9.9091,1516.8672],[-84.1608,9.8999,1664.3138],[-84.1527,9.8862,1885.429],[-84.1525,9.8814,1963.0754],[-84.147,9.8699,2206.0889],[-84.1485,9.8644,2303.6714],[-84.1459,9.8597,2338.8789],[-84.1371,9.8625,1957.6616],[-84.1326,9.8704,1794.486],[-84.1345,9.8791,1620.7997],[-84.1298,9.8869,1562.845]]]]}
,"properties": {"GID_2": "CRI.7.7_1","GID_0": "CRI","country": "CostaRica","GID_1": "CRI.7_1","province": "SanJosé","NL_NAME_1": "NA","county": "Escazú","VARNAME_2": "NA","NL_NAME_2": "NA","TYPE_2": "Cantón","ENGTYPE_2": "Canton","CC_2": "2","HASC_2": "CR.SJ.ES","name": "Escazú.county","area_km2": 34.79533,"hist_schema_id": "Elevation0-9000","hist_area_km2": {"850": 0.02088,"875": 0.06265,"900": 0.16706,"925": 0.33412,"950": 0.71001,"975": 1.54535,"1000": 2.98637,"1025": 2.54787,"1050": 2.29729,"1075": 2.00494,"1100": 1.50372,"1125": 1.46196,"1150": 1.08604,"1175": 1.02339,"1200": 0.89809,"1225": 1.14872,"1250": 0.85633,"1275": 0.83544,"1300": 0.64747,"1325": 0.81457,"1350": 0.64748,"1375": 0.68925,"1400": 0.87723,"1425": 0.68926,"1450": 0.6266,"1475": 0.73103,"1500": 0.41773,"1525": 0.56394,"1550": 0.27153,"1575": 0.41774,"1600": 0.27153,"1625": 0.35508,"1650": 0.31331,"1675": 0.22976,"1700": 0.37597,"1725": 0.41775,"1750": 0.18799,"1775": 0.25065,"1800": 0.08355,"1825": 0.22977,"1850": 0.14621,"1875": 0.22977,"1900": 0.29243,"1925": 0.25066,"1950": 0.08355,"1975": 0.18799,"2000": 0.18799,"2025": 0.22977,"2050": 0.16711,"2075": 0.16711,"2100": 0.16711,"2125": 0.16711,"2150": 0.188,"2175": 0.10444,"2200": 0.08355,"2225": 0.14622,"2250": 0.12533,"2275": 0.10444,"2300": 0.04178,"2325": 0.04178,"2350": 0.08356}}}