{"type": "Feature","bbox": [-83.6134,9.9152,-83.5351,9.982],"geometry": {"type": "MultiPolygon","coordinates": [[[[-83.5514,9.9819,265.0061],[-83.6034,9.982,340.4409],[-83.604,9.9789,337.3812],[-83.6081,9.9738,342.4889],[-83.6134,9.9555,381.7487],[-83.6061,9.9553,522.1612],[-83.6024,9.9526,562.3563],[-83.5992,9.9525,580.0935],[-83.5978,9.9505,603.5602],[-83.5889,9.9499,705.1538],[-83.5747,9.9442,774.7669],[-83.5782,9.945,805.2809],[-83.5831,9.9436,827.2788],[-83.5837,9.9406,820.0824],[-83.5889,9.9334,787.6122],[-83.5881,9.9302,843.4152],[-83.5847,9.928,866.8928],[-83.5849,9.9263,879.5936],[-83.5882,9.9255,885.3823],[-83.5908,9.9214,895.7393],[-83.5946,9.9202,931.6108],[-83.6013,9.922,804.5432],[-83.6029,9.919,864.8066],[-83.6005,9.9162,867.1183],[-83.5936,9.9152,993.4417],[-83.5892,9.9175,1024.7556],[-83.5878,9.9162,1060.2075],[-83.5725,9.9258,753.4607],[-83.5588,9.9294,615.6706],[-83.5574,9.9319,586.8531],[-83.5522,9.9295,476.245],[-83.5456,9.9292,401.6979],[-83.5428,9.934,385.8095],[-83.5395,9.9336,403.9673],[-83.5367,9.936,371.214],[-83.5351,9.9396,372.5912],[-83.5357,9.9436,427.6601],[-83.5472,9.9507,299.7503],[-83.546,9.9548,315.8905],[-83.5492,9.9571,298.295],[-83.5463,9.9649,292.6341],[-83.5484,9.9696,288.0944],[-83.5466,9.9743,286.8432],[-83.5497,9.9762,366.6758],[-83.5494,9.979,370.9528],[-83.552,9.9805,341.9316],[-83.5514,9.9819,265.0061]]]]}
,"properties": {"GID_3": "CRI.2.8.10_1","GID_0": "CRI","country": "CostaRica","GID_1": "CRI.2_1","province": "Cartago","NL_NAME_1": "NA","GID_2": "CRI.2.8_1","county": "Turrialba","NL_NAME_2": "NA","city": "TresEquis","VARNAME_3": "NA","NL_NAME_3": "NA","TYPE_3": "Distrito","ENGTYPE_3": "District","CC_3": "10","HASC_3": "NA","name": "Tres_Equis.city","area_km2": 37.35968,"hist_schema_id": "Elevation0-9000","hist_area_km2": {"275": 0.02088,"300": 0.29235,"325": 0.45941,"350": 0.79352,"375": 0.96059,"400": 1.56618,"425": 1.56617,"450": 1.85853,"475": 1.64971,"500": 2.29705,"525": 2.06737,"550": 2.67295,"575": 3.06974,"600": 2.4433,"625": 2.27626,"650": 2.67304,"675": 2.27627,"700": 1.54539,"725": 0.7727,"750": 0.58475,"775": 0.66829,"800": 0.33415,"825": 0.81448,"850": 0.3968,"875": 0.48034,"900": 0.64742,"925": 0.35504,"950": 0.43858,"975": 0.54301,"1000": 0.37593,"1025": 0.31328,"1050": 0.12531,"1075": 0.02089}}}