{"type": "Feature","bbox": [-84.0806,9.8845,-84.0607,9.9088],"geometry": {"type": "MultiPolygon","coordinates": [[[[-84.0607,9.8987,1150.6106],[-84.0679,9.9064,1143.8774],[-84.072,9.906,1145.9756],[-84.0717,9.9088,1146.0978],[-84.0777,9.9063,1127.6194],[-84.0781,9.9037,1128.5277],[-84.0806,9.9028,1128.9036],[-84.0788,9.9007,1134.358],[-84.079,9.8966,1137.1892],[-84.0759,9.8952,1152.4072],[-84.0711,9.8852,1161.7094],[-84.068,9.8845,1171.8645],[-84.0656,9.8858,1164.5513],[-84.0644,9.8946,1160.0048],[-84.0635,9.8941,1156.2584],[-84.0607,9.8987,1150.6106]]]]}
,"properties": {"GID_3": "CRI.7.5.2_1","GID_0": "CRI","country": "CostaRica","GID_1": "CRI.7_1","province": "SanJosé","NL_NAME_1": "NA","GID_2": "CRI.7.5_1","county": "Desamparados","NL_NAME_2": "NA","city": "Desamparados","VARNAME_3": "NA","NL_NAME_3": "NA","TYPE_3": "Distrito","ENGTYPE_3": "District","CC_3": "1","HASC_3": "NA","name": "Desamparados.city","area_km2": 3.112112,"hist_schema_id": "Elevation0-9000","hist_area_km2": {"1125": 0.208863,"1150": 2.548169,"1175": 0.355081}}}