{"type": "Feature","bbox": [-83.9284,9.8675,-83.9029,9.8956],"geometry": {"type": "MultiPolygon","coordinates": [[[[-83.9214,9.869,1461.8558],[-83.9172,9.8675,1451.6404],[-83.9112,9.8685,1443.351],[-83.9053,9.8729,1475.5466],[-83.9078,9.8829,1560.0782],[-83.9029,9.8875,1631.1228],[-83.9147,9.8956,1686.0549],[-83.9147,9.8902,1631.306],[-83.9179,9.8887,1612.7401],[-83.9208,9.8827,1549.3728],[-83.9207,9.879,1521.7565],[-83.9284,9.8742,1461.8638],[-83.9255,9.8693,1455.4619],[-83.9214,9.869,1461.8558]]]]}
,"properties": {"GID_3": "CRI.2.2.2_1","GID_0": "CRI","country": "CostaRica","GID_1": "CRI.2_1","province": "Cartago","NL_NAME_1": "NA","GID_2": "CRI.2.2_1","county": "Cartago","NL_NAME_2": "NA","city": "Carmen","VARNAME_3": "NA","NL_NAME_3": "NA","TYPE_3": "Distrito","ENGTYPE_3": "District","CC_3": "3","HASC_3": "NA","name": "Carmen.city","area_km2": 4.469995,"hist_schema_id": "Elevation0-9000","hist_area_km2": {"1450": 0.438657,"1475": 1.023523,"1500": 0.751969,"1525": 0.396869,"1550": 0.33420299999999997,"1575": 0.417751,"1600": 0.313311,"1625": 0.31331,"1650": 0.271533,"1675": 0.146209,"1700": 0.062661}}}