{"type":"Feature","properties":{"GID_3":"CRI.3.11.8_1","GID_0":"CRI","country":"CostaRica","GID_1":"CRI.3_1","province":"Guanacaste","NL_NAME_1":"NA","GID_2":"CRI.3.11_1","county":"Tilarán","NL_NAME_2":"NA","city":"Tronadora","VARNAME_3":"NA","NL_NAME_3":"NA","TYPE_3":"Distrito","ENGTYPE_3":"District","CC_3":"3","HASC_3":"NA","name":"Tronadora.city"},
"geometry":{"type": "MultiPolygon","coordinates": [[[[-84.7667,10.4262,542.2795],[-84.7687,10.4256,540.0],[-84.7714,10.4315,541.7657],[-84.7722,10.4297,556.408],[-84.7755,10.4318,544.7173],[-84.777,10.4301,554.3233],[-84.7766,10.434,540.0],[-84.7786,10.4349,546.7074],[-84.7807,10.4392,541.0287],[-84.7836,10.4403,542.1647],[-84.786,10.4393,550.0269],[-84.7854,10.4402,550.0269],[-84.7949,10.4462,540.0],[-84.7979,10.4455,542.2562],[-84.7962,10.4477,540.0],[-84.8004,10.4477,547.6152],[-84.8015,10.4493,540.0],[-84.8048,10.4472,565.594],[-84.8053,10.449,540.0],[-84.8119,10.4495,545.4121],[-84.8129,10.4475,585.9747],[-84.8142,10.4532,540.0],[-84.8163,10.4538,540.0],[-84.8177,10.452,567.9977],[-84.8241,10.4547,545.7799],[-84.8213,10.4564,541.2112],[-84.8228,10.4576,540.0],[-84.8279,10.4561,549.8224],[-84.8302,10.4581,550.5643],[-84.8345,10.4585,562.3216],[-84.8461,10.4528,540.6923],[-84.8465,10.4543,540.0],[-84.8498,10.4504,546.3188],[-84.8444,10.4614,540.0],[-84.8421,10.4625,541.2764],[-84.8449,10.4645,540.0],[-84.8429,10.4664,540.0],[-84.8483,10.4709,561.6847],[-84.8456,10.4718,540.0],[-84.8477,10.4747,540.0],[-84.8501,10.4753,554.8578],[-84.8488,10.4777,540.0],[-84.8522,10.4779,552.1861],[-84.8499,10.4793,540.0],[-84.8508,10.4821,540.0],[-84.854,10.4811,544.3516],[-84.8523,10.4838,540.0],[-84.8575,10.4857,548.3624],[-84.8571,10.4882,541.4449],[-84.8611,10.4884,548.6884],[-84.8597,10.4899,540.0],[-84.8615,10.4936,540.0],[-84.8659,10.4928,544.3803],[-84.8654,10.4946,545.298],[-84.8674,10.4966,541.841],[-84.8698,10.4957,540.0],[-84.87,10.4939,547.7273],[-84.871,10.4969,540.0],[-84.8782,10.4949,542.3248],[-84.8825,10.4973,540.0],[-84.8883,10.4918,564.7443],[-84.8894,10.4928,540.0],[-84.8912,10.4916,566.4352],[-84.8961,10.4946,540.0],[-84.8977,10.4933,556.8632],[-84.8987,10.4961,540.0],[-84.9011,10.497,554.8843],[-84.9005,10.4999,549.6207],[-84.9049,10.4996,552.8066],[-84.9042,10.5024,540.0],[-84.9092,10.5035,557.3766],[-84.9112,10.5057,540.0],[-84.9129,10.5048,545.578],[-84.91,10.5026,562.3818],[-84.9128,10.5038,545.578],[-84.9128,10.5016,567.729],[-84.9158,10.5007,551.1254],[-84.9187,10.5062,553.6159],[-84.9208,10.5074,564.834],[-84.9196,10.5097,555.1059],[-84.9145,10.5113,547.1055],[-84.9157,10.514099999999999,540.0],[-84.9231,10.5158,540.0],[-84.9204,10.5105,540.0],[-84.9225,10.5081,565.0675],[-84.9233,10.5115,543.2643],[-84.9257,10.5106,548.7092],[-84.9274,10.5122,555.4369],[-84.925,10.5123,540.0],[-84.925,10.5139,540.0],[-84.9276,10.5135,555.4369],[-84.9348,10.517,545.684],[-84.9358,10.5126,565.5166],[-84.9279,10.5071,571.6902],[-84.9324,10.5073,540.0],[-84.9336,10.5052,570.7847],[-84.9349,10.5065,550.6195],[-84.9394,10.4996,604.8678],[-84.9357,10.4957,642.6975],[-84.9344,10.4907,699.627],[-84.9301,10.4842,757.4017],[-84.9227,10.4834,859.3256],[-84.9225,10.476,863.1699],[-84.9195,10.4767,922.4086],[-84.915,10.4742,913.8485],[-84.9103,10.4654,953.1575],[-84.9099,10.4612,950.2147],[-84.9048,10.4607,944.6083],[-84.8992,10.4573,925.5396],[-84.8932,10.459,987.7354],[-84.8911,10.4561,926.0086],[-84.8866,10.4584,900.6602],[-84.8804,10.4533,849.2915],[-84.878,10.449,834.3165],[-84.8739,10.4475,718.2017],[-84.87,10.4411,677.7478],[-84.864,10.4383,604.4691],[-84.8722,10.4345,616.1296],[-84.8751,10.4264,658.7551],[-84.8718,10.421,703.5909],[-84.872,10.4138,702.7281],[-84.8694,10.408,741.8755],[-84.8639,10.4068,789.724],[-84.8657,10.4021,881.1439],[-84.8635,10.4003,828.7405],[-84.8665,10.3965,845.4823],[-84.8633,10.3966,830.364],[-84.862799999999993,10.3937,842.2878],[-84.8581,10.39,858.4111],[-84.8538,10.3917,882.0074],[-84.8445,10.3915,968.1986],[-84.8398,10.3873,999.7233],[-84.836,10.3904,1001.8766],[-84.8347,10.3871,1016.3029],[-84.8319,10.3872,1045.6233],[-84.8321,10.3849,1078.1108],[-84.8309,10.3858,1064.0806],[-84.8279,10.3829,1083.3964],[-84.8249,10.3769,1191.0625],[-84.8256,10.3732,1199.6484],[-84.8278,10.3729,1198.3298],[-84.8262,10.3709,1242.0183],[-84.8291,10.3683,1277.2458],[-84.8278,10.3681,1277.2458],[-84.8272,10.3655,1347.1803],[-84.8285,10.3647,1299.5728],[-84.8267,10.3634,1339.8572],[-84.8276,10.3596,1335.5295],[-84.824,10.3568,1370.7782],[-84.8212,10.3578,1373.4651],[-84.817,10.3508,1457.194],[-84.8141,10.3514,1466.2386],[-84.8141,10.3495,1490.9338],[-84.8091,10.3483,1501.948],[-84.8076,10.3426,1546.5276],[-84.7999,10.3401,1595.3451],[-84.7992,10.3368,1623.2322],[-84.7954,10.3356,1627.769],[-84.7917,10.3292,1694.7797],[-84.7924,10.3276,1693.2466],[-84.7864,10.323,1696.8127],[-84.781,10.3319,1606.873],[-84.7788,10.3396,1509.538],[-84.7773,10.3398,1502.8086],[-84.7776,10.343,1399.6403],[-84.7762,10.3466,1356.3674],[-84.7739,10.3478,1228.8982],[-84.7743,10.3502,1181.3214],[-84.7677,10.3513,1065.6277],[-84.7664,10.3546,1001.7781],[-84.7685,10.3575,975.9213],[-84.7695,10.3675,915.6339],[-84.7716,10.3697,866.9445],[-84.7712,10.3744,835.0398],[-84.7792,10.3797,794.5483],[-84.7814,10.3847,742.9058],[-84.7745,10.3958,662.2812],[-84.7718,10.4063,608.0601],[-84.7672,10.4123,583.3141],[-84.7667,10.4262,542.2795]]]]}}