{"type": "Feature","bbox": [-83.7252,9.982,-83.547,10.1117],"geometry": {"type": "MultiPolygon","coordinates": [[[[-83.6034,9.982,340.4409],[-83.5978,9.9866,320.2927],[-83.5918,9.9865,344.7618],[-83.5892,9.9959,300.5868],[-83.5949,10.0066,293.9511],[-83.6065,10.0166,264.1499],[-83.6066,10.0336,237.9209],[-83.6011,10.0346,232.3736],[-83.6027,10.039,224.101],[-83.6017,10.0408,216.5465],[-83.5966,10.0408,211.878],[-83.5906,10.0438,220.4136],[-83.589,10.0567,192.0606],[-83.5802,10.0639,171.9481],[-83.5792,10.0696,171.3239],[-83.5687,10.0896,142.9251],[-83.5627,10.09,133.5464],[-83.5608,10.0847,168.9794],[-83.5545,10.0858,125.8345],[-83.5486,10.0846,153.23],[-83.5493,10.0888,131.0917],[-83.547,10.0908,150.6182],[-83.547,10.0956,110.698],[-83.5632,10.1117,183.3208],[-83.5657,10.1085,186.0359],[-83.5705,10.1074,204.6374],[-83.5853,10.0909,333.636],[-83.5872,10.0833,404.8058],[-83.5989,10.077,474.3487],[-83.6113,10.0746,600.4552],[-83.6129,10.0811,534.585],[-83.6205,10.0831,589.7884],[-83.6225,10.0814,600.0065],[-83.6233,10.0751,694.6034],[-83.6264,10.0723,729.798],[-83.6371,10.0684,865.746],[-83.6402,10.064,928.7139],[-83.6609,10.0552,1049.3124],[-83.6795,10.0545,1227.3848],[-83.6872,10.0556,1330.0796],[-83.6899,10.0544,1481.4806],[-83.697,10.0563,1544.3325],[-83.7073,10.0506,1822.4917],[-83.7101,10.0448,2027.1776],[-83.7166,10.0399,2264.3364],[-83.7204,10.0387,2338.7578],[-83.7252,10.0398,2414.7217],[-83.7205,10.038,2338.7578],[-83.7143,10.0378,2331.8296],[-83.7091,10.041,2222.0156],[-83.7068,10.0408,2131.4265],[-83.6897,10.0298,1661.5001],[-83.6801,10.0258,1356.8042],[-83.6689,10.0247,1161.5155],[-83.6644,10.0193,1017.5441],[-83.6591,10.0163,929.3668],[-83.6564,10.018,888.905],[-83.6543,10.0158,855.7557],[-83.6494,10.0148,775.8674],[-83.6452,10.0108,710.7134],[-83.6394,10.0101,678.2791],[-83.6376,10.0084,700.9794],[-83.6373,10.0045,623.3113],[-83.6341,10.0057,607.7054],[-83.6305,9.9993,582.6473],[-83.6295,10.0005,496.1339],[-83.6249,9.9991,471.4297],[-83.6179,9.9879,482.0151],[-83.6034,9.982,340.4409]]]]}
,"properties": {"GID_3": "CRI.5.5.2_1","GID_0": "CRI","country": "CostaRica","GID_1": "CRI.5_1","province": "Limón","NL_NAME_1": "NA","GID_2": "CRI.5.5_1","county": "Siquirres","NL_NAME_2": "NA","city": "Florida","VARNAME_3": "NA","NL_NAME_3": "NA","TYPE_3": "Distrito","ENGTYPE_3": "District","CC_3": "3","HASC_3": "NA","name": "Florida.city","area_km2": 83.5091,"hist_schema_id": "Elevation0-9000","hist_area_km2": {"125": 0.31312,"150": 0.73061,"175": 1.14809,"200": 1.87872,"225": 1.98312,"250": 2.37976,"275": 2.56777,"300": 2.00426,"325": 2.67236,"350": 2.52621,"375": 3.04819,"400": 3.27784,"425": 2.92291,"450": 2.71418,"475": 2.38008,"500": 2.38007,"525": 1.83724,"550": 1.9207,"575": 1.92069,"600": 2.12943,"625": 1.87891,"650": 1.50315,"675": 1.6702,"700": 1.67022,"725": 1.62847,"750": 2.17133,"775": 2.23395,"800": 2.00428,"825": 1.62847,"850": 1.75371,"875": 1.46144,"900": 1.16915,"925": 0.73071,"950": 1.39877,"975": 1.33614,"1000": 1.33613,"1025": 0.8351,"1050": 1.12738,"1075": 1.00211,"1100": 0.77247,"1125": 0.68896,"1150": 0.35492,"1175": 0.50106,"1200": 0.35492,"1225": 0.56369,"1250": 0.35492,"1275": 0.33404,"1300": 0.39667,"1325": 0.35492,"1350": 0.31316,"1375": 0.37579,"1400": 0.33404,"1425": 0.27141,"1450": 0.31316,"1475": 0.37579,"1500": 0.29228,"1525": 0.31316,"1550": 0.29228,"1575": 0.39667,"1600": 0.33404,"1625": 0.27141,"1650": 0.22965,"1675": 0.31316,"1700": 0.29228,"1725": 0.33404,"1750": 0.14614,"1775": 0.16702,"1800": 0.20877,"1825": 0.16702,"1850": 0.1879,"1875": 0.1879,"1900": 0.12526,"1925": 0.06263,"1950": 0.12526,"1975": 0.10439,"2000": 0.16702,"2025": 0.10439,"2050": 0.1879,"2075": 0.02088,"2100": 0.08351,"2125": 0.04175,"2150": 0.08351,"2175": 0.04175,"2200": 0.02088,"2225": 0.04175,"2250": 0.06263,"2275": 0.04176,"2300": 0.02088,"2325": 0.04176,"2350": 0.02088,"2375": 0.02088,"2425": 0.02088}}}