{"type":"Feature","properties":{"GID_3":"CRI.1.3.1_1","GID_0":"CRI","country":"CostaRica","GID_1":"CRI.1_1","province":"Alajuela","NL_NAME_1":"NA","GID_2":"CRI.1.3_1","county":"Atenas","NL_NAME_2":"NA","city":"Atenas","VARNAME_3":"NA","NL_NAME_3":"NA","TYPE_3":"Distrito","ENGTYPE_3":"District","CC_3":"1","HASC_3":"NA","name":"Atenas.city"},
"geometry":{"type": "MultiPolygon","coordinates": [[[[-84.3418,9.9928,534.2025],[-84.3455,9.9969,561.0215],[-84.3536,9.9944,573.3217],[-84.3641,9.9959,572.3738],[-84.3689,9.9947,618.3116],[-84.3779,9.9847,671.6397],[-84.3819,9.9854,669.9714],[-84.3861,9.9841,685.3494],[-84.3871,9.9801,728.6846],[-84.385,9.976,724.3915],[-84.3936,9.9707,774.3354],[-84.3954,9.9674,808.2181],[-84.3886,9.9638,812.1873],[-84.3821,9.965,817.2],[-84.3788,9.963,815.7829],[-84.3784,9.9607,777.9841],[-84.3751,9.9612,777.1382],[-84.3683,9.9742,700.9489],[-84.3564,9.9837,689.2523],[-84.3497,9.987,659.7291],[-84.3438,9.9855,483.0386],[-84.3411,9.9866,481.1554],[-84.3418,9.9928,534.2025]]]]}}