{"type":"Feature","properties":{"GID_3":"CRI.3.1.1_1","GID_0":"CRI","country":"CostaRica","GID_1":"CRI.3_1","province":"Guanacaste","NL_NAME_1":"NA","GID_2":"CRI.3.1_1","county":"Abangares","NL_NAME_2":"NA","city":"Colorado","VARNAME_3":"NA","NL_NAME_3":"NA","TYPE_3":"Distrito","ENGTYPE_3":"District","CC_3":"4","HASC_3":"NA","name":"Colorado.city"},
"geometry":{"type": "MultiPolygon","coordinates": [[[[-85.1343,10.1363,0.0],[-85.1337,10.1367,0.0],[-85.1342,10.1373,0.0],[-85.135,10.1368,0.0],[-85.1343,10.1363,0.0]]],
[[[-85.0387,10.189,25.3667],[-85.0411,10.1908,22.3689],[-85.0386,10.1967,30.4897],[-85.0364,10.1976,22.7233],[-85.0394,10.2015,34.552],[-85.0384,10.2038,36.0861],[-85.0396,10.2056,41.772],[-85.0379,10.2065,30.4146],[-85.0369,10.2045,31.9571],[-85.0342,10.2085,24.8056],[-85.0313,10.2085,29.1852],[-85.0288,10.2105,33.0492],[-85.0288,10.2138,41.3742],[-85.0268,10.2148,32.1339],[-85.03,10.2174,35.6625],[-85.0296,10.2204,35.4619],[-85.0322,10.2256,48.9245],[-85.0342,10.2257,51.7194],[-85.0556,10.2476,51.2614],[-85.0552,10.2541,55.7767],[-85.0566,10.2577,44.7266],[-85.0603,10.2586,44.4827],[-85.0591,10.2629,42.812],[-85.0619,10.2621,42.654],[-85.0615,10.2645,43.6948],[-85.0681,10.2644,38.6863],[-85.0696,10.27,33.2788],[-85.0705,10.2683,28.4877],[-85.0824,10.2671,26.1053],[-85.0941,10.2728,21.1769],[-85.104,10.2812,11.9671],[-85.1112,10.2826,6.7037],[-85.1203,10.2788,8.9734],[-85.1251,10.2802,11.3365],[-85.1283,10.2833,17.0073],[-85.1371,10.2824,9.0257],[-85.1452,10.2789,5.7496],[-85.2257,10.1931,0.0],[-85.2161,10.1835,14.9195],[-85.2098,10.1802,1.9293],[-85.19,10.1725,0.0],[-85.1819,10.1712,0.0],[-85.1804,10.1728,0.0],[-85.1772,10.1729,0.0],[-85.1731,10.1714,0.0],[-85.1689,10.1666,0.0],[-85.1602,10.1677,5.3443],[-85.1519,10.163,0.0],[-85.1471,10.1625,6.3052],[-85.1437,10.1597,0.0],[-85.1394,10.1621,13.3824],[-85.1344,10.1608,2.84],[-85.1339,10.1663,0.0],[-85.1302,10.1715,7.918],[-85.1234,10.1745,2.7594],[-85.1111,10.1763,3.968],[-85.1055,10.174,1.864],[-85.1038,10.1752,2.457],[-85.1028,10.1733,1.1915],[-85.0924,10.1696,0.0],[-85.0968,10.1631,3.5371],[-85.0945,10.1562,0.0],[-85.082,10.1483,2.1489],[-85.0781,10.144,2.3185],[-85.074,10.1436,5.1957],[-85.0711,10.1453,0.0],[-85.0699,10.1502,4.2383],[-85.0755,10.1547,8.0055],[-85.0762,10.1571,19.8707],[-85.0738,10.1599,8.0752],[-85.0691,10.1583,5.2586],[-85.0664,10.1591,29.7216],[-85.0685,10.1643,12.9928],[-85.0675,10.167,20.7965],[-85.0623,10.1621,20.4541],[-85.0607,10.1627,16.7948],[-85.0605,10.166,8.6175],[-85.058,10.1643,10.7568],[-85.0582,10.1669,4.8428],[-85.0485,10.1597,8.7878],[-85.0426,10.1606,16.236],[-85.0415,10.1635,9.2121],[-85.0409,10.1605,8.8112],[-85.039,10.1593,9.1483],[-85.0275,10.1595,12.8818],[-85.0299,10.1627,18.9966],[-85.0279,10.1652,16.8779],[-85.0275,10.1693,22.7125],[-85.0316,10.1704,10.6185],[-85.0317,10.1689,10.6185],[-85.0346,10.1719,13.9107],[-85.0357,10.1746,25.5351],[-85.0343,10.1767,11.7534],[-85.0366,10.1803,11.8339],[-85.0356,10.1821,10.9107],[-85.0382,10.1823,13.5318],[-85.0366,10.1878,24.5073],[-85.0387,10.189,25.3667]]]]}}