{"type":"Feature","properties":{"GID_3":"CRI.7.13.4_1","GID_0":"CRI","country":"CostaRica","GID_1":"CRI.7_1","province":"SanJosé","NL_NAME_1":"NA","GID_2":"CRI.7.13_1","county":"PérezZeledón","NL_NAME_2":"NA","city":"ElGeneral","VARNAME_3":"NA","NL_NAME_3":"NA","TYPE_3":"Distrito","ENGTYPE_3":"District","CC_3":"2","HASC_3":"NA","name":"El_General.city"},
"geometry":{"type": "MultiPolygon","coordinates": [[[[-83.5373,9.4282,2886.98],[-83.5486,9.4341,2746.3623],[-83.5551,9.4331,2702.8337],[-83.5575,9.4277,2391.6707],[-83.561,9.4252,2319.5991],[-83.5767,9.4188,1974.8778],[-83.5831,9.4179,1852.7556],[-83.585,9.4114,1726.6436],[-83.5934,9.4131,1652.1265],[-83.5991,9.4104,1663.71],[-83.6067,9.414,1556.2876],[-83.61,9.4112,1458.5176],[-83.6172,9.4092,1294.8525],[-83.6169,9.4075,1274.1289],[-83.6211,9.4041,1159.489],[-83.6303,9.4085,1094.0771],[-83.6335,9.414,1042.2069],[-83.6391,9.4192,943.17],[-83.6428,9.4197,920.8378],[-83.6542,9.4131,874.8229],[-83.6586,9.4072,823.828],[-83.6669,9.4012,788.5581],[-83.6675,9.3926,762.0195],[-83.6733,9.3821,781.2407],[-83.6725,9.3746,710.749],[-83.671,9.371,704.9679],[-83.6616,9.3602,675.8997],[-83.6627,9.3561,667.1238],[-83.6572,9.3465,643.9931],[-83.6578,9.3422,636.2762],[-83.6554,9.3379,626.8268],[-83.6554,9.3316,618.2141],[-83.6492,9.3221,599.541],[-83.6469,9.3153,585.5078],[-83.6403,9.3072,570.1234],[-83.639,9.2969,555.4663],[-83.6425,9.2829,541.7604],[-83.6316,9.2704,524.3487],[-83.629,9.273,544.173],[-83.6267,9.2823,550.5267],[-83.631,9.2905,561.2841],[-83.6293,9.2967,556.4041],[-83.6298,9.3038,583.8572],[-83.6244,9.315,609.8616],[-83.6263,9.3292,667.2626],[-83.6237,9.3328,685.9176],[-83.6258,9.3368,705.4427],[-83.6243,9.3447,739.9737],[-83.6148,9.3516,820.4673],[-83.6116,9.358,856.657],[-83.6079,9.3609,887.5271],[-83.6091,9.3699,949.85],[-83.603,9.3784,1083.792],[-83.5979,9.3896,1145.2185],[-83.594,9.3943,1188.2773],[-83.5853,9.3969,1326.3015],[-83.5787,9.4036,1391.151],[-83.5705,9.4086,1536.4027],[-83.5609,9.411,1711.7399],[-83.5373,9.4282,2886.98]]]]}}