{"type": "Feature","bbox": [-83.5636,8.9767,-83.3623,9.0841],"geometry": {"type": "MultiPolygon","coordinates": [[[[-83.3727,9.0411,814.4886],[-83.381,9.0455,766.9486],[-83.4004,9.045,740.682],[-83.4152,9.0536,617.9871],[-83.4302,9.0557,708.454],[-83.4322,9.0608,552.3818],[-83.4488,9.0728,316.325],[-83.4503,9.0811,261.9261],[-83.4543,9.0781,272.2944],[-83.4589,9.0801,273.1527],[-83.462,9.0837,280.6727],[-83.4628,9.0791,321.8152],[-83.4652,9.0763,342.6526],[-83.4716,9.0742,309.4265],[-83.4776,9.0782,299.7741],[-83.4818,9.0764,305.7141],[-83.4874,9.0799,314.4093],[-83.4923,9.0789,331.4123],[-83.4948,9.0809,337.4428],[-83.4951,9.084,372.6618],[-83.4981,9.0821,379.9554],[-83.4997,9.0824,379.9554],[-83.4993,9.0837,379.9554],[-83.5032,9.0841,379.3962],[-83.5052,9.0807,392.7668],[-83.5074,9.0807,423.4373],[-83.5067,9.0778,413.5937],[-83.5137,9.0749,398.1493],[-83.5167,9.0769,420.8607],[-83.5211,9.077,460.4283],[-83.5284,9.0819,484.0186],[-83.5333,9.079,691.2534],[-83.5419,9.0786,840.2908],[-83.5488,9.0822,936.5425],[-83.5539,9.0745,750.8722],[-83.5519,9.0703,768.9849],[-83.5617,9.0659,879.6588],[-83.5636,9.0586,894.9521],[-83.5592,9.0536,922.5142],[-83.5551,9.0546,967.6757],[-83.5484,9.0507,940.266],[-83.5386,9.0481,818.3334],[-83.5316,9.0505,880.8818],[-83.5254,9.0457,914.6459],[-83.5159,9.0442,836.3261],[-83.5076,9.0345,833.6797],[-83.4976,9.0327,916.5955],[-83.494,9.027,862.1486],[-83.497,9.0212,855.7487],[-83.4926,9.0196,861.5951],[-83.4876,9.0156,907.7551],[-83.4876,9.0141,923.0272],[-83.4791,9.0117,863.7787],[-83.4743,9.0079,866.5291],[-83.4754,8.9999,785.3283],[-83.4717,8.9996,764.2035],[-83.4698,8.9969,781.4048],[-83.463,8.9952,845.3428],[-83.4462,8.9937,995.9333],[-83.4426,8.9906,1014.1053],[-83.4364,8.9899,1046.8861],[-83.4327,8.9919,1010.7648],[-83.4262,8.9874,641.7894],[-83.4249,8.9807,451.5496],[-83.4168,8.9767,145.7921],[-83.4143,8.9773,184.2309],[-83.4132,8.981,307.9438],[-83.413,8.9876,495.7391],[-83.4151,8.9903,505.3609],[-83.4118,8.9955,632.2909],[-83.4054,8.996,721.0706],[-83.4008,8.9944,805.8732],[-83.3992,8.9925,829.8981],[-83.3993,8.9886,964.6034],[-83.397,8.988,983.7737],[-83.396,8.9859,982.8671],[-83.39,8.9872,939.5471],[-83.3855,8.9851,953.5739],[-83.3842,8.9829,933.0565],[-83.3795,8.9833,970.7762],[-83.3699,8.98,926.0322],[-83.3623,8.9807,1019.3048],[-83.3623,8.9839,953.8422],[-83.3644,8.9869,940.3928],[-83.3625,8.9927,996.5513],[-83.3692,8.9954,893.8909],[-83.3711,9.0002,907.2122],[-83.3762,9.0016,860.8719],[-83.3903,9.0135,783.0336],[-83.3902,9.0181,827.6138],[-83.3724,9.016,843.6642],[-83.3678,9.0187,809.1843],[-83.3661,9.0255,736.7849],[-83.3714,9.0329,727.9722],[-83.3727,9.0411,814.4886]]]]}
,"properties": {"GID_3": "CRI.6.2.6_1","GID_0": "CRI","country": "CostaRica","GID_1": "CRI.6_1","province": "Puntarenas","NL_NAME_1": "NA","GID_2": "CRI.6.2_1","county": "BuenosAires","NL_NAME_2": "NA","city": "Colinas","VARNAME_3": "NA","NL_NAME_3": "NA","TYPE_3": "Distrito","ENGTYPE_3": "District","CC_3": "6","HASC_3": "NA","name": "Colinas.city","area_km2": 129.7808,"hist_schema_id": "Elevation0-9000","hist_area_km2": {"150": 0.0628,"200": 0.0209,"225": 0.0838,"275": 0.3559,"300": 1.2144,"325": 2.8894,"350": 3.392,"375": 3.9782,"400": 5.2555,"425": 5.6743,"450": 5.7371,"475": 5.5696,"500": 5.3184,"525": 5.0253,"550": 5.1719,"575": 4.8369,"600": 5.3394,"625": 5.3185,"650": 6.177,"675": 6.3236,"700": 6.6378,"725": 6.8054,"750": 6.1354,"775": 5.9051,"800": 5.5282,"825": 5.256,"850": 5.1303,"875": 3.4132,"900": 2.9107,"925": 2.0313,"950": 1.2983,"975": 0.6701,"1000": 0.2513,"1025": 0.0628}}}