{"type": "Feature","bbox": [-85.1447,10.6708,-84.9496,10.8229],"geometry": {"type": "MultiPolygon","coordinates": [[[[-84.9508,10.7726,211.2665],[-84.968,10.7697,398.9183],[-84.9728,10.7667,422.7797],[-84.9989,10.7853,295.9775],[-85.0066,10.7963,263.7213],[-85.0237,10.8003,241.2326],[-85.0312,10.8005,134.684],[-85.0283,10.8124,107.4306],[-85.0329,10.8229,92.8496],[-85.0376,10.8209,100.596],[-85.0429,10.8124,112.9471],[-85.0478,10.8094,124.6272],[-85.0697,10.8096,214.511],[-85.0722,10.8051,236.8343],[-85.0815,10.7989,343.2812],[-85.0873,10.7988,431.8008],[-85.0928,10.7906,506.4613],[-85.0977,10.7892,523.544],[-85.1089,10.7918,635.1121],[-85.1135,10.7905,767.951],[-85.1208,10.7807,1128.5139],[-85.1212,10.774,1465.8948],[-85.1234,10.7699,1732.6746],[-85.1326,10.7652,1607.2892],[-85.1354,10.7588,1718.6467],[-85.1447,10.7523,1918.7183],[-85.1446,10.7478,1818.5824],[-85.1419,10.7451,1749.9263],[-85.1397,10.7451,1758.3635],[-85.1376,10.7397,1581.001],[-85.1295,10.733,1492.1792],[-85.1283,10.7256,1528.1484],[-85.1294,10.719,1486.7452],[-85.1244,10.7146,1469.1948],[-85.1245,10.7106,1448.3296],[-85.1019,10.7137,1272.3352],[-85.0967,10.7177,1131.413],[-85.0868,10.7128,859.4209],[-85.071,10.7126,511.0756],[-85.0671,10.708,543.8833],[-85.0608,10.7088,566.4731],[-85.0586,10.7006,602.825],[-85.055,10.6974,629.606],[-85.0438,10.6975,818.8522],[-85.0267,10.6934,1497.1753],[-85.0199,10.6806,1535.391],[-85.0196,10.674,1741.5804],[-85.0142,10.6708,1833.4135],[-85.0113,10.6728,1804.4122],[-85.0049,10.6827,1255.4011],[-85.0004,10.6948,895.9367],[-84.9991,10.7045,768.9896],[-84.9896,10.7101,716.7377],[-84.9816,10.7208,715.4623],[-84.9794,10.7214,676.4203],[-84.9756,10.7174,668.47],[-84.97,10.72,590.613],[-84.9622,10.7194,531.9785],[-84.9555,10.7226,483.9811],[-84.9574,10.7277,442.1448],[-84.9561,10.7307,434.3579],[-84.9573,10.7337,406.5208],[-84.9512,10.7327,406.6929],[-84.9496,10.7365,429.5515],[-84.9548,10.7485,414.9682],[-84.9604,10.7513,391.8763],[-84.9614,10.7569,419.0872],[-84.9633,10.7585,432.7289],[-84.9508,10.7726,211.2665]]]]}
,"properties": {"GID_3": "CRI.1.14.2_1","GID_0": "CRI","country": "CostaRica","GID_1": "CRI.1_1","province": "Alajuela","NL_NAME_1": "NA","GID_2": "CRI.1.14_1","county": "Upala","NL_NAME_2": "NA","city": "Bijagua","VARNAME_3": "NA","NL_NAME_3": "NA","TYPE_3": "Distrito","ENGTYPE_3": "District","CC_3": "4","HASC_3": "NA","name": "Bijagua.city","area_km2": 186.5757,"hist_schema_id": "Elevation0-9000","hist_area_km2": {"100": 1.6661,"125": 1.9785,"150": 1.3745,"175": 1.5204,"200": 2.2077,"225": 5.2068,"250": 4.0405,"275": 3.7906,"300": 4.2489,"325": 3.7283,"350": 3.7908,"375": 5.7697,"400": 5.9155,"425": 9.311,"450": 9.2695,"475": 8.2488,"500": 8.832,"525": 6.999,"550": 7.0199,"575": 6.4159,"600": 6.3742,"625": 5.6452,"650": 6.3326,"675": 5.4577,"700": 4.7287,"725": 3.1038,"750": 2.7497,"775": 2.7706,"800": 2.8331,"825": 2.354,"850": 2.354,"875": 2.0207,"900": 1.6456,"925": 1.7498,"950": 1.6456,"975": 1.4582,"1000": 1.5207,"1025": 1.3332,"1050": 1.3332,"1075": 1.4999,"1100": 1.1666,"1125": 1.4999,"1150": 1.7082,"1175": 1.2291,"1200": 1.3124,"1225": 1.3541,"1250": 1.5207,"1275": 1.0624,"1300": 1.354,"1325": 1.0832,"1350": 1.1041,"1375": 0.9791,"1400": 0.9791,"1425": 1.1249,"1450": 0.8124,"1475": 1.0207,"1500": 1.0832,"1525": 0.6041,"1550": 0.4583,"1575": 0.4791,"1600": 0.6041,"1625": 0.25,"1650": 0.5624,"1675": 0.3958,"1700": 0.4583,"1725": 0.4166,"1750": 0.4166,"1775": 0.3333,"1800": 0.2916,"1825": 0.1666,"1850": 0.125,"1875": 0.125,"1900": 0.0417,"1925": 0.0833,"1950": 0.1041,"1975": 0.0208}}}