{"type": "Feature","bbox": [-84.2441,9.9274,-84.2174,9.9485],"geometry": {"type": "MultiPolygon","coordinates": [[[[-84.2441,9.9352,666.4496],[-84.2389,9.933,773.9618],[-84.232,9.9327,791.6926],[-84.2266,9.9274,871.9561],[-84.226,9.9299,867.2048],[-84.2237,9.9304,911.1837],[-84.2234,9.9348,835.4711],[-84.2198,9.9362,853.4191],[-84.2203,9.9378,853.7666],[-84.2174,9.9416,827.1044],[-84.2193,9.9448,764.9922],[-84.225,9.9457,782.2913],[-84.2269,9.9483,755.7794],[-84.231,9.9485,755.0708],[-84.2338,9.9457,762.631],[-84.2363,9.938,672.5905],[-84.2391,9.9385,681.1368],[-84.2441,9.9352,666.4496]]]]}
,"properties": {"GID_3": "CRI.7.16.1_1","GID_0": "CRI","country": "CostaRica","GID_1": "CRI.7_1","province": "SanJosé","NL_NAME_1": "NA","GID_2": "CRI.7.16_1","county": "SantaAna","NL_NAME_2": "NA","city": "Brasil","VARNAME_3": "NA","NL_NAME_3": "NA","TYPE_3": "Distrito","ENGTYPE_3": "District","CC_3": "6","HASC_3": "NA","name": "Brasil.city","area_km2": 3.17437,"hist_schema_id": "Elevation0-9000","hist_area_km2": {"650": 0.041768,"675": 0.10442,"700": 0.083536,"725": 0.187955,"750": 0.146186,"775": 0.501217,"800": 1.294811,"825": 0.459448,"850": 0.313261,"875": 0.041769}}}