{"type": "Feature","bbox": [-84.1613,10.1993,-83.992,10.6695],"geometry": {"type": "MultiPolygon","coordinates": [[[[-84.1613,10.2984,562.991],[-84.1606,10.2957,606.683],[-84.1588,10.2964,606.683],[-84.1566,10.2932,757.5552],[-84.1563,10.29,746.6665],[-84.1514,10.29,703.8435],[-84.1494,10.2877,731.6326],[-84.1475,10.2888,823.8964],[-84.1417,10.2793,893.4819],[-84.1306,10.2695,1030.1309],[-84.1253,10.2655,1096.8308],[-84.1229,10.2663,1114.3813],[-84.1188,10.2617,1196.0778],[-84.1146,10.2615,1199.5164],[-84.1129,10.2597,1220.9677],[-84.1124,10.2525,1240.5165],[-84.1079,10.2489,1292.7275],[-84.11,10.241,1397.5959],[-84.105,10.2337,1511.0005],[-84.1051,10.2265,1585.3513],[-84.1028,10.2246,1610.3817],[-84.1029,10.2199,1630.8284],[-84.1043,10.2186,1674.4304],[-84.1045,10.1999,1848.8607],[-84.1011,10.1993,1874.6602],[-84.0981,10.2218,1649.7606],[-84.0913,10.2292,1554.8357],[-84.0848,10.2323,1516.009],[-84.0803,10.2569,1231.8641],[-84.0677,10.2682,1029.0809],[-84.0636,10.2802,889.4986],[-84.0555,10.2879,755.7036],[-84.053,10.2947,716.1568],[-84.0498,10.2983,697.296],[-84.0459,10.3106,596.5991],[-84.0418,10.3157,531.5964],[-84.0428,10.3181,489.0518],[-84.0414,10.3189,475.6353],[-84.0439,10.3212,475.8832],[-84.045,10.3356,380.146],[-84.0408,10.3365,374.6076],[-84.0423,10.3381,369.2044],[-84.0386,10.3447,331.6827],[-84.0399,10.3453,317.3511],[-84.0396,10.3487,301.0259],[-84.0383,10.3516,263.5414],[-84.0362,10.352,259.3065],[-84.0363,10.3551,243.6848],[-84.0344,10.3553,259.8439],[-84.0357,10.3573,256.6483],[-84.0323,10.3602,250.9591],[-84.0323,10.3642,234.2879],[-84.0339,10.3646,216.6112],[-84.0309,10.3693,196.9756],[-84.0321,10.3707,170.047],[-84.0303,10.3706,183.5501],[-84.0297,10.3789,145.2211],[-84.0246,10.3849,120.9536],[-84.0229,10.3849,120.9536],[-84.0223,10.3895,106.1231],[-84.009,10.3949,93.7494],[-84.0056,10.3983,83.0239],[-84.0012,10.3987,80.5308],[-83.9998,10.4028,69.0753],[-83.9969,10.4049,67.0869],[-83.9979,10.4073,59.1717],[-83.9963,10.408,59.1717],[-83.995,10.4137,46.047],[-83.9932,10.4153,44.8373],[-83.9977,10.421,43.0489],[-83.9982,10.4266,42.5906],[-84.0009,10.4274,48.7719],[-84.0016,10.4306,39.7291],[-84.0029,10.4285,53.1924],[-84.0082,10.4379,50.2201],[-84.0109,10.4388,54.095],[-84.0109,10.4443,40.6285],[-84.0136,10.4444,39.9452],[-84.0131,10.4409,50.084],[-84.0183,10.4401,45.4223],[-84.0192,10.4376,35.2429],[-84.0229,10.4398,62.4554],[-84.0248,10.4378,51.7734],[-84.0244,10.433,48.5383],[-84.0268,10.4322,47.048],[-84.0299,10.4362,59.6273],[-84.0344,10.4371,49.1045],[-84.0342,10.4397,50.2388],[-84.041,10.4379,53.4112],[-84.0449,10.4434,52.4238],[-84.0554,10.4502,61.0179],[-84.0636,10.4497,65.2201],[-84.0663,10.4515,74.8811],[-84.0694,10.449,79.1897],[-84.075,10.4504,76.6861],[-84.0746,10.4547,110.5527],[-84.0639,10.4627,172.0822],[-84.063,10.4698,181.5872],[-84.0697,10.4763,194.5792],[-84.0682,10.4805,163.3491],[-84.0727,10.4855,148.799],[-84.0716,10.489,144.7005],[-84.0776,10.4986,112.0907],[-84.0778,10.5086,66.1331],[-84.0822,10.5097,50.2168],[-84.0819,10.5112,52.303],[-84.0791,10.5116,53.661],[-84.081,10.5134,45.118899999999996],[-84.0798,10.5149,46.8829],[-84.0757,10.5145,61.0821],[-84.0759,10.5172,42.404],[-84.0782,10.5181,42.5846],[-84.0735,10.5194,42.8048],[-84.0735,10.5209,48.1375],[-84.0704,10.5192,38.2659],[-84.0693,10.5205,41.2091],[-84.0707,10.5231,38.8731],[-84.0685,10.5234,37.2315],[-84.0683,10.5255,39.7343],[-84.0643,10.5255,40.0464],[-84.0622,10.5281,36.898],[-84.06,10.526,39.6587],[-84.0563,10.5264,37.353],[-84.0571,10.5281,38.167],[-84.0534,10.531,33.9915],[-84.0516,10.5293,38.4286],[-84.048,10.5349,35.8022],[-84.0456,10.5328,33.2442],[-84.0432,10.5387,30.2708],[-84.0432,10.5423,34.6793],[-84.0449,10.5437,35.8389],[-84.0407,10.5465,33.5201],[-84.0355,10.5466,32.7932],[-84.0302,10.5499,42.1553],[-84.0286,10.5556,33.2716],[-84.0271,10.5552,29.4465],[-84.027,10.5532,32.9785],[-84.026,10.5562,30.6367],[-84.0233,10.5549,30.1317],[-84.0242,10.5581,31.8003],[-84.02,10.5603,34.7843],[-84.0192,10.5586,29.9002],[-84.0187,10.5614,39.9555],[-84.015,10.5624,46.9385],[-84.013,10.5651,33.7164],[-84.0109,10.5648,32.8141],[-84.0093,10.571,33.3833],[-84.0114,10.5725,32.5866],[-84.0091,10.5736,30.6776],[-84.009,10.5764,33.7214],[-84.0028,10.585,23.0],[-84.0046,10.5914,24.555],[-84.0011,10.5928,24.8914],[-83.9972,10.5912,25.5582],[-83.995,10.5929,24.4748],[-83.9942,10.5966,23.8076],[-83.9964,10.6063,22.8995],[-83.992,10.611,20.9957],[-83.9933,10.6127,23.726],[-84.0006,10.6143,21.1225],[-84.0019,10.6176,21.7907],[-84.0004,10.6206,25.0783],[-83.9941,10.6227,21.472],[-83.9989,10.6269,24.0752],[-83.9956,10.6316,25.8865],[-83.9958,10.6339,23.4825],[-84.0002,10.636,23.9731],[-83.9966,10.6476,20.0309],[-84.0004,10.6533,30.8871],[-84.0,10.6695,19.0457],[-84.0071,10.6584,25.8869],[-84.0155,10.6551,28.5328],[-84.0163,10.6484,42.6673],[-84.02,10.6491,38.5596],[-84.0195,10.6455,31.3784],[-84.0246,10.6425,29.7537],[-84.0231,10.6386,34.1579],[-84.0298,10.6385,31.3385],[-84.0314,10.6372,43.5855],[-84.0317,10.6337,28.2163],[-84.0386,10.6332,31.6974],[-84.0399,10.6258,37.8642],[-84.0423,10.6219,31.4357],[-84.0479,10.6197,30.9572],[-84.0494,10.6159,29.2562],[-84.0537,10.6172,30.1929],[-84.056,10.616,31.8092],[-84.0608,10.6051,37.8071],[-84.0629,10.6035,37.7458],[-84.0661,10.6041,34.404],[-84.071,10.5919,38.0672],[-84.0767,10.5914,39.4739],[-84.0775,10.5879,48.7737],[-84.0805,10.589,39.4936],[-84.0805,10.5928,38.7393],[-84.0832,10.5905,39.7992],[-84.0847,10.5934,38.9187],[-84.089,10.5925,39.3519],[-84.0928,10.5874,40.5982],[-84.0959,10.591,44.0237],[-84.0986,10.5914,43.4353],[-84.0997,10.5899,42.4001],[-84.1023,10.593,39.8311],[-84.1066,10.593,41.8764],[-84.1068,10.5945,41.0844],[-84.109,10.5948,42.2906],[-84.1061,10.5907,45.3737],[-84.1091,10.5897,43.4516],[-84.1143,10.591,45.4341],[-84.1175,10.5882,48.439],[-84.121,10.5899,52.1994],[-84.1236,10.5882,50.1312],[-84.1231,10.5851,49.3043],[-84.1305,10.5841,58.6716],[-84.1318,10.5823,43.6183],[-84.1299,10.5785,44.6665],[-84.1313,10.5771,44.6665],[-84.1354,10.5763,50.5724],[-84.1411,10.5782,51.8273],[-84.1425,10.5739,49.8205],[-84.1471,10.5759,51.687],[-84.1497,10.5747,56.8594],[-84.1537,10.5784,52.6055],[-84.1579,10.5754,53.622],[-84.1612,10.5754,55.0213],[-84.1613,10.2984,562.991]]]]}
,"properties": {"GID_3": "CRI.4.10.2_1","GID_0": "CRI","country": "CostaRica","GID_1": "CRI.4_1","province": "Heredia","NL_NAME_1": "NA","GID_2": "CRI.4.10_1","county": "Sarapiquí","NL_NAME_2": "NA","city": "LaVirgen","VARNAME_3": "NA","NL_NAME_3": "NA","TYPE_3": "Distrito","ENGTYPE_3": "District","CC_3": "2","HASC_3": "NA","name": "La_Virgen.city","area_km2": 514.943,"hist_schema_id": "Elevation0-9000","hist_area_km2": {"25": 34.0538,"50": 68.8656,"75": 61.5187,"100": 55.207,"125": 35.2572,"150": 26.6683,"175": 23.4375,"200": 22.4584,"225": 18.0387,"250": 12.5337,"275": 11.2827,"300": 7.967,"325": 8.0506,"350": 8.2594,"375": 7.9884,"400": 7.5922,"425": 7.6966,"450": 6.5078,"475": 5.319,"500": 5.2147,"525": 4.1093,"550": 4.297,"575": 4.4014,"600": 4.2763,"625": 3.1916,"650": 3.2125,"675": 3.0665,"700": 2.5867,"725": 2.7327,"750": 2.6493,"775": 2.4824,"800": 2.1278,"825": 1.8149,"850": 2.2739,"875": 2.107,"900": 1.8984,"925": 1.7315,"950": 1.7107,"975": 1.8358,"1000": 1.7107,"1025": 2.1488,"1050": 1.8776,"1075": 1.669,"1100": 1.7942,"1125": 1.6064,"1150": 1.4812,"1175": 1.6064,"1200": 1.6064,"1225": 2.3367,"1250": 1.1475,"1275": 0.8763,"1300": 0.6051,"1325": 0.6676,"1350": 0.5633,"1375": 0.6051,"1400": 0.4799,"1425": 0.6677,"1450": 0.6885,"1475": 0.5008,"1500": 0.6677,"1525": 0.6259,"1550": 0.3756,"1575": 0.3547,"1600": 0.313,"1625": 0.1252,"1650": 0.1461,"1675": 0.1461,"1700": 0.2921,"1725": 0.1252,"1750": 0.2504,"1775": 0.1252,"1800": 0.1043,"1825": 0.0626,"1850": 0.1252,"1875": 0.0417}}}