{"type": "Feature","bbox": [-84.778,10.7407,-84.5379,10.9287],"geometry": {"type": "MultiPolygon","coordinates": [[[[-84.7415,10.7759,43.8067],[-84.7395,10.7733,43.786],[-84.7316,10.772,45.7763],[-84.7263,10.7628,54.351],[-84.721,10.7588,59.3409],[-84.7148,10.7575,49.397],[-84.7097,10.7613,61.3954],[-84.7008,10.7638,62.9606],[-84.6942,10.7681,50.0966],[-84.696,10.7735,51.3184],[-84.6934,10.777,46.9369],[-84.6951,10.779,52.3529],[-84.6817,10.7809,50.353],[-84.6736,10.7786,67.4215],[-84.6658,10.7736,58.3731],[-84.6575,10.7647,57.7777],[-84.659,10.7606,58.3417],[-84.6529,10.7407,91.0757],[-84.6382,10.7409,98.6966],[-84.6404,10.7503,72.5692],[-84.6355,10.7514,68.0],[-84.6295,10.7581,65.9424],[-84.6284,10.7564,65.8602],[-84.6213,10.757,74.7788],[-84.619,10.7529,73.8264],[-84.6138,10.7532,73.92],[-84.6114,10.7515,91.7397],[-84.6069,10.7546,79.9514],[-84.5969,10.7545,82.9083],[-84.5951,10.7569,86.3599],[-84.5982,10.7655,86.5874],[-84.5949,10.7746,96.8312],[-84.591,10.7793,96.3952],[-84.5876,10.7801,95.3649],[-84.5846,10.775,93.5669],[-84.5792,10.7767,85.6337],[-84.5764,10.7759,84.8711],[-84.573,10.7794,76.6622],[-84.5725,10.7886,75.3283],[-84.5623,10.7887,74.3757],[-84.5595,10.7901,64.1007],[-84.5596,10.7922,68.4235],[-84.548,10.7922,44.1492],[-84.5488,10.7944,42.1356],[-84.5452,10.795,46.9254],[-84.5475,10.8005,57.2486],[-84.5454,10.8008,41.4277],[-84.5474,10.8024,52.2504],[-84.5439,10.8031,49.448],[-84.544,10.8056,55.4835],[-84.546,10.8108,51.09],[-84.5505,10.8124,44.3812],[-84.5415,10.8175,50.2033],[-84.5435,10.8197,40.2131],[-84.5388,10.8226,44.4594],[-84.5379,10.8315,43.8499],[-84.5397,10.8325,41.4178],[-84.54,10.8311,50.5229],[-84.5419,10.8346,37.2282],[-84.541,10.8366,45.4113],[-84.5394,10.8365,45.4113],[-84.5403,10.8399,39.2675],[-84.5418,10.8398,36.7034],[-84.5413,10.8432,38.8537],[-84.5682,10.8438,77.0992],[-84.5696,10.851,68.0499],[-84.573,10.8572,57.301],[-84.5808,10.8603,56.3042],[-84.5892,10.869,46.0439],[-84.5929,10.8764,50.0829],[-84.5976,10.8761,42.7328],[-84.5965,10.8717,46.8382],[-84.6006,10.8699,50.9206],[-84.6006,10.8672,50.3192],[-84.612,10.8671,53.1077],[-84.6127,10.8702,48.6403],[-84.6192,10.8755,47.0821],[-84.6188,10.8827,49.4329],[-84.6227,10.8875,47.6289],[-84.6298,10.8923,49.0798],[-84.641,10.8942,48.2298],[-84.6505,10.9011,40.1297],[-84.6575,10.9029,51.6297],[-84.6603,10.8963,40.8922],[-84.6601,10.8913,44.528],[-84.676,10.8913,47.1846],[-84.6808,10.8943,58.0188],[-84.6834,10.9008,54.0172],[-84.6894,10.9037,51.7958],[-84.6927,10.9094,43.9267],[-84.6969,10.9089,42.0709],[-84.7033,10.9123,35.0609],[-84.7081,10.9123,38.3723],[-84.708,10.9141,40.2002],[-84.7102,10.9134,35.9011],[-84.7112,10.9148,42.2866],[-84.7107,10.9169,50.8875],[-84.7124,10.9176,52.3437],[-84.7115,10.9192,42.7215],[-84.7162,10.9176,54.0285],[-84.7174,10.9198,54.7221],[-84.7192,10.9195,46.6809],[-84.7174,10.9206,52.4828],[-84.7179,10.9258,45.4139],[-84.7199,10.9256,48.8555],[-84.7205,10.9278,48.6406],[-84.7238,10.9287,41.2555],[-84.7272,10.9259,39.2772],[-84.7267,10.925,39.2017],[-84.7258,10.9263,36.9761],[-84.724,10.9233,39.8506],[-84.7279,10.9204,38.2884],[-84.7275,10.9148,41.4422],[-84.7312,10.9148,40.3478],[-84.7304,10.9118,45.3041],[-84.7277,10.911,45.4781],[-84.7276,10.9095,48.9016],[-84.7325,10.9111,46.5272],[-84.7345,10.9059,37.031],[-84.7398,10.9073,44.653],[-84.7418,10.9051,40.3164],[-84.7428,10.9075,45.8821],[-84.7445,10.9042,41.0863],[-84.7472,10.9039,48.6961],[-84.746,10.9017,43.5266],[-84.7494,10.9011,45.5019],[-84.7493,10.8982,42.6687],[-84.7511,10.8987,42.6687],[-84.7522,10.8962,41.0021],[-84.7556,10.8975,46.4089],[-84.7579,10.8956,47.567],[-84.7618,10.8985,45.8374],[-84.7599,10.8967,52.2754],[-84.7611,10.8943,49.1793],[-84.7641,10.8967,47.7462],[-84.763,10.8923,47.4143],[-84.7675,10.8902,50.1965],[-84.7654,10.889099999999999,44.6504],[-84.766,10.8857,50.0258],[-84.768,10.885,47.1967],[-84.7672,10.8803,44.3387],[-84.7695,10.8798,54.5119],[-84.7698,10.8771,39.3351],[-84.7721,10.8751,44.429],[-84.7712,10.8732,49.3704],[-84.7734,10.8717,52.4601],[-84.7727,10.8688,52.4796],[-84.776,10.8701,50.4412],[-84.778,10.8667,45.6707],[-84.7761,10.8665,43.5472],[-84.776,10.8614,43.2098],[-84.7742,10.858,42.8971],[-84.776,10.8547,40.8348],[-84.7733,10.852,42.3483],[-84.7749,10.8495,42.4055],[-84.7733,10.849,42.6343],[-84.773,10.8453,49.2176],[-84.7755,10.8431,43.3012],[-84.7735,10.8412,43.647],[-84.7752,10.8392,48.1838],[-84.7697,10.8383,40.1878],[-84.7725,10.8332,39.0411],[-84.7702,10.8306,40.472],[-84.7683,10.8311,44.6551],[-84.7674,10.8289,46.9347],[-84.7646,10.8292,42.9881],[-84.7638,10.8265,45.2044],[-84.7611,10.8268,46.2643],[-84.7595,10.8227,44.7356],[-84.7602,10.8201,50.4216],[-84.7587,10.8197,48.4377],[-84.7575,10.8214,46.9724],[-84.7556,10.8197,48.7169],[-84.7583,10.8164,49.665],[-84.7564,10.8162,48.6849],[-84.7549,10.8134,49.4748],[-84.7532,10.8152,42.3612],[-84.7509,10.8117,40.7414],[-84.7506,10.8056,40.9438],[-84.7484,10.8006,42.8847],[-84.7499,10.7994,42.1456],[-84.7495,10.7952,40.7207],[-84.7478,10.7939,44.0545],[-84.7446,10.7834,44.0188],[-84.7435,10.7825,44.0188],[-84.7418,10.7838,44.6016],[-84.7427,10.78,42.7545],[-84.7407,10.7774,42.2023],[-84.7415,10.7759,43.8067]]]]}
,"properties": {"GID_3": "CRI.1.6.2_1","GID_0": "CRI","country": "CostaRica","GID_1": "CRI.1_1","province": "Alajuela","NL_NAME_1": "NA","GID_2": "CRI.1.6_1","county": "LosChiles","NL_NAME_2": "NA","city": "ElAmparo","VARNAME_3": "NA","NL_NAME_3": "NA","TYPE_3": "Distrito","ENGTYPE_3": "District","CC_3": "3","HASC_3": "NA","name": "El_Amparo.city","area_km2": 315.6369,"hist_schema_id": "Elevation0-9000","hist_area_km2": {"25": 7.3079,"50": 220.4616,"75": 66.3522,"100": 21.4527,"125": 0.0625}}}