{"type":"Feature","properties":{"GID_2":"CRI.3.9_1","GID_0":"CRI","country":"CostaRica","GID_1":"CRI.3_1","province":"Guanacaste","NL_NAME_1":"NA","county":"Nicoya","VARNAME_2":"NA","NL_NAME_2":"NA","TYPE_2":"Cantón","ENGTYPE_2":"Canton","CC_2":"2","HASC_2":"CR.GU.NI","name":"Nicoya.county"},
"geometry":{"type": "MultiPolygon","coordinates": [[[[-85.5152,9.8607,0.0],[-85.5144,9.8605,0.0],[-85.5134,9.8626,0.0],[-85.5153,9.8624,0.0],[-85.5152,9.8607,0.0]]],
[[[-85.4635,9.9448,526.2148],[-85.4605,9.9505,574.7463],[-85.4658,9.9546,644.5276],[-85.4637,9.9582,569.7375],[-85.464,9.9636,567.9706],[-85.4624,9.9673,548.5108],[-85.469,9.9761,726.9713],[-85.4697,9.9795,753.9031],[-85.474,9.9825,740.3305],[-85.4745,9.9846,692.2679],[-85.473,9.9867,604.2321],[-85.4729,9.9937,658.7062],[-85.4688,9.9963,687.5385],[-85.4704,9.999,742.0248],[-85.4706,10.0122,732.8368],[-85.4745,10.0205,581.5765],[-85.4723,10.0271,402.883],[-85.4647,10.0363,275.7656],[-85.4649,10.0413,230.2774],[-85.4595,10.054,242.981],[-85.4525,10.0562,388.8906],[-85.4527,10.0591,408.4424],[-85.4475,10.0645,450.3261],[-85.4479,10.071,526.6021],[-85.4511,10.072,522.7878],[-85.4516,10.08,281.287],[-85.4489,10.0848,188.4252],[-85.4435,10.0892,243.6931],[-85.4318,10.0939,331.6048],[-85.4246,10.1004,298.174],[-85.422,10.1005,290.4672],[-85.4192,10.0964,263.25],[-85.4144,10.0988,226.1332],[-85.4025,10.0973,147.7884],[-85.3974,10.0926,130.196],[-85.3922,10.0927,234.4804],[-85.3852,10.0861,230.1398],[-85.3888,10.0833,251.3947],[-85.3923,10.0833,318.2851],[-85.3878,10.0782,264.0002],[-85.3857,10.079,248.7505],[-85.3827,10.0774,206.8979],[-85.3817,10.074,147.2435],[-85.3787,10.0718,123.783],[-85.3894,10.0677,145.9635],[-85.3806,10.0617,191.112],[-85.3687,10.0466,207.2543],[-85.3397,10.0434,471.5967],[-85.3397,10.0389,388.3942],[-85.3356,10.0399,347.8853],[-85.3302,10.0358,263.0989],[-85.3233,10.0366,176.7169],[-85.3226,10.0416,153.0554],[-85.316,10.0435,121.938],[-85.3158,10.0481,104.294],[-85.3223,10.0512,106.6643],[-85.3201,10.0578,69.3166],[-85.3228,10.0674,72.552],[-85.3262,10.0665,67.8121],[-85.3261,10.0687,63.4458],[-85.3171,10.0736,34.4224],[-85.314,10.0706,38.4888],[-85.3125,10.0727,65.551],[-85.311,10.0719,35.6114],[-85.3088,10.0669,62.7778],[-85.3005,10.068,53.1012],[-85.3005,10.0633,32.225],[-85.2938,10.0604,35.6631],[-85.2925,10.0609,26.7603],[-85.294,10.0627,31.5172],[-85.2928,10.0632,31.5172],[-85.2864,10.0592,27.3265],[-85.285,10.0651,26.7977],[-85.2782,10.0651,22.824],[-85.2774,10.0594,21.002],[-85.273,10.0631,21.516],[-85.2692,10.057,23.8509],[-85.2662,10.0595,27.4714],[-85.2607,10.0591,15.3004],[-85.2581,10.0622,13.2895],[-85.2552,10.061,12.9334],[-85.2521,10.0646,11.5749],[-85.2532,10.0691,15.8232],[-85.2476,10.0722,18.8973],[-85.2468,10.0771,13.5345],[-85.2454,10.0728,12.5894],[-85.2428,10.0744,13.4279],[-85.2427,10.0763,10.7499],[-85.2405,10.0747,11.5173],[-85.2361,10.076,15.2444],[-85.2345,10.0753,11.7355],[-85.2357,10.0722,11.7939],[-85.2307,10.0723,12.8829],[-85.2315,10.0687,15.2552],[-85.2294,10.0672,13.7052],[-85.23,10.0645,15.9016],[-85.222,10.0595,8.4826],[-85.2174,10.0582,11.8004],[-85.2164,10.0601,8.4882],[-85.2148,10.0585,9.6661],[-85.2163,10.0578,11.8004],[-85.215,10.0564,13.2449],[-85.2169,10.0543,10.0372],[-85.2141,10.0529,18.7513],[-85.21,10.0557,24.7844],[-85.2053,10.053,15.7915],[-85.202,10.0555,20.2841],[-85.1985,10.0545,17.096],[-85.1893,10.0561,17.9525],[-85.1896,10.0595,21.0128],[-85.1921,10.0622,4.2274],[-85.1906,10.0651,0.0],[-85.1951,10.0829,1.0615],[-85.1992,10.0849,1.2424],[-85.2034,10.084,0.0],[-85.2131,10.0857,0.0],[-85.2191,10.0908,1.2394],[-85.23,10.0948,2.2103],[-85.2359,10.1071,0.0],[-85.2398,10.1059,1.4003],[-85.2395,10.1107,3.3188],[-85.2375,10.1136,1.9469],[-85.24,10.1198,2.3795],[-85.2381,10.1224,0.0],[-85.239,10.127,7.0721],[-85.2354,10.1277,0.0],[-85.2315,10.1224,0.0],[-85.2278,10.1211,0.0],[-85.2395,10.1364,0.0],[-85.2416,10.143,0.0],[-85.2442,10.1442,0.0],[-85.2426,10.1514,0.0],[-85.2467,10.1675,0.0],[-85.2473,10.1787,8.3431],[-85.2425,10.2008,0.0],[-85.2465,10.2061,0.0],[-85.2435,10.2223,27.8713],[-85.2477,10.2297,16.0792],[-85.2443,10.2368,21.3409],[-85.2474,10.2437,8.4013],[-85.2503,10.2469,8.7205],[-85.2764,10.2599,12.0171],[-85.2832,10.2652,14.518],[-85.2865,10.2651,29.1502],[-85.2899,10.2685,16.6706],[-85.291,10.2754,11.0342],[-85.2847,10.285,0.5],[-85.2844,10.2893,8.4347],[-85.2879,10.2939,3.6747],[-85.3061,10.3051,2.8131],[-85.3119,10.3194,1.0],[-85.3269,10.3222,1.0],[-85.3352,10.322,11.1741],[-85.3413,10.3184,5.8877],[-85.3485,10.318,11.3767],[-85.3538,10.3142,5.9696],[-85.3567,10.3139,3.2197],[-85.3592,10.316,2.4759],[-85.3602,10.3245,3.687],[-85.3713,10.3241,2.5484],[-85.3796,10.3297,2.1795],[-85.3794,10.3318,2.3893],[-85.3767,10.3324,3.166],[-85.372,10.3273,11.807],[-85.3694,10.328,6.6112],[-85.3719,10.3369,5.3344],[-85.3674,10.3417,10.7386],[-85.3709,10.3436,9.5364],[-85.3762,10.3425,4.4651],[-85.385,10.3369,3.7758],[-85.3977,10.3369,4.6757],[-85.4035,10.3395,5.337],[-85.4079,10.3465,3.4917],[-85.4137,10.3463,9.5539],[-85.4161,10.3444,8.4933],[-85.4228,10.3436,8.78],[-85.4229,10.3412,10.2408],[-85.4267,10.3403,3.9785],[-85.4291,10.3341,6.5962],[-85.427,10.3282,3.2954],[-85.434,10.3319,3.8535],[-85.4356,10.3365,3.5129],[-85.438,10.3372,4.7245],[-85.4425,10.3332,5.5082],[-85.4388,10.3317,5.0702],[-85.4382,10.3282,3.5525],[-85.4428,10.3281,3.6847],[-85.4448,10.3255,3.581],[-85.4481,10.3246,3.9101],[-85.4491,10.3278,6.357],[-85.4508,10.3276,6.357],[-85.4524,10.3295,4.0977],[-85.4551,10.3287,4.6291],[-85.4597,10.3344,6.019],[-85.4714,10.3346,15.5394],[-85.4819,10.3384,19.8297],[-85.4841,10.3383,15.8954],[-85.4897,10.334,10.0868],[-85.496,10.3328,11.6205],[-85.498,10.3352,14.5929],[-85.4991,10.3346,9.4772],[-85.5009,10.3321,9.0385],[-85.5007,10.3282,13.8205],[-85.4989,10.324,12.5714],[-85.4963,10.3241,10.0106],[-85.493,10.32,14.0889],[-85.4957,10.3161,19.1383],[-85.4955,10.309,22.4182],[-85.4934,10.3043,20.0837],[-85.4911,10.3032,16.5925],[-85.4891,10.2962,15.462],[-85.4942,10.2858,19.4834],[-85.4978,10.2726,31.4175],[-85.4951,10.2661,37.6451],[-85.4967,10.2651,44.2808],[-85.4994,10.2571,62.9419],[-85.5022,10.2575,75.5413],[-85.5048,10.2547,127.2919],[-85.5057,10.2506,203.5564],[-85.5059,10.2464,415.78],[-85.4987,10.2366,518.9607],[-85.5001,10.2337,527.6277],[-85.5081,10.2328,478.1946],[-85.5152,10.2294,290.7663],[-85.5182,10.2302,246.0076],[-85.5206,10.2267,240.1389],[-85.525,10.226,222.077],[-85.5289,10.2014,382.0534],[-85.5363,10.1809,280.0113],[-85.5407,10.1789,345.1833],[-85.5429,10.1757,471.5714],[-85.5439,10.1701,649.2303],[-85.5473,10.1643,704.1561],[-85.5512,10.1641,735.3981],[-85.5504,10.1625,749.4309],[-85.5586,10.1583,903.5534],[-85.5607,10.1535,885.6923],[-85.5664,10.15,696.4672],[-85.5738,10.1399,674.9205],[-85.5831,10.1333,792.9265],[-85.5845,10.1285,830.0866],[-85.592,10.1273,756.2136],[-85.5957,10.1239,749.4382],[-85.5988,10.1149,829.0272],[-85.5985,10.1105,865.1659],[-85.597,10.107,833.3618],[-85.5914,10.107,758.0826],[-85.5923,10.0967,655.1353],[-85.5889,10.0875,535.7783],[-85.5909,10.0844,489.1025],[-85.5899,10.0814,445.3221],[-85.5961,10.0791,370.8838],[-85.5962,10.0756,348.0077],[-85.5944,10.0763,336.7772],[-85.5947,10.074,326.183],[-85.592,10.0727,328.7945],[-85.5923,10.0684,336.2397],[-85.5943,10.0688,320.0562],[-85.597,10.0654,250.6538],[-85.6002,10.066,236.7167],[-85.6024,10.0635,230.5271],[-85.6062,10.0633,215.491],[-85.6083,10.0595,202.2096],[-85.6062,10.0588,208.8749],[-85.6058,10.0554,206.5425],[-85.6079,10.054,205.8367],[-85.614,10.0538,214.6847],[-85.6146,10.0525,175.6358],[-85.6191,10.056,187.0392],[-85.6241,10.0555,176.6656],[-85.6239,10.0529,174.9301],[-85.6274,10.0487,158.1193],[-85.6271,10.0458,175.1114],[-85.6294,10.0446,153.1965],[-85.6268,10.0414,148.4193],[-85.6285,10.0396,178.5733],[-85.626,10.0386,136.3694],[-85.6287,10.0373,184.5756],[-85.6283,10.0352,125.4573],[-85.6303,10.0364,162.8242],[-85.6313,10.0336,128.618],[-85.6339,10.0331,112.0698],[-85.6366,10.0264,194.1242],[-85.6346,10.0205,105.8241],[-85.6386,10.0194,167.7878],[-85.636,10.0156,144.6327],[-85.6397,10.0174,109.8067],[-85.6412,10.0156,83.0831],[-85.6405,10.0124,69.9611],[-85.6431,10.0169,63.0249],[-85.6445,10.0118,136.606],[-85.6472,10.0157,145.5461],[-85.6492,10.0095,67.7782],[-85.6511,10.0106,64.171],[-85.6604,10.0095,60.4855],[-85.6608,10.0115,43.3042],[-85.6623,10.0117,43.3042],[-85.6591,10.0054,71.5745],[-85.6624,10.006,46.5883],[-85.6653,10.001,125.682],[-85.6609,10.0022,62.0549],[-85.6606,9.9993,44.8222],[-85.6623,9.9992,30.6796],[-85.6631,9.9958,36.1961],[-85.6673,9.9939,27.5196],[-85.6717,9.9956,27.4769],[-85.6736,9.9947,12.7727],[-85.6697,9.9922,35.2238],[-85.6714,9.9892,21.2079],[-85.6713,9.9828,28.3546],[-85.6772,9.9867,16.6148],[-85.6777,9.9834,35.4352],[-85.6803,9.9833,28.8761],[-85.6814,9.987,8.3649],[-85.6903,9.992,4.7225],[-85.6968,9.9867,0.6342],[-85.6875,9.9762,5.6487],[-85.6803,9.9634,16.5918],[-85.679,9.9636,31.5747],[-85.6808,9.9612,18.4487],[-85.6779,9.9586,0.0],[-85.6746,9.9515999999999991,6.2217],[-85.6752,9.9495,3.2633],[-85.6773,9.949,0.0],[-85.6707,9.9428,1.4664],[-85.6623,9.9286,2.2904],[-85.6615,9.9145,7.9998],[-85.6643,9.9087,34.4257],[-85.6702,9.9071,0.0],[-85.6678,9.9029,0.0],[-85.6574,9.9029,0.0],[-85.6519,9.8989,0.0],[-85.6502,9.8999,0.0],[-85.6528,9.9029,3.1919],[-85.6516,9.9059,0.0],[-85.6459,9.9084,0.0],[-85.641,9.9083,0.0],[-85.6294,9.9007,7.4092],[-85.628,9.8964,0.0],[-85.6294,9.894,0.95009999999999994],[-85.626,9.8924,24.3408],[-85.6163,9.8928,15.5099],[-85.6086,9.8904,10.1317],[-85.6059,9.8872,20.1982],[-85.5996,9.8906,15.4075],[-85.5932,9.8905,16.0185],[-85.5921,9.8885,63.314],[-85.5929,9.8859,0.0],[-85.5896,9.8853,11.0809],[-85.5889,9.8834,0.0],[-85.5749,9.8814,9.351],[-85.5691,9.8766,0.0],[-85.5653,9.8801,0.0],[-85.5595,9.8803,0.0],[-85.5521,9.8782,0.0],[-85.5479,9.8744,32.3931],[-85.5354,9.8738,48.4389],[-85.5285,9.8793,0.0],[-85.5204,9.8803,0.0],[-85.5082,9.8707,3.8092],[-85.5074,9.8675,0.0],[-85.5102,9.864,19.8411],[-85.5074,9.8601,0.0],[-85.5028,9.8639,39.2381],[-85.4987,9.8624,0.0],[-85.5003,9.8651,30.4616],[-85.4996,9.8673,5.6548],[-85.4936,9.8714,0.0],[-85.4961,9.8723,21.596],[-85.4956,9.8767,25.9619],[-85.4876,9.881,90.3931],[-85.4866,9.8883,182.3411],[-85.4807,9.8885,238.1857],[-85.4749,9.8856,290.616],[-85.4742,9.8888,287.0627],[-85.4694,9.892,314.6783],[-85.4679,9.8977,329.8749],[-85.4647,9.8995,377.1774],[-85.4642,9.9041,415.8877],[-85.4674,9.9098,421.5794],[-85.4655,9.9131,482.7404],[-85.4675,9.9168,445.4426],[-85.4718,9.9189,571.3971],[-85.4737,9.9247,591.1315],[-85.4675,9.9318,616.4572],[-85.4669,9.9436,497.215],[-85.4635,9.9448,526.2148]]],
[[[-85.2027,10.1095,0.0],[-85.2022,10.1092,0.0],[-85.2018,10.1097,0.0],[-85.202,10.1098,0.0],[-85.2027,10.1095,0.0]]]]}}