{"type": "Feature","bbox": [-84.128,9.7609,-84.0945,9.8149],"geometry": {"type": "MultiPolygon","coordinates": [[[[-84.1095,9.7609,950.6053],[-84.1094,9.7627,995.8915],[-84.1076,9.7627,1053.5519],[-84.109,9.7669,1248.2891],[-84.1073,9.7662,1248.2891],[-84.1081,9.7676,1297.7349],[-84.1043,9.7713,1375.9608],[-84.097,9.7745,1427.147],[-84.0992,9.7808,1479.1974],[-84.0953,9.7857,1473.3325],[-84.0965,9.7917,1455.7976],[-84.0945,9.7946,1485.4509],[-84.0975,9.7998,1543.8887],[-84.1018,9.8028,1589.783],[-84.1056,9.8108,1681.2841],[-84.1113,9.8149,1766.1892],[-84.1108,9.8127,1735.4017],[-84.1149,9.8142,1735.2622],[-84.1149,9.8116,1701.1035],[-84.1165,9.8124,1713.028],[-84.1197,9.8104,1592.8242],[-84.1149,9.8094,1609.0143],[-84.116,9.8063,1485.7897],[-84.1142,9.8058,1454.2299],[-84.1132,9.8014,1312.8359],[-84.1151,9.7998,1253.5514],[-84.1167,9.7939,1180.0479],[-84.1198,9.7916,1187.8799],[-84.1215,9.7827,1027.5056],[-84.128,9.771,842.077],[-84.1192,9.7667,915.0],[-84.1165,9.761,903.1017],[-84.1126,9.7637,925.7604],[-84.1095,9.7609,950.6053]]]]}
,"properties": {"GID_3": "CRI.7.3.5_1","GID_0": "CRI","country": "CostaRica","GID_1": "CRI.7_1","province": "SanJosé","NL_NAME_1": "NA","GID_2": "CRI.7.3_1","county": "Aserrí","NL_NAME_2": "NA","city": "SanGabriel","VARNAME_3": "NA","NL_NAME_3": "NA","TYPE_3": "Distrito","ENGTYPE_3": "District","CC_3": "4","HASC_3": "NA","name": "San_Gabriel.city","area_km2": 11.763155,"hist_schema_id": "Elevation0-9000","hist_area_km2": {"850": 0.020895,"875": 0.083579,"900": 0.146265,"925": 0.188052,"950": 0.208948,"975": 0.062684,"1000": 0.271629,"1025": 0.146259,"1050": 0.271627,"1075": 0.250732,"1100": 0.334308,"1125": 0.355205,"1150": 0.522351,"1175": 0.480561,"1200": 0.522351,"1225": 0.37609,"1250": 0.585027,"1275": 0.605918,"1300": 0.459661,"1325": 0.75217,"1350": 0.605916,"1375": 0.689491,"1400": 0.585026,"1425": 0.459658,"1450": 0.626803,"1475": 0.501437,"1500": 0.313394,"1525": 0.271609,"1550": 0.250711,"1575": 0.083569,"1600": 0.083569,"1625": 0.125354,"1650": 0.083569,"1675": 0.083569,"1700": 0.146245,"1725": 0.10446,"1750": 0.10446}}}