{"type":"Feature","properties":{"GID_3":"CRI.6.2.2_1","GID_0":"CRI","country":"CostaRica","GID_1":"CRI.6_1","province":"Puntarenas","NL_NAME_1":"NA","GID_2":"CRI.6.2_1","county":"BuenosAires","NL_NAME_2":"NA","city":"Boruca","VARNAME_3":"NA","NL_NAME_3":"NA","TYPE_3":"Distrito","ENGTYPE_3":"District","CC_3":"4","HASC_3":"NA","name":"Boruca.city"},
"geometry":{"type": "MultiPolygon","coordinates": [[[[-83.3475,9.0855,166.6158],[-83.3463,9.085,170.5192],[-83.3506,9.069,335.7488],[-83.3495,9.065,358.6187],[-83.3512,9.0653,368.5227],[-83.3522,9.0624,400.8993],[-83.3475,9.0561,485.263],[-83.3318,9.0537,680.3907],[-83.3326,9.0521,680.3907],[-83.3492,9.0434,687.718],[-83.3672,9.0445,788.2452],[-83.3719,9.0418,798.2913],[-83.3714,9.0329,727.9722],[-83.3661,9.0255,736.7849],[-83.3678,9.0187,809.1843],[-83.3724,9.016,843.6642],[-83.3902,9.0181,827.6138],[-83.3903,9.0135,783.0336],[-83.3762,9.0016,860.8719],[-83.3711,9.0002,907.2122],[-83.3692,8.9954,893.8909],[-83.3625,8.9927,996.5513],[-83.3644,8.9869,940.3928],[-83.3623,8.9839,953.8422],[-83.3623,8.9807,1019.3048],[-83.3741,8.9807,933.5204],[-83.3685,8.9749,772.0183],[-83.3681,8.9644,381.2932],[-83.3707,8.9546,28.0],[-83.3566,8.9445,66.8321],[-83.3485,8.944,56.8796],[-83.3418,8.9406,41.9672],[-83.3376,8.9419,36.0511],[-83.3266,8.9507,45.254],[-83.3188,8.9526,82.3316],[-83.3187,8.9543,55.922],[-83.3235,8.96,115.2345],[-83.3214,8.9628,114.453],[-83.3174,8.963,47.6321],[-83.3136,8.9568,135.3035],[-83.31,8.9562,51.5999],[-83.3034,8.9643,66.3468],[-83.3038,8.9713,54.2031],[-83.3014,8.9735,53.3218],[-83.2901,8.9737,57.6377],[-83.2817,8.9695,60.6824],[-83.274,8.9708,62.956],[-83.2718,8.9739,72.1598],[-83.2746,8.9796,68.022],[-83.2742,8.9824,82.544],[-83.2665,8.9733,73.502],[-83.2601,8.9842,72.407],[-83.2599,8.9902,94.4274],[-83.2573,8.9913,136.6688],[-83.2564,8.9943,113.5247],[-83.2587,8.9989,145.2401],[-83.2673,9.0044,165.6439],[-83.2675,9.0072,220.8086],[-83.2732,9.0114,311.1041],[-83.2746,9.0149,342.7614],[-83.2775,9.0149,356.9474],[-83.2825,9.0195,421.7259],[-83.2914,9.0216,480.6143],[-83.2963,9.0212,540.1335],[-83.3042,9.0244,687.9246],[-83.3006,9.0362,582.3792],[-83.2997,9.0453,631.6409],[-83.296,9.0526,591.2423],[-83.2964,9.0574,479.3749],[-83.2907,9.0699,353.6326],[-83.293,9.0758,306.1257],[-83.293,9.0821,176.934],[-83.3002,9.0828,161.9349],[-83.3082,9.0802,196.552],[-83.3162,9.0836,169.7332],[-83.3329,9.0832,167.5597],[-83.3377,9.0888,208.5648],[-83.3458,9.089,182.993],[-83.3475,9.0855,166.6158]]]]}}