{"type": "Feature","bbox": [-84.2998,10.0144,-84.1958,10.1981],"geometry": {"type": "MultiPolygon","coordinates": [[[[-84.2503,10.0527,968.1],[-84.2466,10.0549,1008.9818],[-84.2477,10.0562,991.0859],[-84.2469,10.0619,1029.8058],[-84.2421,10.068,1056.957],[-84.2389,10.0714,1080.8021],[-84.2339,10.0729,1141.3661],[-84.2351,10.0748,1120.075],[-84.2338,10.0755,1145.4332],[-84.234,10.0785,1141.5831],[-84.2323,10.0782,1176.4629],[-84.2316,10.0836,1154.2615],[-84.2273,10.0861,1170.8668],[-84.2261,10.0911,1201.1774],[-84.2218,10.0957,1273.2159],[-84.2226,10.097,1252.752],[-84.2201,10.0982,1298.7609],[-84.2209,10.1015,1288.6003],[-84.2184,10.1014,1287.9321],[-84.2125,10.1076,1394.4899],[-84.2087,10.1086,1422.6382],[-84.2082,10.1146,1474.1118],[-84.204,10.1183,1504.224],[-84.2015,10.1248,1559.4438],[-84.1999,10.1252,1559.4438],[-84.1989,10.1309,1663.1888],[-84.1971,10.1327,1677.6569],[-84.1978,10.1366,1716.7703],[-84.1958,10.1389,1762.4001],[-84.1983,10.1559,1902.8113],[-84.2081,10.167,2176.2656],[-84.2135,10.1706,2354.7759],[-84.2197,10.1794,2526.1562],[-84.223,10.1811,2593.5601],[-84.2307,10.1981,2309.5],[-84.239,10.1866,2554.1345],[-84.2364,10.185,2553.4148],[-84.2377,10.1813,2529.1868],[-84.2368,10.1744,2527.4812],[-84.2324,10.1709,2472.0654],[-84.2327,10.1676,2470.1382],[-84.2307,10.1681,2447.0588],[-84.2304,10.1639,2398.9067],[-84.2362,10.1599,2229.6528],[-84.2394,10.1542,2034.1395],[-84.2428,10.1442,1838.693],[-84.2432,10.1351,1624.7224],[-84.2507,10.1288,1497.0453],[-84.2509,10.1228,1424.8501],[-84.2548,10.1209,1356.5215],[-84.2603,10.1135,1274.9988],[-84.2703,10.1045,1191.821],[-84.2718,10.1006,1163.8088],[-84.2711,10.091,1069.7493],[-84.2738,10.084,1037.3821],[-84.2722,10.0831,1038.1333],[-84.273,10.0792,1026.3979],[-84.2705,10.0743,1023.1913],[-84.2734,10.068,1000.094],[-84.273,10.0645,984.8159],[-84.2782,10.0552,997.3996],[-84.2777,10.0478,916.3104],[-84.2804,10.0438,868.601],[-84.2802,10.0404,845.2266],[-84.2846,10.0386,832.1929],[-84.2891,10.0284,777.1357],[-84.294,10.0255,770.5808],[-84.2998,10.015,699.8454],[-84.2961,10.0144,710.3136],[-84.2927,10.0173,730.9635],[-84.2864,10.0183,746.9636],[-84.2804,10.0233,765.1266],[-84.2754,10.0228,791.1219],[-84.2679,10.0264,806.8309],[-84.2665,10.0258,806.345],[-84.265,10.0299,822.4528],[-84.2624,10.0317,836.421],[-84.261,10.031,834.7102],[-84.2583,10.0344,870.5021],[-84.2558,10.0431,891.0012],[-84.2524,10.0445,908.2777],[-84.2541,10.0472,939.2992],[-84.2503,10.0527,968.1]]]]}
,"properties": {"GID_2": "CRI.1.10_1","GID_0": "CRI","country": "CostaRica","GID_1": "CRI.1_1","province": "Alajuela","NL_NAME_1": "NA","county": "Poás","VARNAME_2": "NA","NL_NAME_2": "NA","TYPE_2": "Cantón","ENGTYPE_2": "Canton","CC_2": "8","HASC_2": "CR.AL.PO","name": "Poás.county","area_km2": 74.89324,"hist_schema_id": "Elevation0-9000","hist_area_km2": {"700": 0.08352,"725": 0.08352,"750": 0.3967,"775": 0.73075,"800": 0.98128,"825": 1.00215,"850": 0.98126,"875": 1.06477,"900": 1.10651,"925": 1.23177,"950": 1.35702,"975": 0.85594,"1000": 1.33608,"1025": 1.75358,"1050": 2.17107,"1075": 3.11045,"1100": 2.94342,"1125": 2.48412,"1150": 2.1292,"1175": 1.85781,"1200": 2.42139,"1225": 1.98301,"1250": 1.75338,"1275": 1.23153,"1300": 1.58637,"1325": 1.18977,"1350": 1.06452,"1375": 1.25237,"1400": 1.35673,"1425": 1.25236,"1450": 1.37759,"1475": 1.10624,"1500": 1.10623,"1525": 1.29407,"1550": 1.23145,"1575": 1.3358,"1600": 1.12708,"1625": 1.04358,"1650": 0.8766,"1675": 0.85573,"1700": 0.98095,"1725": 0.83485,"1750": 1.0853,"1775": 0.93919,"1800": 0.70961,"1825": 0.91832,"1850": 0.68873,"1875": 0.79308,"1900": 0.83482,"1925": 0.64698,"1950": 0.54263,"1975": 0.54263,"2000": 0.50088,"2025": 0.45914,"2050": 0.43827,"2075": 0.54262,"2100": 0.45914,"2125": 0.45914,"2150": 0.48001,"2175": 0.37566,"2200": 0.39653,"2225": 0.56348,"2250": 0.41739,"2275": 0.29217,"2300": 0.37565,"2325": 0.39651,"2350": 0.25043,"2375": 0.35478,"2400": 0.2713,"2425": 0.29216,"2450": 0.25043,"2475": 0.25043,"2500": 0.43824,"2525": 0.73041,"2550": 0.95995,"2575": 0.37563,"2600": 0.29215,"2625": 0.31302,"2650": 0.18781,"2675": 0.12521,"2700": 0.02087}}}