{"type":"Feature","properties":{"GID_3":"CRI.1.4.7_1","GID_0":"CRI","country":"CostaRica","GID_1":"CRI.1_1","province":"Alajuela","NL_NAME_1":"NA","GID_2":"CRI.1.4_1","county":"Grecia","NL_NAME_2":"NA","city":"Tacares","VARNAME_3":"NA","NL_NAME_3":"NA","TYPE_3":"Distrito","ENGTYPE_3":"District","CC_3":"5","HASC_3":"NA","name":"Tacares.city"},
"geometry":{"type": "MultiPolygon","coordinates": [[[[-84.31,10.0031,644.0821],[-84.3079,10.0074,667.7245],[-84.2998,10.015,699.8454],[-84.294,10.0255,770.5808],[-84.2891,10.0284,777.1357],[-84.2846,10.0386,832.1929],[-84.2802,10.0404,845.2266],[-84.2804,10.0438,868.601],[-84.2777,10.048,916.3104],[-84.2772,10.0526,961.877],[-84.2782,10.0552,997.3996],[-84.2806,10.0552,987.0933],[-84.2813,10.0594,972.2166],[-84.2839,10.0568,957.6974],[-84.287,10.0585,1006.0363],[-84.2881,10.0612,991.9359],[-84.2918,10.06,982.5821],[-84.2919,10.0637,978.8348],[-84.2955,10.0631,971.991],[-84.2957,10.0652,981.0298],[-84.2974,10.0657,965.6344],[-84.2981,10.0683,969.4946],[-84.2966,10.0697,963.9496],[-84.2994,10.0681,958.2605],[-84.2979,10.0668,965.6344],[-84.3031,10.0638,911.2078],[-84.3061,10.0574,880.7682],[-84.3046,10.0528,883.3042],[-84.3085,10.048,832.8937],[-84.3068,10.0465,825.5107],[-84.3078,10.0453,842.0637],[-84.3046,10.0429,829.2239],[-84.3061,10.0422,818.5698],[-84.3067,10.0379,792.6195],[-84.3093,10.0394,788.4741],[-84.3112,10.037,796.205],[-84.3164,10.0375,776.3318],[-84.3196,10.0353,744.7448],[-84.3193,10.034,744.7448],[-84.3253,10.0311,734.1689],[-84.3266,10.0246,711.8881],[-84.3291,10.0243,709.5325],[-84.3301,10.0225,717.9119],[-84.3289,10.0197,709.6082],[-84.3392,10.0154,683.1115],[-84.3392,10.0132,688.334],[-84.3447,10.008,605.9967],[-84.344,10.004,602.4153],[-84.3462,10.0,577.473],[-84.3418,9.9928,534.2025],[-84.3393,9.9959,613.0192],[-84.339,10.0005,564.182],[-84.3371,10.0017,568.4473],[-84.333,10.0013,575.6401],[-84.3293,9.9973,629.2042],[-84.3236,9.9979,605.1081],[-84.3214,9.9957,598.8793],[-84.3179,9.9979,616.1146],[-84.3104,9.9986,674.3767],[-84.31,10.0031,644.0821]]]]}}