{"type": "Feature","bbox": [-83.4891,9.075,-82.8411,9.6733],"geometry": {"type": "MultiPolygon","coordinates": [[[[-83.4891,9.484,3753.5232],[-83.4867,9.4765,3710.4033],[-83.4837,9.4729,3675.1558],[-83.4837,9.4683,3531.2427],[-83.4817,9.4658,3550.175],[-83.4811,9.4577,3665.7141],[-83.4783,9.45,3469.2507],[-83.4808,9.4436,3448.4155],[-83.4798,9.4372,3370.6423],[-83.4826,9.4298,3422.7075],[-83.4726,9.4196,3132.0352],[-83.4703,9.4102,3200.9954],[-83.4659,9.4055,3239.4268],[-83.4583,9.3832,2875.0317],[-83.4547,9.3793,3039.5515],[-83.4499,9.3773,3114.1968],[-83.4401,9.3771,3142.6621],[-83.4374,9.3709,3115.603],[-83.4314,9.3722,3117.6396],[-83.4293,9.3673,3107.0334],[-83.4222,9.3663,3004.0991],[-83.4183,9.3631,3003.1462],[-83.4155,9.3574,2910.7375],[-83.4059,9.3531,2895.2544],[-83.4036,9.3485,2848.3943],[-83.4006,9.3478,2886.0408],[-83.4007,9.3425,2882.6934],[-83.3986,9.3372,2883.6736],[-83.3939,9.3424,2852.0791],[-83.3857,9.3464,2898.6494],[-83.3783,9.3464,2873.9646],[-83.3754,9.3478,2844.3062],[-83.3667,9.3461,2738.2881],[-83.3553,9.3523,2980.4551],[-83.3515,9.3508,3021.624],[-83.3445,9.3572,2934.5342],[-83.3435,9.363,2964.2166],[-83.3448,9.3669,2989.3137],[-83.342,9.3707,2909.8491],[-83.3386,9.371,2923.3059],[-83.3347,9.3742,3007.6841],[-83.3325,9.383,3071.0977],[-83.3276,9.3815,2978.7834],[-83.3256,9.3837,2952.52],[-83.3206,9.3842,3023.2292],[-83.3121,9.3826,3138.0564],[-83.3075,9.3769,3169.8997],[-83.3029,9.3746,3253.5603],[-83.2991,9.3685,3063.042],[-83.2904,9.3629,2865.0378],[-83.2874,9.3553,2809.812],[-83.279,9.3557,2682.3594],[-83.2719,9.3523,2619.3503],[-83.2687,9.3477,2553.7327],[-83.2619,9.3454,2306.8022],[-83.257,9.3416,2288.5042],[-83.2409,9.3389,2259.5161],[-83.2358,9.3296,2316.8306],[-83.229,9.3268,2337.0916],[-83.2241,9.3205,2539.1023],[-83.2068,9.3207,2612.4326],[-83.1973,9.3236,2648.6606],[-83.1885,9.3227,2853.7576],[-83.178,9.3268,3039.5366],[-83.1685,9.3193,2973.5278],[-83.1644,9.3077,2794.3628],[-83.1572,9.3031,2825.666],[-83.1574,9.3,2813.0581],[-83.1533,9.2981,2749.2266],[-83.1515,9.2949,2710.0452],[-83.1449,9.2926,2753.5835],[-83.1452,9.2896,2709.8936],[-83.1344,9.282,2868.5815],[-83.1342,9.2762,2870.1426],[-83.1166,9.2749,2632.9465],[-83.1132,9.2717,2542.2441],[-83.1102,9.2654,2474.1086],[-83.1029,9.263,2669.8181],[-83.1024,9.2592,2658.7715],[-83.0983,9.2563,2715.5496],[-83.0917,9.2538,2775.6321],[-83.0843,9.2556,2850.25],[-83.0733,9.2499,2933.4497],[-83.0717,9.2427,3041.1147],[-83.0733,9.2368,2917.6943],[-83.0797,9.2338,2862.4094],[-83.0791,9.2285,2820.4551],[-83.0758,9.224,2913.3003],[-83.0768,9.22,3011.4695],[-83.0702,9.212,2956.0496],[-83.0669,9.2106,2993.4902],[-83.0629,9.2043,2947.7688],[-83.0568,9.2,2951.6846],[-83.0578,9.194,2958.8386],[-83.067,9.1894,2820.8835],[-83.0673,9.183,2726.9438],[-83.0621,9.1734,2729.322],[-83.0447,9.16,2634.981],[-83.0332,9.1617,2573.3921],[-83.0195,9.1583,2558.3284],[-83.016,9.1589,2549.698],[-83.0074,9.1559,2634.7886],[-83.0028,9.1559,2653.9094],[-82.9965,9.1584,2692.9514],[-82.9914,9.1536,2669.8574],[-82.996,9.1444,2569.5369],[-82.9941,9.1425,2551.4341],[-82.9927,9.1357,2506.1216],[-82.9966,9.127,2519.2668],[-82.9874,9.1244,2566.4089],[-82.9895,9.1167,2515.6567],[-82.9813,9.113,2517.3193],[-82.9814,9.1064,2542.2371],[-82.9786,9.1033,2540.9043],[-82.9772,9.095,2545.2605],[-82.975,9.0944,2537.4448],[-82.9709,9.0966,2535.9111],[-82.9582,9.0899,2649.5986],[-82.9524,9.0914,2682.5955],[-82.9499,9.0895,2683.1484],[-82.9423,9.0765,2725.949],[-82.9385,9.075,2708.353],[-82.9366,9.078,2708.25],[-82.9342,9.0787,2766.2461],[-82.9341,9.4751,620.204],[-82.8411,9.4971,109.7553],[-82.8442,9.4991,99.6472],[-82.8425,9.5043,76.4817],[-82.8478,9.5086,84.1559],[-82.8475,9.5142,123.788],[-82.856,9.5117,68.6897],[-82.8572,9.5128,71.588],[-82.8531,9.5168,72.0707],[-82.8555,9.5198,72.6322],[-82.8648,9.5181,81.0978],[-82.8725,9.5245,62.8929],[-82.8719,9.5334,68.209],[-82.8742,9.538,62.2582],[-82.8675,9.545,71.2993],[-82.8689,9.5546,53.555],[-82.8728,9.5552,47.4414],[-82.8775,9.5533,79.0571],[-82.8812,9.5568,49.3752],[-82.8813,9.5636,43.7269],[-82.8851,9.5644,45.0474],[-82.8889,9.5505,57.2608],[-82.9003,9.5552,54.8878],[-82.9113,9.5542,43.5],[-82.9273,9.5653,51.8956],[-82.9397,9.5647,49.4381],[-82.944,9.5689,56.3586],[-82.9511,9.5645,57.4258],[-82.9524,9.5663,54.6611],[-82.9508,9.569,60.3984],[-82.9541,9.5692,55.8257],[-82.9521,9.572,60.6],[-82.9538,9.5732,61.6339],[-82.9574,9.5728,62.2002],[-82.9595,9.57,59.7038],[-82.9643,9.5733,61.7019],[-82.9649,9.577,62.1365],[-82.9665,9.578,64.3086],[-82.9691,9.5723,64.0701],[-82.9721,9.5741,63.8394],[-82.9768,9.5738,65.617],[-82.9816,9.5772,70.762],[-82.987,9.5775,74.4586],[-82.9921,9.5846,82.1711],[-83.0016,9.5839,89.1055],[-83.0097,9.59,97.8787],[-83.0165,9.5887,104.9049],[-83.0276,9.5911,118.8911],[-83.04,9.5902,134.6937],[-83.0479,9.5869,143.2218],[-83.0647,9.5847,169.3855],[-83.0778,9.5905,180.271],[-83.0842,9.5898,211.9376],[-83.0933,9.5955,236.516],[-83.1032,9.5956,225.6291],[-83.1107,9.5926,252.0135],[-83.1159,9.5965,234.2832],[-83.1215,9.5953,319.92],[-83.1244,9.5993,254.6828],[-83.1295,9.5962,253.7473],[-83.1334,9.598,276.611],[-83.1355,9.5968,331.7738],[-83.1424,9.5981,317.5084],[-83.148,9.596,297.0726],[-83.1594,9.6035,333.6768],[-83.161,9.6053,356.1096],[-83.1605,9.6085,344.8],[-83.156,9.6108,425.5547],[-83.1479,9.6228,506.8774],[-83.1438,9.6257,605.8425],[-83.1365,9.6401,1009.3648],[-83.1407,9.6384,883.9318],[-83.1494,9.6392,716.0104],[-83.1537,9.6362,790.2731],[-83.1554,9.6383,823.7781],[-83.16,9.6384,877.7256],[-83.1656,9.6429,1322.9807],[-83.1674,9.6413,1378.4929],[-83.1705,9.6423,1268.7104],[-83.1714,9.6468,1171.9574],[-83.1838,9.6507,1231.6343],[-83.1856,9.6538,1262.5999],[-83.1886,9.6532,1276.6875],[-83.1987,9.6584,1470.257],[-83.2033,9.6571,1394.1807],[-83.2086,9.6578,1528.8756],[-83.2121,9.664,1442.6588],[-83.216,9.664,1416.4484],[-83.2239,9.6687,1198.3511],[-83.2336,9.6671,1315.863],[-83.2388,9.6695,1504.8137],[-83.2423,9.6668,1489.0082],[-83.2532,9.6696,1634.7587],[-83.2553,9.668,1682.2439],[-83.2655,9.6699,1778.1304],[-83.2698,9.6733,1963.5643],[-83.2732,9.6683,1967.3708],[-83.2836,9.6656,1751.8687],[-83.2907,9.6673,1744.3385],[-83.2978,9.6666,1736.7595],[-83.303,9.6696,1838.8093],[-83.3059,9.6679,1873.2749],[-83.3149,9.6722,2140.2251],[-83.3209,9.6687,1988.0449],[-83.3219,9.6653,2158.0564],[-83.3272,9.6643,2265.9575],[-83.3294,9.6615,2374.2236],[-83.3322,9.6503,2183.3394],[-83.3373,9.6481,2103.4138],[-83.3428,9.6362,2046.8043],[-83.3398,9.6303,2053.2749],[-83.3411,9.6256,2182.9143],[-83.3444,9.6235,2236.6189],[-83.3505,9.6231,2242.7148],[-83.3527,9.6213,2232.0159],[-83.3652,9.6196,2107.074],[-83.3683,9.6111,1995.2932],[-83.378,9.6016,2289.8325],[-83.3927,9.6037,2655.335],[-83.4043,9.5983,2580.843],[-83.4112,9.5897,2474.0664],[-83.4126,9.5829,2558.7224],[-83.4155,9.5808,2541.8325],[-83.4171,9.5757,2544.1521],[-83.421,9.5753,2549.1594],[-83.424,9.5718,2555.0156],[-83.4231,9.5671,2586.8516],[-83.4285,9.5634,2547.8389],[-83.438,9.5619,2531.5239],[-83.4411,9.5629,2574.7607],[-83.4573,9.5584,2849.4441],[-83.4705,9.5498,3216.5159],[-83.4716,9.5423,3347.7495],[-83.4767,9.5366,3563.2222],[-83.4732,9.5269,3550.1162],[-83.4699,9.5257,3592.1968],[-83.4693,9.5214,3576.5391],[-83.4756,9.5154,3590.4863],[-83.4773,9.5059,3645.0723],[-83.4822,9.502,3684.9155],[-83.4813,9.493,3581.3069],[-83.4792,9.4893,3669.9233],[-83.4799,9.4859,3630.542],[-83.4891,9.484,3753.5232]]]]}
,"properties": {"GID_3": "CRI.5.6.4_1","GID_0": "CRI","country": "CostaRica","GID_1": "CRI.5_1","province": "Limón","NL_NAME_1": "NA","GID_2": "CRI.5.6_1","county": "Talamanca","NL_NAME_2": "NA","city": "Telire","VARNAME_3": "NA","NL_NAME_3": "NA","TYPE_3": "Distrito","ENGTYPE_3": "District","CC_3": "4","HASC_3": "NA","name": "Telire.city","area_km2": 2239.085,"hist_schema_id": "Elevation0-9000","hist_area_km2": {"50": 10.621,"75": 37.615,"100": 31.677,"125": 24.443,"150": 18.903,"175": 17.376,"200": 15.599,"225": 12.714,"250": 10.602,"275": 10.435,"300": 9.828,"325": 10.246,"350": 11.229,"375": 12.4,"400": 12.065,"425": 12.63,"450": 13.153,"475": 14.198,"500": 15.285,"525": 15.39,"550": 16.77,"575": 16.812,"600": 18.025,"625": 18.151,"650": 18.799,"675": 18.422,"700": 18.674,"725": 19.405,"750": 20.576,"775": 19.426,"800": 20.576,"825": 20.053,"850": 21.58,"875": 19.614,"900": 20.848,"925": 20.347,"950": 21.35,"975": 21.1,"1000": 19.845,"1025": 19.552,"1050": 19.427,"1075": 20.096,"1100": 19.803,"1125": 18.172,"1150": 19.49,"1175": 19.427,"1200": 18.109,"1225": 19.05,"1250": 17.524,"1275": 17.148,"1300": 18.026,"1325": 16.124,"1350": 17.232,"1375": 17.881,"1400": 17.232,"1425": 16.982,"1450": 18.654,"1475": 17.525,"1500": 18.404,"1525": 17.149,"1550": 19.22,"1575": 19.178,"1600": 20.119,"1625": 19.387,"1650": 19.596,"1675": 19.889,"1700": 19.89,"1725": 20.497,"1750": 21.062,"1775": 21.187,"1800": 20.539,"1825": 21.23,"1850": 20.979,"1875": 21.753,"1900": 22.046,"1925": 20.54,"1950": 21.817,"1975": 20.813,"2000": 21.42,"2025": 21.922,"2050": 21.19,"2075": 21.713,"2100": 22.78,"2125": 23.303,"2150": 23.283,"2175": 23.366,"2200": 25.312,"2225": 23.116,"2250": 22.76,"2275": 21.191,"2300": 21.505,"2325": 20.585,"2350": 21.108,"2375": 21.421,"2400": 22.217,"2425": 23.201,"2450": 22.615,"2475": 23.307,"2500": 22.827,"2525": 23.371,"2550": 20.987,"2575": 19.835,"2600": 17.303,"2625": 17.429,"2650": 17.869,"2675": 17.764,"2700": 16.571,"2725": 15.922,"2750": 15.817,"2775": 13.871,"2800": 12.156,"2825": 11.214,"2850": 10.502,"2875": 10.0,"2900": 8.264,"2925": 7.908,"2950": 8.159,"2975": 6.966,"3000": 5.648,"3025": 4.749,"3050": 4.539,"3075": 3.619,"3100": 3.284,"3125": 2.489,"3150": 2.782,"3175": 2.636,"3200": 2.259,"3225": 2.28,"3250": 1.987,"3275": 2.364,"3300": 2.113,"3325": 1.778,"3350": 1.506,"3375": 1.255,"3400": 1.213,"3425": 1.422,"3450": 1.485,"3475": 1.213,"3500": 1.401,"3525": 1.192,"3550": 1.171,"3575": 0.983,"3600": 0.439,"3625": 0.523,"3650": 0.376,"3675": 0.439,"3700": 0.23,"3725": 0.063,"3750": 0.042,"3775": 0.021}}}