{"type": "Feature","bbox": [-83.9865,9.647,-83.919,9.7393],"geometry": {"type": "MultiPolygon","coordinates": [[[[-83.949,9.7142,2349.3691],[-83.9559,9.7251,2220.4434],[-83.9549,9.7298,2139.9036],[-83.9567,9.7331,2060.78],[-83.9653,9.7367,1955.4008],[-83.9728,9.736,1909.5229],[-83.9734,9.7384,1880.5281],[-83.9834,9.7372,1782.4031],[-83.9865,9.7393,1749.6992],[-83.984,9.7334,1866.9712],[-83.978,9.7292,2028.8822],[-83.975,9.7217,2179.1282],[-83.9709,9.7164,2207.022],[-83.9783,9.6929,2024.0728],[-83.977,9.6888,2033.7407],[-83.9729,9.6884,1958.0603],[-83.9481,9.6605,1741.0476],[-83.9485,9.6575,1677.0187],[-83.945,9.6571,1700.7112],[-83.9398,9.6505,1812.2791],[-83.9335,9.647,1815.1562],[-83.9295,9.6545,2067.605],[-83.9289,9.6595,2192.1704],[-83.9245,9.6648,2314.7749],[-83.9246,9.6686,2366.8835],[-83.919,9.6746,2434.4121],[-83.9218,9.6838,2535.3779],[-83.9214,9.6888,2562.1394],[-83.9248,9.6916,2601.5129],[-83.926,9.6952,2546.6072],[-83.93,9.6972,2474.3892],[-83.9378,9.6994,2486.5752],[-83.9391,9.698,2490.0955],[-83.9426,9.6987,2417.6748],[-83.9455,9.7014,2415.7007],[-83.946,9.7051,2428.8774],[-83.9493,9.7064,2425.8613],[-83.9473,9.7099,2409.7383],[-83.949,9.7142,2349.3691]]]]}
,"properties": {"GID_3": "CRI.7.6.2_1","GID_0": "CRI","country": "CostaRica","GID_1": "CRI.7_1","province": "SanJosé","NL_NAME_1": "NA","GID_2": "CRI.7.6_1","county": "Dota","NL_NAME_2": "NA","city": "Jardin","VARNAME_3": "NA","NL_NAME_3": "NA","TYPE_3": "Distrito","ENGTYPE_3": "District","CC_3": "2","HASC_3": "NA","name": "Jardin.city","area_km2": 32.7914,"hist_schema_id": "Elevation0-9000","hist_area_km2": {"1675": 0.0418,"1700": 0.0418,"1725": 0.0418,"1750": 0.12541,"1775": 0.14631,"1800": 0.4389,"1825": 0.39711,"1850": 0.54342,"1875": 0.5852,"1900": 0.96139,"1925": 0.98229,"1950": 1.37937,"1975": 1.33759,"2000": 1.27489,"2025": 1.37936,"2050": 1.08677,"2075": 1.31665,"2100": 1.23306,"2125": 1.46296,"2150": 1.27484,"2175": 1.29575,"2200": 1.56745,"2225": 1.35846,"2250": 1.27486,"2275": 1.10767,"2300": 1.33758,"2325": 2.21536,"2350": 1.63017,"2375": 1.21216,"2400": 1.17036,"2425": 1.14948,"2450": 0.3971,"2475": 0.35529,"2500": 0.31349,"2525": 0.209,"2550": 0.0836,"2575": 0.0209,"2600": 0.0418}}}