{"type": "Feature","bbox": [-84.1139,9.9603,-84.0848,9.9853],"geometry": {"type": "MultiPolygon","coordinates": [[[[-84.1095,9.9615,1012.3206],[-84.1072,9.9603,1039.8481],[-84.1064,9.9634,1031.3315],[-84.094,9.9628,1082.4821],[-84.0848,9.9685,1092.8733],[-84.0883,9.9706,1135.3802],[-84.0895,9.975,1140.3427],[-84.0944,9.9754,1123.9517],[-84.094,9.9835,1155.9056],[-84.0955,9.9853,1142.8557],[-84.0984,9.9845,1139.4065],[-84.1003,9.9818,1131.5164],[-84.1009,9.9747,1106.4043],[-84.1083,9.9761,1073.7142],[-84.1139,9.9713,1049.2744],[-84.1121,9.964,1052.2031],[-84.1095,9.9615,1012.3206]]]]}
,"properties": {"GID_3": "CRI.4.9.5_1","GID_0": "CRI","country": "CostaRica","GID_1": "CRI.4_1","province": "Heredia","NL_NAME_1": "NA","GID_2": "CRI.4.9_1","county": "SantoDomingo","NL_NAME_2": "NA","city": "SantaRosa","VARNAME_3": "NA","NL_NAME_3": "NA","TYPE_3": "Distrito","ENGTYPE_3": "District","CC_3": "6","HASC_3": "NA","name": "Santa_Rosa.city","area_km2": 4.343451,"hist_schema_id": "Elevation0-9000","hist_area_km2": {"1025": 0.08353,"1050": 0.271468,"1075": 0.856167,"1100": 1.31557,"1125": 1.461733,"1150": 0.354982}}}