{"type": "Feature","bbox": [-85.6187,10.474,-85.559,10.6162],"geometry": {"type": "MultiPolygon","coordinates": [[[[-85.5705,10.4751,20.6298],[-85.5684,10.474,19.8342],[-85.559,10.4759,14.8585],[-85.5706,10.4992,17.9278],[-85.5696,10.5029,14.6631],[-85.571,10.5088,17.3539],[-85.5689,10.5134,16.3025],[-85.5692,10.5171,16.2142],[-85.5733,10.5236,18.6244],[-85.5826,10.5264,24.4971],[-85.5819,10.5304,24.1807],[-85.5766,10.5367,30.2024],[-85.5804,10.5404,17.4547],[-85.5891,10.5604,24.1916],[-85.5937,10.563,30.3671],[-85.5905,10.5666,32.4738],[-85.5906,10.5755,26.6917],[-85.5864,10.5813,26.127],[-85.5906,10.5892,40.2297],[-85.5884,10.5958,34.8951],[-85.59,10.6036,36.6208],[-85.5809,10.6151,31.1063],[-85.6034,10.6162,45.7017],[-85.6019,10.6134,39.3973],[-85.6039,10.6066,37.1721],[-85.6021,10.6018,35.7533],[-85.6032,10.5925,36.3334],[-85.6077,10.5854,32.8628],[-85.613,10.5827,33.8456],[-85.6159,10.5793,35.7911],[-85.616,10.5622,27.9836],[-85.6187,10.5577,29.2158],[-85.6108,10.5524,27.3761],[-85.6053,10.5433,26.7815],[-85.5978,10.5433,29.6365],[-85.5961,10.5391,34.2278],[-85.5975,10.536,27.9559],[-85.5939,10.5305,25.7102],[-85.5958,10.5266,31.1934],[-85.5896,10.5216,30.0313],[-85.5883,10.5177,34.389],[-85.5892,10.514,29.1075],[-85.5839,10.5058,22.6937],[-85.5847,10.5025,21.9862],[-85.5788,10.4959,26.3071],[-85.58,10.4892,25.6331],[-85.5789,10.4879,25.8828],[-85.5808,10.4855,24.6486],[-85.58,10.4832,26.0149],[-85.5754,10.4783,20.1546],[-85.5726,10.4787,20.1629],[-85.5705,10.4751,20.6298]]]]}
,"properties": {"GID_3": "CRI.3.4.3_1","GID_0": "CRI","country": "CostaRica","GID_1": "CRI.3_1","province": "Guanacaste","NL_NAME_1": "NA","GID_2": "CRI.3.4_1","county": "Carrillo","NL_NAME_2": "NA","city": "Palmira","VARNAME_3": "NA","NL_NAME_3": "NA","TYPE_3": "Distrito","ENGTYPE_3": "District","CC_3": "2","HASC_3": "NA","name": "Palmira.city","area_km2": 31.6826,"hist_schema_id": "Elevation0-9000","hist_area_km2": {"0": 0.33355,"25": 28.51468,"50": 2.81353,"75": 0.02084}}}