{"type": "Feature","bbox": [-84.0419,9.8761,-83.9985,9.8978],"geometry": {"type": "MultiPolygon","coordinates": [[[[-84.0139,9.8971,1241.1353],[-84.017,9.8978,1231.7698],[-84.0196,9.8946,1231.6362],[-84.021,9.8962,1214.6694],[-84.0263,9.8936,1312.7368],[-84.0305,9.8959,1230.8984],[-84.0343,9.894,1180.7394],[-84.0419,9.8965,1170.2114],[-84.0403,9.8957,1167.2688],[-84.0399,9.8928,1167.2815],[-84.0388,9.8931,1170.7281],[-84.0374,9.8885,1177.2612],[-84.0361,9.8886,1171.4417],[-84.0373,9.8866,1180.6221],[-84.0349,9.8873,1173.4308],[-84.0318,9.8836,1211.5859],[-84.0203,9.8842,1371.0129],[-83.9986,9.8761,1592.9744],[-83.9985,9.8815,1566.995],[-84.002,9.8819,1529.6035],[-84.0021,9.8837,1518.6598],[-84.0115,9.8889,1286.0217],[-84.0101,9.8953,1245.1956],[-84.0125,9.8947,1240.8125],[-84.0139,9.8971,1241.1353]]]]}
,"properties": {"GID_3": "CRI.2.5.3_1","GID_0": "CRI","country": "CostaRica","GID_1": "CRI.2_1","province": "Cartago","NL_NAME_1": "NA","GID_2": "CRI.2.5_1","county": "LaUnión","NL_NAME_2": "NA","city": "RíoAzul","VARNAME_3": "NA","NL_NAME_3": "NA","TYPE_3": "Distrito","ENGTYPE_3": "District","CC_3": "8","HASC_3": "NA","name": "Río_Azul.city","area_km2": 4.804069,"hist_schema_id": "Elevation0-9000","hist_area_km2": {"1175": 0.501289,"1200": 0.208872,"1225": 0.647498,"1250": 0.793709,"1275": 0.584839,"1300": 0.396856,"1325": 0.271535,"1350": 0.187987,"1375": 0.146212,"1400": 0.1671,"1425": 0.167101,"1450": 0.271539,"1475": 0.125326,"1500": 0.104439,"1525": 0.041776,"1550": 0.083551,"1575": 0.062663,"1600": 0.041776}}}