{"type":"Feature","properties":{"GID_2":"CRI.6.3_1","GID_0":"CRI","country":"CostaRica","GID_1":"CRI.6_1","province":"Puntarenas","NL_NAME_1":"NA","county":"Corredores","VARNAME_2":"NA","NL_NAME_2":"NA","TYPE_2":"Cantón","ENGTYPE_2":"Canton","CC_2":"10","HASC_2":"CR.PU.CO","name":"Corredores.county"},
"geometry":{"type": "MultiPolygon","coordinates": [[[[-82.8315,8.5055,67.7708],[-82.8337,8.5082,67.831],[-82.8332,8.5241,108.6101],[-82.8384,8.5324,126.6119],[-82.839,8.5444,117.4839],[-82.8351,8.552,132.1474],[-82.8285,8.5571,175.4408],[-82.8223,8.5671,259.444],[-82.8252,8.5713,266.0558],[-82.824,8.5745,275.7786],[-82.8261,8.5803,324.5951],[-82.8332,8.5923,555.1176],[-82.8268,8.6007,675.0012],[-82.8287,8.6052,666.5026],[-82.8382,8.6134,595.9692],[-82.8371,8.6153,587.131],[-82.8311,8.6142,603.989],[-82.8286,8.6161,610.2429],[-82.829,8.6315,842.2869],[-82.83,8.6361,897.0344],[-82.8349,8.6389,855.203],[-82.8344,8.6418,849.6771],[-82.8363,8.6465,836.6581],[-82.8444,8.6567,840.9385],[-82.8544,8.663,732.4053],[-82.859,8.6725,654.7578],[-82.8587,8.6762,772.2891],[-82.8644,8.679,848.1141],[-82.8626,8.688,865.6415],[-82.8656,8.6902,876.5529],[-82.8677,8.6971,865.2558],[-82.8704,8.6989,891.3657],[-82.8806,8.6973,890.2349],[-82.8811,8.6999,883.9617],[-82.8869,8.7048,910.4711],[-82.887,8.7067,912.2679],[-82.897,8.7156,964.0042],[-82.9006,8.7228,1065.3276],[-82.901,8.7308,1092.3254],[-82.9035,8.7338,1123.3772],[-82.9057,8.7311,1108.9795],[-82.9048,8.729,1096.8563],[-82.9117,8.7248,1048.0309],[-82.9081,8.7133,884.4735],[-82.9117,8.7016,508.5223],[-82.9107,8.6966,396.6865],[-82.9167,8.6959,411.4851],[-82.92,8.7021,566.3917],[-82.9244,8.7005,584.2526],[-82.9289,8.702,765.922],[-82.9365,8.7006,902.8237],[-82.9452,8.692,566.0322],[-82.9491,8.6905,415.4362],[-82.9611,8.6974,891.1857],[-82.9801,8.7253,1251.7555],[-82.9845,8.7202,997.7858],[-82.9896,8.7192,740.9462],[-82.9929,8.7096,463.2622],[-82.9896,8.7017,368.6001],[-82.9934,8.6976,299.0498],[-82.9973,8.6863,126.7056],[-83.0092,8.6786,83.914],[-83.0093,8.6734,50.2864],[-83.0056,8.6692,37.6348],[-83.0074,8.6684,40.6949],[-83.0064,8.6671,40.6949],[-83.0088,8.6601,29.9164],[-83.0067,8.6571,18.6035],[-83.0072,8.6547,27.6829],[-83.0043,8.6538,27.8292],[-83.0048,8.6525,19.3432],[-83.0035,8.6528,28.7797],[-83.0014,8.6488,22.9288],[-83.0014,8.5833,6.7689],[-83.0249,8.5627,3.5676],[-83.0266,8.5589,4.348],[-83.0314,8.561,10.4312],[-83.0342,8.5597,3.6375],[-83.0354,8.5627,10.1356],[-83.043,8.5532,2.6984],[-83.0428,8.5467,1.9779],[-83.0469,8.5483,3.1088],[-83.0542,8.5398,3.4048],[-83.0528,8.5318,1.0],[-83.0515,8.5318,7.139],[-83.0512,8.5352,6.1691],[-83.0499,8.5358,3.7276],[-83.0502,8.5326,4.7213],[-83.0469,8.532,11.516],[-83.0462,8.5292,9.5929],[-83.0389,8.5318,7.9396],[-83.0354,8.5284,6.8652],[-83.0355,8.5257,8.4336],[-83.0323,8.5266,10.9045],[-83.0319,8.5237,9.6586],[-83.0285,8.5258,12.9717],[-83.0252,8.5252,15.4526],[-83.0285,8.5217,16.7308],[-83.0255,8.5221,15.1822],[-83.025,8.5202,18.7612],[-83.0229,8.5204,13.544],[-83.0213,8.5183,14.1636],[-83.0213,8.5207,18.2604],[-83.0189,8.5192,27.6133],[-83.0158,8.5199,11.8239],[-83.0169,8.5123,18.4007],[-83.0149,8.5125,13.3191],[-83.0129,8.5098,21.4716],[-83.0147,8.5084,22.5965],[-83.0123,8.5063,14.9779],[-83.0113,8.5076,17.8456],[-83.009,8.5071,14.4607],[-83.0104,8.5062,14.9779],[-83.0098,8.5032,12.677],[-83.008,8.5027,14.7423],[-83.0081,8.4986,24.0081],[-83.0045,8.4959,20.497],[-83.007,8.4934,17.9761],[-83.0067,8.4919,19.4609],[-83.005,8.4935,23.7576],[-83.0058,8.4906,16.2415],[-83.0045,8.4915,16.2415],[-83.0029,8.488,19.7858],[-83.0005,8.4869,16.9476],[-83.0039,8.4866,18.8153],[-83.0031,8.483,24.0507],[-83.0042,8.4823,24.0507],[-83.0011,8.4809,24.0592],[-83.0022,8.4794,21.8706],[-83.0003,8.4777,19.7882],[-83.0016,8.4755,19.0246],[-82.9997,8.4729,21.3351],[-82.9988,8.4736,21.3351],[-82.9995,8.4708,28.169],[-82.9975,8.469,24.1297],[-82.998,8.4663,23.0642],[-82.9944,8.4644,25.5487],[-82.9926,8.4658,24.24],[-82.9887,8.4619,27.2419],[-82.9895,8.4605,27.2419],[-82.9921,8.4607,34.2635],[-82.9922,8.4581,34.095],[-82.9961,8.4574,32.916],[-82.9942,8.4524,33.7623],[-82.9972,8.4501,36.9637],[-82.9939,8.4452,35.2935],[-82.9964,8.445,33.9391],[-82.9953,8.4427,32.1001],[-82.9993,8.4417,40.0856],[-83.0008,8.4445,39.2545],[-83.0015,8.4415,39.2156],[-83.0044,8.4421,48.5833],[-83.0059,8.4385,43.2134],[-83.0087,8.4386,42.8431],[-83.0095,8.4356,42.5165],[-83.0076,8.4326,46.4636],[-83.0128,8.4283,79.7538],[-83.0133,8.4262,86.6119],[-83.0213,8.4242,111.4061],[-83.0224,8.418,161.5104],[-83.0307,8.4148,238.1489],[-83.0409,8.3987,245.3989],[-83.0427,8.3912,249.2687],[-83.0469,8.3852,368.6002],[-83.0455,8.3828,388.2247],[-83.0546,8.3757,359.8383],[-83.057,8.3719,401.5702],[-83.0541,8.3696,345.0353],[-83.049,8.3757,282.3813],[-83.0418,8.3791,262.3887],[-83.0373,8.3795,220.1008],[-83.0342,8.3773,199.0843],[-83.0359,8.3734,217.4266],[-83.0512,8.3602,333.2209],[-83.0504,8.3559,379.1952],[-83.0524,8.3493,532.1078],[-83.0509,8.3447,515.7047],[-83.0476,8.342,495.6825],[-83.0276,8.3522,480.1946],[-83.0189,8.3506,447.3479],[-83.016,8.3553,357.4207],[-83.0097,8.3544,387.8837],[-83.0017,8.3603,598.1462],[-83.0008,8.3647,410.4216],[-82.9941,8.369,244.5698],[-82.9897,8.3772,347.3041],[-82.9837,8.3729,370.6675],[-82.976,8.3837,314.1689],[-82.9699,8.3863,188.0397],[-82.9672,8.3942,99.2875],[-82.9618,8.3965,80.5447],[-82.961,8.4033,65.8033],[-82.955,8.4072,57.5557],[-82.9542,8.4133,47.2875],[-82.9357,8.4239,41.8111],[-82.9309,8.4352,40.7141],[-82.9141,8.4288,28.2308],[-82.8682,8.4396,19.3833],[-82.8396,8.4801,41.4964],[-82.8315,8.5055,67.7708]]]]}}