{"type":"Feature","properties":{"GID_3":"CRI.7.5.3_1","GID_0":"CRI","country":"CostaRica","GID_1":"CRI.7_1","province":"SanJosé","NL_NAME_1":"NA","GID_2":"CRI.7.5_1","county":"Desamparados","NL_NAME_2":"NA","city":"Frailes","VARNAME_3":"NA","NL_NAME_3":"NA","TYPE_3":"Distrito","ENGTYPE_3":"District","CC_3":"6","HASC_3":"NA","name":"Frailes.city"},
"geometry":{"type": "MultiPolygon","coordinates": [[[[-84.0885,9.7696,1137.5831],[-84.0948,9.7664,1108.5544],[-84.0956,9.7643,1099.698],[-84.1012,9.7646,1083.3225],[-84.1086,9.7613,963.4773],[-84.1008,9.7523,1023.5416],[-84.096,9.7524,1112.6077],[-84.0898,9.7452,1131.683],[-84.086,9.7462,1169.6564],[-84.0837,9.7439,1194.1604],[-84.0821,9.7446,1210.2625],[-84.081,9.7415,1195.6409],[-84.078,9.7427,1215.5371],[-84.0704,9.74,1255.0492],[-84.0608,9.7425,1288.2598],[-84.0589,9.7414,1287.6493],[-84.0585,9.7431,1298.8945],[-84.0569,9.7422,1331.5865],[-84.0528,9.7443,1371.6062],[-84.0465,9.7405,1385.1355],[-84.0365,9.7407,1432.606],[-84.0367,9.7426,1451.0474],[-84.0307,9.7417,1465.8088],[-84.0317,9.7604,1450.8848],[-84.0352,9.7651,1378.0042],[-84.0371,9.7649,1378.0042],[-84.0411,9.7678,1383.0049],[-84.0467,9.7659,1332.1548],[-84.0493,9.7673,1368.1843],[-84.0553,9.7661,1271.9026],[-84.058,9.7674,1297.851],[-84.0634,9.764,1234.1295],[-84.0666,9.7656,1272.7004],[-84.0714,9.7638,1245.066],[-84.0788,9.7662,1175.0898],[-84.0817,9.7655,1181.1636],[-84.0885,9.7696,1137.5831]]]]}}