{"type":"Feature","properties":{"GID_3":"CRI.7.11.6_1","GID_0":"CRI","country":"CostaRica","GID_1":"CRI.7_1","province":"SanJosé","NL_NAME_1":"NA","GID_2":"CRI.7.11_1","county":"Mora","NL_NAME_2":"NA","city":"Tabarcia","VARNAME_3":"NA","NL_NAME_3":"NA","TYPE_3":"Distrito","ENGTYPE_3":"District","CC_3":"3","HASC_3":"NA","name":"Tabarcia.city"},
"geometry":{"type": "MultiPolygon","coordinates": [[[[-84.2232,9.8129,644.6605],[-84.2214,9.8147,672.8375],[-84.2214,9.8205,736.821],[-84.2241,9.8297,877.5044],[-84.2197,9.8381,965.8632],[-84.2207,9.8418,941.6057],[-84.2177,9.8394,984.0919],[-84.2141,9.839,1064.2122],[-84.2156,9.8414,1028.6538],[-84.215,9.8479,963.1455],[-84.2142,9.8442,990.1028],[-84.2114,9.8412,1023.327],[-84.1994,9.8407,1168.8118],[-84.1975,9.839,1157.5519],[-84.1928,9.8396,1190.6842],[-84.1668,9.8606,1718.7842],[-84.157,9.8611,1917.5967],[-84.1511,9.8574,2178.8862],[-84.1476,9.8573,2349.1155],[-84.1459,9.8597,2338.8789],[-84.1474,9.863,2336.8459],[-84.1485,9.8644,2303.6714],[-84.1512,9.8633,2242.7705],[-84.1634,9.8675,1996.92],[-84.1773,9.8677,1967.6226],[-84.1856,9.8787,1783.5671],[-84.1871,9.8834,1740.1456],[-84.1862,9.8852,1760.824],[-84.1878,9.8847,1774.6362],[-84.1939,9.8882,1785.835],[-84.2022,9.8805,1531.2699],[-84.2024,9.8783,1470.0935],[-84.2082,9.8767,1465.5653],[-84.2101,9.8741,1467.8794],[-84.2196,9.8756,1242.8373],[-84.2294,9.8708,1176.9497],[-84.2459,9.8681,1088.788],[-84.2446,9.8664,1075.2147],[-84.2455,9.8639,1011.2196],[-84.2543,9.8576,868.6114],[-84.2542,9.8523,808.5657],[-84.2592,9.85,854.4303],[-84.2587,9.8442,753.3004],[-84.252,9.8442,725.8947],[-84.2542,9.8404,688.7371],[-84.2563,9.8404,679.5746],[-84.2585,9.8375,669.8461],[-84.2585,9.83,661.996],[-84.2597,9.8258,643.5647],[-84.2635,9.8245,601.2996],[-84.2626,9.8209,586.9492],[-84.2663,9.8177,556.8909],[-84.264,9.8156,547.2567],[-84.2659,9.8123,526.2676],[-84.2634,9.8091,496.283],[-84.253,9.8117,523.9597],[-84.2439,9.8093,565.9822],[-84.2406,9.8109,588.5873],[-84.2367,9.8084,619.683],[-84.2286,9.8108,620.7647],[-84.2249,9.8104,651.2903],[-84.2232,9.8129,644.6605]]]]}}