{"type":"Feature","properties":{"GID_3":"CRI.1.13.14_1","GID_0":"CRI","country":"CostaRica","GID_1":"CRI.1_1","province":"Alajuela","NL_NAME_1":"NA","GID_2":"CRI.1.13_1","county":"SanRamón","NL_NAME_2":"NA","city":"Zapotal","VARNAME_3":"NA","NL_NAME_3":"NA","TYPE_3":"Distrito","ENGTYPE_3":"District","CC_3":"12","HASC_3":"NA","name":"Zapotal.city"},
"geometry":{"type": "MultiPolygon","coordinates": [[[[-84.5988,10.1707,1492.9523],[-84.6071,10.1741,1409.5165],[-84.614,10.1723,1576.8445],[-84.6169,10.1757,1498.6455],[-84.6171,10.1785,1508.7488],[-84.6261,10.1832,1421.5159],[-84.634,10.1808,1414.7942],[-84.6395,10.1812,1514.3938],[-84.6433,10.1791,1476.0859],[-84.646,10.1904,1359.1074],[-84.6536,10.1964,1375.1064],[-84.6563,10.1956,1397.9547],[-84.6624,10.1981,1436.2369],[-84.6836,10.1763,1320.7731],[-84.6786,10.1742,1312.6361],[-84.6685,10.1757,1311.2739],[-84.6646,10.1709,1299.7942],[-84.6652,10.1685,1303.2748],[-84.6638,10.167,1299.7108],[-84.6651,10.1656,1310.2708],[-84.6637,10.1654,1295.572],[-84.6658,10.1642,1303.7632],[-84.6651,10.163,1294.5901],[-84.6702,10.1558,1296.7183],[-84.6653,10.1524,1244.5791],[-84.6653,10.1464,1144.5824],[-84.6735,10.1399,966.894],[-84.6705,10.1299,854.2616],[-84.6712,10.1282,854.1971],[-84.664,10.1216,683.7521],[-84.66,10.1108,574.5187],[-84.6572,10.1092,563.8717],[-84.6538,10.1016,506.6967],[-84.6508,10.0995,509.6495],[-84.6505,10.0967,493.0444],[-84.6481,10.0945,431.403],[-84.648,10.0871,425.666],[-84.6452,10.0858,369.7516],[-84.6438,10.0808,362.3822],[-84.6376,10.0774,358.3862],[-84.6315,10.0711,283.8504],[-84.6313,10.081,324.7406],[-84.6278,10.0957,406.1631],[-84.628,10.1097,494.3144],[-84.6262,10.1095,457.1681],[-84.6253,10.1146,487.7822],[-84.6169,10.1233,648.5248],[-84.6127,10.1319,765.8636],[-84.6007,10.1362,1000.5162],[-84.5907,10.1457,1354.0602],[-84.5879,10.1553,1591.2848],[-84.5937,10.1577,1526.916],[-84.593,10.1627,1436.6973],[-84.5997,10.1683,1498.8126],[-84.5988,10.1707,1492.9523]]]]}}