{"type":"Feature","properties":{"GID_3":"CRI.1.8.3_1","GID_0":"CRI","country":"CostaRica","GID_1":"CRI.1_1","province":"Alajuela","NL_NAME_1":"NA","GID_2":"CRI.1.8_1","county":"Orotina","NL_NAME_2":"NA","city":"HaciendaVieja","VARNAME_3":"NA","NL_NAME_3":"NA","TYPE_3":"Distrito","ENGTYPE_3":"District","CC_3":"3","HASC_3":"NA","name":"Hacienda_Vieja.city"},
"geometry":{"type": "MultiPolygon","coordinates": [[[[-84.4677,9.9417,297.3517],[-84.4724,9.9427,552.0739],[-84.4773,9.9464,648.7203],[-84.48,9.9443,630.1921],[-84.4863,9.9463,575.7152],[-84.4921,9.9455,522.4136],[-84.5005,9.9415,359.2641],[-84.5016,9.9363,314.8842],[-84.5062,9.9324,264.572],[-84.5115,9.932,218.7922],[-84.5146,9.93,214.8953],[-84.5139,9.9264,259.7863],[-84.5059,9.9202,260.9448],[-84.5026,9.9195,259.9033],[-84.505,9.9138,255.3061],[-84.5086,9.9123,252.5243],[-84.5114,9.9084,196.2079],[-84.5102,9.9057,171.1198],[-84.5015,9.9001,88.5722],[-84.4986,9.911,124.9636],[-84.4965,9.9106,102.4289],[-84.4962,9.9078,123.4118],[-84.4931,9.9075,102.2563],[-84.4811,9.9112,110.7367],[-84.4751,9.9159,127.7697],[-84.4677,9.9166,155.9758],[-84.4621,9.9261,192.8636],[-84.4658,9.9324,229.5032],[-84.466,9.9356,271.3934],[-84.4682,9.9361,249.7339],[-84.4677,9.9417,297.3517]]]]}}