{"type": "Feature","bbox": [-83.1065,8.7745,-82.9874,8.9287],"geometry": {"type": "MultiPolygon","coordinates": [[[[-83.074,8.7764,1513.1431],[-83.0572,8.7801,1516.3973],[-83.0482,8.7775,1550.2693],[-83.0465,8.7745,1496.5266],[-83.0413,8.7789,1472.986],[-83.0399,8.7829,1535.825],[-83.0349,8.7838,1517.9452],[-83.0326,8.7882,1568.9889],[-83.0275,8.788,1496.1135],[-83.0177,8.7833,1312.7078],[-83.002,8.786,1421.4277],[-83.0033,8.7886,1436.0945],[-82.9975,8.8024,1118.1818],[-82.9972,8.8085,958.9165],[-83.004,8.8149,827.7164],[-83.0049,8.8181,793.4873],[-82.9874,8.8275,910.5116],[-82.9892,8.8284,920.9641],[-82.9923,8.8355,870.1491],[-82.9962,8.8365,856.6055],[-82.9988,8.8413,903.7367],[-82.9933,8.8473,835.7277],[-82.9981,8.8487,830.1435],[-82.9995,8.8512,796.1752],[-83.0013,8.8509,798.3018],[-83.002,8.8529,806.5121],[-83.0058,8.855,774.3535],[-83.0078,8.8572,766.0601],[-83.0069,8.8586,766.0601],[-83.0082,8.8626,747.5533],[-83.0146,8.8687,752.3785],[-83.0092,8.8706,664.8665],[-83.0105,8.8773,623.0143],[-83.0205,8.8774,570.0626],[-83.0232,8.8812,509.4991],[-83.0247,8.881,509.4991],[-83.0269,8.8856,482.9423],[-83.0309,8.8881,478.3684],[-83.029,8.8892,461.5721],[-83.0303,8.8998,430.8619],[-83.0354,8.9051,417.9441],[-83.0377,8.9055,414.8577],[-83.0364,8.913,397.9731],[-83.0401,8.9141,390.456],[-83.0409,8.9159,394.2849],[-83.0402,8.9192,382.4542],[-83.0363,8.9207,383.3881],[-83.0364,8.9221,401.0546],[-83.0385,8.923,378.7658],[-83.0399,8.9268,363.5721],[-83.0483,8.9287,356.7255],[-83.0546,8.9279,344.5422],[-83.059,8.9252,364.2299],[-83.0583,8.9213,372.7571],[-83.0645,8.9187,397.8919],[-83.0675,8.913,409.7537],[-83.0826,8.9091,596.6988],[-83.085,8.8999,757.1453],[-83.0818,8.8994,739.4384],[-83.0776,8.8948,782.0974],[-83.0792,8.8844,812.8602],[-83.0736,8.8847,864.8842],[-83.0747,8.8801,812.4578],[-83.0783,8.8792,741.658],[-83.0853,8.8806,718.1599],[-83.0898,8.8768,646.8628],[-83.0934,8.8773,624.5576],[-83.0935,8.8751,582.6859],[-83.0951,8.8745,527.1832],[-83.1001,8.8751,488.1953],[-83.1011,8.877,483.6934],[-83.1057,8.8762,474.9885],[-83.1043,8.8742,473.8372],[-83.102,8.8747,476.293],[-83.1009,8.8727,498.2159],[-83.1065,8.8583,541.1344],[-83.0976,8.8469,541.3909],[-83.0969,8.8406,577.5051],[-83.0909,8.838,565.9804],[-83.0909,8.8357,569.7266],[-83.089,8.8343,571.3431],[-83.087,8.8372,650.2071],[-83.0793,8.8367,592.2494],[-83.0807,8.8336,614.8972],[-83.0793,8.8291,638.2458],[-83.0738,8.8232,737.7713],[-83.0752,8.8144,772.0776],[-83.0795,8.8089,885.0665],[-83.0792,8.8003,944.3935],[-83.0677,8.7903,1304.7834],[-83.065,8.7907,1309.8641],[-83.0667,8.7818,1399.9263],[-83.074,8.7764,1513.1431]]]]}
,"properties": {"GID_3": "CRI.6.4.3_1","GID_0": "CRI","country": "CostaRica","GID_1": "CRI.6_1","province": "Puntarenas","NL_NAME_1": "NA","GID_2": "CRI.6.4_1","county": "CotoBrus","NL_NAME_2": "NA","city": "Limoncito","VARNAME_3": "NA","NL_NAME_3": "NA","TYPE_3": "Distrito","ENGTYPE_3": "District","CC_3": "4","HASC_3": "NA","name": "Limoncito.city","area_km2": 124.40105,"hist_schema_id": "Elevation0-9000","hist_area_km2": {"350": 0.27229,"375": 0.50269,"400": 0.67027,"425": 1.55002,"450": 2.51356,"475": 3.07916,"500": 2.86973,"525": 2.4718,"550": 2.03193,"575": 2.3043,"600": 3.14228,"625": 4.16881,"650": 5.48867,"675": 6.51519,"700": 6.64093,"725": 6.89233,"750": 7.91901,"775": 7.14389,"800": 6.53638,"825": 5.65648,"850": 5.15373,"875": 4.06442,"900": 3.14263,"925": 3.45692,"950": 2.49319,"975": 1.38282,"1000": 1.27807,"1025": 1.38284,"1050": 1.29904,"1075": 1.17332,"1100": 1.25714,"1125": 1.00571,"1150": 1.19429,"1175": 1.29905,"1200": 1.06858,"1225": 1.1943,"1250": 0.96383,"1275": 1.34098,"1300": 1.34099,"1325": 1.63433,"1350": 1.25718,"1375": 1.21528,"1400": 1.15242,"1425": 1.06861,"1450": 0.90099,"1475": 1.06863,"1500": 0.901,"1525": 0.64956,"1550": 0.46098,"1575": 0.14667,"1600": 0.06286,"1625": 0.02095}}}