{"type": "Feature","bbox": [-84.258,10.0727,-84.2207,10.1981],"geometry": {"type": "MultiPolygon","coordinates": [[[[-84.2428,10.1442,1838.693],[-84.2431,10.1356,1675.1565],[-84.2396,10.1356,1652.4653],[-84.2415,10.133,1599.8831],[-84.2399,10.1276,1522.7345],[-84.2412,10.1228,1478.808],[-84.2402,10.1183,1432.5356],[-84.2419,10.1167,1401.1521],[-84.241,10.1098,1340.3022],[-84.2448,10.1039,1286.176],[-84.2443,10.1015,1255.1704],[-84.2492,10.1001,1222.1997],[-84.2501,10.094,1197.697],[-84.2536,10.0918,1152.9147],[-84.2507,10.0841,1151.906],[-84.2546,10.083,1097.0782],[-84.2576,10.0772,1076.5411],[-84.258,10.0727,1054.4044],[-84.2481,10.0823,1168.1344],[-84.2435,10.0831,1158.2153],[-84.2433,10.0876,1187.4492],[-84.2405,10.0892,1199.5024],[-84.2392,10.0933,1195.8971],[-84.2358,10.0969,1228.1495],[-84.23,10.118,1485.4656],[-84.2248,10.1292,1629.082],[-84.2264,10.1377,1736.4087],[-84.2207,10.1508,2078.6982],[-84.2238,10.1613,2225.8586],[-84.2233,10.1645,2300.5918],[-84.2271,10.1672,2401.605],[-84.2292,10.1737,2498.0112],[-84.2307,10.1981,2309.5],[-84.239,10.1866,2554.1345],[-84.2364,10.185,2553.4148],[-84.2377,10.1813,2529.1868],[-84.2368,10.1744,2527.4812],[-84.2324,10.1709,2472.0654],[-84.2327,10.1676,2470.1382],[-84.2307,10.1681,2447.0588],[-84.2303,10.1645,2398.9067],[-84.2313,10.1624,2346.2717],[-84.2367,10.1594,2229.6528],[-84.2428,10.1442,1838.693]]]]}
,"properties": {"GID_3": "CRI.1.10.3_1","GID_0": "CRI","country": "CostaRica","GID_1": "CRI.1_1","province": "Alajuela","NL_NAME_1": "NA","GID_2": "CRI.1.10_1","county": "Poás","NL_NAME_2": "NA","city": "SanJuan","VARNAME_3": "NA","NL_NAME_3": "NA","TYPE_3": "Distrito","ENGTYPE_3": "District","CC_3": "2","HASC_3": "NA","name": "San_Juan.city","area_km2": 16.15453,"hist_schema_id": "Elevation0-9000","hist_area_km2": {"1075": 0.10438,"1100": 0.18788,"1125": 0.14612,"1150": 0.35487,"1175": 0.43836,"1200": 0.5636,"1225": 0.58447,"1250": 0.56359,"1275": 0.37572,"1300": 0.33397,"1325": 0.29223,"1350": 0.20873,"1375": 0.20873,"1400": 0.29222,"1425": 0.2296,"1450": 0.27134,"1475": 0.29221,"1500": 0.31308,"1525": 0.39657,"1550": 0.3757,"1575": 0.50092,"1600": 0.31308,"1625": 0.2922,"1650": 0.39656,"1675": 0.2922,"1700": 0.39655,"1725": 0.25045,"1750": 0.37568,"1775": 0.29219,"1800": 0.20871,"1825": 0.33393,"1850": 0.20871,"1875": 0.20871,"1900": 0.29219,"1925": 0.16696,"1950": 0.18783,"1975": 0.14609,"2000": 0.14609,"2025": 0.14609,"2050": 0.18783,"2075": 0.22957,"2100": 0.2087,"2125": 0.14609,"2150": 0.16696,"2175": 0.16696,"2200": 0.2087,"2225": 0.22957,"2250": 0.14609,"2275": 0.08348,"2300": 0.14609,"2325": 0.16695,"2350": 0.12521,"2375": 0.16695,"2400": 0.14608,"2425": 0.06261,"2450": 0.08348,"2475": 0.14608,"2500": 0.16695,"2525": 0.35477,"2550": 0.60518,"2575": 0.22955,"2600": 0.18781,"2625": 0.0626,"2650": 0.04174}}}