{"type": "Feature","bbox": [-83.8505,9.3876,-83.6794,9.5983],"geometry": {"type": "MultiPolygon","coordinates": [[[[-83.7639,9.5836,3364.3472],[-83.7667,9.5872,3270.7578],[-83.7676,9.5938,3113.7188],[-83.7727,9.5983,2931.8469],[-83.7765,9.5982,2875.6428],[-83.7824,9.5928,2780.3726],[-83.7912,9.588,2633.0288],[-83.7921,9.5849,2597.208],[-83.8,9.5775,2442.5737],[-83.8012,9.5728,2388.1194],[-83.7991,9.5676,2331.531],[-83.8025,9.5617,2303.9575],[-83.8022,9.5583,2298.2468],[-83.8112,9.5467,2172.3313],[-83.8171,9.5437,2169.3503],[-83.8186,9.5359,2078.9668],[-83.8211,9.5366,2041.632],[-83.8234,9.5353,1969.056],[-83.8255,9.5309,1849.9756],[-83.836,9.5315,1712.502],[-83.8397,9.5346,1645.0745],[-83.8431,9.5332,1651.1486],[-83.8478,9.5349,1585.3561],[-83.8505,9.5326,1498.9497],[-83.8485,9.5313,1576.5132],[-83.8482,9.5284,1743.3212],[-83.8438,9.5219,1896.5679],[-83.8371,9.5176,2157.5649],[-83.834,9.52,2285.189],[-83.8365,9.5148,2279.3733],[-83.8373,9.5035,2294.5305],[-83.8325,9.4939,1965.7113],[-83.8173,9.4863,1480.3436],[-83.8121,9.4869,1415.0319],[-83.8076,9.49,1317.3182],[-83.8023,9.4876,1214.9708],[-83.8021,9.4777,1017.7326],[-83.7976,9.4764,957.0443],[-83.7966,9.4732,940.9319],[-83.8,9.4686,924.144],[-83.8032,9.467,885.218],[-83.8061,9.4612,848.3057],[-83.7985,9.4565,1328.1875],[-83.7909,9.4555,1700.3904],[-83.7883,9.4571,1784.4969],[-83.7848,9.4566,1769.0605],[-83.7786,9.4601,1897.1671],[-83.7743,9.4581,1780.4583],[-83.7696,9.4616,1754.2578],[-83.7658,9.4528,1498.0861],[-83.7671,9.4506,1461.9808],[-83.7654,9.4494,1438.6544],[-83.7619,9.4399,1292.8384],[-83.7628,9.4374,1267.6511],[-83.7609,9.4355,1236.8524],[-83.7599,9.4299,1227.9668],[-83.7574,9.4278,1156.2019],[-83.7588,9.4257,1131.5587],[-83.7578,9.4236,1110.7799],[-83.7633,9.4181,1007.5755],[-83.7558,9.417,1196.7052],[-83.7489,9.4129,990.5217],[-83.7463,9.4084,897.2812],[-83.7472,9.405,853.7344],[-83.7396,9.4012,885.5665],[-83.736,9.3961,862.0423],[-83.7348,9.3905,803.5281],[-83.7404,9.3877,826.9786],[-83.7303,9.3876,757.7482],[-83.7326,9.3926,783.7012],[-83.7325,9.3966,824.2554],[-83.7186,9.4102,1084.4858],[-83.7183,9.4154,1124.5869],[-83.7123,9.4158,1058.6462],[-83.7125,9.4199,1098.0143],[-83.711,9.422,1091.6174],[-83.7126,9.4257,1139.4934],[-83.7096,9.4299,1148.4211],[-83.7097,9.4338,1195.2064],[-83.7056,9.4331,1049.524],[-83.7007,9.4285,963.0148],[-83.7005,9.431,995.8212],[-83.6929,9.4346,1086.5007],[-83.6891,9.4413,1262.2833],[-83.6841,9.4438,1349.3325],[-83.6826,9.4567,1750.9552],[-83.685,9.4665,1784.0646],[-83.6824,9.468,1857.2257],[-83.6833,9.4698,1847.0134],[-83.6794,9.4765,1961.6041],[-83.6806,9.4812,1944.0466],[-83.6845,9.4823,1986.6866],[-83.6887,9.4862,2017.1292],[-83.6903,9.4909,2107.9934],[-83.6944,9.4937,2179.1543],[-83.6943,9.4952,2168.0757],[-83.6992,9.4946,2173.7407],[-83.7013,9.499,2205.6848],[-83.7058,9.5011,2230.2756],[-83.7089,9.5061,2385.1685],[-83.7075,9.5076,2271.7021],[-83.7108,9.5143,2385.7021],[-83.71,9.5198,2417.3171],[-83.7075,9.5204,2377.9563],[-83.7043,9.5252,2504.7122],[-83.6982,9.528,2535.7065],[-83.6995,9.5296,2512.7612],[-83.7039,9.5299,2676.3657],[-83.706,9.5334,2669.2664],[-83.7103,9.5312,2732.4353],[-83.7109,9.5378,2731.9766],[-83.7129,9.5394,2751.3855],[-83.7107,9.5421,2790.8718],[-83.7127,9.545,2816.9587],[-83.7107,9.5466,2824.2747],[-83.7124,9.5507,2891.1633],[-83.7084,9.5538,2997.8933],[-83.7038,9.5538,2915.0815],[-83.7045,9.5561,2988.8657],[-83.7087,9.5583,3024.6418],[-83.712,9.5545,3055.2808],[-83.7186,9.5513,3095.719],[-83.7277,9.5596,3092.9956],[-83.7343,9.5602,3037.3831],[-83.7437,9.5585,3200.9028],[-83.7531,9.56,3458.3474],[-83.7579,9.5674,3392.6548],[-83.7562,9.5703,3362.6475],[-83.7575,9.5748,3356.188],[-83.7639,9.5836,3364.3472]]]]}
,"properties": {"GID_3": "CRI.7.13.6_1","GID_0": "CRI","country": "CostaRica","GID_1": "CRI.7_1","province": "SanJosé","NL_NAME_1": "NA","GID_2": "CRI.7.13_1","county": "PérezZeledón","NL_NAME_2": "NA","city": "Páramo","VARNAME_3": "NA","NL_NAME_3": "NA","TYPE_3": "Distrito","ENGTYPE_3": "District","CC_3": "11","HASC_3": "NA","name": "Páramo.city","area_km2": 203.7828,"hist_schema_id": "Elevation0-9000","hist_area_km2": {"775": 0.0418,"800": 0.2719,"825": 0.3765,"850": 0.5857,"875": 0.7112,"900": 0.9203,"925": 0.6903,"950": 0.983,"975": 1.1713,"1000": 0.9203,"1025": 1.2759,"1050": 1.6523,"1075": 1.7987,"1100": 1.9869,"1125": 1.9869,"1150": 2.1124,"1175": 2.1124,"1200": 2.2797,"1225": 2.7608,"1250": 2.7189,"1275": 2.698,"1300": 2.6352,"1325": 2.9489,"1350": 2.8443,"1375": 2.5306,"1400": 3.3253,"1425": 2.886,"1450": 3.1161,"1475": 3.1579,"1500": 3.1579,"1525": 2.8651,"1550": 3.1579,"1575": 2.5096,"1600": 3.4297,"1625": 3.367,"1650": 3.5133,"1675": 3.346,"1700": 3.3042,"1725": 3.5133,"1750": 3.095,"1775": 3.3459,"1800": 3.1786,"1825": 2.8649,"1850": 3.2622,"1875": 3.0113,"1900": 2.593,"1925": 3.2203,"1950": 2.9067,"1975": 2.5093,"2000": 2.7184,"2025": 2.6139,"2050": 2.4047,"2075": 2.3002,"2100": 2.342,"2125": 2.4256,"2150": 2.4256,"2175": 2.5511,"2200": 2.4256,"2225": 2.4256,"2250": 2.3838,"2275": 2.551,"2300": 2.4674,"2325": 2.3838,"2350": 1.8191,"2375": 1.5473,"2400": 1.61,"2425": 1.7564,"2450": 1.2545,"2475": 1.3591,"2500": 1.4427,"2525": 1.2127,"2550": 1.4845,"2575": 1.2545,"2600": 1.4845,"2625": 1.4218,"2650": 1.4845,"2675": 1.4845,"2700": 1.1709,"2725": 1.4636,"2750": 1.5054,"2775": 1.4636,"2800": 1.5054,"2825": 1.2336,"2850": 1.5263,"2875": 1.7145,"2900": 1.359,"2925": 1.3799,"2950": 1.5054,"2975": 1.5263,"3000": 1.6517,"3025": 1.4845,"3050": 1.3799,"3075": 1.1917,"3100": 1.1499,"3125": 0.7527,"3150": 0.8572,"3175": 0.9408,"3200": 0.9408,"3225": 0.9199,"3250": 0.669,"3275": 0.669,"3300": 0.5436,"3325": 0.6063,"3350": 0.3763,"3375": 0.5018,"3400": 0.3763,"3425": 0.2718,"3450": 0.3554,"3475": 0.1045}}}