{"type": "Feature","bbox": [-84.474,10.1137,-84.4262,10.1896],"geometry": {"type": "MultiPolygon","coordinates": [[[[-84.4322,10.1682,1283.7384],[-84.4347,10.1688,1269.0898],[-84.438,10.1672,1242.1256],[-84.4427,10.1696,1219.3213],[-84.4443,10.1729,1211.8995],[-84.4521,10.1748,1169.3037],[-84.4579,10.1818,1116.9443],[-84.4651,10.1852,1055.9534],[-84.4663,10.1882,1043.8234],[-84.4684,10.1878,1023.3721],[-84.47,10.1896,1006.3749],[-84.472,10.1882,1033.1615],[-84.4721,10.1835,1056.5068],[-84.474,10.1819,1098.3691],[-84.4716,10.1803,1084.996],[-84.4731,10.1792,1084.996],[-84.4685,10.1743,1105.0243],[-84.4669,10.1684,1112.5768],[-84.4633,10.1699,1116.9515],[-84.459,10.1621,1163.5156],[-84.4608,10.1553,1215.4285],[-84.463,10.1549,1211.2715],[-84.4617,10.1535,1204.4033],[-84.4632,10.1457,1128.8042],[-84.4652,10.1435,1075.1234],[-84.4656,10.1373,1073.4653],[-84.4705,10.1342,1040.7031],[-84.4697,10.1291,1029.2844],[-84.4678,10.1277,1026.9851],[-84.4711,10.1187,1100.334],[-84.469,10.1137,1098.8352],[-84.4679,10.1178,1124.97],[-84.4656,10.1197,1135.5076],[-84.4549,10.1193,1108.2451],[-84.4547,10.1174,1093.9371],[-84.4517,10.1156,1075.1758],[-84.4522,10.1171,1073.9785],[-84.445,10.126,1138.1501],[-84.4449,10.1285,1158.8315],[-84.447,10.1307,1134.4895],[-84.4421,10.1314,1161.4536],[-84.4423,10.138,1193.3844],[-84.4399,10.1417,1202.4033],[-84.4414,10.1436,1246.0254],[-84.4337,10.1439,1297.8336],[-84.4339,10.1527,1272.6024],[-84.43,10.1522,1317.0847],[-84.4283,10.1504,1302.7668],[-84.4262,10.1512,1349.3318],[-84.4322,10.1682,1283.7384]]]]}
,"properties": {"GID_3": "CRI.1.13.13_1","GID_0": "CRI","country": "CostaRica","GID_1": "CRI.1_1","province": "Alajuela","NL_NAME_1": "NA","GID_2": "CRI.1.13_1","county": "SanRamón","NL_NAME_2": "NA","city": "Volio","VARNAME_3": "NA","NL_NAME_3": "NA","TYPE_3": "Distrito","ENGTYPE_3": "District","CC_3": "10","HASC_3": "NA","name": "Volio.city","area_km2": 20.26508,"hist_schema_id": "Elevation0-9000","hist_area_km2": {"1000": 0.06261,"1025": 0.25045,"1050": 0.31306,"1075": 1.02267,"1100": 1.64878,"1125": 2.00359,"1150": 3.04713,"1175": 3.17232,"1200": 2.29571,"1225": 1.66958,"1250": 1.69046,"1275": 1.58611,"1300": 0.75131,"1325": 0.45913,"1350": 0.27131,"1375": 0.02087}}}