{"type":"Feature","properties":{"GID_3":"CRI.6.4.6_1","GID_0":"CRI","country":"CostaRica","GID_1":"CRI.6_1","province":"Puntarenas","NL_NAME_1":"NA","GID_2":"CRI.6.4_1","county":"CotoBrus","NL_NAME_2":"NA","city":"SanVito","VARNAME_3":"NA","NL_NAME_3":"NA","TYPE_3":"Distrito","ENGTYPE_3":"District","CC_3":"1","HASC_3":"NA","name":"San_Vito.city"},
"geometry":{"type": "MultiPolygon","coordinates": [[[[-82.9492,8.7833,1142.3296],[-82.9508,8.7907,1201.4944],[-82.9498,8.7943,1247.4137],[-82.9517,8.7983,1298.5897],[-82.9468,8.8016,1192.7227],[-82.9462,8.8068,1126.3218],[-82.9421,8.8079,1060.5867],[-82.942,8.82,971.2875],[-82.937,8.8221,977.9933],[-82.932,8.821,951.5882],[-82.9316,8.8242,975.1142],[-82.9255,8.8314,887.9001],[-82.9301,8.8327,871.6685],[-82.9304,8.8351,870.3802],[-82.9386,8.8394,852.3852],[-82.9396,8.8443,840.0626],[-82.9463,8.8459,804.1499],[-82.9477,8.8485,791.6558],[-82.9457,8.8523,791.549],[-82.9522,8.8575,881.1985],[-82.9511,8.8612,804.9147],[-82.9407,8.8711,896.7713],[-82.9618,8.8711,667.3615],[-82.9628,8.874,866.0627],[-82.9671,8.8767,784.6566],[-82.9716,8.8767,648.8978],[-82.9721,8.8785,779.3414],[-82.9815,8.8809,672.4401],[-82.9815,8.8841,820.7434],[-82.9881,8.8841,594.456],[-82.9924,8.8865,625.5266],[-82.9919,8.8919,558.6692],[-82.9879,8.8908,557.9719],[-82.9855,8.8935,799.1807],[-82.9887,8.8961,583.2752],[-82.9901,8.9006,614.5841],[-82.9927,8.8992,520.9303],[-83.0028,8.904,511.8367],[-83.0033,8.9021,489.3206],[-83.0054,8.9028,492.7337],[-83.0063,8.9011,487.8228],[-83.0095,8.9022,546.3771],[-83.0116,8.9001,477.7452],[-83.0147,8.9007,528.5283],[-83.0243,8.8971,457.238],[-83.0303,8.8998,430.8619],[-83.029,8.8892,461.5721],[-83.0309,8.8881,478.3684],[-83.0269,8.8856,482.9423],[-83.0247,8.881,509.4991],[-83.0232,8.8812,509.4991],[-83.0205,8.8774,570.0626],[-83.0105,8.8773,623.0143],[-83.0092,8.8706,664.8665],[-83.0146,8.8687,752.3785],[-83.0082,8.8626,747.5533],[-83.0069,8.8586,766.0601],[-83.0078,8.8572,766.0601],[-83.0058,8.855,774.3535],[-83.002,8.8529,806.5121],[-83.0013,8.8509,798.3018],[-82.9995,8.8512,796.1752],[-82.9981,8.8487,830.1435],[-82.9933,8.8473,835.7277],[-82.9988,8.8413,903.7367],[-82.9962,8.8365,856.6055],[-82.9923,8.8355,870.1491],[-82.9892,8.8284,920.9641],[-82.9874,8.8275,910.5116],[-83.0049,8.8181,793.4873],[-83.004,8.8149,827.7164],[-82.9972,8.8085,958.9165],[-82.9975,8.8024,1118.1818],[-83.0033,8.7886,1436.0945],[-83.002,8.786,1421.4277],[-82.9992,8.785,1387.323],[-82.994,8.7867,1417.0521],[-82.9866,8.783,1442.7365],[-82.9806,8.7827,1414.9104],[-82.9736,8.7762,1338.1379],[-82.9685,8.7775,1245.2611],[-82.9644,8.7821,1178.5048],[-82.9602,8.7811,1189.8964],[-82.9569,8.7841,1205.6282],[-82.9492,8.7833,1142.3296]]]]}}