{"type": "Feature","bbox": [-84.4143,9.8084,-84.1459,9.9362],"geometry": {"type": "MultiPolygon","coordinates": [[[[-84.2239,9.8128,644.6605],[-84.2214,9.8147,672.8375],[-84.2214,9.8205,736.821],[-84.2241,9.8297,877.5044],[-84.2197,9.8381,965.8632],[-84.2207,9.8418,941.6057],[-84.2177,9.8394,984.0919],[-84.2141,9.839,1064.2122],[-84.2156,9.8414,1028.6538],[-84.215,9.8479,963.1455],[-84.2142,9.8442,990.1028],[-84.2114,9.8412,1023.327],[-84.1994,9.8407,1168.8118],[-84.1959,9.839,1157.5519],[-84.19,9.8412,1211.9688],[-84.1668,9.8606,1718.7842],[-84.157,9.8611,1917.5967],[-84.1505,9.8572,2178.8862],[-84.1476,9.8573,2349.1155],[-84.1459,9.8597,2338.8789],[-84.1485,9.8644,2303.6714],[-84.1512,9.8633,2242.7705],[-84.1634,9.8675,1996.92],[-84.1773,9.8677,1967.6226],[-84.1856,9.8787,1783.5671],[-84.1871,9.8834,1740.1456],[-84.1862,9.8852,1760.824],[-84.1878,9.8847,1774.6362],[-84.1954,9.8890999999999991,1741.8403],[-84.2015,9.8974,1577.6173],[-84.2194,9.9105,1242.0889],[-84.224,9.9234,1008.3564],[-84.232,9.9327,791.6926],[-84.2453,9.9351,680.6634],[-84.2468,9.9319,673.6696],[-84.2489,9.9316,653.7532],[-84.2516,9.9281,611.1757],[-84.2584,9.93,648.5986],[-84.2604,9.9325,650.0134],[-84.2663,9.9313,590.9818],[-84.2692,9.9333,590.7415],[-84.2839,9.929,566.3411],[-84.2866,9.9308,593.741],[-84.2887,9.9287,564.4728],[-84.2933,9.9304,550.3284],[-84.2989,9.9252,525.0505],[-84.3102,9.9232,469.7645],[-84.311,9.9196,453.0936],[-84.3146,9.9176,470.9992],[-84.3197,9.9203,425.6278],[-84.321,9.9157,447.1237],[-84.3269,9.9166,416.3959],[-84.3283,9.9143,412.7468],[-84.3346,9.9176,402.1031],[-84.3385,9.915,432.1641],[-84.3436,9.9155,399.7365],[-84.345,9.9173,405.944],[-84.349,9.9164,403.468],[-84.3516,9.9197,358.2107],[-84.3544,9.9192,336.6701],[-84.3547,9.9224,348.9861],[-84.3583,9.9224,370.0971],[-84.3677,9.9301,301.5892],[-84.373,9.9259,316.8351],[-84.381,9.9298,276.0779],[-84.3823,9.9333,316.5582],[-84.3861,9.9314,273.3152],[-84.3892,9.9362,279.949],[-84.394,9.9358,315.6206],[-84.394,9.9305,259.6095],[-84.3995,9.9313,246.7489],[-84.4061,9.9271,230.1873],[-84.4135,9.9283,211.5272],[-84.4126,9.9251,217.7025],[-84.4143,9.9233,219.3027],[-84.4083,9.9208,296.5757],[-84.4058,9.9128,361.4713],[-84.404,9.9127,365.7629],[-84.3991,9.9068,450.796],[-84.3956,9.9047,490.6223],[-84.3909,9.9044,537.0867],[-84.3865,9.9012,606.6193],[-84.3835,9.902,633.3587],[-84.3793,9.8995,661.7584],[-84.3753,9.8995,655.2072],[-84.3749,9.8967,726.2325],[-84.3681,9.8890999999999991,798.937],[-84.3689,9.886,849.3165],[-84.3671,9.8796,935.0905],[-84.3623,9.8785,1062.3772],[-84.3546,9.8849,874.8639],[-84.3495,9.885,731.1752],[-84.3433,9.8895,608.5157],[-84.3382,9.8894,560.1299],[-84.3342,9.8932,523.0151],[-84.3359,9.8983,506.5905],[-84.3298,9.8997,496.9728],[-84.3263,9.8909,538.0553],[-84.317,9.8879,671.1929],[-84.3092,9.8827,780.8486],[-84.3072,9.8822,786.4638],[-84.3047,9.884,834.2653],[-84.3,9.8815,826.6893],[-84.2964,9.8689,943.1923],[-84.2924,9.8648,1000.912],[-84.2936,9.8638,1000.912],[-84.2873,9.8636,1023.7964],[-84.2884,9.8608,996.8293],[-84.2866,9.858,974.2021],[-84.2811,9.8529,865.4708],[-84.276,9.852,800.3643],[-84.2703,9.8428,699.1746],[-84.2697,9.8442,745.3218],[-84.252,9.8442,725.8947],[-84.2542,9.8404,688.7371],[-84.2563,9.8404,679.5746],[-84.2585,9.8375,669.8461],[-84.2597,9.8258,643.5647],[-84.2634,9.8248,601.2996],[-84.2626,9.8209,586.9492],[-84.2663,9.8177,556.8909],[-84.2641,9.8158,547.2567],[-84.2659,9.8125,526.2676],[-84.2634,9.8091,496.283],[-84.253,9.8117,523.9597],[-84.2439,9.8093,565.9822],[-84.2406,9.8109,588.5873],[-84.2372,9.8084,622.7366],[-84.2327,9.8086,621.6321],[-84.2286,9.8108,620.7647],[-84.2249,9.8104,651.2903],[-84.2239,9.8128,644.6605]]]]}
,"properties": {"GID_2": "CRI.7.11_1","GID_0": "CRI","country": "CostaRica","GID_1": "CRI.7_1","province": "SanJosé","NL_NAME_1": "NA","county": "Mora","VARNAME_2": "NA","NL_NAME_2": "NA","TYPE_2": "Cantón","ENGTYPE_2": "Canton","CC_2": "7","HASC_2": "CR.SJ.MR","name": "Mora.county","area_km2": 164.134,"hist_schema_id": "Elevation0-9000","hist_area_km2": {"225": 0.1044,"250": 0.1462,"275": 0.3342,"300": 0.6265,"325": 0.8772,"350": 0.8981,"375": 0.9816,"400": 1.7961,"425": 1.8379,"450": 1.6291,"475": 3.1746,"500": 3.7386,"525": 4.5532,"550": 4.24,"575": 4.0729,"600": 4.0313,"625": 3.8433,"650": 4.4072,"675": 4.3028,"700": 4.2192,"725": 3.9268,"750": 4.9295,"775": 6.6629,"800": 7.1853,"825": 7.7075,"850": 6.8303,"875": 6.5797,"900": 6.3082,"925": 6.6842,"950": 5.9531,"975": 5.8488,"1000": 4.8879,"1025": 3.9479,"1050": 2.632,"1075": 2.4021,"1100": 2.2768,"1125": 2.1515,"1150": 1.7128,"1175": 1.7964,"1200": 1.5457,"1225": 1.4831,"1250": 1.2115,"1275": 1.3368,"1300": 1.1489,"1325": 1.3995,"1350": 1.1071,"1375": 1.0026,"1400": 1.1489,"1425": 1.1697,"1450": 0.94,"1475": 0.8355,"1500": 0.7311,"1525": 0.8355,"1550": 0.7729,"1575": 0.8146,"1600": 0.6893,"1625": 0.5849,"1650": 0.2924,"1675": 0.3342,"1700": 0.3969,"1725": 0.5013,"1750": 0.3969,"1775": 0.4804,"1800": 0.3133,"1825": 0.1671,"1850": 0.2507,"1875": 0.2298,"1900": 0.1671,"1925": 0.1462,"1950": 0.2716,"1975": 0.1044,"2000": 0.188,"2025": 0.1044,"2050": 0.1462,"2075": 0.1671,"2100": 0.0209,"2125": 0.0627,"2150": 0.0627,"2175": 0.0209,"2200": 0.0209,"2250": 0.0209,"2275": 0.0836,"2300": 0.0418,"2325": 0.0418,"2350": 0.0836,"2375": 0.0209}}}