{"type":"Feature","properties":{"GID_3":"CRI.4.2.1_1","GID_0":"CRI","country":"CostaRica","GID_1":"CRI.4_1","province":"Heredia","NL_NAME_1":"NA","GID_2":"CRI.4.2_1","county":"Belén","NL_NAME_2":"NA","city":"LaAsunción","VARNAME_3":"NA","NL_NAME_3":"NA","TYPE_3":"Distrito","ENGTYPE_3":"District","CC_3":"3","HASC_3":"NA","name":"La_Asunción.city"},
"geometry":{"type": "MultiPolygon","coordinates": [[[[-84.1772,9.9884,965.3444],[-84.1764,9.9718,900.9674],[-84.1736,9.9718,919.2748],[-84.1689,9.9657,932.7045],[-84.1593,9.967,946.1534],[-84.1555,9.9695,960.788],[-84.1535,9.9726,969.8007],[-84.155,9.9765,969.7166],[-84.1627,9.981,995.2292],[-84.1617,9.9814,995.2292],[-84.1655,9.9922,988.2404],[-84.1772,9.9884,965.3444]]]]}}