{"type": "Feature","bbox": [-84.5178,10.1671,-84.315,10.2704],"geometry": {"type": "MultiPolygon","coordinates": [[[[-84.346,10.1929,2125.8091],[-84.3424,10.1919,2103.9531],[-84.3411,10.1894,2098.9939],[-84.3406,10.1758,2154.2063],[-84.338,10.173,2133.3435],[-84.3338,10.1731,2069.4612],[-84.3277,10.1695,2042.8936],[-84.3266,10.1766,1942.9403],[-84.3207,10.1917,1724.7305],[-84.3217,10.1969,1648.9045],[-84.315,10.2048,1531.4141],[-84.3243,10.2093,1694.2915],[-84.3298,10.2179,2085.9407],[-84.3304,10.2237,2191.0776],[-84.3334,10.2294,2197.063],[-84.3401,10.2325,2209.9365],[-84.3412,10.235,2227.2095],[-84.3451,10.2369,2202.5156],[-84.3479,10.2423,2188.5847],[-84.3491,10.2423,2224.2075],[-84.3509,10.2376,2203.2148],[-84.3526,10.2376,2225.5945],[-84.3593,10.2559,1956.9822],[-84.3647,10.2563,1882.2482],[-84.3707,10.2524,1812.5787],[-84.3744,10.2518,1882.6689],[-84.3754,10.2534,1749.7312],[-84.3798,10.2517,1740.0795],[-84.3821,10.2539,1670.2983],[-84.3826,10.257,1666.0251],[-84.3864,10.2575,1579.2803],[-84.3872,10.2594,1550.0441],[-84.3906,10.2588,1516.4818],[-84.3918,10.2602,1463.6005],[-84.3982,10.2608,1427.4478],[-84.3996,10.2595,1380.8174],[-84.4014,10.2628,1413.0715],[-84.4032,10.2617,1349.6301],[-84.4211,10.264,1110.5378],[-84.4274,10.2659,1071.3815],[-84.4279,10.2684,1047.6746],[-84.4305,10.2681,1029.6846],[-84.4325,10.2704,1004.34],[-84.5177,10.2494,459.9016],[-84.5178,10.2432,539.4924],[-84.5149,10.2399,659.0201],[-84.5171,10.2352,592.1729],[-84.5142,10.2342,632.347],[-84.511,10.2352,639.3092],[-84.5103,10.2324,638.5912],[-84.5071,10.2336,629.8375],[-84.5067,10.2317,648.0089],[-84.4984,10.2298,728.7338],[-84.4942,10.2274,709.9497],[-84.4942,10.2247,809.7515],[-84.4913,10.2245,788.7538],[-84.4875,10.2192,828.6165],[-84.4852,10.2199,822.1372],[-84.4795,10.2168,869.9152],[-84.4808,10.2149,924.2209],[-84.4765,10.2119,875.2084],[-84.4768,10.2071,876.6558],[-84.4732,10.2053,911.4093],[-84.4746,10.2038,931.9286],[-84.4721,10.2021,936.3942],[-84.4729,10.1933,986.3183],[-84.4686,10.192,1002.1396],[-84.4686,10.1879,1023.3721],[-84.4663,10.1882,1043.8234],[-84.4651,10.1852,1055.9534],[-84.4579,10.1818,1116.9443],[-84.4521,10.1748,1169.3037],[-84.4443,10.1729,1211.8995],[-84.4427,10.1696,1219.3213],[-84.4376,10.1671,1242.1256],[-84.4297,10.1692,1310.5775],[-84.4269,10.1714,1335.4857],[-84.4243,10.169,1353.8175],[-84.418,10.172,1388.0776],[-84.4153,10.1691,1429.2692],[-84.4119,10.1684,1454.5599],[-84.4089,10.17,1466.5071],[-84.4024,10.1696,1493.2568],[-84.4017,10.1715,1518.7312],[-84.3954,10.1732,1550.6023],[-84.3933,10.1756,1624.8258],[-84.3878,10.1765,1620.3843],[-84.3835,10.1796,1674.385],[-84.3502,10.1878,2160.2422],[-84.346,10.1929,2125.8091]]]]}
,"properties": {"GID_2": "CRI.1.16_1","GID_0": "CRI","country": "CostaRica","GID_1": "CRI.1_1","province": "Alajuela","NL_NAME_1": "NA","county": "Zarcero","VARNAME_2": "NA","NL_NAME_2": "NA","TYPE_2": "Cantón","ENGTYPE_2": "Canton","CC_2": "11","HASC_2": "CR.AL.AR","name": "Zarcero.county","area_km2": 157.7667,"hist_schema_id": "Elevation0-9000","hist_area_km2": {"450": 0.0209,"475": 0.1043,"500": 0.2086,"525": 0.1252,"550": 0.2504,"575": 0.3338,"600": 0.313,"625": 0.3964,"650": 0.3547,"675": 0.3756,"700": 0.5425,"725": 0.5842,"750": 0.7929,"775": 0.5425,"800": 0.7303,"825": 1.1058,"850": 1.1058,"875": 2.1073,"900": 2.3786,"925": 2.3577,"950": 2.5246,"975": 2.6707,"1000": 2.2325,"1025": 1.6066,"1050": 1.9404,"1075": 1.8987,"1100": 2.5038,"1125": 2.5665,"1150": 2.7543,"1175": 2.8795,"1200": 2.6292,"1225": 3.2134,"1250": 2.963,"1275": 3.2134,"1300": 2.5665,"1325": 2.7543,"1350": 2.796,"1375": 3.1508,"1400": 2.8586,"1425": 2.8795,"1450": 2.6083,"1475": 2.6083,"1500": 2.8587,"1525": 2.8378,"1550": 2.6709,"1575": 2.6917,"1600": 2.2744,"1625": 2.4205,"1650": 2.3162,"1675": 2.5666,"1700": 2.9004,"1725": 2.6292,"1750": 2.817,"1775": 3.2551,"1800": 2.5039,"1825": 2.8169,"1850": 2.0032,"1875": 2.3161,"1900": 2.7126,"1925": 2.6917,"1950": 2.6292,"1975": 2.9422,"2000": 3.6516,"2025": 4.6324,"2050": 4.5072,"2075": 5.2166,"2100": 4.0272,"2125": 2.9421,"2150": 3.0672,"2175": 2.1909,"2200": 1.3145,"2225": 0.7303,"2250": 0.0835}}}