{"type":"Feature","properties":{"GID_3":"CRI.1.17.3_1","GID_0":"CRI","country":"CostaRica","GID_1":"CRI.1_1","province":"Alajuela","NL_NAME_1":"NA","GID_2":"CRI.1.17_1","county":"RíoCuarto","NL_NAME_2":"NA","city":"SantaRita","VARNAME_3":"NA","NL_NAME_3":"NA","TYPE_3":"Distrito","ENGTYPE_3":"District","CC_3":"6","HASC_3":"NA","name":"Santa_Rita.city"},
"geometry":{"type": "MultiPolygon","coordinates": [[[[-84.1808,10.3732,291.7051],[-84.1811,10.3736,291.7051],[-84.1813,10.3725,282.8275],[-84.181,10.3728,291.7051],[-84.1808,10.3732,291.7051]]],
[[[-84.1798,10.3792,257.7257],[-84.1798,10.3796,257.7257],[-84.1806,10.3756,277.7376],[-84.1796,10.3771,269.8294],[-84.1798,10.3792,257.7257]]],
[[[-84.1616,10.4136,182.9064],[-84.1609,10.4387,158.8388],[-84.1797,10.4377,185.3257],[-84.1847,10.4346,189.9053],[-84.1949,10.4381,197.9606],[-84.1992,10.4344,178.0884],[-84.2038,10.4333,198.3607],[-84.2087,10.437,194.2974],[-84.2194,10.4353,194.5652],[-84.2248,10.4385,188.7635],[-84.253,10.4416,188.5374],[-84.2546,10.4316,202.1721],[-84.2578,10.4271,214.8668],[-84.2571,10.4217,228.1889],[-84.2612,10.4186,233.337],[-84.257,10.414,243.1212],[-84.2573,10.4099,254.0615],[-84.2404,10.4077,262.4115],[-84.2404,10.3899,325.4189],[-84.2154,10.3893,263.9208],[-84.2023,10.3845,260.7798],[-84.1987,10.3857,267.8684],[-84.1993,10.3922,268.8647],[-84.2035,10.3928,250.2764],[-84.2032,10.4009,241.1566],[-84.198,10.4004,260.3171],[-84.191,10.3928,256.4513],[-84.188,10.3851,276.0212],[-84.1795,10.3813,255.8961],[-84.1777,10.3827,246.9804],[-84.1773,10.3861,241.1562],[-84.1789,10.387,241.1562],[-84.1759,10.3912,237.3533],[-84.1751,10.397,235.3576],[-84.1705,10.4019,220.7596],[-84.1675,10.4094,218.7339],[-84.165,10.4096,203.073],[-84.1616,10.4136,182.9064]]]]}}