{"type":"Feature","properties":{"GID_3":"CRI.1.16.1_1","GID_0":"CRI","country":"CostaRica","GID_1":"CRI.1_1","province":"Alajuela","NL_NAME_1":"NA","GID_2":"CRI.1.16_1","county":"Zarcero","NL_NAME_2":"NA","city":"Brisas","VARNAME_3":"NA","NL_NAME_3":"NA","TYPE_3":"Distrito","ENGTYPE_3":"District","CC_3":"7","HASC_3":"NA","name":"Brisas.city"},
"geometry":{"type": "MultiPolygon","coordinates": [[[[-84.3593,10.2559,1956.9822],[-84.3647,10.2563,1882.2482],[-84.3707,10.2524,1812.5787],[-84.3744,10.2518,1882.6689],[-84.3754,10.2534,1749.7312],[-84.3798,10.2517,1740.0795],[-84.3821,10.2539,1670.2983],[-84.3826,10.257,1666.0251],[-84.3864,10.2575,1579.2803],[-84.3872,10.2594,1550.0441],[-84.3906,10.2588,1516.4818],[-84.3918,10.2602,1463.6005],[-84.3982,10.2608,1427.4478],[-84.3996,10.2595,1380.8174],[-84.4014,10.2628,1413.0715],[-84.4032,10.2617,1349.6301],[-84.4126,10.2623,1195.1619],[-84.4161,10.2639,1171.5145],[-84.4107,10.2572,1350.8981],[-84.41,10.2536,1460.7922],[-84.4001,10.243,1762.9734],[-84.4012,10.2401,1761.1631],[-84.4085,10.2416,1628.7502],[-84.4062,10.2308,1693.7881],[-84.4156,10.2275,1629.2516],[-84.4191,10.2237,1542.9536],[-84.4129,10.2236,1632.1755],[-84.4116,10.2254,1625.0667],[-84.4066,10.2258,1662.2781],[-84.3998,10.2231,1723.7329],[-84.398,10.2245,1734.7788],[-84.3924,10.2214,1808.608],[-84.3874,10.2233,1841.0601],[-84.387,10.2253,1861.092],[-84.3785,10.2256,1881.7288],[-84.3787,10.2271,1901.9895],[-84.3729,10.2336,1988.5422],[-84.3599,10.237,2145.4785],[-84.3582,10.2393,2127.375],[-84.3587,10.2417,2149.8064],[-84.3555,10.2465,2260.376],[-84.3593,10.2559,1956.9822]]]]}}