{"type":"Feature","properties":{"GID_3":"CRI.5.2.1_1","GID_0":"CRI","country":"CostaRica","GID_1":"CRI.5_1","province":"Limón","NL_NAME_1":"NA","GID_2":"CRI.5.2_1","county":"Limón","NL_NAME_2":"NA","city":"Limon","VARNAME_3":"NA","NL_NAME_3":"NA","TYPE_3":"Distrito","ENGTYPE_3":"District","CC_3":"1","HASC_3":"NA","name":"Limon.city"},
"geometry":{"type": "MultiPolygon","coordinates": [[[[-83.0106,9.995,14.1641],[-83.0113,9.9958,0.0],[-83.0135,9.9948,5.2852],[-83.0115,9.9923,11.3185],[-83.0106,9.995,14.1641]]],
[[[-83.1025,9.9407,33.3666],[-83.1005,9.9383,33.2559],[-83.0928,9.9394,27.8078],[-83.0916,9.9409,22.8756],[-83.0856,9.9398,26.6897],[-83.0857,9.9417,23.0105],[-83.0842,9.9417,21.6153],[-83.0838,9.9399,22.6438],[-83.0764,9.938,25.0682],[-83.074,9.9396,21.8746],[-83.0735,9.9428,22.4945],[-83.061,9.953,13.1443],[-83.0161,9.9506,0.3206],[-83.029,9.9713,3.1578],[-83.0309,9.9771,0.0],[-83.031,9.9874,2.7654],[-83.0357,9.9869,3.7912],[-83.0349,9.9877,4.58],[-83.0286,9.9898,1.4083],[-83.0267,9.9872,0.0],[-83.0275,9.9898,1.4083],[-83.0257,9.9907,3.8232],[-83.0239,9.9886,0.0],[-83.0251,9.9872,0.0],[-83.0228,9.9889,0.3796],[-83.0253,9.9909,3.8232],[-83.0238,9.9915,3.0242],[-83.0203,9.9896,0.2304],[-83.0204,9.9879,0.0],[-83.0199,9.9898,0.2304],[-83.0281,9.9957,2.9344],[-83.0247,9.9999,0.8148],[-83.0274,10.003,0.4572],[-83.0317,10.003,1.2361],[-83.0356,10.0069,3.6262],[-83.0389,10.0068,3.1053],[-83.042,10.0094,0.0],[-83.0463,10.0093,7.2511],[-83.0464,10.0109,0.0],[-83.0504,10.0118,2.9199],[-83.0517,10.0102,16.661],[-83.062,10.0088,1.6169],[-83.0637,10.0099,1.6169],[-83.0631,10.0138,2.961],[-83.0647,10.0149,14.4281],[-83.0672,10.0106,7.1763],[-83.0691,10.0127,7.6299],[-83.0736,10.0129,8.5522],[-83.0778,10.0109,0.0],[-83.0796,10.012,0.0],[-83.0775,10.0078,0.0],[-83.0783,10.0009,0.0],[-83.0803,10.0067,0.0],[-83.0799,10.0024,0.0],[-83.0787,10.0006,0.0],[-83.0895,10.0005,0.9845],[-83.1005,10.0045,1.0567],[-83.107,10.0091,0.4791],[-83.1299,10.0357,4.1477],[-83.1529,10.0664,1.3146],[-83.1588,10.0634,4.6024],[-83.1339,10.0321,3.7519],[-83.1102,10.007,7.9584],[-83.1041,10.0056,5.5847],[-83.1023,10.0024,8.8729],[-83.0996,10.0029,11.6059],[-83.0958,9.9994,19.7252],[-83.0957,9.995,9.3212],[-83.0972,9.993,9.4876],[-83.0928,9.987,16.4203],[-83.0985,9.9808,27.4444],[-83.0995,9.9765,51.7611],[-83.1042,9.9754,74.0383],[-83.1023,9.9686,103.4354],[-83.1041,9.961,99.4218],[-83.1075,9.959,88.4841],[-83.1053,9.9547,45.6815],[-83.1096,9.9482,49.8715],[-83.108,9.9453,31.7386],[-83.1038,9.9437,57.6504],[-83.1025,9.9407,33.3666]]],
[[[-83.0761,10.0175,0.0],[-83.076,10.0179,0.0],[-83.0767,10.0183,0.0],[-83.0768,10.018,0.0],[-83.0761,10.0175,0.0]]]]}}