{"type":"Feature","properties":{"GID_3":"CRI.1.16.3_1","GID_0":"CRI","country":"CostaRica","GID_1":"CRI.1_1","province":"Alajuela","NL_NAME_1":"NA","GID_2":"CRI.1.16_1","county":"Zarcero","NL_NAME_2":"NA","city":"Laguna","VARNAME_3":"NA","NL_NAME_3":"NA","TYPE_3":"Distrito","ENGTYPE_3":"District","CC_3":"2","HASC_3":"NA","name":"Laguna.city"},
"geometry":{"type": "MultiPolygon","coordinates": [[[[-84.4767,10.212,875.2084],[-84.469,10.2058,961.5605],[-84.4642,10.2053,1040.2236],[-84.4631,10.2021,1067.1053],[-84.46,10.2029,1086.4841],[-84.448,10.1973,1192.9631],[-84.435,10.2035,1371.5894],[-84.4307,10.201599999999999,1412.0334],[-84.426,10.2025,1479.2384],[-84.4203,10.1985,1510.2572],[-84.4104,10.1997,1599.9117],[-84.4064,10.196,1697.0596],[-84.4057,10.1882,1571.8542],[-84.4046,10.1903,1600.8738],[-84.3957,10.1938,1728.0355],[-84.3842,10.2052,2092.4851],[-84.3861,10.2061,2086.8201],[-84.3852,10.2141,1929.1042],[-84.3907,10.2138,1902.7657],[-84.397,10.216,1813.0521],[-84.4016,10.2153,1760.2285],[-84.4042,10.2132,1744.1385],[-84.4211,10.2135,1567.0917],[-84.4297,10.212,1417.7745],[-84.4401,10.2196,1273.5774],[-84.4481,10.2154,1176.7866],[-84.4509,10.2174,1146.1934],[-84.4516,10.2198,1142.6521],[-84.4541,10.2191,1104.8298],[-84.4561,10.2214,1099.5652],[-84.4579,10.2207,1101.8785],[-84.4578,10.2229,1072.1985],[-84.46,10.2233,1074.0935],[-84.4591,10.2253,1035.4476],[-84.4624,10.225,993.0498],[-84.4622,10.2233,1058.0988],[-84.4645,10.2248,973.4957],[-84.4651,10.2234,1009.1182],[-84.4682,10.2235,934.7752],[-84.4714,10.2268,859.8947],[-84.4786,10.2251,841.9482],[-84.4801,10.2286,830.9397],[-84.4865,10.2335,743.6024],[-84.489,10.2329,760.8929],[-84.4923,10.2353,700.9669],[-84.4952,10.2334,699.4607],[-84.4972,10.2357,694.1357],[-84.5014,10.2363,671.3466],[-84.504,10.2394,616.9305],[-84.5081,10.2389,584.0391],[-84.5119,10.245,512.546],[-84.5177,10.2494,459.9016],[-84.5178,10.2432,539.4924],[-84.5149,10.2399,659.0201],[-84.5169,10.235,592.1729],[-84.511,10.2352,639.3092],[-84.5106,10.2325,672.1784],[-84.5071,10.2336,629.8375],[-84.5067,10.2317,648.0089],[-84.4967,10.2289,712.0437],[-84.4937,10.2268,769.2289],[-84.4942,10.2247,809.7515],[-84.4913,10.2245,788.7538],[-84.4875,10.2192,828.6165],[-84.4852,10.2199,822.1372],[-84.4795,10.2168,869.9152],[-84.4808,10.2149,924.2209],[-84.4767,10.212,875.2084]]]]}}