{"type":"Feature","properties":{"GID_3":"CRI.1.11.5_1","GID_0":"CRI","country":"CostaRica","GID_1":"CRI.1_1","province":"Alajuela","NL_NAME_1":"NA","GID_2":"CRI.1.11_1","county":"SanCarlos","NL_NAME_2":"NA","city":"LaFortuna","VARNAME_3":"NA","NL_NAME_3":"NA","TYPE_3":"Distrito","ENGTYPE_3":"District","CC_3":"7","HASC_3":"NA","name":"La_Fortuna.city"},
"geometry":{"type": "MultiPolygon","coordinates": [[[[-84.539,10.4961,70.1778],[-84.5464,10.4984,74.6022],[-84.5488,10.4942,83.6179],[-84.5563,10.4907,87.4229],[-84.5618,10.4947,89.8563],[-84.5656,10.4938,84.3918],[-84.5692,10.4957,92.0795],[-84.5734,10.4936,97.9709],[-84.5783,10.4975,105.7824],[-84.5823,10.4974,102.4547],[-84.5871,10.5002,123.0571],[-84.5917,10.4974,120.0907],[-84.5929,10.5021,122.7469],[-84.5981,10.5019,130.0292],[-84.6003,10.5055,129.6748],[-84.5986,10.509,145.271],[-84.6028,10.5092,137.5184],[-84.6055,10.5121,153.4958],[-84.6222,10.5129,182.6495],[-84.624,10.5151,169.6195],[-84.6274,10.5158,197.6045],[-84.6302,10.5127,182.1931],[-84.6322,10.5147,195.1849],[-84.6385,10.5147,233.3942],[-84.6382,10.513,200.0721],[-84.6433,10.5102,233.1306],[-84.6451,10.514,256.078],[-84.6503,10.5118,238.7868],[-84.6564,10.5151,232.6974],[-84.6641,10.5156,257.8704],[-84.6673,10.514,249.4965],[-84.6767,10.5196,272.235],[-84.6843,10.516,308.6472],[-84.6839,10.5134,307.8455],[-84.6866,10.51,373.2594],[-84.6931,10.5063,330.1393],[-84.7024,10.5101,377.2448],[-84.7081,10.5058,388.2563],[-84.7127,10.5076,420.784],[-84.7168,10.5041,433.3672],[-84.7189,10.513,559.3862],[-84.7285,10.5229,681.8553],[-84.7309,10.5187,685.5103],[-84.7424,10.5175,649.571],[-84.7474,10.5057,766.2767],[-84.7626,10.4992,823.7051],[-84.7742,10.4974,805.145],[-84.7741,10.4628,551.7166],[-84.7712,10.4531,540.0],[-84.7665,10.4233,548.4814],[-84.7659,10.4287,540.0],[-84.7637,10.4321,540.0],[-84.7599,10.4326,540.0],[-84.7588,10.4307,543.0991],[-84.7524,10.4328,540.0],[-84.7522,10.4351,540.0],[-84.7505,10.4351,540.0],[-84.7481,10.4317,542.0821],[-84.7475,10.434,540.0],[-84.7477,10.4301,552.7806],[-84.7519,10.4221,618.1642],[-84.7516,10.4178,637.1149],[-84.7536,10.4134,669.8727],[-84.7494,10.4075,723.8023],[-84.7474,10.3991,854.4509],[-84.7405,10.3982,885.7352],[-84.7355,10.3948,936.6478],[-84.7318,10.3952,958.8158],[-84.7272,10.3917,1019.0863],[-84.7266,10.3873,1125.0646],[-84.7216,10.3809,1295.8982],[-84.7215,10.3767,1451.9059],[-84.6885,10.443,1087.5],[-84.6681,10.4105,1131.0447],[-84.665,10.4185,958.5203],[-84.6564,10.4293,599.7999],[-84.6527,10.4375,471.7319],[-84.6503,10.4502,343.3911],[-84.6449,10.454,276.2066],[-84.6347,10.4532,236.3767],[-84.6306,10.4566,222.5655],[-84.6288,10.4558,221.1771],[-84.6268,10.4572,195.1667],[-84.6211,10.4539,180.8923],[-84.6178,10.4488,158.6379],[-84.6156,10.4494,154.3902],[-84.6102,10.4471,142.6008],[-84.6053,10.4424,134.1619],[-84.5968,10.4468,116.7565],[-84.5931,10.4433,114.344],[-84.5882,10.4445,110.5819],[-84.5847,10.4421,109.4351],[-84.5822,10.4424,105.4934],[-84.5837,10.4407,105.0695],[-84.5833,10.4394,100.0804],[-84.582,10.4403,100.4826],[-84.5822,10.4384,112.6558],[-84.5768,10.4414,101.471],[-84.5765,10.4401,99.1061],[-84.5702,10.4401,95.3156],[-84.5666,10.4452,95.2389],[-84.5626,10.4455,92.2851],[-84.5644,10.4473,91.043],[-84.5636,10.4495,94.5117],[-84.5612,10.4476,88.7141],[-84.5572,10.4489,90.3345],[-84.5569,10.4473,88.1478],[-84.5585,10.4477,92.5034],[-84.5591,10.4455,90.6015],[-84.5554,10.445,85.3886],[-84.5537,10.4425,83.719],[-84.5537,10.4436,83.719],[-84.550299999999993,10.4424,84.3031],[-84.5453,10.4365,77.4702],[-84.5361,10.4375,76.6114],[-84.5321,10.4427,76.6352],[-84.5285,10.44,76.8686],[-84.5253,10.4472,77.5066],[-84.5228,10.4473,70.402],[-84.5205,10.445,72.7315],[-84.5206,10.4483,71.2392],[-84.5151,10.4463,72.3146],[-84.5122,10.4532,69.4792],[-84.5149,10.4503,70.9121],[-84.5176,10.4499,71.3154],[-84.519,10.4524,72.6825],[-84.5235,10.4526,72.4447],[-84.5209,10.4568,73.7734],[-84.5237,10.4602,70.6387],[-84.5243,10.468,70.7197],[-84.5191,10.4703,69.0669],[-84.5196,10.4726,68.9487],[-84.5183,10.4739,68.4848],[-84.5131,10.4739,66.5871],[-84.5103,10.478,69.2686],[-84.5256,10.4824,79.3621],[-84.525,10.4891,81.3694],[-84.5294,10.4935,89.3387],[-84.5336,10.4913,85.2102],[-84.5377,10.4916,86.245],[-84.539,10.4961,70.1778]]]]}}