{"type":"Feature","properties":{"GID_3":"CRI.1.16.6_1","GID_0":"CRI","country":"CostaRica","GID_1":"CRI.1_1","province":"Alajuela","NL_NAME_1":"NA","GID_2":"CRI.1.16_1","county":"Zarcero","NL_NAME_2":"NA","city":"Zapote","VARNAME_3":"NA","NL_NAME_3":"NA","TYPE_3":"Distrito","ENGTYPE_3":"District","CC_3":"6","HASC_3":"NA","name":"Zapote.city"},
"geometry":{"type": "MultiPolygon","coordinates": [[[[-84.5177,10.2494,459.9016],[-84.5119,10.245,512.546],[-84.5081,10.2389,584.0391],[-84.504,10.2394,616.9305],[-84.5014,10.2363,671.3466],[-84.4972,10.2357,694.1357],[-84.4952,10.2334,699.4607],[-84.4923,10.2353,700.9669],[-84.489,10.2329,760.8929],[-84.4865,10.2335,743.6024],[-84.4801,10.2286,830.9397],[-84.4786,10.2251,841.9482],[-84.4714,10.2268,859.8947],[-84.4682,10.2235,934.7752],[-84.4651,10.2234,1009.1182],[-84.4645,10.2248,973.4957],[-84.4622,10.2233,1058.0988],[-84.4624,10.225,993.0498],[-84.4591,10.2253,1035.4476],[-84.46,10.2233,1074.0935],[-84.4578,10.2229,1072.1985],[-84.4579,10.2207,1101.8785],[-84.4561,10.2214,1099.5652],[-84.4541,10.2191,1104.8298],[-84.4516,10.2198,1142.6521],[-84.4509,10.2174,1146.1934],[-84.4479,10.2153,1176.7866],[-84.4407,10.2196,1272.8577],[-84.4359,10.2169,1325.0571],[-84.4302,10.2189,1412.3782],[-84.4277,10.2207,1423.2302],[-84.4265,10.2242,1556.403],[-84.4249,10.2227,1496.0525],[-84.4235,10.2235,1507.6025],[-84.423,10.2212,1519.5977],[-84.4194,10.2225,1542.9536],[-84.4156,10.2275,1629.2516],[-84.4062,10.2308,1693.7881],[-84.4085,10.2416,1628.7502],[-84.4012,10.2401,1761.1631],[-84.4001,10.243,1762.9734],[-84.41,10.2536,1460.7922],[-84.4107,10.2572,1350.8981],[-84.4161,10.2639,1171.5145],[-84.4272,10.2658,1071.3815],[-84.4279,10.2684,1047.6746],[-84.4305,10.2681,1029.6846],[-84.4325,10.2704,1004.34],[-84.5177,10.2494,459.9016]]]]}}