{"type": "Feature","bbox": [-84.1685,9.9356,-84.1101,9.9637],"geometry": {"type": "MultiPolygon","coordinates": [[[[-84.1232,9.9356,1039.5005],[-84.1149,9.9362,1100.3408],[-84.1101,9.9446,1070.0616],[-84.1198,9.9479,1064.4854],[-84.1216,9.9502,1064.933],[-84.1219,9.9548,1030.8284],[-84.1333,9.9603,995.0419],[-84.146,9.9603,977.0159],[-84.1492,9.9581,958.2559],[-84.1579,9.9637,933.759],[-84.1685,9.9637,909.6438],[-84.1648,9.9571,954.3585],[-84.1585,9.9557,968.6749],[-84.1553,9.9523,974.4654],[-84.1519,9.9512,975.4801],[-84.1508,9.9481,979.9542],[-84.1445,9.9449,985.0691],[-84.1434,9.9418,995.8652],[-84.1232,9.9356,1039.5005]]]]}
,"properties": {"GID_3": "CRI.7.15.7_1","GID_0": "CRI","country": "CostaRica","GID_1": "CRI.7_1","province": "SanJosé","NL_NAME_1": "NA","GID_2": "CRI.7.15_1","county": "SanJosé","NL_NAME_2": "NA","city": "Pavas","VARNAME_3": "NA","NL_NAME_3": "NA","TYPE_3": "Distrito","ENGTYPE_3": "District","CC_3": "9","HASC_3": "NA","name": "Pavas.city","area_km2": 9.418371,"hist_schema_id": "Elevation0-9000","hist_area_km2": {"925": 0.125295,"950": 0.459418,"975": 1.336502,"1000": 2.401558,"1025": 1.712438,"1050": 1.628918,"1075": 1.190376,"1100": 0.563865}}}