{"type": "Feature","bbox": [-84.0542,9.9681,-84.0191,9.9926],"geometry": {"type": "MultiPolygon","coordinates": [[[[-84.0352,9.9905,1277.7672],[-84.0398,9.9868,1242.9939],[-84.043,9.9872,1271.6384],[-84.0408,9.9846,1295.0713],[-84.0447,9.9824,1244.5283],[-84.0442,9.9805,1209.4556],[-84.046,9.9813,1234.4982],[-84.0482,9.9763,1212.4414],[-84.0542,9.9767,1191.5747],[-84.0521,9.9746,1178.6553],[-84.0526,9.973,1168.9568],[-84.0449,9.9745,1226.3455],[-84.0419,9.9727,1231.8414],[-84.0389,9.9731,1233.906],[-84.035,9.9681,1261.7622],[-84.0335,9.9711,1268.8049],[-84.0224,9.9771,1329.7296],[-84.0232,9.9814,1301.3088],[-84.0213,9.9855,1320.1676],[-84.0233,9.9887,1321.6285],[-84.0191,9.9908,1303.7117],[-84.0219,9.9902,1305.7552],[-84.0234,9.992,1291.2772],[-84.0246,9.991,1291.2772],[-84.0277,9.9926,1282.6836],[-84.0317,9.992,1265.9135],[-84.0324,9.9899,1285.1143],[-84.033,9.991,1265.9135],[-84.0352,9.9905,1277.7672]]]]}
,"properties": {"GID_3": "CRI.7.12.1_1","GID_0": "CRI","country": "CostaRica","GID_1": "CRI.7_1","province": "SanJosé","NL_NAME_1": "NA","GID_2": "CRI.7.12_1","county": "Moravia","NL_NAME_2": "NA","city": "LaTrinidad","VARNAME_3": "NA","NL_NAME_3": "NA","TYPE_3": "Distrito","ENGTYPE_3": "District","CC_3": "3","HASC_3": "NA","name": "La_Trinidad.city","area_km2": 4.823584,"hist_schema_id": "Elevation0-9000","hist_area_km2": {"1175": 0.020882,"1200": 0.12529,"1225": 0.354984,"1250": 0.751734,"1275": 1.064954,"1300": 1.712261,"1325": 0.793481}}}