{"type": "Feature","bbox": [-83.8589,10.2226,-83.7525,10.3375],"geometry": {"type": "MultiPolygon","coordinates": [[[[-83.8589,10.2538,148.4344],[-83.8475,10.2516,154.9135],[-83.8432,10.2457,159.9055],[-83.8342,10.2426,171.9745],[-83.8342,10.2469,165.3537],[-83.8287,10.245,175.0375],[-83.8236,10.2285,225.4375],[-83.7752,10.2226,232.8629],[-83.774,10.2259,230.7326],[-83.769,10.2308,210.0077],[-83.7648,10.2327,193.8636],[-83.7618,10.2384,174.1562],[-83.7584,10.2397,164.5359],[-83.7525,10.254,134.579],[-83.7528,10.2554,134.579],[-83.7782,10.2559,163.6855],[-83.7767,10.2602,143.6773],[-83.8016,10.2602,148.6724],[-83.8036,10.2671,133.1011],[-83.8052,10.267,138.1865],[-83.8059,10.2762,128.8399],[-83.8084,10.2776,122.5395],[-83.8091,10.2833,121.862],[-83.8184,10.2834,118.6191],[-83.8261,10.2904,109.4079],[-83.8245,10.2996,103.9076],[-83.8268,10.306,100.0046],[-83.834,10.3117,93.6648],[-83.8397,10.3258,82.252],[-83.8487,10.3375,75.2075],[-83.8498,10.3305,87.7609],[-83.8533,10.3259,82.5244],[-83.8522,10.3207,86.8206],[-83.8542,10.3182,86.4561],[-83.8532,10.3103,91.6793],[-83.8512,10.3076,95.0763],[-83.8527,10.3014,99.6341],[-83.8506,10.2887,113.4131],[-83.8516,10.2858,118.7534],[-83.85,10.2821,121.3032],[-83.8525,10.2752,122.6988],[-83.852,10.2712,128.1173],[-83.8553,10.2656,130.5551],[-83.8547,10.2623,131.2979],[-83.8589,10.2538,148.4344]]]]}
,"properties": {"GID_3": "CRI.5.4.5_1","GID_0": "CRI","country": "CostaRica","GID_1": "CRI.5_1","province": "Limón","NL_NAME_1": "NA","GID_2": "CRI.5.4_1","county": "Pococí","NL_NAME_2": "NA","city": "LaColonia","VARNAME_3": "NA","NL_NAME_3": "NA","TYPE_3": "Distrito","ENGTYPE_3": "District","CC_3": "1","HASC_3": "NA","name": "La_Colonia.city","area_km2": 57.47733,"hist_schema_id": "Elevation0-9000","hist_area_km2": {"75": 0.95951,"100": 9.65827,"125": 12.26695,"150": 13.37343,"175": 10.78672,"200": 6.71845,"225": 3.69315,"250": 0.02087}}}