{"type":"Feature","properties":{"GID_3":"CRI.1.4.5_1","GID_0":"CRI","country":"CostaRica","GID_1":"CRI.1_1","province":"Alajuela","NL_NAME_1":"NA","GID_2":"CRI.1.4_1","county":"Grecia","NL_NAME_2":"NA","city":"SanJosé","VARNAME_3":"NA","NL_NAME_3":"NA","TYPE_3":"Distrito","ENGTYPE_3":"District","CC_3":"3","HASC_3":"NA","name":"San_José.city"},
"geometry":{"type": "MultiPolygon","coordinates": [[[[-84.2966,10.0697,963.9496],[-84.2981,10.0683,969.4946],[-84.2974,10.0657,965.6344],[-84.2957,10.0652,981.0298],[-84.2955,10.0631,971.991],[-84.2919,10.0637,978.8348],[-84.2918,10.06,982.5821],[-84.2881,10.0612,991.9359],[-84.287,10.0585,1006.0363],[-84.2839,10.0568,957.6974],[-84.2816,10.0595,972.2166],[-84.2806,10.0552,987.0933],[-84.2782,10.0552,997.3996],[-84.273,10.0645,984.8159],[-84.2734,10.068,1000.094],[-84.2705,10.0743,1023.1913],[-84.273,10.0792,1026.3979],[-84.2722,10.0831,1038.1333],[-84.2738,10.084,1037.3821],[-84.2711,10.091,1069.7493],[-84.2718,10.1006,1163.8088],[-84.2703,10.1045,1191.821],[-84.2603,10.1135,1274.9988],[-84.2548,10.1209,1356.5215],[-84.2509,10.1228,1424.8501],[-84.2507,10.1288,1497.0453],[-84.2432,10.1351,1624.7224],[-84.2428,10.1442,1838.693],[-84.2466,10.1377,1638.2344],[-84.2532,10.1313,1485.9285],[-84.257,10.1298,1441.1785],[-84.2606,10.123,1355.4358],[-84.2694,10.1156,1283.3912],[-84.2723,10.1075,1217.2324],[-84.2818,10.0927,1094.1602],[-84.2857,10.092,1072.5669],[-84.2862,10.0898,1057.3241],[-84.2915,10.0855,1040.5339],[-84.2935,10.0822,1020.9646],[-84.2921,10.0792,1016.6185],[-84.2922,10.073,1000.5306],[-84.2933,10.0707,985.1329],[-84.2966,10.0697,963.9496]]]]}}