{"type": "Feature","bbox": [-85.3509,10.6245,-85.195,10.7759],"geometry": {"type": "MultiPolygon","coordinates": [[[[-85.2937,10.7759,1056.7083],[-85.2921,10.7713,959.689],[-85.2947,10.7643,846.544],[-85.2923,10.7602,807.4484],[-85.3028,10.7536,767.6639],[-85.3085,10.7521,755.2107],[-85.3113,10.7396,621.5178],[-85.3101,10.7346,595.9804],[-85.3132,10.732,634.2563],[-85.3131,10.7298,591.4299],[-85.3218,10.7177,511.7465],[-85.3321,10.7101,472.2391],[-85.3341,10.7041,447.5009],[-85.3326,10.7022,434.2072],[-85.3339,10.6982,417.0309],[-85.3404,10.6942,423.5127],[-85.3414,10.6912,395.0135],[-85.3446,10.6891,378.6531],[-85.3444,10.6857,379.5245],[-85.3509,10.6727,323.6955],[-85.3485,10.6612,312.9266],[-85.3449,10.6551,272.3166],[-85.3435,10.6494,255.7411],[-85.3446,10.6472,242.3192],[-85.3347,10.6455,278.0867],[-85.3344,10.6419,269.3077],[-85.3302,10.633,213.59],[-85.3301,10.6285,217.3116],[-85.324,10.6245,170.0514],[-85.3146,10.6281,224.464],[-85.3019,10.6416,296.3344],[-85.2964,10.643,293.8902],[-85.2936,10.6462,297.3471],[-85.2875,10.6462,265.8881],[-85.2872,10.6399,266.7353],[-85.2851,10.638,222.1516],[-85.2833,10.6292,195.077],[-85.2806,10.6268,186.9917],[-85.218,10.6377,253.0341],[-85.2211,10.64,268.4744],[-85.221,10.6424,275.9921],[-85.2254,10.6425,293.1993],[-85.2267,10.6477,323.8099],[-85.2251,10.6573,346.8519],[-85.2334,10.6692,423.2233],[-85.2286,10.6698,422.9938],[-85.2259,10.6718,434.2306],[-85.2188,10.6711,477.4829],[-85.2087,10.6759,420.4096],[-85.2097,10.6794,412.2426],[-85.207,10.6808,425.9364],[-85.2107,10.6862,432.6902],[-85.2118,10.6996,500.1093],[-85.2155,10.7052,529.5286],[-85.2136,10.7092,557.8746],[-85.2166,10.7123,548.04],[-85.213,10.7172,553.632],[-85.2045,10.7205,560.1727],[-85.2018,10.7238,562.5297],[-85.1955,10.7411,621.9749],[-85.1962,10.7474,608.9387],[-85.195,10.7498,616.8831],[-85.2043,10.7552,568.406],[-85.2353,10.7667,788.3351],[-85.2433,10.7637,694.0439],[-85.2481,10.7639,706.8821],[-85.253,10.7589,700.7479],[-85.2624,10.7543,760.4616],[-85.269,10.7557,790.7904],[-85.2713,10.7516,791.7227],[-85.2735,10.7528,799.8024],[-85.2773,10.7509,808.6677],[-85.2806,10.7603,827.0056],[-85.2851,10.7609,816.026],[-85.2866,10.7673,894.6704],[-85.2909,10.7721,995.9601],[-85.2907,10.7748,1018.9998],[-85.2937,10.7759,1056.7083]]]]}
,"properties": {"GID_3": "CRI.3.2.3_1","GID_0": "CRI","country": "CostaRica","GID_1": "CRI.3_1","province": "Guanacaste","NL_NAME_1": "NA","GID_2": "CRI.3.2_1","county": "Bagaces","NL_NAME_2": "NA","city": "Mogote","VARNAME_3": "NA","NL_NAME_3": "NA","TYPE_3": "Distrito","ENGTYPE_3": "District","CC_3": "3","HASC_3": "NA","name": "Mogote.city","area_km2": 182.4421,"hist_schema_id": "Elevation0-9000","hist_area_km2": {"175": 0.1459,"200": 0.6251,"225": 1.0211,"250": 2.1046,"275": 4.1675,"300": 7.1472,"325": 9.7101,"350": 11.1476,"375": 10.8348,"400": 10.4386,"425": 12.2719,"450": 10.4381,"475": 7.8337,"500": 7.0627,"525": 8.1459,"550": 19.8953,"575": 25.2475,"600": 7.0828,"625": 3.7497,"650": 5.4786,"675": 4.1037,"700": 3.6662,"725": 2.7913,"750": 1.8747,"775": 1.9164,"800": 1.3956,"825": 1.4789,"850": 0.2291,"875": 0.1458,"900": 0.1041,"925": 0.0625,"950": 0.0417,"975": 0.0208,"1000": 0.0417,"1025": 0.0208}}}