{"type":"Feature","properties":{"GID_3":"CRI.3.11.7_1","GID_0":"CRI","country":"CostaRica","GID_1":"CRI.3_1","province":"Guanacaste","NL_NAME_1":"NA","GID_2":"CRI.3.11_1","county":"Tilarán","NL_NAME_2":"NA","city":"Tilarán","VARNAME_3":"NA","NL_NAME_3":"NA","TYPE_3":"Distrito","ENGTYPE_3":"District","CC_3":"1","HASC_3":"NA","name":"Tilarán.city"},
"geometry":{"type": "MultiPolygon","coordinates": [[[[-84.7741,10.4627,551.7166],[-84.777,10.4614,540.0],[-84.7817,10.4623,558.1959],[-84.7843,10.4591,540.0],[-84.7857,10.4619,544.1555],[-84.795,10.4609,540.0],[-84.7934,10.4642,564.9498],[-84.7955,10.4641,569.8273],[-84.7975,10.4612,540.0],[-84.8032,10.4628,547.129],[-84.8038,10.4654,560.7654],[-84.806,10.4659,548.5212],[-84.8078,10.4637,540.0],[-84.8114,10.4638,543.4323],[-84.811,10.4653,543.4323],[-84.813,10.4657,563.1633],[-84.8159,10.4642,540.0],[-84.8191,10.4654,540.0],[-84.8185,10.468,551.8488],[-84.8199,10.4671,548.0332],[-84.825,10.4688,557.742],[-84.825,10.4729,554.5383],[-84.8297,10.4711,541.5452],[-84.8322,10.4756,548.4266],[-84.8356,10.4751,540.0],[-84.8402,10.4842,540.0],[-84.8385,10.4884,554.204],[-84.8408,10.4876,540.0],[-84.8422,10.4903,540.0],[-84.8414,10.4924,540.0],[-84.8396,10.4909,550.632],[-84.8381,10.4938,546.3477],[-84.8412,10.4986,540.0],[-84.8483,10.5018,541.446],[-84.8478,10.5094,566.8384],[-84.8508,10.5053,540.0],[-84.8515,10.5067,540.0],[-84.8529,10.5047,540.0],[-84.8557,10.5071,551.4956],[-84.8553,10.5091,555.0038],[-84.8586,10.5081,540.0],[-84.8637,10.5131,540.0],[-84.8623,10.5146,562.2264],[-84.8669,10.5165,540.0],[-84.8664,10.5205,562.0994],[-84.8705,10.5244,559.8596],[-84.8845,10.5336,543.7971],[-84.8863,10.5339,565.4843],[-84.8861,10.5312,540.0],[-84.8919,10.5397,567.9033],[-84.8917,10.5363,544.6111],[-84.8985,10.5384,554.9597],[-84.9013,10.5321,540.0],[-84.9041,10.5334,545.6304],[-84.9052,10.5314,541.3397],[-84.905,10.5371,558.8224],[-84.9089,10.5374,548.4965],[-84.9095,10.5388,566.3237],[-84.9083,10.5407,540.0],[-84.904,10.5415,554.9879],[-84.9066,10.5444,549.0568],[-84.9054,10.5452,583.1532],[-84.907,10.548,561.6627],[-84.9061,10.5493,540.0],[-84.9031,10.5476,565.6278],[-84.9031,10.5497,544.377],[-84.9009,10.5486,563.9602],[-84.8983,10.5498,567.6195],[-84.8995,10.5516,551.5124],[-84.9008,10.5507,551.5124],[-84.9047,10.5526,555.8507],[-84.9099,10.5498,540.0],[-84.9113,10.5519,547.5577],[-84.916,10.5515,562.1337],[-84.9098,10.5463,561.4286],[-84.9095,10.5425,540.0],[-84.9123,10.542,540.0],[-84.9201,10.5511,540.0],[-84.9202,10.5537,551.9113],[-84.9215,10.5532,551.9113],[-84.9282,10.5578,569.7161],[-84.9276,10.5561,547.2715],[-84.9326,10.5579,557.077],[-84.9343,10.5565,555.1742],[-84.932,10.5564,540.0],[-84.9305,10.5543,560.3556],[-84.9313,10.5511,542.4028],[-84.9357,10.5499,556.9848],[-84.9306,10.5495,554.5515],[-84.9367,10.547,592.6464],[-84.9384,10.543,542.0928],[-84.9389,10.5449,544.3773],[-84.9405,10.545,544.3773],[-84.9398,10.547,561.4767],[-84.9428,10.5489,550.0536],[-84.9435,10.5533,572.1434],[-84.9462,10.5514,564.605],[-84.9453,10.5493,567.1272],[-84.9464,10.5486,545.1256],[-84.9493,10.552,545.9245],[-84.9526,10.5496,540.0],[-84.9559,10.5511,570.9277],[-84.958,10.5499,540.0],[-84.9634,10.5555,579.4519],[-84.9663,10.5549,540.0],[-84.9679,10.5571,582.7488],[-84.9685,10.5524,540.0],[-84.9727,10.5525,547.1113],[-84.9691,10.5487,540.0],[-84.9715,10.5489,551.7466],[-84.972,10.5476,550.4891],[-84.965,10.5452,540.0],[-84.9685,10.545,540.0],[-84.9659,10.5436,540.0],[-84.9691,10.5424,540.0],[-84.9677,10.54,540.0],[-84.9728,10.5413,540.0],[-84.9737,10.5451,540.0],[-84.9782,10.5472,543.3141],[-84.9749,10.5426,540.0],[-84.9785,10.5407,540.0],[-84.9817,10.5446,552.7419],[-84.9798,10.541,541.0974],[-84.9819,10.5376,571.5648],[-84.9795,10.5351,545.8385],[-84.9766,10.5378,540.0],[-84.9749,10.5365,540.0],[-84.9769,10.5358,540.0],[-84.9784,10.5316,547.5876],[-84.975,10.5315,540.0],[-84.9726,10.5293,548.8137],[-84.9739,10.5318,540.0],[-84.9727,10.5339,540.0],[-84.9704,10.5297,547.0455],[-84.9678,10.5309,540.0],[-84.9676,10.5268,545.2026],[-84.9695,10.5261,549.8796],[-84.9656,10.525,559.66],[-84.9625,10.5278,540.0],[-84.9602,10.527,540.0],[-84.9594,10.5229,560.1107],[-84.9573,10.5229,540.0],[-84.9582,10.5213,548.7742],[-84.9553,10.5236,540.0],[-84.953,10.5224,547.3724],[-84.9555,10.5191,568.549],[-84.9503,10.5142,541.033],[-84.9567,10.511,633.0923],[-84.9594,10.5123,655.9174],[-84.9654,10.5093,675.4667],[-84.9649,10.5039,698.9265],[-84.9594,10.4978,726.3317],[-84.9573,10.4928,659.3273],[-84.9544,10.4919,700.1264],[-84.9555,10.49,695.5756],[-84.9543,10.4877,690.1357],[-84.9696,10.4818,514.6634],[-84.9743,10.4768,488.3822],[-84.9791,10.4778,474.4002],[-84.9816,10.4734,457.106],[-84.9891,10.4735,405.9385],[-84.9891,10.4629,367.5523],[-84.9953,10.4598,326.0801],[-84.9952,10.4579,323.1022],[-84.9996,10.4564,289.4666],[-84.9993,10.4547,290.0101],[-85.0023,10.4543,276.4649],[-85.0022,10.4527,291.1918],[-85.0009,10.4509,303.6606],[-84.9977,10.4503,312.8478],[-84.9964,10.4473,341.3982],[-84.9933,10.4456,342.83],[-84.9907,10.4461,346.0351],[-84.9895,10.4429,360.9697],[-84.9869,10.4414,377.6178],[-84.9869,10.4392,373.6311],[-84.9824,10.4405,411.1133],[-84.9809,10.4384,421.3982],[-84.9755,10.4372,459.7383],[-84.9585,10.4409,573.3392],[-84.9488,10.4365,637.1042],[-84.9389,10.4357,692.0723],[-84.9308,10.4399,796.0325],[-84.9057,10.4399,996.9458],[-84.9021,10.4359,986.1883],[-84.9013,10.4309,964.0364],[-84.9018,10.4249,967.5174],[-84.905,10.4177,997.0812],[-84.8992,10.4157,963.561],[-84.8852,10.4043,1203.8066],[-84.8836,10.4046,1138.6934],[-84.8828,10.4072,1011.9204],[-84.8789,10.4085,958.876],[-84.8773,10.4113,906.066],[-84.8717,10.4126,718.2888],[-84.8718,10.421,703.5909],[-84.875,10.4268,658.7551],[-84.8722,10.4345,616.1296],[-84.864,10.4383,604.4691],[-84.87,10.4411,677.7478],[-84.8739,10.4475,718.2017],[-84.878,10.449,834.3165],[-84.8804,10.4533,849.2915],[-84.8866,10.4584,900.6602],[-84.8911,10.4561,926.0086],[-84.8932,10.459,987.7354],[-84.8992,10.4573,925.5396],[-84.9048,10.4607,944.6083],[-84.9099,10.4612,950.2147],[-84.9103,10.4654,953.1575],[-84.915,10.4742,913.8485],[-84.9195,10.4767,922.4086],[-84.9225,10.476,863.1699],[-84.9227,10.4834,859.3256],[-84.9301,10.4842,757.4017],[-84.9344,10.4907,699.627],[-84.9357,10.4957,642.6975],[-84.9394,10.4996,604.8678],[-84.9349,10.5065,550.6195],[-84.9336,10.5052,570.7847],[-84.9324,10.5073,540.0],[-84.9279,10.5071,571.6902],[-84.9358,10.5126,565.5166],[-84.9342,10.5173,540.0],[-84.9276,10.5135,555.4369],[-84.925,10.5139,540.0],[-84.925,10.5123,540.0],[-84.9274,10.5122,555.4369],[-84.9257,10.5106,548.7092],[-84.9233,10.5115,543.2643],[-84.9225,10.5081,565.0675],[-84.9204,10.5105,540.0],[-84.9231,10.5158,540.0],[-84.9157,10.514099999999999,540.0],[-84.9145,10.5113,547.1055],[-84.9196,10.5097,555.1059],[-84.9208,10.5074,564.834],[-84.9187,10.5062,553.6159],[-84.9158,10.5007,551.1254],[-84.9128,10.5016,567.729],[-84.9128,10.5038,545.578],[-84.91,10.5026,562.3818],[-84.9129,10.5048,545.578],[-84.9112,10.5057,540.0],[-84.9092,10.5035,557.3766],[-84.9042,10.5024,540.0],[-84.9049,10.4996,552.8066],[-84.9005,10.4999,549.6207],[-84.9011,10.497,554.8843],[-84.8987,10.4961,540.0],[-84.8977,10.4933,556.8632],[-84.8961,10.4946,540.0],[-84.8912,10.4916,566.4352],[-84.8894,10.4928,540.0],[-84.8883,10.4918,564.7443],[-84.8825,10.4973,540.0],[-84.8782,10.4949,542.3248],[-84.871,10.4969,540.0],[-84.87,10.4939,547.7273],[-84.8698,10.4957,540.0],[-84.8674,10.4966,541.841],[-84.8654,10.4946,545.298],[-84.8659,10.4928,544.3803],[-84.8615,10.4936,540.0],[-84.8597,10.4899,540.0],[-84.8611,10.4884,548.6884],[-84.8571,10.4882,541.4449],[-84.8575,10.4857,548.3624],[-84.8523,10.4838,540.0],[-84.854,10.4811,544.3516],[-84.8508,10.4821,540.0],[-84.8499,10.4793,540.0],[-84.8522,10.4779,552.1861],[-84.8488,10.4777,540.0],[-84.8501,10.4753,554.8578],[-84.8477,10.4747,540.0],[-84.8456,10.4718,540.0],[-84.8483,10.4709,561.6847],[-84.8429,10.4664,540.0],[-84.8449,10.4645,540.0],[-84.8421,10.4625,541.2764],[-84.8444,10.4614,540.0],[-84.8498,10.4504,546.3188],[-84.8465,10.4543,540.0],[-84.8461,10.4528,540.6923],[-84.8345,10.4585,562.3216],[-84.8302,10.4581,550.5643],[-84.8279,10.4561,549.8224],[-84.8228,10.4576,540.0],[-84.8213,10.4564,541.2112],[-84.8241,10.4547,545.7799],[-84.8177,10.452,567.9977],[-84.8163,10.4538,540.0],[-84.8142,10.4532,540.0],[-84.8129,10.4475,585.9747],[-84.8119,10.4495,545.4121],[-84.8053,10.449,540.0],[-84.8048,10.4472,565.594],[-84.8015,10.4493,540.0],[-84.8004,10.4477,547.6152],[-84.7962,10.4477,540.0],[-84.7979,10.4455,542.2562],[-84.7949,10.4462,540.0],[-84.7854,10.4402,550.0269],[-84.786,10.4393,550.0269],[-84.7836,10.4403,542.1647],[-84.7807,10.4392,541.0287],[-84.7786,10.4349,546.7074],[-84.7766,10.434,540.0],[-84.777,10.4301,554.3233],[-84.7755,10.4318,544.7173],[-84.7722,10.4297,556.408],[-84.7714,10.4315,541.7657],[-84.7684,10.4255,540.0],[-84.7667,10.4262,542.2795],[-84.7741,10.4627,551.7166]]]]}}