{"type": "Feature","bbox": [-84.3416,9.6225,-84.1321,9.8611],"geometry": {"type": "MultiPolygon","coordinates": [[[[-84.2258,9.6281,924.4163],[-84.2192,9.638,276.0003],[-84.2208,9.64,257.0558],[-84.2147,9.6415,302.6967],[-84.2177,9.6446,349.3412],[-84.2153,9.6471,429.1714],[-84.2118,9.6475,433.1231],[-84.2114,9.6508,443.5646],[-84.2142,9.6545,494.8276],[-84.2097,9.6568,527.1442],[-84.207,9.6618,659.0178],[-84.208,9.6682,806.1052],[-84.2039,9.6818,1163.3478],[-84.1994,9.6855,1475.1387],[-84.185,9.69,2059.6113],[-84.1732,9.6985,2142.4941],[-84.1734,9.7017,2184.928],[-84.1703,9.7039,2167.8811],[-84.1685,9.7077,2068.7715],[-84.1683,9.7128,2099.9331],[-84.1586,9.7097,2230.3691],[-84.1508,9.7215,2249.4453],[-84.1446,9.7233,2372.2031],[-84.1391,9.7221,2469.4197],[-84.1338,9.7286,2152.9702],[-84.135,9.733,2134.7905],[-84.1398,9.7366,1938.3774],[-84.157,9.7594,1261.1857],[-84.1616,9.7614,1179.9144],[-84.1628,9.7649,1032.4473],[-84.1622,9.7765,715.4548],[-84.1572,9.7774,752.0438],[-84.1558,9.7809,794.015],[-84.1528,9.7796,780.1793],[-84.1503,9.7816,783.9191],[-84.1484,9.7797,832.774],[-84.1439,9.7818,794.1703],[-84.1461,9.7847,940.2114],[-84.1479,9.7835,898.0608],[-84.1513,9.7851,952.0042],[-84.1424,9.7912,1151.9215],[-84.1409,9.7982,1146.7661],[-84.1343,9.8,1212.4791],[-84.1325,9.8036,1226.238],[-84.1321,9.8102,1334.3835],[-84.1382,9.8112,1467.9658],[-84.1416,9.8166,1463.2249],[-84.1397,9.8201,1545.0596],[-84.1411,9.8277,1686.824],[-84.1356,9.8332,1835.2151],[-84.1378,9.8398,2060.116],[-84.1371,9.8458,2308.3765],[-84.1351,9.8477,2375.7122],[-84.1389,9.8486,2348.4324],[-84.1459,9.8597,2338.8789],[-84.1476,9.8573,2349.1155],[-84.1505,9.8572,2178.8862],[-84.157,9.8611,1917.5967],[-84.1668,9.8606,1718.7842],[-84.19,9.8412,1211.9688],[-84.1959,9.839,1157.5519],[-84.1994,9.8407,1168.8118],[-84.2114,9.8412,1023.327],[-84.2142,9.8442,990.1028],[-84.215,9.8479,963.1455],[-84.2156,9.8414,1028.6538],[-84.2141,9.839,1064.2122],[-84.2177,9.8394,984.0919],[-84.2207,9.8418,941.6057],[-84.2197,9.8381,965.8632],[-84.2241,9.8297,877.5044],[-84.2214,9.8152,672.8375],[-84.2245,9.8105,627.0872],[-84.2367,9.8084,619.683],[-84.2406,9.8109,588.5873],[-84.2439,9.8093,565.9822],[-84.253,9.8117,523.9597],[-84.2613,9.8102,498.489],[-84.2675,9.8042,484.7497],[-84.2675,9.7932,505.2288],[-84.2697,9.7919,501.9927],[-84.2706,9.7865,417.2132],[-84.2738,9.7878,421.4075],[-84.2745,9.7818,411.9323],[-84.2837,9.7797,402.2971],[-84.2855,9.7777,384.7716],[-84.292,9.7794,392.7001],[-84.3018,9.7774,346.2122],[-84.3095,9.7805,383.4796],[-84.3115,9.7782,299.0023],[-84.3185,9.7783,266.2166],[-84.3231,9.7741,253.7726],[-84.3228,9.771,238.6163],[-84.3271,9.768,223.7527],[-84.3265,9.7661,222.4053],[-84.333,9.7649,218.6133],[-84.3374,9.7579,223.4762],[-84.3362,9.7553,219.4888],[-84.3401,9.7538,255.1695],[-84.3378,9.7508,196.586],[-84.3408,9.7492,211.6532],[-84.3416,9.7415,167.232],[-84.3391,9.7398,226.5951],[-84.3319,9.728,176.0012],[-84.3332,9.724,161.1755],[-84.3301,9.7195,148.8327],[-84.3327,9.7172,157.6169],[-84.3287,9.7155,219.7285],[-84.3291,9.7116,133.7075],[-84.3231,9.7076,131.705],[-84.323,9.7035,154.5998],[-84.3184,9.7044,170.5078],[-84.3149,9.7002,140.1694],[-84.3094,9.6978,107.8832],[-84.3069,9.6837,159.2642],[-84.2969,9.674,90.9276],[-84.2976,9.6702,87.4739],[-84.3012,9.6691,89.0028],[-84.2995,9.6636,83.6075],[-84.3047,9.6583,71.3621],[-84.3054,9.6539,71.1873],[-84.3031,9.6492,66.1192],[-84.2951,9.6467,60.8109],[-84.297,9.6345,50.9464],[-84.2928,9.634,58.5984],[-84.2882,9.6381,61.6104],[-84.284,9.6296,72.8934],[-84.266,9.6308,117.6605],[-84.2593,9.627,182.2507],[-84.2572,9.6281,239.8834],[-84.2464,9.6271,633.0018],[-84.2435,9.6236,565.6714],[-84.2383,9.6225,610.6184],[-84.2258,9.6281,924.4163]]]]}
,"properties": {"GID_2": "CRI.7.1_1","GID_0": "CRI","country": "CostaRica","GID_1": "CRI.7_1","province": "SanJosé","NL_NAME_1": "NA","county": "Acosta","VARNAME_2": "NA","NL_NAME_2": "NA","TYPE_2": "Cantón","ENGTYPE_2": "Canton","CC_2": "12","HASC_2": "CR.SJ.AC","name": "Acosta.county","area_km2": 343.7689,"hist_schema_id": "Elevation0-9000","hist_area_km2": {"50": 0.6271,"75": 3.7206,"100": 3.2189,"125": 3.0516,"150": 3.0725,"175": 3.1352,"200": 3.9294,"225": 3.9919,"250": 4.389,"275": 3.762,"300": 3.9709,"325": 4.2215,"350": 4.5559,"375": 4.7232,"400": 4.9528,"425": 5.4962,"450": 5.9559,"475": 5.9559,"500": 6.3111,"525": 6.6455,"550": 6.311,"575": 7.105,"600": 7.314,"625": 7.3138,"650": 7.2928,"675": 7.7734,"700": 7.6062,"725": 7.5644,"750": 7.5017,"775": 7.7525,"800": 7.6897,"825": 7.3554,"850": 7.9613,"875": 7.0837,"900": 8.5464,"925": 7.5016,"950": 7.7314,"975": 7.6895,"1000": 8.3792,"1025": 8.0239,"1050": 6.8746,"1075": 6.7074,"1100": 5.9341,"1125": 5.3073,"1150": 5.0148,"1175": 4.3671,"1200": 3.6775,"1225": 2.8835,"1250": 2.9671,"1275": 2.8626,"1300": 2.7581,"1325": 2.7372,"1350": 2.8209,"1375": 2.4029,"1400": 2.4238,"1425": 2.1313,"1450": 2.0895,"1475": 2.3611,"1500": 2.194,"1525": 2.2358,"1550": 2.2776,"1575": 1.6507,"1600": 1.9014,"1625": 1.5044,"1650": 1.6716,"1675": 1.379,"1700": 1.3164,"1725": 1.191,"1750": 1.5044,"1775": 1.6298,"1800": 1.6089,"1825": 1.2746,"1850": 1.2328,"1875": 1.3791,"1900": 1.2955,"1925": 1.3582,"1950": 1.4835,"1975": 1.1492,"2000": 1.0656,"2025": 1.1283,"2050": 1.1492,"2075": 0.9403,"2100": 0.7732,"2125": 0.5851,"2150": 0.6895,"2175": 0.5223,"2200": 0.5015,"2225": 0.2925,"2250": 0.2925,"2275": 0.2716,"2300": 0.2298,"2325": 0.188,"2350": 0.0836,"2375": 0.2298,"2400": 0.0209,"2425": 0.0209,"2475": 0.0209,"2500": 0.0209}}}