{"type":"Feature","properties":{"GID_3":"CRI.6.9.1_1","GID_0":"CRI","country":"CostaRica","GID_1":"CRI.6_1","province":"Puntarenas","NL_NAME_1":"NA","GID_2":"CRI.6.9_1","county":"Osa","NL_NAME_2":"NA","city":"BahiaBallena","VARNAME_3":"NA","NL_NAME_3":"NA","TYPE_3":"Distrito","ENGTYPE_3":"District","CC_3":"4","HASC_3":"NA","name":"Bahia_Ballena.city"},
"geometry":{"type": "MultiPolygon","coordinates": [[[[-83.726,9.1051,6.7229],[-83.727,9.1057,0.629],[-83.728,9.1056,0.629],[-83.7254,9.1036,0.0],[-83.726,9.1051,6.7229]]],
[[[-83.7552,9.2434,825.9551],[-83.7574,9.244,839.2875],[-83.7606,9.2383,809.9199],[-83.7555,9.2322,752.9825],[-83.7534,9.2274,763.7623],[-83.7544,9.224,765.3099],[-83.7527,9.2218,750.2688],[-83.7569,9.2174,695.6821],[-83.7676,9.216,720.3828],[-83.7715,9.22,681.0681],[-83.7741,9.2179,593.1927],[-83.7766,9.2217,549.6075],[-83.7804,9.2207,610.3345],[-83.7865,9.2242,617.5568],[-83.7958,9.2247,570.5634],[-83.802,9.2288,524.1702],[-83.8095,9.2289,566.2468],[-83.8192,9.2424,516.8653],[-83.8319,9.2527,430.4532],[-83.837,9.2557,428.7531],[-83.8422,9.2564,421.1251],[-83.8459,9.2604,411.1419],[-83.8534,9.2806,13.2281],[-83.859,9.2764,22.7967],[-83.8585,9.2725,54.0857],[-83.862799999999993,9.2595,6.0447],[-83.8695,9.2547,0.0],[-83.8563,9.2464,0.0],[-83.8508,9.2398,0.0699],[-83.845,9.2362,4.4609],[-83.841,9.2277,0.0],[-83.8421,9.2239,0.0],[-83.845,9.2223,7.7359],[-83.8441,9.2207,9.2911],[-83.8417,9.2229,16.4796],[-83.8389,9.2226,15.7499],[-83.834,9.2173,2.2706],[-83.8308,9.2181,56.6231],[-83.8231,9.2116,2.9844],[-83.8181,9.2134,6.1463],[-83.8141,9.2101,0.0],[-83.8106,9.2103,36.9816],[-83.8087,9.2063,25.0778],[-83.805,9.2041,2.0662],[-83.7952,9.2037,0.0],[-83.7904,9.2003,0.0],[-83.7893,9.1963,10.9988],[-83.7866,9.1957,23.9902],[-83.7854,9.197,1.1595],[-83.7792,9.1926,3.129],[-83.7673,9.1793,8.3872],[-83.759,9.1656,3.1148],[-83.7581,9.154,0.0],[-83.7616,9.1475,0.0],[-83.7606,9.1472,0.0],[-83.7567,9.151,0.0],[-83.748,9.1525,0.0],[-83.7361,9.1493,0.0],[-83.728,9.1447,5.3148],[-83.7268,9.14,0.0],[-83.7214,9.1321,12.1725],[-83.7192,9.1325,22.6009],[-83.7161,9.1305,28.4794],[-83.7056,9.1172,5.6375],[-83.6953,9.1117,1.7863],[-83.6934,9.1083,35.587],[-83.6942,9.1071,0.0],[-83.6866,9.0993,5.2102],[-83.6869,9.0964,30.6912],[-83.689,9.0953,0.0],[-83.6824,9.0946,0.0],[-83.6779,9.0886,0.0],[-83.6797,9.0835,0.0],[-83.6751,9.08,0.0],[-83.6728,9.0804,0.0],[-83.6697,9.0774,0.7551],[-83.6685,9.0796,4.8021],[-83.666,9.0765,4.6148],[-83.6654,9.0832,46.6162],[-83.6559,9.0954,62.906],[-83.6362,9.1115,312.6307],[-83.6242,9.1161,523.4443],[-83.6162,9.1174,688.1849],[-83.6103,9.1169,911.9701],[-83.6067,9.1131,1050.6824],[-83.6054,9.1144,1015.7552],[-83.6057,9.118,996.4843],[-83.6138,9.1251,1118.1022],[-83.6206,9.1244,1093.4379],[-83.6259,9.1267,1115.0391],[-83.639,9.1283,1119.7294],[-83.6466,9.1316,1120.0549],[-83.6546,9.1451,1043.9147],[-83.6724,9.1561,989.667],[-83.6769,9.169,957.7785],[-83.6774,9.1754,943.201],[-83.6717,9.1768,952.7809],[-83.6695,9.1821,1137.3225],[-83.675,9.1935,1083.4672],[-83.6814,9.1996,876.6317],[-83.6854,9.2085,963.6251],[-83.6896,9.2116,1052.6985],[-83.7025,9.2158,1104.5912],[-83.7055,9.2251,1130.1334],[-83.7095,9.2249,996.0801],[-83.7108,9.2206,960.8181],[-83.7229,9.2205,705.9133],[-83.7362,9.2229,269.0388],[-83.7352,9.2238,275.9937],[-83.7361,9.2282,323.8665],[-83.7411,9.2376,463.2725],[-83.7458,9.241,709.2167],[-83.7476,9.2442,793.1979],[-83.753,9.2422,804.2615],[-83.7552,9.2434,825.9551]]]]}}