{"type": "Feature","bbox": [-85.9791,10.7971,-85.4594,10.989],"geometry": {"type": "MultiPolygon","coordinates": [[[[-85.9701,10.8519,0.0],[-85.9703,10.8517,0.0],[-85.9704,10.8514,0.0],[-85.9698,10.8517,0.0],[-85.9701,10.8519,0.0]]],
[[[-85.9766,10.8519,0.0],[-85.9757,10.8517,0.0],[-85.9779,10.8527,0.0],[-85.9776,10.8515,0.0],[-85.9766,10.8519,0.0]]],
[[[-85.9699,10.8528,0.0],[-85.9701,10.8525,0.0],[-85.9701,10.8523,0.0],[-85.9698,10.8525,0.0],[-85.9699,10.8528,0.0]]],
[[[-85.9791,10.8537,0.0],[-85.9789,10.8531,0.0],[-85.9781,10.8532,0.0],[-85.9785,10.8539,0.0],[-85.9791,10.8537,0.0]]],
[[[-85.9575,10.8545,0.0],[-85.9593,10.8545,0.0],[-85.9602,10.8539,0.0],[-85.9588,10.8528,0.856],[-85.9575,10.8545,0.0]]],
[[[-85.9631,10.8541,0.0],[-85.963,10.8537,0.0],[-85.9624,10.8539,0.0],[-85.9626,10.8542,0.0],[-85.9631,10.8541,0.0]]],
[[[-85.9487,10.8554,0.0],[-85.9505,10.8546,6.5992],[-85.9526,10.8574,0.0],[-85.9532,10.8552,2.0446],[-85.9559,10.8542,0.0],[-85.9491,10.853,6.4122],[-85.9487,10.8554,0.0]]],
[[[-85.9285,10.8548,21.3528],[-85.9325,10.8576,0.0],[-85.9334,10.8573,0.0],[-85.9316,10.8536,10.4925],[-85.9285,10.8548,21.3528]]],
[[[-85.9217,10.8532,9.1068],[-85.922,10.853,9.1068],[-85.9214,10.853,9.1068],[-85.9214,10.8531,9.1068],[-85.9217,10.8532,9.1068]]],
[[[-85.9125,10.8625,0.0],[-85.9185,10.8615,0.0],[-85.9185,10.8582,4.2188],[-85.9232,10.8577,0.0],[-85.9274,10.8534,0.0],[-85.9214,10.8534,9.1068],[-85.9174,10.857,29.3658],[-85.9144,10.8517,0.0913],[-85.9095,10.8532,0.0],[-85.909,10.855,0.0],[-85.9124,10.8581,8.3664],[-85.9125,10.8625,0.0]]],
[[[-85.9023,10.8592,0.0],[-85.9072,10.8596,16.5737],[-85.9083,10.8558,18.0666],[-85.9034,10.8552,0.0],[-85.9035,10.8576,19.8997],[-85.899,10.858,0.0],[-85.9023,10.8592,0.0]]],
[[[-85.8986,10.8582,0.0],[-85.8987,10.858,0.0],[-85.8984,10.8578,0.0],[-85.8983,10.8581,0.0],[-85.8986,10.8582,0.0]]],
[[[-85.9359,10.8569,6.5072],[-85.9371,10.8589,0.0],[-85.9401,10.8574,0.0],[-85.9414,10.8589,0.0],[-85.9414,10.8568,19.8064],[-85.9443,10.8559,5.9298],[-85.9454,10.8572,0.0],[-85.9469,10.855,0.0],[-85.9434,10.8539,19.8781],[-85.9359,10.8569,6.5072]]],
[[[-85.9514,10.89,0.0],[-85.9512,10.8895,0.0],[-85.9507,10.8897,1.6267],[-85.951,10.8902,0.0],[-85.9514,10.89,0.0]]],
[[[-85.856,10.8473,0.0],[-85.8621,10.848,11.1766],[-85.8723,10.8437,33.0433],[-85.8724,10.8423,33.0433],[-85.8687,10.8412,34.8658],[-85.8591,10.8446,38.0139],[-85.856,10.8473,0.0]]],
[[[-85.6879,10.9773,11.6564],[-85.6898,10.9779,0.0],[-85.6883,10.9707,4.8216],[-85.6916,10.9636,10.927],[-85.6963,10.9654,0.0],[-85.6985,10.9629,19.2904],[-85.7025,10.9649,0.0],[-85.702,10.9627,0.0],[-85.705,10.9603,14.3151],[-85.7049,10.9575,11.6823],[-85.7071,10.9549,13.0553],[-85.7136,10.9567,7.8347],[-85.7152,10.954,0.0],[-85.7194,10.9583,0.0],[-85.7209,10.9584,0.0],[-85.7187,10.9571,0.0],[-85.7197,10.9549,6.5535],[-85.7164,10.9527,0.0],[-85.7125,10.9511,0.0],[-85.7095,10.9523,34.2104],[-85.7052,10.9491,39.6555],[-85.7027,10.9498,7.3491],[-85.7011,10.9457,0.0],[-85.7049,10.9353,19.3806],[-85.7117,10.9359,7.6894],[-85.7119,10.9329,16.3775],[-85.7139,10.9316,15.2398],[-85.7117,10.9267,9.0398],[-85.7153,10.9242,4.6213],[-85.7226,10.9247,11.1789],[-85.7227,10.9282,5.6092],[-85.7203,10.9311,2.1495],[-85.7188,10.931,2.1495],[-85.72,10.9349,0.0],[-85.7269,10.9369,13.2729],[-85.728,10.9386,0.0],[-85.7289,10.9349,1.4935],[-85.7314,10.9346,1.8506],[-85.7339,10.9372,17.9542],[-85.733,10.9398,3.002],[-85.7409,10.9382,28.713],[-85.7451,10.9392,0.0],[-85.7482,10.937,27.3634],[-85.7487,10.9388,0.0],[-85.7505,10.9372,0.0],[-85.7554,10.9395,7.9352],[-85.762,10.9378,19.4894],[-85.7654,10.9386,13.5917],[-85.7649,10.9366,21.4424],[-85.7664,10.9358,0.0],[-85.7695,10.9392,1.2029],[-85.7716,10.9375,5.7813],[-85.7732,10.9397,9.1349],[-85.7772,10.94,12.2065],[-85.7787,10.9395,0.0],[-85.7789,10.9347,5.9362],[-85.7802,10.9341,1.9676],[-85.7818,10.9367,0.0],[-85.7843,10.9365,23.3978],[-85.7844,10.9398,0.0],[-85.7851,10.938,5.5484],[-85.7864,10.9388,0.0],[-85.7869,10.9372,0.0],[-85.7889,10.9371,0.0],[-85.7877,10.9353,34.4735],[-85.7893,10.9322,0.0],[-85.7925,10.9317,15.2205],[-85.796,10.9347,0.0],[-85.7996,10.9322,0.0],[-85.798,10.9277,34.8362],[-85.7908,10.9241,14.6638],[-85.7896,10.9199,4.2379],[-85.7834,10.9147,12.8462],[-85.7862,10.9144,8.4663],[-85.7852,10.9134,13.7052],[-85.7905,10.9095,3.3987],[-85.7942,10.909,0.0],[-85.8054,10.9151,25.301],[-85.8069,10.9184,5.4485],[-85.8143,10.9194,1.6558],[-85.8181,10.9223,0.0],[-85.8193,10.9299,2.9656],[-85.8103,10.9356,0.0],[-85.8149,10.9395,3.5478],[-85.8169,10.9455,0.0],[-85.8183,10.9439,10.0441],[-85.8204,10.9462,0.0],[-85.8228,10.9459,0.0],[-85.8242,10.9428,7.8976],[-85.8257,10.9435,16.2921],[-85.8258,10.9458,0.0],[-85.8302,10.9455,0.0],[-85.8317,10.9435,48.2795],[-85.8356,10.9467,0.0],[-85.8376,10.9449,51.3394],[-85.8539,10.9453,45.7751],[-85.8568,10.9486,9.5867],[-85.8621,10.9479,0.0],[-85.8639,10.951,0.0],[-85.8656,10.9489,0.0],[-85.8681,10.9492,0.0],[-85.8688,10.951,0.0],[-85.8766,10.9494,5.2225],[-85.8815,10.9505,0.0],[-85.8845,10.9493,5.9347],[-85.8682,10.9419,10.5653],[-85.8635,10.9416,29.1595],[-85.861,10.936,6.1156],[-85.862,10.9294,6.1161],[-85.8652,10.9267,13.17],[-85.8691,10.9264,2.1527],[-85.8716,10.9235,29.5643],[-85.8761,10.9222,0.0],[-85.8807,10.9235,1.7028],[-85.8811,10.9206,0.0],[-85.8979,10.9133,17.4489],[-85.9001,10.9106,0.0],[-85.9068,10.9095,9.0975],[-85.913,10.9105,0.0],[-85.9136,10.908,35.974],[-85.9184,10.9049,10.6415],[-85.926,10.9039,0.0],[-85.9286,10.9009,0.0],[-85.9333,10.9005,0.0],[-85.9421,10.8947,21.045],[-85.9458,10.8946,0.0],[-85.9502,10.8898,1.6267],[-85.9362,10.8946,29.6296],[-85.9318,10.894,31.4521],[-85.923,10.896,22.6838],[-85.9163,10.8994,23.9446],[-85.9074,10.8962,54.7429],[-85.9033,10.8901,7.233],[-85.8774,10.8817,11.42],[-85.8746,10.8785,0.0],[-85.8673,10.8773,27.4695],[-85.8573,10.8645,0.0],[-85.854,10.854,0.9726],[-85.8502,10.8562,2.6247],[-85.844,10.8568,0.0],[-85.8338,10.8525,8.2649],[-85.8279,10.8543,8.168],[-85.8044,10.8499,26.7993],[-85.7973,10.8552,5.7511],[-85.7894,10.8482,1.7369],[-85.7879,10.8433,0.0],[-85.7886,10.8395,0.0],[-85.7913,10.8365,4.7959],[-85.7945,10.8373,0.0],[-85.8019,10.8341,5.6307],[-85.8024,10.8282,85.902],[-85.801,10.8246,0.0],[-85.7955,10.8221,15.3378],[-85.7924,10.8154,7.3279],[-85.7778,10.814,81.1925],[-85.7642,10.8033,0.0],[-85.762,10.8036,5.7441],[-85.7598,10.8091,104.2097],[-85.7529,10.8141,51.3718],[-85.7417,10.8191,22.3204],[-85.7304,10.8126,0.0],[-85.7265,10.8129,17.9552],[-85.7228,10.8088,4.0625],[-85.7207,10.8112,8.5064],[-85.7174,10.8114,0.0],[-85.7133,10.8102,1.5596],[-85.7091,10.8057,8.5388],[-85.7035,10.8072,50.056399999999996],[-85.6966,10.7994,6.7315],[-85.6864,10.8035,1.4672],[-85.6793,10.7971,1.5906],[-85.6789,10.7985,0.0],[-85.683,10.8031,4.1178],[-85.6793,10.8084,18.8553],[-85.6692,10.7991,12.9592],[-85.6646,10.8028,23.5602],[-85.6582,10.803,26.0869],[-85.6522,10.8024,35.522],[-85.6417,10.7982,89.7483],[-85.6408,10.8075,221.9396],[-85.6433,10.812,246.4099],[-85.6442,10.8221,286.9081],[-85.6384,10.8259,290.7112],[-85.6333,10.8327,290.8645],[-85.6256,10.8351,294.5607],[-85.6248,10.8388,297.4478],[-85.6152,10.835,289.7132],[-85.6092,10.8478,304.2367],[-85.5969,10.8544,254.9819],[-85.5901,10.8541,236.3017],[-85.5842,10.851,207.1991],[-85.5785,10.8526,197.7713],[-85.5688,10.8595,170.1743],[-85.5637,10.8564,122.7858],[-85.5604,10.8596,121.2227],[-85.551,10.8622,126.6965],[-85.5525,10.8664,137.5171],[-85.5459,10.8722,136.1448],[-85.5489,10.8772,139.4321],[-85.5497,10.8868,157.0354],[-85.5534,10.8895,150.82],[-85.5537,10.8923,182.615],[-85.5559,10.8926,162.0999],[-85.5572,10.8948,167.1151],[-85.5596,10.8946,164.187],[-85.559,10.8981,173.6588],[-85.5509,10.9039,210.8888],[-85.547,10.9049,209.0513],[-85.5449,10.9035,234.4505],[-85.5385,10.911,252.4708],[-85.5343,10.9135,245.0327],[-85.5338,10.916,265.0398],[-85.5265,10.9203,276.3988],[-85.5274,10.9224,271.1852],[-85.5254,10.925,270.4302],[-85.5302,10.9275,284.3816],[-85.5281,10.9311,294.9637],[-85.5254,10.9324,304.114],[-85.5252,10.9409,337.8846],[-85.5203,10.9449,389.7682],[-85.5155,10.9457,392.2152],[-85.5092,10.9505,439.7732],[-85.502,10.9516,505.4073],[-85.4972,10.9558,548.7218],[-85.4862,10.9606,674.1129],[-85.477,10.9619,825.7056],[-85.469,10.9652,944.0681],[-85.4654,10.9641,1009.1576],[-85.4631,10.9603,1081.4912],[-85.4594,10.9621,1142.2406],[-85.4626,10.9649,1132.3485],[-85.4647,10.9724,1222.1682],[-85.4695,10.9736,1348.0687],[-85.4715,10.979,1475.8857],[-85.476,10.9795,1412.6904],[-85.4849,10.9688,789.6257],[-85.4919,10.9666,650.3785],[-85.4968,10.9685,552.9924],[-85.4978,10.9704,555.4847],[-85.513,10.9722,410.0509],[-85.5174,10.9754,381.2981],[-85.5161,10.9779,392.3937],[-85.5176,10.98,390.0114],[-85.5224,10.9827,372.8325],[-85.5253,10.9881,359.5997],[-85.5283,10.989,347.0179],[-85.5379,10.9818,316.3051],[-85.5455,10.9812,303.0217],[-85.5473,10.9791,298.666],[-85.5432,10.9764,306.1246],[-85.5461,10.975,319.7298],[-85.5464,10.9693,321.9661],[-85.5447,10.9662,317.3109],[-85.5464,10.9646,310.9154],[-85.5512,10.9638,303.2844],[-85.5629,10.9678,298.9699],[-85.5742,10.9625,294.5162],[-85.5841,10.9652,285.5237],[-85.5953,10.9564,258.738],[-85.5989,10.9488,249.6302],[-85.6067,10.9476,265.1227],[-85.6121,10.9526,270.2419],[-85.6261,10.9534,292.6457],[-85.6298,10.9575,295.5283],[-85.6369,10.9601,171.4728],[-85.6391,10.9655,107.0388],[-85.6447,10.9703,94.228],[-85.6481,10.9707,89.027],[-85.65,10.9739,91.1252],[-85.656,10.9756,70.0424],[-85.659,10.9784,59.753],[-85.662,10.9794,64.2615],[-85.664,10.9736,219.994],[-85.6702,10.9738,56.6713],[-85.6756,10.976,29.5602],[-85.6791,10.9749,26.0412],[-85.6824,10.9776,22.0791],[-85.6851,10.9769,18.3841],[-85.6864,10.9784,14.0269],[-85.6879,10.9773,11.6564]]],
[[[-85.8172,10.9253,0.0],[-85.8171,10.9251,0.0],[-85.8168,10.925,0.0],[-85.817,10.9254,0.0],[-85.8172,10.9253,0.0]]],
[[[-85.7892,10.9381,0.0],[-85.7894,10.938,0.0],[-85.7889,10.9376,0.0],[-85.7889,10.9379,0.0],[-85.7892,10.9381,0.0]]],
[[[-85.8891,10.8726,17.4065],[-85.8873,10.8747,33.467],[-85.8889,10.8767,7.4873],[-85.8924,10.8746,3.3192],[-85.8973,10.8748,8.8644],[-85.8988,10.8726,34.2022],[-85.8955,10.8699,7.065],[-85.8891,10.8726,17.4065]]],
[[[-85.8989,10.9195,0.0],[-85.8987,10.9214,0.0],[-85.9018,10.9213,0.0],[-85.9003,10.9176,0.0],[-85.8974,10.9167,1.9019],[-85.8989,10.9195,0.0]]],
[[[-85.8975,10.9221,0.0],[-85.8977,10.922,0.0],[-85.8976,10.9218,0.0],[-85.8973,10.9218,0.0],[-85.8975,10.9221,0.0]]],
[[[-85.9044,10.9254,0.0],[-85.9045,10.9251,0.0],[-85.9041,10.9253,0.0],[-85.9042,10.9255,0.0],[-85.9044,10.9254,0.0]]],
[[[-85.7977,10.9371,22.7915],[-85.7966,10.9362,0.0],[-85.7964,10.9383,0.0],[-85.7983,10.9396,0.0],[-85.7986,10.9377,22.7915],[-85.7977,10.9371,22.7915]]],
[[[-85.8012,10.9384,0.0],[-85.8014,10.9383,0.0],[-85.8014,10.9381,0.0],[-85.801,10.9381,0.0],[-85.8012,10.9384,0.0]]],
[[[-85.79,10.9391,0.0],[-85.7901,10.9388,0.0],[-85.7891,10.9383,0.0],[-85.7891,10.9394,0.0],[-85.79,10.9391,0.0]]],
[[[-85.8137,10.9441,0.0],[-85.8143,10.9426,1.5909],[-85.8123,10.9454,0.0],[-85.813,10.9454,0.0],[-85.8137,10.9441,0.0]]],
[[[-85.734,10.9577,0.0],[-85.7332,10.957,0.0],[-85.7325,10.957,0.0],[-85.7344,10.9581,0.0],[-85.734,10.9577,0.0]]],
[[[-85.7223,10.9581,0.0],[-85.7224,10.9583,0.0],[-85.7238,10.9588,0.0],[-85.7225,10.957,0.0],[-85.7223,10.9581,0.0]]],
[[[-85.9028,10.9262,0.0],[-85.9024,10.926,0.0],[-85.9023,10.9264,0.0],[-85.9026,10.9265,0.0],[-85.9028,10.9262,0.0]]],
[[[-85.9077,10.9419,0.0],[-85.9075,10.9417,0.0],[-85.9074,10.9421,0.0],[-85.9075,10.9421,0.0],[-85.9077,10.9419,0.0]]]]}
,"properties": {"GID_3": "CRI.3.6.4_1","GID_0": "CRI","country": "CostaRica","GID_1": "CRI.3_1","province": "Guanacaste","NL_NAME_1": "NA","GID_2": "CRI.3.6_1","county": "LaCruz","NL_NAME_2": "NA","city": "SantaElena","VARNAME_3": "NA","NL_NAME_3": "NA","TYPE_3": "Distrito","ENGTYPE_3": "District","CC_3": "4","HASC_3": "NA","name": "Santa_Elena.city","area_km2": 515.0689,"hist_schema_id": "Elevation0-9000","hist_area_km2": {"0": 14.886,"25": 43.9929,"50": 33.312,"75": 30.9594,"100": 28.2949,"125": 28.3577,"150": 29.7325,"175": 26.1096,"200": 27.5671,"225": 28.9616,"250": 35.5818,"275": 47.8648,"300": 57.3804,"325": 29.3759,"350": 14.7819,"375": 8.9729,"400": 7.0369,"425": 4.2263,"450": 3.5809,"475": 2.8731,"500": 2.2901,"525": 1.5406,"550": 1.2699,"575": 0.8952,"600": 0.7078,"625": 0.3331,"650": 0.3331,"675": 0.2706,"700": 0.1249,"725": 0.1665,"750": 0.1873,"775": 0.0624,"800": 0.1665,"825": 0.1457,"850": 0.1041,"875": 0.2082,"900": 0.1457,"925": 0.1249,"950": 0.1665,"975": 0.2081,"1000": 0.1249,"1025": 0.1249,"1050": 0.0833,"1075": 0.1249,"1100": 0.1665,"1125": 0.1665,"1150": 0.229,"1175": 0.0624,"1200": 0.0833,"1225": 0.1873,"1250": 0.0416,"1275": 0.0833,"1300": 0.0416,"1325": 0.0416,"1350": 0.0833,"1375": 0.0208,"1400": 0.0624,"1450": 0.0416}}}