{"type": "Feature","bbox": [-84.1139,9.9603,-84.0231,10.0161],"geometry": {"type": "MultiPolygon","coordinates": [[[[-84.1121,9.964,1052.2031],[-84.1072,9.9603,1039.8481],[-84.1067,9.9634,1031.3315],[-84.0934,9.9631,1082.4821],[-84.0885,9.9673,1115.7102],[-84.0862,9.9667,1100.4502],[-84.0832,9.9706,1106.3051],[-84.0794,9.9694,1121.3274],[-84.0793,9.9678,1125.3176],[-84.0764,9.9674,1111.3838],[-84.0761,9.9692,1141.6693],[-84.0732,9.9691,1156.3431],[-84.0702,9.9686,1139.1414],[-84.069,9.9668,1163.8616],[-84.0646,9.9696,1164.4501],[-84.0639,9.9683,1153.2087],[-84.0606,9.969,1173.2888],[-84.0604,9.9705,1201.031],[-84.0577,9.9691,1167.7604],[-84.056,9.971,1152.8007],[-84.0574,9.9727,1160.8491],[-84.0523,9.9735,1168.9568],[-84.0542,9.9767,1191.5747],[-84.0482,9.9763,1212.4414],[-84.046,9.9813,1234.4982],[-84.0442,9.9805,1209.4556],[-84.0447,9.9824,1244.5283],[-84.0408,9.9846,1295.0713],[-84.043,9.9872,1271.6384],[-84.0398,9.9868,1242.9939],[-84.0346,9.991,1256.9812],[-84.0324,9.9899,1285.1143],[-84.0317,9.992,1265.9135],[-84.0255,9.9917,1289.5305],[-84.0231,10.0139,1337.4927],[-84.0249,10.0136,1338.3215],[-84.0254,10.016,1343.7253],[-84.0273,10.0161,1341.5403],[-84.0282,10.014,1336.4252],[-84.0377,10.0118,1292.2354],[-84.0422,10.0048,1278.6958],[-84.0461,10.0056,1284.0558],[-84.0482,10.0024,1289.9446],[-84.0777,9.9962,1218.6523],[-84.0833,9.9944,1206.3352],[-84.0832,9.9929,1205.6519],[-84.09,9.9925,1179.0518],[-84.092,9.9884,1165.5146],[-84.0999,9.9826,1133.752],[-84.1004,9.9752,1106.4043],[-84.1024,9.9741,1099.9456],[-84.1083,9.9761,1073.7142],[-84.1139,9.9713,1049.2744],[-84.1121,9.964,1052.2031]]]]}
,"properties": {"GID_2": "CRI.4.9_1","GID_0": "CRI","country": "CostaRica","GID_1": "CRI.4_1","province": "Heredia","NL_NAME_1": "NA","county": "SantoDomingo","VARNAME_2": "NA","NL_NAME_2": "NA","TYPE_2": "Cantón","ENGTYPE_2": "Canton","CC_2": "3","HASC_2": "CR.HE.SD","name": "Santo_Domingo.county","area_km2": 25.45395,"hist_schema_id": "Elevation0-9000","hist_area_km2": {"1025": 0.04177,"1050": 0.25059,"1075": 0.83528,"1100": 1.44086,"1125": 1.75408,"1150": 2.0464,"1175": 2.65193,"1200": 4.82356,"1225": 2.69362,"1250": 1.94191,"1275": 2.44301,"1300": 2.35946,"1325": 1.16926,"1350": 0.85606,"1375": 0.14616}}}