{"type": "Feature","bbox": [-84.4365,10.107,-84.3885,10.1301],"geometry": {"type": "MultiPolygon","coordinates": [[[[-84.3935,10.1247,1198.8972],[-84.4117,10.1301,1249.6185],[-84.4235,10.1285,1191.3552],[-84.4342,10.1232,1144.6534],[-84.4339,10.1148,1108.4814],[-84.4365,10.1121,1063.7488],[-84.4295,10.1121,1092.2284],[-84.4267,10.107,1077.2692],[-84.4254,10.1104,1120.741],[-84.4167,10.1085,1196.7578],[-84.4134,10.112,1192.7947],[-84.4164,10.114,1182.2659],[-84.4161,10.1192,1213.5137],[-84.4015,10.1189,1205.1648],[-84.3954,10.1095,1126.6995],[-84.392,10.1107,1166.9008],[-84.3887,10.1077,1112.8958],[-84.3885,10.112,1117.7736],[-84.3905,10.1146,1136.0973],[-84.3931,10.1149,1141.8453],[-84.3969,10.1181,1146.8671],[-84.3972,10.1226,1190.8037],[-84.3935,10.1247,1198.8972]]]]}
,"properties": {"GID_3": "CRI.1.7.7_1","GID_0": "CRI","country": "CostaRica","GID_1": "CRI.1_1","province": "Alajuela","NL_NAME_1": "NA","GID_2": "CRI.1.7_1","county": "Naranjo","NL_NAME_2": "NA","city": "SanJuan","VARNAME_3": "NA","NL_NAME_3": "NA","TYPE_3": "Distrito","ENGTYPE_3": "District","CC_3": "6","HASC_3": "NA","name": "San_Juan.city","area_km2": 6.887879,"hist_schema_id": "Elevation0-9000","hist_area_km2": {"1050": 0.020873,"1075": 0.062619,"1100": 0.292218,"1125": 0.667925,"1150": 0.960139,"1175": 1.147989,"1200": 0.667916,"1225": 0.939254,"1250": 0.772268,"1275": 0.688777,"1300": 0.521799,"1325": 0.146103}}}