{"type": "Feature","bbox": [-84.3622,9.9959,-84.3044,10.063],"geometry": {"type": "MultiPolygon","coordinates": [[[[-84.3453,9.9969,561.0215],[-84.3462,10.0001,577.473],[-84.344,10.004,602.4153],[-84.3447,10.008,605.9967],[-84.3392,10.0132,688.334],[-84.338,10.0165,653.304],[-84.3289,10.0197,709.6082],[-84.3301,10.0225,717.9119],[-84.3291,10.0243,709.5325],[-84.3266,10.0246,711.8881],[-84.3253,10.0311,734.1689],[-84.3193,10.034,744.7448],[-84.3196,10.0353,744.7448],[-84.3164,10.0375,776.3318],[-84.3113,10.0369,796.205],[-84.3095,10.0394,788.4741],[-84.3071,10.0378,787.9705],[-84.3061,10.0388,787.3608],[-84.3048,10.0442,820.9246],[-84.3078,10.0453,842.0637],[-84.3068,10.0465,825.5107],[-84.3085,10.048,832.8937],[-84.3044,10.0548,876.2483],[-84.3064,10.0576,880.7682],[-84.3056,10.0601,909.6539],[-84.3081,10.0627,985.7034],[-84.3109,10.0603,934.1605],[-84.3209,10.0573,881.1827],[-84.3223,10.063,899.7244],[-84.327,10.0584,904.0939],[-84.328,10.0607,891.4106],[-84.3345,10.063,862.1244],[-84.3413,10.0588,866.7274],[-84.3416,10.0566,855.1348],[-84.3454,10.0565,831.5146],[-84.3484,10.0536,842.6645],[-84.3462,10.0489,802.9243],[-84.3501,10.046,799.2816],[-84.3519,10.0374,762.4261],[-84.3565,10.0377,719.0883],[-84.358,10.0362,713.8231],[-84.3582,10.0244,684.6779],[-84.3622,10.0161,594.3394],[-84.3573,10.0121,606.1965],[-84.3575,10.0071,628.3805],[-84.3535,9.998,572.1531],[-84.3506,9.9959,538.0275],[-84.3453,9.9969,561.0215]]]]}
,"properties": {"GID_3": "CRI.1.4.3_1","GID_0": "CRI","country": "CostaRica","GID_1": "CRI.1_1","province": "Alajuela","NL_NAME_1": "NA","GID_2": "CRI.1.4_1","county": "Grecia","NL_NAME_2": "NA","city": "PuentedePiedra","VARNAME_3": "NA","NL_NAME_3": "NA","TYPE_3": "Distrito","ENGTYPE_3": "District","CC_3": "7","HASC_3": "NA","name": "Puentede_Piedra.city","area_km2": 23.38316,"hist_schema_id": "Elevation0-9000","hist_area_km2": {"525": 0.02088,"550": 0.02088,"575": 0.22968,"600": 0.35495,"625": 0.73079,"650": 0.85606,"675": 1.14836,"700": 1.8791,"725": 2.35927,"750": 2.02518,"775": 1.81637,"800": 2.00425,"825": 2.19211,"850": 2.54699,"875": 3.29853,"900": 1.29434,"925": 0.52191,"950": 0.04175,"975": 0.04175}}}