{"type": "Feature","bbox": [-83.8948,9.5511,-83.627,9.9077],"geometry": {"type": "MultiPolygon","coordinates": [[[[-83.8678,9.7681,1877.8455],[-83.7591,9.5955,3269.814],[-83.7579,9.5919,3376.3169],[-83.7639,9.5836,3364.3472],[-83.7575,9.5748,3356.188],[-83.7562,9.5703,3362.6475],[-83.7579,9.5674,3392.6548],[-83.7542,9.5607,3454.3032],[-83.7437,9.5585,3200.9028],[-83.7343,9.5602,3037.3831],[-83.7277,9.5596,3092.9956],[-83.7186,9.5513,3095.719],[-83.712,9.5545,3055.2808],[-83.7087,9.5583,3024.6418],[-83.7011,9.5529,2845.905],[-83.6894,9.5531,2830.7769],[-83.6836,9.5511,2830.981],[-83.6711,9.5596,2884.8794],[-83.6654,9.5673,2989.3496],[-83.663,9.5745,3083.2964],[-83.6534,9.5837,3232.8362],[-83.6471,9.5844,3253.7456],[-83.6344,9.5806,3327.9302],[-83.6303,9.5846,3259.2551],[-83.627,9.593,3220.0215],[-83.6289,9.6051,3152.0381],[-83.6349,9.6039,3018.7661],[-83.6389,9.605,2947.1799],[-83.6414,9.6133,2943.8296],[-83.648,9.6185,2944.3264],[-83.6532,9.6262,2846.3364],[-83.6576,9.628,2888.1001],[-83.6608,9.6316,2877.2019],[-83.67,9.6341,2763.2808],[-83.6766,9.6441,2764.313],[-83.6794,9.653,2667.0298],[-83.6774,9.6653,2494.0264],[-83.6792,9.6746,2514.1255],[-83.6776,9.6818,2441.8823],[-83.6721,9.6897,2289.5981],[-83.7193,9.7547,858.4684],[-83.7217,9.7608,838.5391],[-83.7212,9.7642,831.3009],[-83.7272,9.766,849.1382],[-83.7257,9.7712,796.3123],[-83.7236,9.7703,856.3385],[-83.7192,9.7793,736.7423],[-83.7262,9.7826,781.921],[-83.7354,9.7814,855.4507],[-83.7446,9.7831,918.4487],[-83.7578,9.769,1082.274],[-83.7663,9.7691,1332.756],[-83.7711,9.7673,1523.4772],[-83.7802,9.7694,1646.3311],[-83.7855,9.7748,1606.7905],[-83.7853,9.7812,1711.6436],[-83.7818,9.7862,1867.6561],[-83.7823,9.789,1985.813],[-83.778,9.7978,1876.7119],[-83.7783,9.8025,1899.7554],[-83.7764,9.808,1874.2688],[-83.7717,9.8096,1718.78],[-83.7716,9.8172,1825.3372],[-83.7623,9.8274,1606.0972],[-83.7621,9.8319,1600.1871],[-83.7635,9.8332,1630.142],[-83.7616,9.8354,1569.255],[-83.7605,9.8413,1507.1492],[-83.7714,9.8468,1502.0425],[-83.7667,9.8502,1305.6407],[-83.7666,9.8577,1150.0469],[-83.762,9.8605,1096.9972],[-83.761,9.8644,1060.8405],[-83.7643,9.8699,918.1395],[-83.7644,9.8743,783.7759],[-83.763,9.8758,787.0148],[-83.7644,9.8769,781.8596],[-83.7664,9.8758,784.0847],[-83.774,9.8859,1026.788],[-83.7747,9.892,1059.9622],[-83.7782,9.8958,1249.9214],[-83.7801,9.9077,1468.2078],[-83.7811,9.8992,1407.0875],[-83.7836,9.8956,1377.835],[-83.7853,9.8955,1376.7775],[-83.7828,9.8936,1299.5846],[-83.7852,9.8922,1302.2379],[-83.7869,9.8933,1265.649],[-83.786,9.8875,1261.4023],[-83.7882,9.8859,1238.5131],[-83.7887,9.8815,1209.1713],[-83.7939,9.8754,1154.1462],[-83.8036,9.8711,1120.5361],[-83.8239,9.8769,1500.5725],[-83.8292,9.8864,1599.5602],[-83.8334,9.8834,1607.7031],[-83.838,9.8844,1647.9008],[-83.8439,9.8786,1632.2709],[-83.8567,9.8777,1601.7288],[-83.862799999999993,9.8676,1571.7191],[-83.8656,9.8655,1562.6044],[-83.8734,9.8645,1544.6533],[-83.8755,9.862,1433.5181],[-83.8876,9.8635,1426.7491],[-83.8881,9.8526,1383.9294],[-83.8897,9.8512,1374.5771],[-83.8917,9.852,1363.6764],[-83.8948,9.8478,1353.0343],[-83.8866,9.8387,1362.249],[-83.8866,9.8356,1359.1343],[-83.8723,9.8285,1335.3206],[-83.8649,9.8184,1231.6492],[-83.8671,9.8164,1185.5514],[-83.8635,9.8152,1118.3246],[-83.8654,9.8153,1106.1566],[-83.8647,9.813,1085.9836],[-83.8668,9.8076,1068.854],[-83.8707,9.8087,1062.5482],[-83.8737,9.8063,1075.3462],[-83.8744,9.8008,1149.4407],[-83.8725,9.798,1232.7217],[-83.8748,9.7938,1323.1604],[-83.8727,9.7909,1266.0677],[-83.8746,9.7867,1404.403],[-83.8709,9.7812,1465.9192],[-83.8721,9.7714,1736.9438],[-83.8678,9.7681,1877.8455]]]]}
,"properties": {"GID_2": "CRI.2.7_1","GID_0": "CRI","country": "CostaRica","GID_1": "CRI.2_1","province": "Cartago","NL_NAME_1": "NA","county": "Paraíso","VARNAME_2": "NA","NL_NAME_2": "NA","TYPE_2": "Cantón","ENGTYPE_2": "Canton","CC_2": "2","HASC_2": "CR.CA.PA","name": "Paraíso.county","area_km2": 477.541,"hist_schema_id": "Elevation0-9000","hist_area_km2": {"750": 0.188,"775": 0.4596,"800": 0.5223,"825": 0.7939,"850": 0.8566,"875": 1.17,"900": 1.5043,"925": 1.6923,"950": 1.8595,"975": 3.2382,"1000": 9.8399,"1025": 8.2104,"1050": 6.769,"1075": 6.2259,"1100": 6.7691,"1125": 6.1842,"1150": 6.6855,"1175": 6.4141,"1200": 6.832,"1225": 7.7513,"1250": 8.4405,"1275": 8.5452,"1300": 9.2137,"1325": 10.3627,"1350": 11.5744,"1375": 10.6344,"1400": 8.3157,"1425": 7.7933,"1450": 7.1874,"1475": 6.9787,"1500": 6.1847,"1525": 6.7697,"1550": 6.7698,"1575": 7.2922,"1600": 7.0206,"1625": 5.7046,"1650": 4.7645,"1675": 4.9526,"1700": 5.1407,"1725": 4.7855,"1750": 4.3884,"1775": 4.5138,"1800": 4.702,"1825": 4.8483,"1850": 4.4931,"1875": 4.9738,"1900": 4.0961,"1925": 4.3052,"1950": 4.0963,"1975": 3.6992,"2000": 4.159,"2025": 3.7201,"2050": 3.7829,"2075": 3.6157,"2100": 4.0546,"2125": 4.1382,"2150": 4.0755,"2175": 4.4309,"2200": 3.9501,"2225": 4.1593,"2250": 3.9503,"2275": 4.2847,"2300": 4.2221,"2325": 4.7238,"2350": 4.3894,"2375": 5.3301,"2400": 5.79,"2425": 4.9749,"2450": 5.5811,"2475": 6.48,"2500": 6.2292,"2525": 5.8321,"2550": 6.1457,"2575": 6.5429,"2600": 5.6441,"2625": 5.0379,"2650": 4.6408,"2675": 4.4109,"2700": 5.0172,"2725": 4.5155,"2750": 5.0382,"2775": 4.7874,"2800": 4.0139,"2825": 3.8258,"2850": 3.8258,"2875": 3.4495,"2900": 3.3868,"2925": 2.7596,"2950": 2.7596,"2975": 2.3206,"3000": 2.446,"3025": 2.007,"3050": 1.9861,"3075": 2.1534,"3100": 1.568,"3125": 1.2544,"3150": 1.4007,"3175": 1.7561,"3200": 1.2753,"3225": 1.0035,"3250": 1.0035,"3275": 0.6899,"3300": 0.7736,"3325": 0.5645,"3350": 0.4809,"3375": 0.3972,"3400": 0.1463,"3425": 0.0627,"3450": 0.0418,"3475": 0.0209}}}