{"type": "Feature","bbox": [-83.6047,9.7961,-83.5178,9.8964],"geometry": {"type": "MultiPolygon","coordinates": [[[[-83.5355,9.8963,443.2051],[-83.5426,9.8933,662.5132],[-83.5477,9.8854,693.8643],[-83.5551,9.8829,786.0168],[-83.5595,9.8787,950.0878],[-83.5712,9.8753,1140.5768],[-83.5784,9.8653,1244.748],[-83.5826,9.8664,1256.6488],[-83.5827,9.8646,1225.1329],[-83.5875,9.8649,1167.7583],[-83.59,9.8622,1141.8379],[-83.5902,9.8574,1078.0233],[-83.5971,9.8567,844.4715],[-83.6028,9.8588,830.8074],[-83.6047,9.8575,729.2391],[-83.6043,9.8493,645.7196],[-83.6011,9.8455,662.2467],[-83.5954,9.8453,679.3697],[-83.5932,9.8424,686.8424],[-83.5984,9.8361,747.4835],[-83.5967,9.8307,813.7539],[-83.5985,9.8281,874.5361],[-83.5953,9.8253,920.2351],[-83.5972,9.819,1026.7096],[-83.5956,9.8158,1131.5875],[-83.5964,9.8028,1382.1705],[-83.5925,9.7961,1131.7297],[-83.5838,9.8055,1011.3681],[-83.5828,9.8114,958.476],[-83.5764,9.818,932.8222],[-83.5754,9.8226,861.1361],[-83.5694,9.8293,824.3669],[-83.5694,9.8311,805.2332],[-83.5737,9.8348,776.963],[-83.5694,9.837,828.6764],[-83.5645,9.8358,952.8633],[-83.5601,9.8375,1060.8909],[-83.5554,9.8365,1272.0259],[-83.5522,9.8422,1280.0303],[-83.5468,9.8462,1150.7494],[-83.5434,9.857,982.9732],[-83.5337,9.8648,944.407],[-83.5267,9.8666,870.4546],[-83.5178,9.8778,494.337],[-83.5192,9.8799,492.6212],[-83.5221,9.8769,531.4844],[-83.5248,9.8785,506.6915],[-83.5257,9.8816,500.9954],[-83.5246,9.8864,485.8878],[-83.5286,9.8873,468.5737],[-83.5325,9.8964,485.6316],[-83.5355,9.8963,443.2051]]]]}
,"properties": {"GID_3": "CRI.2.8.11_1","GID_0": "CRI","country": "CostaRica","GID_1": "CRI.2_1","province": "Cartago","NL_NAME_1": "NA","GID_2": "CRI.2.8_1","county": "Turrialba","NL_NAME_2": "NA","city": "Tuis","VARNAME_3": "NA","NL_NAME_3": "NA","TYPE_3": "Distrito","ENGTYPE_3": "District","CC_3": "7","HASC_3": "NA","name": "Tuis.city","area_km2": 39.20955,"hist_schema_id": "Elevation0-9000","hist_area_km2": {"450": 0.1671,"475": 0.37597,"500": 0.43864,"525": 0.39686,"550": 0.31331,"575": 0.52219,"600": 0.48042,"625": 0.62663,"650": 0.79375,"675": 1.19064,"700": 0.96089,"725": 1.65024,"750": 1.90094,"775": 1.71293,"800": 2.00539,"825": 1.69206,"850": 1.6085,"875": 1.69205,"900": 1.62939,"925": 1.94273,"950": 1.96363,"975": 1.85919,"1000": 1.92188,"1025": 1.60853,"1050": 1.16984,"1075": 1.2743,"1100": 1.19074,"1125": 1.12805,"1150": 1.06537,"1175": 1.14893,"1200": 0.94004,"1225": 0.45958,"1250": 0.56405,"1275": 0.37605,"1300": 0.16713,"1325": 0.10446,"1350": 0.10446,"1375": 0.04179,"1400": 0.02089}}}