{"type":"Feature","properties":{"GID_3":"CRI.3.8.6_1","GID_0":"CRI","country":"CostaRica","GID_1":"CRI.3_1","province":"Guanacaste","NL_NAME_1":"NA","GID_2":"CRI.3.8_1","county":"Nandayure","NL_NAME_2":"NA","city":"Zapotal","VARNAME_3":"NA","NL_NAME_3":"NA","TYPE_3":"Distrito","ENGTYPE_3":"District","CC_3":"3","HASC_3":"NA","name":"Zapotal.city"},
"geometry":{"type": "MultiPolygon","coordinates": [[[[-85.3763,10.004,721.7222],[-85.3764,10.001,738.6008],[-85.3671,9.995,606.1738],[-85.3571,9.9984,527.4819],[-85.3517,9.9968,508.0869],[-85.3508,9.9887,491.7639],[-85.3479,9.9868,471.7216],[-85.3482,9.9807,399.6416],[-85.3543,9.9761,368.2514],[-85.3538,9.9739,370.6733],[-85.3569,9.9743,380.6156],[-85.3579,9.9696,301.2311],[-85.3615,9.9647,248.6676],[-85.3574,9.9618,190.8686],[-85.3546,9.9561,158.2692],[-85.3549,9.9475,126.8765],[-85.3497,9.944,106.6253],[-85.343,9.9437,90.9784],[-85.3419,9.9411,95.5522],[-85.3394,9.9426,82.3975],[-85.3387,9.9379,83.4981],[-85.3419,9.9369,75.6121],[-85.3424,9.9336,79.4221],[-85.3497,9.9312,73.317],[-85.3486,9.9278,62.6946],[-85.3498,9.9263,69.6294],[-85.3534,9.9273,72.2982],[-85.3587,9.9229,65.3434],[-85.3641,9.9223,61.2954],[-85.3635,9.9196,62.0719],[-85.3665,9.9199,60.3437],[-85.3686,9.918,76.3441],[-85.3685,9.9157,61.2815],[-85.3723,9.9146,56.5641],[-85.3724,9.9133,58.1293],[-85.3703,9.9131,63.7406],[-85.3757,9.9102,61.2252],[-85.3835,9.9123,68.2506],[-85.3871,9.9105,52.6657],[-85.39,9.9126,56.1055],[-85.3911,9.909,54.4134],[-85.3933,9.9086,57.6872],[-85.3952,9.9118,48.4655],[-85.3985,9.9125,52.9138],[-85.4058,9.9088,42.3786],[-85.4103,9.9126,51.3004],[-85.4147,9.9092,42.3205],[-85.4179,9.9109,37.3978],[-85.4199,9.91,37.0305],[-85.4213,9.9117,37.0595],[-85.4241,9.9105,37.8061],[-85.4252,9.9077,39.4852],[-85.4284,9.9072,46.417],[-85.4308,9.904,32.8551],[-85.4306,9.897,35.7643],[-85.4374,9.8965,35.8181],[-85.439,9.8923,44.378],[-85.4363,9.8885,25.1959],[-85.4387,9.8842,17.9892],[-85.4406,9.8836,30.2685],[-85.4426,9.8874,39.9474],[-85.4456,9.8879,22.7372],[-85.4465,9.8868,13.7029],[-85.4449,9.8851,12.7062],[-85.447,9.8822,14.0334],[-85.4451,9.88,17.4881],[-85.4476,9.8792,10.8433],[-85.4527,9.8807,13.9075],[-85.4526,9.8779,8.0052],[-85.4495,9.8759,12.5015],[-85.4523,9.8732,28.1818],[-85.4574,9.8735,11.7013],[-85.4569,9.8714,9.1747],[-85.4536,9.8704,14.2322],[-85.4547,9.8641,2.0154],[-85.4529,9.8617,0.0],[-85.4438,9.8622,11.2777],[-85.4302,9.8591,5.8658],[-85.4266,9.8571,1.631],[-85.4262,9.8532,0.0],[-85.4232,9.855,150.6819],[-85.4162,9.8547,183.2954],[-85.4106,9.8689,282.7292],[-85.3934,9.8765,384.5331],[-85.3855,9.8832,484.9855],[-85.3819,9.8845,592.9301],[-85.3799,9.8881,546.5333],[-85.3753,9.891,470.1956],[-85.3707,9.8916,428.6694],[-85.3631,9.8984,447.9161],[-85.3512,9.9003,525.8621],[-85.3522,9.9043,519.1056],[-85.3502,9.9098,393.7421],[-85.3439,9.9111,365.5475],[-85.3389,9.9184,371.7583],[-85.3326,9.9205,402.0965],[-85.3246,9.926,529.993],[-85.3104,9.9257,737.45],[-85.3002,9.9411,603.0615],[-85.3024,9.9506,714.4549],[-85.2951,9.9537,650.9926],[-85.2908,9.952,690.3374],[-85.2943,9.9598,418.2254],[-85.2938,9.9663,261.494],[-85.2887,9.9724,476.94],[-85.286,9.9735,657.7264],[-85.2845,9.9834,616.1709],[-85.2879,9.9887,478.7408],[-85.2878,9.9936,490.298],[-85.2946,9.9964,471.0251],[-85.2928,9.9971,371.5978],[-85.2937,9.998,371.5978],[-85.2911,10.0026,185.9663],[-85.2983,10.0152,625.7543],[-85.3029,10.0116,627.7657],[-85.3074,10.0142,509.8518],[-85.3154,10.0119,388.3474],[-85.3239,10.0178,260.4522],[-85.3261,10.0142,260.364],[-85.3262,10.0095,259.8418],[-85.3279,10.0087,268.4193],[-85.327,10.0064,268.2111],[-85.3304,10.005,275.1437],[-85.3331,10.0052,281.8507],[-85.3355,10.0092,311.1292],[-85.3423,10.0056,332.0708],[-85.3498,10.0066,342.1782],[-85.351,10.0056,356.1673],[-85.355,10.0091,425.6197],[-85.3649,10.0103,561.4299],[-85.3694,10.0084,608.4268],[-85.3715,10.0048,649.1333],[-85.3763,10.004,721.7222]]]]}}