{"type":"Feature","properties":{"GID_3":"CRI.7.17.2_1","GID_0":"CRI","country":"CostaRica","GID_1":"CRI.7_1","province":"SanJosé","NL_NAME_1":"NA","GID_2":"CRI.7.17_1","county":"Tarrazú","NL_NAME_2":"NA","city":"SanLorenzo","VARNAME_3":"NA","NL_NAME_3":"NA","TYPE_3":"Distrito","ENGTYPE_3":"District","CC_3":"2","HASC_3":"NA","name":"San_Lorenzo.city"},
"geometry":{"type": "MultiPolygon","coordinates": [[[[-84.0016,9.4499,83.2523],[-83.9981,9.4504,103.2003],[-83.9971,9.4468,89.2891],[-83.9945,9.4468,92.4215],[-83.9967,9.4536,103.2936],[-83.9916,9.4556,112.7447],[-83.9948,9.4617,130.2759],[-83.989,9.4645,131.8555],[-83.9896,9.6235,2179.5151],[-83.9903,9.6215,2135.2051],[-83.9948,9.6231,2043.1484],[-83.9968,9.6213,2015.214],[-84.0034,9.6222,1932.7417],[-84.0154,9.637,1630.8713],[-84.0234,9.6425,1423.6694],[-84.025,9.6454,1408.9178],[-84.0295,9.6469,1393.2109],[-84.0352,9.6552,1364.2852],[-84.0497,9.6566,1388.0405],[-84.0517,9.6588,1347.0222],[-84.0584,9.6595,1337.627],[-84.0621,9.6544,1284.0432],[-84.0653,9.6554,1302.1737],[-84.0733,9.652,1273.6207],[-84.0756,9.6535,1232.377],[-84.077,9.6504,1221.1573],[-84.0811,9.6497,1205.5],[-84.0829,9.6464,1205.5],[-84.0805,9.6424,1269.2595],[-84.0743,9.6408,1286.0492],[-84.0778,9.6363,1405.8069],[-84.0787,9.6309,1507.8223],[-84.0756,9.6216,1764.6912],[-84.0772,9.6193,1850.1702],[-84.0754,9.6186,1823.3262],[-84.0779,9.6161,1749.0347],[-84.079,9.6074,1348.3945],[-84.0827,9.6004,1002.3866],[-84.0816,9.5987,905.7629],[-84.0821,9.5921,807.1244],[-84.0874,9.5841,679.337],[-84.0902,9.5735,567.7238],[-84.0928,9.572,527.8608],[-84.0929,9.5681,449.5275],[-84.0823,9.5637,733.3197],[-84.075,9.5666,1004.8929],[-84.0719,9.571,1213.3929],[-84.0761,9.5581,975.4578],[-84.072,9.5527,684.3438],[-84.0718,9.5345,202.0572],[-84.0692,9.5309,176.6396],[-84.0739,9.5234,166.0119],[-84.0736,9.5185,149.6738],[-84.0839,9.5146,70.752],[-84.0876,9.5103,81.1673],[-84.0843,9.5095,88.8361],[-84.0831,9.5115,69.827],[-84.0799,9.5115,101.0775],[-84.0787,9.5131,84.1878],[-84.0747,9.5027,343.4726],[-84.0642,9.4992,444.7342],[-84.0594,9.4951,414.5662],[-84.0553,9.4897,413.4379],[-84.0529,9.4888,423.5836],[-84.0514,9.4843,375.6417],[-84.0437,9.4769,256.1719],[-84.0331,9.4709,557.4243],[-84.0271,9.461,598.8013],[-84.0187,9.4593,609.8338],[-84.0016,9.4499,83.2523]]]]}}