{"type": "Feature","bbox": [-83.8748,9.5513,-83.627,9.8242],"geometry": {"type": "MultiPolygon","coordinates": [[[[-83.7653,9.6039,3249.5923],[-83.7579,9.5919,3376.3169],[-83.7639,9.5836,3364.3472],[-83.7575,9.5748,3356.188],[-83.7562,9.5703,3362.6475],[-83.7579,9.5674,3392.6548],[-83.7542,9.5607,3454.3032],[-83.7437,9.5585,3200.9028],[-83.7343,9.5602,3037.3831],[-83.7277,9.5596,3092.9956],[-83.7186,9.5513,3095.719],[-83.712,9.5545,3055.2808],[-83.7087,9.5583,3024.6418],[-83.7051,9.5567,2988.8657],[-83.7027,9.5535,2863.0049],[-83.6985,9.5522,2812.7544],[-83.6899,9.5531,2837.1135],[-83.6823,9.5517,2807.7012],[-83.6711,9.5596,2884.8794],[-83.6654,9.5673,2989.3496],[-83.663,9.5745,3083.2964],[-83.6534,9.5837,3232.8362],[-83.6471,9.5844,3253.7456],[-83.6344,9.5806,3327.9302],[-83.6303,9.5846,3259.2551],[-83.627,9.593,3220.0215],[-83.6289,9.6051,3152.0381],[-83.6349,9.6039,3018.7661],[-83.6389,9.605,2947.1799],[-83.6414,9.6133,2943.8296],[-83.648,9.6185,2944.3264],[-83.6532,9.6262,2846.3364],[-83.6576,9.628,2888.1001],[-83.6608,9.6316,2877.2019],[-83.67,9.6341,2763.2808],[-83.6766,9.6441,2764.313],[-83.6794,9.653,2667.0298],[-83.6774,9.6653,2494.0264],[-83.6792,9.6746,2514.1255],[-83.6776,9.6818,2441.8823],[-83.6721,9.6897,2289.5981],[-83.7193,9.7547,858.4684],[-83.7217,9.7608,838.5391],[-83.7212,9.7642,831.3009],[-83.7272,9.766,849.1382],[-83.7257,9.7712,796.3123],[-83.7236,9.7703,856.3385],[-83.7192,9.7793,736.7423],[-83.7262,9.7826,781.921],[-83.7354,9.7814,855.4507],[-83.7446,9.7831,918.4487],[-83.7578,9.769,1082.274],[-83.7663,9.7691,1332.756],[-83.7711,9.7673,1523.4772],[-83.7802,9.7694,1646.3311],[-83.7855,9.7748,1606.7905],[-83.7855,9.7782,1594.5087],[-83.778,9.7978,1876.7119],[-83.7767,9.8086,1874.2688],[-83.7822,9.8051,1839.6356],[-83.7892,9.8048,1808.5526],[-83.7951,9.8012,1720.8439],[-83.7984,9.7978,1701.7483],[-83.7991,9.7934,1641.6254],[-83.8111,9.7926,1577.4766],[-83.8186,9.7957,1374.8958],[-83.8235,9.8006,1441.651],[-83.8333,9.8033,1394.8501],[-83.8367,9.8059,1243.7018],[-83.8356,9.8152,1002.183],[-83.8388,9.8211,989.3632],[-83.8412,9.8209,996.3616],[-83.8385,9.8237,990.5302],[-83.8399,9.8242,1012.9913],[-83.8464,9.8208,999.5529],[-83.8518,9.8113,1011.3812],[-83.8579,9.8106,1021.4084],[-83.8612,9.8124,1060.0071],[-83.8664,9.8099,1042.8938],[-83.8668,9.8076,1068.854],[-83.8707,9.8087,1062.5482],[-83.8737,9.8063,1075.3462],[-83.8744,9.8008,1149.4407],[-83.8725,9.798,1232.7217],[-83.8748,9.7938,1323.1604],[-83.8727,9.7909,1266.0677],[-83.8746,9.7867,1404.403],[-83.8709,9.7812,1465.9192],[-83.8721,9.7714,1736.9438],[-83.8678,9.7681,1877.8455],[-83.7653,9.6039,3249.5923]]]]}
,"properties": {"GID_3": "CRI.2.7.3_1","GID_0": "CRI","country": "CostaRica","GID_1": "CRI.2_1","province": "Cartago","NL_NAME_1": "NA","GID_2": "CRI.2.7_1","county": "Paraíso","NL_NAME_2": "NA","city": "Orosi","VARNAME_3": "NA","NL_NAME_3": "NA","TYPE_3": "Distrito","ENGTYPE_3": "District","CC_3": "3","HASC_3": "NA","name": "Orosi.city","area_km2": 378.3972,"hist_schema_id": "Elevation0-9000","hist_area_km2": {"750": 0.188,"775": 0.2716,"800": 0.3552,"825": 0.397,"850": 0.5433,"875": 0.7731,"900": 1.1074,"925": 0.9821,"950": 1.1283,"975": 0.9821,"1000": 2.4446,"1025": 2.9461,"1050": 3.2177,"1075": 3.0506,"1100": 3.2804,"1125": 2.9253,"1150": 3.1342,"1175": 3.6984,"1200": 3.9074,"1225": 4.1999,"1250": 3.9492,"1275": 4.3254,"1300": 4.4507,"1325": 4.3671,"1350": 4.6597,"1375": 4.9941,"1400": 5.1821,"1425": 4.8061,"1450": 4.5344,"1475": 4.7226,"1500": 4.2211,"1525": 4.7853,"1550": 4.7435,"1575": 5.2033,"1600": 5.1824,"1625": 4.8899,"1650": 4.4929,"1675": 4.7437,"1700": 4.8691,"1725": 4.5139,"1750": 4.1168,"1775": 4.3258,"1800": 4.5557,"1825": 4.6394,"1850": 4.4305,"1875": 4.932,"1900": 4.0961,"1925": 4.3052,"1950": 4.0963,"1975": 3.7201,"2000": 4.159,"2025": 3.7201,"2050": 3.7829,"2075": 3.6157,"2100": 4.0546,"2125": 4.1382,"2150": 4.0755,"2175": 4.4518,"2200": 3.9501,"2225": 4.1802,"2250": 3.9503,"2275": 4.3265,"2300": 4.243,"2325": 4.7238,"2350": 4.4103,"2375": 5.351,"2400": 5.8945,"2425": 5.0167,"2450": 5.6229,"2475": 6.5427,"2500": 6.2501,"2525": 5.8739,"2550": 6.1875,"2575": 6.6056,"2600": 5.7068,"2625": 5.0379,"2650": 4.6617,"2675": 4.4109,"2700": 5.0172,"2725": 4.5782,"2750": 5.0382,"2775": 4.7874,"2800": 4.0557,"2825": 3.8676,"2850": 3.8885,"2875": 3.4704,"2900": 3.3868,"2925": 2.7596,"2950": 2.7596,"2975": 2.3415,"3000": 2.4251,"3025": 2.007,"3050": 1.9652,"3075": 2.1534,"3100": 1.568,"3125": 1.2753,"3150": 1.4007,"3175": 1.7561,"3200": 1.2753,"3225": 1.0244,"3250": 1.0662,"3275": 0.7108,"3300": 0.7736,"3325": 0.5645,"3350": 0.4809,"3375": 0.3972,"3400": 0.1463,"3425": 0.0627,"3450": 0.0418,"3475": 0.0209}}}