{"type": "Feature","bbox": [-83.161,9.5505,-82.7838,9.6711],"geometry": {"type": "MultiPolygon","coordinates": [[[[-83.1365,9.6401,1009.3648],[-83.1438,9.6257,605.8425],[-83.1479,9.6228,506.8774],[-83.156,9.6108,425.5547],[-83.1605,9.6085,344.8],[-83.161,9.6053,356.1096],[-83.1594,9.6035,333.6768],[-83.148,9.596,297.0726],[-83.1424,9.5981,317.5084],[-83.1355,9.5968,331.7738],[-83.1334,9.598,276.611],[-83.1295,9.5962,253.7473],[-83.1244,9.5993,254.6828],[-83.1215,9.5953,319.92],[-83.1159,9.5965,234.2832],[-83.1107,9.5926,252.0135],[-83.1032,9.5956,225.6291],[-83.0933,9.5955,236.516],[-83.0842,9.5898,211.9376],[-83.0778,9.5905,180.271],[-83.0647,9.5847,169.3855],[-83.0479,9.5869,143.2218],[-83.04,9.5902,134.6937],[-83.0276,9.5911,118.8911],[-83.0165,9.5887,104.9049],[-83.0097,9.59,97.8787],[-83.0016,9.5839,89.1055],[-82.9921,9.5846,82.1711],[-82.987,9.5775,74.4586],[-82.9816,9.5772,70.762],[-82.9768,9.5738,65.617],[-82.9721,9.5741,63.8394],[-82.9691,9.5723,64.0701],[-82.9665,9.578,64.3086],[-82.9649,9.577,62.1365],[-82.9643,9.5733,61.7019],[-82.9595,9.57,59.7038],[-82.9574,9.5728,62.2002],[-82.9538,9.5732,61.6339],[-82.9521,9.572,60.6],[-82.9541,9.5692,55.8257],[-82.9508,9.569,60.3984],[-82.9524,9.5663,54.6611],[-82.9511,9.5645,57.4258],[-82.9432,9.5689,56.3586],[-82.9397,9.5647,49.4381],[-82.9273,9.5653,51.8956],[-82.9113,9.5542,43.5],[-82.9003,9.5552,54.8878],[-82.8889,9.5505,57.2608],[-82.8833,9.5718,43.4832],[-82.878,9.5798,41.2149],[-82.8777,9.5917,34.0],[-82.8739,9.5943,33.5],[-82.8641,9.59,37.6012],[-82.8595,9.5915,44.4922],[-82.8635,9.5955,35.6461],[-82.8602,9.6098,36.9715],[-82.8582,9.6129,33.3383],[-82.8469,9.6165,33.5694],[-82.8396,9.6152,45.6444],[-82.8352,9.6119,27.4841],[-82.8272,9.6112,26.039],[-82.825,9.6051,29.1504],[-82.8185,9.6022,30.8189],[-82.816,9.5973,25.1611],[-82.8035,9.5966,30.5383],[-82.8009,9.5994,20.4569],[-82.7977,9.5997,28.0032],[-82.7881,9.5956,20.4585],[-82.7854,9.6021,24.9854],[-82.7866,9.6094,27.0328],[-82.7838,9.6133,204.0219],[-82.7954,9.6171,194.3541],[-82.8,9.6225,191.665],[-82.8013,9.6273,270.5241],[-82.8041,9.6237,200.0706],[-82.8102,9.6257,203.9695],[-82.8164,9.6248,207.1756],[-82.8314,9.6268,195.4369],[-82.8609,9.6411,314.6245],[-82.8689,9.6422,183.6374],[-82.8753,9.6372,286.5492],[-82.8818,9.6363,308.9445],[-82.8933,9.6385,395.1254],[-82.8967,9.6412,475.0671],[-82.9014,9.6507,400.1125],[-82.9005,9.6554,459.0158],[-82.9088,9.6596,421.5066],[-82.9097,9.6627,422.4481],[-82.9125,9.6629,427.3053],[-82.9121,9.666,417.7666],[-82.9178,9.6711,461.4057],[-82.9193,9.667,452.5499],[-82.9213,9.6697,481.2967],[-82.9234,9.67,497.4857],[-82.926,9.6635,429.3989],[-82.9243,9.6556,435.0976],[-82.9201,9.6494,480.3488],[-82.923,9.6343,475.4135],[-82.9309,9.6299,532.974],[-82.9399,9.6211,598.1854],[-82.9493,9.6178,528.1459],[-82.9524,9.6125,479.4654],[-82.9592,9.6131,484.8157],[-82.9688,9.6223,412.0944],[-82.9708,9.6223,417.301],[-82.9883,9.6178,367.1369],[-82.9943,9.6129,388.3413],[-83.0048,9.6109,435.1219],[-83.0138,9.6137,389.1455],[-83.0172,9.6105,388.3639],[-83.0209,9.6112,392.4985],[-83.0237,9.6124,370.8742],[-83.0234,9.6164,422.1322],[-83.0272,9.6205,466.2221],[-83.0266,9.6248,492.4001],[-83.0305,9.6285,549.0761],[-83.0338,9.6285,545.5794],[-83.0362,9.6253,566.0596],[-83.0402,9.6234,635.1609],[-83.0457,9.6233,530.2686],[-83.0489,9.6189,600.1528],[-83.0531,9.6188,653.8074],[-83.0584,9.6146,667.2245],[-83.0687,9.6224,663.5526],[-83.0767,9.6227,625.7957],[-83.0836,9.6269,656.592],[-83.0914,9.6293,684.0348],[-83.0954,9.6257,592.7081],[-83.105,9.6221,680.9972],[-83.1122,9.6218,658.4228],[-83.1167,9.6178,711.8444],[-83.1221,9.6163,735.2346],[-83.1286,9.6192,708.671],[-83.1306,9.6179,768.8741],[-83.1353,9.619,814.9814],[-83.1309,9.6339,936.8544],[-83.1365,9.6401,1009.3648]]]]}
,"properties": {"GID_3": "CRI.5.6.1_1","GID_0": "CRI","country": "CostaRica","GID_1": "CRI.5_1","province": "Limón","NL_NAME_1": "NA","GID_2": "CRI.5.6_1","county": "Talamanca","NL_NAME_2": "NA","city": "Bratsi","VARNAME_3": "NA","NL_NAME_3": "NA","TYPE_3": "Distrito","ENGTYPE_3": "District","CC_3": "1","HASC_3": "NA","name": "Bratsi.city","area_km2": 180.8279,"hist_schema_id": "Elevation0-9000","hist_area_km2": {"25": 13.3372,"50": 12.5014,"75": 15.8674,"100": 10.2854,"125": 9.0938,"150": 8.4457,"175": 10.2018,"200": 8.9893,"225": 10.0554,"250": 8.7175,"275": 8.7593,"300": 7.9439,"325": 5.8115,"350": 5.7279,"375": 4.6617,"400": 4.5989,"425": 5.1841,"450": 4.787,"475": 3.7628,"500": 3.0939,"525": 2.7803,"550": 3.0311,"575": 2.5503,"600": 2.3413,"625": 1.8814,"650": 1.4633,"675": 1.087,"700": 1.1706,"725": 0.7944,"750": 0.5435,"775": 0.3345,"800": 0.3554,"825": 0.1254,"850": 0.1881,"875": 0.0836,"900": 0.1045,"925": 0.0209,"950": 0.0627,"975": 0.0627,"1000": 0.0209}}}