{"type": "Feature","bbox": [-84.45,10.0555,-84.4139,10.086],"geometry": {"type": "MultiPolygon","coordinates": [[[[-84.4336,10.086,970.9791],[-84.4391,10.0811,1204.4509],[-84.4465,10.08,1222.92],[-84.45,10.0702,1151.9417],[-84.4485,10.0682,1108.697],[-84.4496,10.0647,1110.5326],[-84.4435,10.063,1041.7412],[-84.4408,10.0609,1024.777],[-84.4417,10.0582,1021.5546],[-84.4375,10.0555,1019.103],[-84.4354,10.0555,1011.0554],[-84.4298,10.061,993.191],[-84.4273,10.0697,957.8889],[-84.4139,10.0741,942.9711],[-84.4205,10.0798,956.7655],[-84.4253,10.0815,951.0889],[-84.4259,10.084,973.9069],[-84.4304,10.084,967.5651],[-84.4336,10.086,970.9791]]]]}
,"properties": {"GID_3": "CRI.1.9.1_1","GID_0": "CRI","country": "CostaRica","GID_1": "CRI.1_1","province": "Alajuela","NL_NAME_1": "NA","GID_2": "CRI.1.9_1","county": "Palmares","NL_NAME_2": "NA","city": "BuenosAires","VARNAME_3": "NA","NL_NAME_3": "NA","TYPE_3": "Distrito","ENGTYPE_3": "District","CC_3": "3","HASC_3": "NA","name": "Buenos_Aires.city","area_km2": 6.847152,"hist_schema_id": "Elevation0-9000","hist_area_km2": {"925": 0.020875,"950": 0.501006,"975": 0.855884,"1000": 1.315157,"1025": 2.400703,"1050": 0.563638,"1075": 0.334006,"1100": 0.229629,"1125": 0.208751,"1150": 0.146127,"1175": 0.12525,"1200": 0.104375,"1225": 0.020875,"1250": 0.020875}}}