{"type":"Feature","properties":{"GID_3":"CRI.7.14.6_1","GID_0":"CRI","country":"CostaRica","GID_1":"CRI.7_1","province":"SanJosé","NL_NAME_1":"NA","GID_2":"CRI.7.14_1","county":"Puriscal","NL_NAME_2":"NA","city":"MercedesSur","VARNAME_3":"NA","NL_NAME_3":"NA","TYPE_3":"Distrito","ENGTYPE_3":"District","CC_3":"2","HASC_3":"NA","name":"Mercedes_Sur.city"},
"geometry":{"type": "MultiPolygon","coordinates": [[[[-84.3408,9.7492,211.6532],[-84.347,9.7496,224.1526],[-84.3471,9.7578,260.5832],[-84.3449,9.7609,277.6828],[-84.3459,9.7683,325.4703],[-84.3519,9.7701,355.9023],[-84.3553,9.7771,456.2969],[-84.3617,9.7806,474.0624],[-84.3637,9.7873,502.5157],[-84.3634,9.7944,516.8464],[-84.3563,9.8,598.0567],[-84.3529,9.8002,615.7308],[-84.3461,9.8053,649.6138],[-84.3418,9.8062,684.294],[-84.3403,9.8128,782.5079],[-84.3336,9.8153,858.8936],[-84.3327,9.8138,889.412],[-84.3295,9.8136,865.8856],[-84.3275,9.8183,907.6541],[-84.3236,9.8193,948.7716],[-84.3224,9.8211,996.653],[-84.3209,9.8198,913.3392],[-84.32,9.8228,1048.6453],[-84.3179,9.8221,1044.2211],[-84.3198,9.8272,1079.9435],[-84.3158,9.8336,1113.4026],[-84.3187,9.8351,1130.7563],[-84.3261,9.8345,1100.6013],[-84.3261,9.8412,1022.4949],[-84.3352,9.8435,964.207],[-84.3407,9.8428,943.2959],[-84.3403,9.8408,930.6371],[-84.3434,9.8388,912.1817],[-84.3481,9.8389,902.7734],[-84.3519,9.8362,866.3534],[-84.3597,9.8353,847.9007],[-84.3661,9.8384,801.1707],[-84.3677,9.8373,788.1171],[-84.3809,9.8402,633.1201],[-84.3925,9.8475,514.4238],[-84.411,9.8469,414.7521],[-84.4111,9.8486,394.2036],[-84.4147,9.8508,402.1761],[-84.4187,9.8497,406.2107],[-84.4203,9.8415,323.8846],[-84.4231,9.8397,316.492],[-84.4213,9.8381,323.3126],[-84.4273,9.838,291.0224],[-84.4277,9.8336,337.8115],[-84.4305,9.8302,370.239],[-84.432,9.8199,470.1283],[-84.4372,9.8111,637.7719],[-84.4421,9.8081,704.6104],[-84.4411,9.8054,814.5785],[-84.4427,9.8013,945.5815],[-84.4504,9.7912,1561.5542],[-84.4542,9.793,1573.6971],[-84.4647,9.7917,1483.7953],[-84.4692,9.7943,1615.9602],[-84.4714,9.7933,1656.1034],[-84.4806,9.7758,1288.698],[-84.4803,9.7658,839.8134],[-84.4866,9.757,548.705],[-84.487799999999993,9.7504,473.2063],[-84.4908,9.747,435.1571],[-84.4906,9.7439,414.9278],[-84.486,9.7397,335.2335],[-84.4828,9.7337,233.7771],[-84.4915,9.7286,218.7484],[-84.4871,9.7226,218.6331],[-84.4836,9.7218,178.5925],[-84.4832,9.7196,166.4586],[-84.4813,9.72,154.2889],[-84.4807,9.7184,202.7564],[-84.4764,9.7169,157.2571],[-84.4738,9.7173,156.3607],[-84.4745,9.7139,149.161],[-84.4683,9.7091,113.8716],[-84.4693,9.706,156.4908],[-84.4663,9.7017,115.1685],[-84.4686,9.7012,111.4236],[-84.4674,9.698,95.3926],[-84.4712,9.6901,106.706],[-84.4697,9.6873,92.8172],[-84.4611,9.6953,169.1876],[-84.4564,9.6953,153.1837],[-84.4478,9.7038,173.14],[-84.4354,9.7021,280.369],[-84.4343,9.7006,215.1252],[-84.4272,9.7054,244.4434],[-84.4217,9.7036,282.678],[-84.4157,9.7038,315.6116],[-84.4163,9.7137,374.3291],[-84.4146,9.7172,416.5599],[-84.4029,9.7289,521.8353],[-84.4025,9.732,539.6578],[-84.3996,9.7347,604.231],[-84.4002,9.7397,749.6042],[-84.3936,9.7409,803.7244],[-84.3934,9.7432,829.2621],[-84.3895,9.7473,1062.9309],[-84.3857,9.7364,972.2175],[-84.3834,9.7346,1039.7231],[-84.3794,9.7356,1036.949],[-84.3718,9.734,1034.1809],[-84.3682,9.7254,1270.168],[-84.3597,9.7261,847.0908],[-84.3518,9.7308,563.6278],[-84.3448,9.7284,351.5652],[-84.3423,9.73,296.5255],[-84.3388,9.7272,247.5221],[-84.334,9.7304,200.7389],[-84.3391,9.7398,226.5951],[-84.3416,9.7415,167.232],[-84.3408,9.7492,211.6532]]]]}}