{"type":"Feature","properties":{"GID_3":"CRI.6.11.1_1","GID_0":"CRI","country":"CostaRica","GID_1":"CRI.6_1","province":"Puntarenas","NL_NAME_1":"NA","GID_2":"CRI.6.11_1","county":"Puntarenas","NL_NAME_2":"NA","city":"Acapulco","VARNAME_3":"NA","NL_NAME_3":"NA","TYPE_3":"Distrito","ENGTYPE_3":"District","CC_3":"14","HASC_3":"NA","name":"Acapulco.city"},
"geometry":{"type": "MultiPolygon","coordinates": [[[[-84.7576,10.2565,1768.8734],[-84.76,10.2465,1709.5525],[-84.763,10.2433,1614.8481],[-84.7662,10.2433,1607.8118],[-84.7827,10.2319,1388.9865],[-84.7886,10.2316,1184.5365],[-84.7907,10.2212,917.9669],[-84.7892,10.2191,888.1544],[-84.7888,10.2106,812.5992],[-84.7903,10.2061,766.7834],[-84.7952,10.2025,679.4599],[-84.7973,10.2029,664.0704],[-84.7982,10.1999,618.3842],[-84.8024,10.1974,562.8257],[-84.8039,10.1936,555.1098],[-84.8087,10.1906,479.1028],[-84.8082,10.1889,472.8751],[-84.8112,10.1864,417.7057],[-84.8157,10.177,339.962],[-84.8226,10.1733,327.0844],[-84.8274,10.1777,330.1567],[-84.8358,10.1746,300.1467],[-84.836,10.1717,271.1257],[-84.8419,10.1719,273.3196],[-84.8438,10.1669,241.4917],[-84.8429,10.1638,232.4848],[-84.8459,10.1633,234.0786],[-84.8452,10.1604,250.3128],[-84.8471,10.1577,228.7878],[-84.852,10.1549,214.6148],[-84.8572,10.1554,192.4312],[-84.8573,10.1533,202.2862],[-84.8634,10.1522,182.2066],[-84.866,10.1471,169.8175],[-84.8657,10.1444,145.8898],[-84.8692,10.1422,142.7367],[-84.8687,10.1377,140.3187],[-84.8729,10.1295,110.4506],[-84.8706,10.1095,74.1066],[-84.8743,10.1031,72.5719],[-84.8577,10.0967,79.735],[-84.8517,10.0886,35.4219],[-84.8439,10.0874,48.5721],[-84.8356,10.0872,101.4156],[-84.8151,10.0964,140.0072],[-84.8095,10.1003,101.458],[-84.8121,10.1174,152.2069],[-84.8104,10.1252,166.6251],[-84.8023,10.1305,190.6001],[-84.799,10.1388,218.6214],[-84.7955,10.1409,184.167],[-84.7965,10.147,197.1116],[-84.7927,10.1449,219.4495],[-84.7896,10.1459,227.4274],[-84.7825,10.1533,244.733],[-84.7783,10.1509,255.7664],[-84.7741,10.1528,268.3585],[-84.7717,10.1521,270.6198],[-84.764,10.1576,298.6987],[-84.7572,10.1694,359.5257],[-84.7484,10.175,431.5976],[-84.7481,10.255,1658.4614],[-84.7516,10.2544,1613.1405],[-84.7576,10.2565,1768.8734]]]]}}