{"type": "Feature","bbox": [-84.1921,9.9208,-84.1597,9.9431],"geometry": {"type": "MultiPolygon","coordinates": [[[[-84.1602,9.9274,1164.7023],[-84.1597,9.9306,1115.8639],[-84.1619,9.9353,1068.5554],[-84.1639,9.9339,1032.5997],[-84.1737,9.9337,924.7293],[-84.1728,9.9374,929.6942],[-84.1744,9.9415,898.8862],[-84.1795,9.9431,876.1613],[-84.1921,9.9381,873.7896],[-84.1821,9.9212,964.7069],[-84.1698,9.922,1084.3521],[-84.1672,9.9208,1099.3063],[-84.165,9.9227,1121.2489],[-84.163,9.9222,1156.4534],[-84.1602,9.9274,1164.7023]]]]}
,"properties": {"GID_3": "CRI.7.16.5_1","GID_0": "CRI","country": "CostaRica","GID_1": "CRI.7_1","province": "SanJosé","NL_NAME_1": "NA","GID_2": "CRI.7.16_1","county": "SantaAna","NL_NAME_2": "NA","city": "SantaAna","VARNAME_3": "NA","NL_NAME_3": "NA","TYPE_3": "Distrito","ENGTYPE_3": "District","CC_3": "1","HASC_3": "NA","name": "Santa_Ana.city","area_km2": 5.304667,"hist_schema_id": "Elevation0-9000","hist_area_km2": {"875": 0.835361,"900": 1.211288,"925": 0.730962,"950": 0.543006,"975": 0.334157,"1000": 0.271502,"1025": 0.187961,"1050": 0.271502,"1075": 0.250615,"1100": 0.271502,"1125": 0.229733,"1150": 0.062654,"1175": 0.062655,"1200": 0.04177}}}