{"type":"Feature","properties":{"GID_3":"CRI.6.11.6_1","GID_0":"CRI","country":"CostaRica","GID_1":"CRI.6_1","province":"Puntarenas","NL_NAME_1":"NA","GID_2":"CRI.6.11_1","county":"Puntarenas","NL_NAME_2":"NA","city":"Chomes","VARNAME_3":"NA","NL_NAME_3":"NA","TYPE_3":"Distrito","ENGTYPE_3":"District","CC_3":"3","HASC_3":"NA","name":"Chomes.city"},
"geometry":{"type": "MultiPolygon","coordinates": [[[[-84.9462,10.0613,0.9041],[-84.9459,10.0614,0.9041],[-84.9463,10.0618,0.9041],[-84.9464,10.0617,0.9041],[-84.9462,10.0613,0.9041]]],
[[[-84.9744,10.0668,0.0],[-84.9754,10.0677,0.0],[-84.9763,10.0666,0.0],[-84.9755,10.0661,0.0],[-84.9744,10.0668,0.0]]],
[[[-84.9777,10.0697,0.0],[-84.9788,10.0697,0.0],[-84.979,10.0691,0.0],[-84.977,10.0695,0.0],[-84.9777,10.0697,0.0]]],
[[[-84.9534,10.124,80.2279],[-84.9599,10.1202,138.3259],[-84.9633,10.1132,89.9212],[-84.9596,10.1126,72.7822],[-84.9589,10.1097,71.1446],[-84.9621,10.1062,43.9622],[-84.9612,10.1034,37.6302],[-84.9526,10.098,16.9611],[-84.9541,10.0966,41.0216],[-84.9607,10.0966,104.8196],[-84.973,10.1002,180.3953],[-84.9833,10.1052,261.6906],[-84.9841,10.1034,126.7253],[-84.9854,10.0957,10.3742],[-84.9678,10.0896,2.2462],[-84.959,10.0781,5.4582],[-84.9584,10.07,1.4674],[-84.9569,10.0685,0.0],[-84.9589,10.0672,1.1645],[-84.966,10.0688,0.0],[-84.9684,10.0668,3.0848],[-84.9677,10.0643,1.7294],[-84.9575,10.063,0.0],[-84.9534,10.0588,3.6498],[-84.9448,10.0642,7.8982],[-84.9457,10.0607,0.9041],[-84.9427,10.0596,2.5],[-84.9423,10.058,9.3562],[-84.9449,10.0603,0.7247],[-84.9461,10.0592,0.7247],[-84.9429,10.0561,2.8352],[-84.941,10.0574,9.3562],[-84.9356,10.0511,9.137],[-84.9292,10.0399,0.0],[-84.9277,10.0403,4.1535],[-84.9279,10.0382,0.0],[-84.9257,10.0365,0.0],[-84.9236,10.0389,2.906],[-84.9201,10.0385,0.0],[-84.9205,10.0351,0.0],[-84.9107,10.0312,2.4183],[-84.9084,10.0274,1.7368],[-84.8986,10.0266,10.7495],[-84.8969,10.0231,9.6294],[-84.8904,10.0228,9.0929],[-84.8892,10.03,8.8765],[-84.8803,10.0291,5.9217],[-84.8695,10.0334,6.9687],[-84.8659,10.0389,10.8781],[-84.8653,10.0462,9.1343],[-84.8678,10.0595,10.8379],[-84.877,10.0711,20.7303],[-84.875,10.0871,45.2078],[-84.8772,10.0895,42.5043],[-84.8772,10.0946,63.6971],[-84.8745,10.0974,68.8486],[-84.8741,10.1042,64.3531],[-84.8706,10.1095,74.1066],[-84.8728,10.1216,91.9727],[-84.8723,10.1321,118.5445],[-84.8687,10.1377,140.3187],[-84.8692,10.1422,142.7367],[-84.8657,10.1444,145.8898],[-84.8647,10.149,181.9234],[-84.9073,10.1763,134.5387],[-84.9089,10.1744,129.3054],[-84.9118,10.1743,153.068],[-84.9127,10.1683,131.7878],[-84.9167,10.1628,119.1979],[-84.92,10.1633,115.7069],[-84.926,10.1593,111.27],[-84.9288,10.1594,103.8778],[-84.9326,10.1539,93.9673],[-84.9306,10.1519,84.3178],[-84.9317,10.1493,85.6477],[-84.9272,10.1471,71.9514],[-84.9298,10.1401,74.5617],[-84.927,10.138,73.8057],[-84.9248,10.1312,58.4267],[-84.9256,10.128,69.9457],[-84.9281,10.1286,51.0195],[-84.9291,10.1272,68.9398],[-84.924,10.1198,61.7236],[-84.9271,10.1149,42.4121],[-84.9243,10.1155,48.5281],[-84.9197,10.1091,37.7464],[-84.9203,10.1093,56.4432],[-84.9216,10.1115,48.8053],[-84.929,10.1148,47.6661],[-84.9396,10.1146,81.2108],[-84.949,10.119,82.1075],[-84.9534,10.124,80.2279]]]]}}