{"type":"Feature","properties":{"GID_3":"CRI.2.5.5_1","GID_0":"CRI","country":"CostaRica","GID_1":"CRI.2_1","province":"Cartago","NL_NAME_1":"NA","GID_2":"CRI.2.5_1","county":"LaUnión","NL_NAME_2":"NA","city":"SanJuan","VARNAME_3":"NA","NL_NAME_3":"NA","TYPE_3":"Distrito","ENGTYPE_3":"District","CC_3":"3","HASC_3":"NA","name":"San_Juan.city"},
"geometry":{"type": "MultiPolygon","coordinates": [[[[-84.0052,9.9254,1344.2422],[-84.0156,9.9102,1237.2393],[-84.0177,9.905,1237.4296],[-84.0157,9.8993,1242.4543],[-84.021,9.8962,1214.6694],[-84.0205,9.8945,1231.6362],[-84.0176,9.8976,1231.7698],[-84.0123,9.8982,1241.874],[-84.0099,9.9073,1263.5508],[-84.0032,9.904,1279.9781],[-83.9998,9.9073,1304.6748],[-83.9962,9.9076,1309.4186],[-83.9929,9.9113,1339.0182],[-83.9962,9.9115,1326.7665],[-83.9978,9.9139,1364.5471],[-83.9968,9.9217,1369.9875],[-84.0052,9.9254,1344.2422]]]]}}