{"type": "Feature","bbox": [-83.9742,9.4316,-83.7579,9.6894],"geometry": {"type": "MultiPolygon","coordinates": [[[[-83.7905,9.6116,3060.7461],[-83.794,9.6109,3012.1057],[-83.800299999999993,9.6141,2930.1121],[-83.8013,9.6119,2912.2444],[-83.8113,9.6153,2930.5266],[-83.8173,9.6149,2979.8682],[-83.826,9.6189,2965.3401],[-83.832,9.6174,2994.106],[-83.8352,9.6226,3005.4668],[-83.8506,9.6253,3143.2024],[-83.8491,9.6311,3013.283],[-83.8466,9.6334,2956.2288],[-83.846,9.649,2764.1147],[-83.85,9.6557,2700.1069],[-83.85,9.664,2668.7883],[-83.858,9.6725,2666.4526],[-83.8633,9.6709,2640.3032],[-83.8738,9.6722,2596.9617],[-83.8746,9.6702,2544.8259],[-83.882,9.6685,2541.5413],[-83.8828,9.6706,2554.2024],[-83.8884,9.6711,2541.2842],[-83.896,9.6798,2495.3909],[-83.8968,9.6855,2500.7207],[-83.9021,9.6894,2528.417],[-83.906,9.6858,2534.0454],[-83.91,9.6867,2509.2729],[-83.9209,9.6829,2524.7676],[-83.919,9.6746,2434.4121],[-83.9246,9.6686,2366.8835],[-83.9245,9.6648,2314.7749],[-83.9289,9.6595,2192.1704],[-83.9295,9.6545,2067.605],[-83.9334,9.6489,1870.5825],[-83.9354,9.641,1883.7335],[-83.9409,9.6343,1973.4138],[-83.9416,9.6284,2168.5256],[-83.9397,9.6257,2246.7842],[-83.9742,9.4584,166.1544],[-83.9724,9.4526,190.6271],[-83.9654,9.4501,176.4832],[-83.9674,9.4468,278.9385],[-83.965,9.4428,189.3731],[-83.9665,9.4386,191.4388],[-83.9625,9.4316,212.669],[-83.9525,9.4316,229.3371],[-83.947,9.4423,272.5237],[-83.9444,9.4433,316.8995],[-83.9454,9.4496,317.217],[-83.9418,9.4524,359.3676],[-83.9453,9.4556,313.7755],[-83.9437,9.4679,356.748],[-83.945,9.4699,490.2014],[-83.9445,9.4779,397.599],[-83.9396,9.4909,436.7286],[-83.936,9.491,524.9439],[-83.9336,9.4855,467.6616],[-83.925299999999993,9.4847,503.9048],[-83.9175,9.4902,644.5789],[-83.919,9.4945,602.9456],[-83.9179,9.4976,665.7249],[-83.9158,9.4983,633.7705],[-83.911,9.4952,713.2734],[-83.9059,9.4972,793.2565],[-83.9013,9.496,864.5424],[-83.8993,9.4981,839.1416],[-83.8942,9.4992,879.6028],[-83.8913,9.5049,971.3811],[-83.8896,9.5021,952.9652],[-83.8849,9.503,1006.3943],[-83.8837,9.5062,1020.1182],[-83.875,9.5135,1129.0476],[-83.8767,9.5201,1251.4612],[-83.8728,9.5193,1218.6682],[-83.8685,9.5231,1285.0596],[-83.8679,9.5269,1345.2632],[-83.8625,9.5251,1402.396],[-83.8573,9.5302,1449.4896],[-83.852,9.5314,1519.7627],[-83.8488,9.5347,1525.2634],[-83.8458,9.535,1621.3245],[-83.8431,9.5332,1651.1486],[-83.8397,9.5346,1645.0745],[-83.8353,9.5313,1731.6128],[-83.8251,9.531,1875.4969],[-83.8234,9.5353,1969.056],[-83.8211,9.5366,2041.632],[-83.8186,9.5359,2078.9668],[-83.8171,9.5437,2169.3503],[-83.8112,9.5467,2172.3313],[-83.8026,9.5575,2298.2468],[-83.8025,9.5617,2303.9575],[-83.7991,9.5676,2331.531],[-83.8012,9.5728,2388.1194],[-83.8,9.5775,2442.5737],[-83.7921,9.5849,2597.208],[-83.7912,9.588,2633.0288],[-83.7824,9.5928,2780.3726],[-83.7765,9.5982,2875.6428],[-83.7727,9.5983,2931.8469],[-83.7676,9.5938,3113.7188],[-83.7667,9.5872,3270.7578],[-83.7639,9.5836,3364.3472],[-83.7579,9.5919,3376.3169],[-83.7639,9.6026,3224.5901],[-83.775,9.6057,3087.866],[-83.7801,9.6049,3132.8054],[-83.7865,9.6065,3117.9766],[-83.7905,9.6116,3060.7461]]]]}
,"properties": {"GID_3": "CRI.7.6.1_1","GID_0": "CRI","country": "CostaRica","GID_1": "CRI.7_1","province": "SanJosé","NL_NAME_1": "NA","GID_2": "CRI.7.6_1","county": "Dota","NL_NAME_2": "NA","city": "Copey","VARNAME_3": "NA","NL_NAME_3": "NA","TYPE_3": "Distrito","ENGTYPE_3": "District","CC_3": "3","HASC_3": "NA","name": "Copey.city","area_km2": 279.9635,"hist_schema_id": "Elevation0-9000","hist_area_km2": {"175": 0.1882,"200": 0.6693,"225": 0.5856,"250": 0.5229,"275": 0.6484,"300": 0.7111,"325": 0.9621,"350": 0.9412,"375": 0.8575,"400": 0.9411,"425": 0.8575,"450": 0.8784,"475": 0.6692,"500": 0.7947,"525": 0.6483,"550": 0.8783,"575": 0.9202,"600": 0.9202,"625": 0.9829,"650": 0.8992,"675": 0.9201,"700": 1.1711,"725": 1.2965,"750": 1.0247,"775": 1.192,"800": 1.3593,"825": 1.0665,"850": 1.4429,"875": 1.2756,"900": 1.5266,"925": 1.0874,"950": 1.0456,"975": 1.422,"1000": 1.2965,"1025": 1.1292,"1050": 1.0874,"1075": 1.0246,"1100": 0.8155,"1125": 0.8364,"1150": 0.8364,"1175": 0.8992,"1200": 0.8573,"1225": 1.0664,"1250": 0.8991,"1275": 0.7946,"1300": 1.0246,"1325": 0.8155,"1350": 0.9828,"1375": 0.8991,"1400": 0.9828,"1425": 1.0037,"1450": 0.92,"1475": 1.15,"1500": 1.2755,"1525": 1.3591,"1550": 1.5264,"1575": 1.4218,"1600": 1.7982,"1625": 1.6309,"1650": 1.9445,"1675": 1.7563,"1700": 1.61,"1725": 1.7354,"1750": 1.5681,"1775": 2.1536,"1800": 2.0281,"1825": 2.7179,"1850": 2.9687,"1875": 3.2823,"1900": 3.3241,"1925": 3.2614,"1950": 3.4286,"1975": 3.5958,"2000": 3.9095,"2025": 3.9512,"2050": 4.6412,"2075": 4.3066,"2100": 4.2647,"2125": 3.9303,"2150": 4.4111,"2175": 4.662,"2200": 4.662,"2225": 4.2647,"2250": 5.0591,"2275": 5.1427,"2300": 4.5991,"2325": 5.2472,"2350": 4.4946,"2375": 4.8917,"2400": 5.5607,"2425": 5.0172,"2450": 5.2471,"2475": 5.1426,"2500": 5.3517,"2525": 4.4528,"2550": 4.0557,"2575": 4.2647,"2600": 4.1393,"2625": 4.7246,"2650": 4.0348,"2675": 4.2648,"2700": 4.0975,"2725": 3.5958,"2750": 3.6584,"2775": 4.0348,"2800": 3.3239,"2825": 3.2612,"2850": 3.4284,"2875": 3.4912,"2900": 3.3866,"2925": 3.4075,"2950": 3.4911,"2975": 3.5329,"3000": 3.1566,"3025": 2.3204,"3050": 2.195,"3075": 2.1323,"3100": 1.5469,"3125": 0.648,"3150": 0.3554,"3175": 0.1463,"3200": 0.2091,"3225": 0.1463,"3250": 0.1672,"3275": 0.1672,"3300": 0.0418,"3325": 0.0836,"3350": 0.1045,"3375": 0.0836,"3400": 0.0418}}}