{"type":"Feature","properties":{"GID_3":"CRI.7.10.4_1","GID_0":"CRI","country":"CostaRica","GID_1":"CRI.7_1","province":"SanJosé","NL_NAME_1":"NA","GID_2":"CRI.7.10_1","county":"MontesdeOca","NL_NAME_2":"NA","city":"SanRafael","VARNAME_3":"NA","NL_NAME_3":"NA","TYPE_3":"Distrito","ENGTYPE_3":"District","CC_3":"4","HASC_3":"NA","name":"San_Rafael.city"},
"geometry":{"type": "MultiPolygon","coordinates": [[[[-83.9565,9.9496,1811.6035],[-83.9582,9.956,1869.3647],[-83.9672,9.952,1767.8572],[-83.9726,9.9519,1669.9572],[-83.9799,9.9543,1577.3639],[-83.9846,9.9525,1539.333],[-83.9879,9.9536,1503.2595],[-83.9912,9.9513,1484.2668],[-83.9926,9.9577,1506.3383],[-84.01,9.947,1334.3866],[-84.0239,9.9459,1301.4757],[-84.0226,9.944,1311.6139],[-84.0296,9.9342,1265.8567],[-84.0286,9.9331,1253.158],[-84.0184,9.939,1306.4083],[-84.0125,9.9377,1338.4591],[-84.0078,9.9383,1349.5139],[-84.0084,9.9398,1356.6577],[-84.0053,9.9409,1386.3687],[-83.9693,9.9437,1693.2079],[-83.9635,9.9503,1785.9412],[-83.9565,9.9496,1811.6035]]]]}}