{"type":"Feature","properties":{"GID_3":"CRI.7.5.6_1","GID_0":"CRI","country":"CostaRica","GID_1":"CRI.7_1","province":"SanJosé","NL_NAME_1":"NA","GID_2":"CRI.7.5_1","county":"Desamparados","NL_NAME_2":"NA","city":"Patarrá","VARNAME_3":"NA","NL_NAME_3":"NA","TYPE_3":"Distrito","ENGTYPE_3":"District","CC_3":"7","HASC_3":"NA","name":"Patarrá.city"},
"geometry":{"type": "MultiPolygon","coordinates": [[[[-83.9986,9.8761,1592.9744],[-84.0203,9.8842,1371.0129],[-84.0314,9.8835,1211.5859],[-84.0351,9.8873,1173.4308],[-84.039,9.8822,1228.2906],[-84.0421,9.8815,1356.7793],[-84.0432,9.8787,1341.9503],[-84.0392,9.8737,1213.604],[-84.0425,9.8713,1261.0334],[-84.0389,9.8708,1227.2206],[-84.0388,9.8684,1251.3281],[-84.0443,9.8645,1261.438],[-84.0448,9.8624,1271.1257],[-84.0492,9.8618,1253.6208],[-84.0504,9.86,1245.3014],[-84.0409,9.8492,1380.4867],[-84.0271,9.846,1613.1233],[-84.0218,9.8406,1866.4165],[-84.0165,9.8443,1797.8176],[-84.0186,9.8479,1790.5769],[-84.0168,9.8542,1707.7906],[-84.0125,9.8589,1709.5764],[-83.9992,9.8681,1599.9539],[-83.9986,9.8761,1592.9744]]]]}}