{"type": "Feature","bbox": [-83.3042,8.8747,-83.0284,9.3269],"geometry": {"type": "MultiPolygon","coordinates": [[[[-83.1787,9.3269,3039.5366],[-83.1781,9.3231,2946.6814],[-83.1834,9.3132,2479.7739],[-83.1826,9.3055,2132.96],[-83.1858,9.2957,1705.4011],[-83.1848,9.2918,1651.2987],[-83.1868,9.2858,1476.8582],[-83.1896,9.2824,1359.1852],[-83.1926,9.2818,1315.1912],[-83.1946,9.2776,1265.4607],[-83.1978,9.2753,1202.5807],[-83.1971,9.2701,1253.6091],[-83.1994,9.2671,1186.3451],[-83.1983,9.2533,1031.6746],[-83.202,9.2459,941.8595],[-83.2011,9.2413,917.2388],[-83.2023,9.2383,892.9479],[-83.2007,9.2366,869.2188],[-83.1999,9.2305,868.7328],[-83.197,9.2287,842.6559],[-83.1938,9.221,782.8009],[-83.1987,9.214,765.3317],[-83.2073,9.2102,698.5439],[-83.2076,9.2078,721.5573],[-83.2146,9.1997,651.2821],[-83.214,9.1936,660.7278],[-83.2085,9.1841,593.2433],[-83.2102,9.1738,594.6612],[-83.2058,9.1698,609.9819],[-83.2074,9.1546,485.6695],[-83.2147,9.1449,443.8598],[-83.2139,9.1367,426.2867],[-83.2153,9.1346,409.3318],[-83.2119,9.1296,385.1158],[-83.2135,9.1205,369.7538],[-83.2088,9.1153,339.1605],[-83.2105,9.1129,372.0656],[-83.2065,9.1068,309.9818],[-83.2061,9.0961,311.3794],[-83.2008,9.0909,268.8744],[-83.2014,9.0863,262.8769],[-83.1994,9.0793,248.8288],[-83.2019,9.076,335.3865],[-83.2004,9.0721,265.1582],[-83.1972,9.0692,222.7824],[-83.1974,9.0667,222.6416],[-83.195,9.065,217.3056],[-83.1944,9.0619,265.1975],[-83.1872,9.0591,225.8648],[-83.1827,9.0505,190.4235],[-83.1827,9.0348,162.3106],[-83.1874,9.0215,131.0538],[-83.1872,9.0178,133.9485],[-83.1997,9.006,98.7842],[-83.2078,9.0083,103.1527],[-83.2107,9.006,96.3699],[-83.2168,9.0081,94.7173],[-83.2172,9.0131,112.4349],[-83.2143,9.0186,91.7678],[-83.2168,9.0225,95.3316],[-83.2348,9.0289,108.1553],[-83.241,9.0353,136.7791],[-83.2413,9.0371,106.9027],[-83.2333,9.0467,115.4182],[-83.2342,9.0514,116.3686],[-83.2389,9.0598,113.0261],[-83.2443,9.061,130.7562],[-83.2533,9.0579,139.1903],[-83.2635,9.0637,131.8257],[-83.2694,9.0631,125.4022],[-83.2708,9.072,155.8153],[-83.2816,9.0802,149.6161],[-83.276,9.0875,159.155],[-83.2714,9.0888,164.5992],[-83.2651,9.0878,155.5747],[-83.2647,9.0925,136.646],[-83.2672,9.0934,137.6216],[-83.2819,9.09,158.1461],[-83.2882,9.0835,154.5763],[-83.293,9.0821,176.934],[-83.293,9.0758,306.1257],[-83.2907,9.0699,353.6326],[-83.2964,9.0574,479.3749],[-83.296,9.0526,591.2423],[-83.2997,9.0453,631.6409],[-83.3006,9.0362,582.3792],[-83.3042,9.0244,687.9246],[-83.2963,9.0212,540.1335],[-83.2914,9.0216,480.6143],[-83.2825,9.0195,421.7259],[-83.2775,9.0149,356.9474],[-83.2746,9.0149,342.7614],[-83.2732,9.0114,311.1041],[-83.2675,9.0072,220.8086],[-83.2673,9.0044,165.6439],[-83.2585,8.9987,123.8],[-83.2564,8.9943,113.5247],[-83.2573,8.9913,136.6688],[-83.26,8.9899,94.4274],[-83.2604,8.9835,67.8643],[-83.2572,8.9829,99.8096],[-83.2528,8.9766,83.9637],[-83.2437,8.9763,85.1919],[-83.2383,8.9733,95.4959],[-83.2333,8.9735,118.5947],[-83.2292,8.9815,76.7961],[-83.2302,8.9863,84.5557],[-83.2276,8.985,90.2762],[-83.2273,8.9878,89.8578],[-83.2244,8.9877,86.7586],[-83.22,8.9965,92.1928],[-83.2173,8.9984,98.4437],[-83.2143,8.9954,121.6216],[-83.2088,8.9956,119.574],[-83.2106,8.9932,107.3468],[-83.2109,8.9854,115.4202],[-83.206,8.9859,111.3726],[-83.2029,8.984,119.7697],[-83.206,8.9817,123.5584],[-83.2062,8.9798,118.533],[-83.2003,8.9807,120.3043],[-83.1991,8.9799,180.9568],[-83.2007,8.9775,142.219],[-83.1995,8.9755,149.7576],[-83.1906,8.9743,142.3474],[-83.1877,8.965,170.2866],[-83.184,8.9596,166.7193],[-83.18,8.9607,163.1044],[-83.1765,8.9594,172.671],[-83.1724,8.9536,176.3788],[-83.1689,8.9533,173.4265],[-83.1668,8.9506,174.5866],[-83.1638,8.9555,230.948],[-83.1563,8.9538,200.7018],[-83.1553,8.9562,246.6854],[-83.1519,8.9579,233.2223],[-83.1495,8.952,241.0878],[-83.1455,8.9497,222.0953],[-83.1373,8.9534,299.8388],[-83.1357,8.9436,322.9311],[-83.1415,8.9389,275.456],[-83.1423,8.9334,317.985],[-83.1391,8.9315,300.3099],[-83.1374,8.9266,341.7783],[-83.1338,8.9281,360.2185],[-83.1296,8.9245,498.6762],[-83.1309,8.9213,398.2181],[-83.1284,8.9107,409.6979],[-83.1306,8.9075,453.8829],[-83.1283,8.9029,443.8853],[-83.1292,8.8987,455.7709],[-83.1257,8.8934,481.4579],[-83.1189,8.8911,525.0548],[-83.121,8.8901,454.5309],[-83.1203,8.8869,478.6726],[-83.1181,8.8842,455.2582],[-83.114,8.8825,469.7401],[-83.1127,8.8791,466.4622],[-83.1109,8.8802,533.511],[-83.1095,8.8757,472.2292],[-83.1027,8.8772,509.4506],[-83.0996,8.8763,495.291],[-83.0997,8.875,488.1953],[-83.094,8.8747,582.6859],[-83.0934,8.8773,624.5576],[-83.0898,8.8768,646.8628],[-83.0853,8.8806,718.1599],[-83.0783,8.8792,741.658],[-83.0744,8.8804,812.4578],[-83.0736,8.8847,864.8842],[-83.0792,8.8844,812.8602],[-83.0776,8.8948,782.0974],[-83.0818,8.8994,739.4384],[-83.085,8.8999,757.1453],[-83.084,8.9062,672.6237],[-83.0816,8.9097,555.7047],[-83.0675,8.913,409.7537],[-83.0645,8.9187,397.8919],[-83.0583,8.9213,372.7571],[-83.059,8.9252,364.2299],[-83.0564,8.927,350.4893],[-83.0609,8.9307,352.8043],[-83.0568,8.9358,359.7461],[-83.0601,8.9358,331.1971],[-83.062,8.9384,329.9698],[-83.0615,8.9451,338.3943],[-83.0665,8.9443,319.0029],[-83.0694,8.9478,322.2256],[-83.0771,8.9522,304.997],[-83.0854,8.9538,298.7798],[-83.0866,8.9555,295.457],[-83.0907,8.9536,320.686],[-83.0924,8.9571,292.3862],[-83.0965,8.9571,280.0217],[-83.1001,8.9618,274.8742],[-83.1054,8.9633,262.8644],[-83.1107,8.9597,257.0263],[-83.1145,8.9596,257.164],[-83.1181,8.9662,233.0644],[-83.122,8.9662,245.657],[-83.1264,8.9688,223.297],[-83.1268,8.9726,222.4032],[-83.1317,8.9786,204.5778],[-83.1361,8.978,194.1399],[-83.1402,8.9854,193.4147],[-83.1434,8.9868,192.2767],[-83.1454,8.9915,175.2947],[-83.1407,8.9907,186.0807],[-83.1369,8.9873,210.416],[-83.13,8.9857,230.7978],[-83.1256,8.9828,246.8173],[-83.1231,8.9838,287.0479],[-83.1207,8.9824,261.8953],[-83.1157,8.986,299.252],[-83.1142,8.9894,315.5438],[-83.108,8.9928,332.6457],[-83.108,8.9987,354.8101],[-83.103,9.0039,402.3398],[-83.1,9.0129,443.9981],[-83.0942,9.0205,513.6572],[-83.0943,9.0258,530.1619],[-83.0895,9.0353,584.6926],[-83.0854,9.0353,636.115],[-83.0811,9.0382,654.5376],[-83.0826,9.0414,673.5973],[-83.0808,9.0448,670.001],[-83.0833,9.0517,710.2228],[-83.0749,9.0615,809.7231],[-83.0708,9.0633,840.2729],[-83.0607,9.0729,936.3705],[-83.0508,9.0902,1099.0134],[-83.0506,9.0917,1121.3384],[-83.0544,9.0929,1193.1354],[-83.0557,9.0954,1218.8516],[-83.0494,9.1027,1370.6317],[-83.0465,9.1117,1414.0515],[-83.0466,9.1262,1559.9498],[-83.0419,9.1308,1669.8619],[-83.0361,9.1444,1956.5161],[-83.0309,9.1478,2262.082],[-83.0284,9.1526,2398.9321],[-83.0287,9.1552,2429.2466],[-83.0368,9.1609,2587.272],[-83.0459,9.1603,2656.4497],[-83.057,9.1685,2695.0059],[-83.0652,9.1773,2706.1951],[-83.0674,9.1835,2726.9438],[-83.067,9.1894,2820.8835],[-83.0578,9.194,2958.8386],[-83.0568,9.2,2951.6846],[-83.0629,9.2043,2947.7688],[-83.0669,9.2106,2993.4902],[-83.0702,9.212,2956.0496],[-83.0768,9.22,3011.4695],[-83.0758,9.224,2913.3003],[-83.0791,9.2285,2820.4551],[-83.0797,9.2338,2862.4094],[-83.0733,9.2368,2917.6943],[-83.0717,9.2427,3041.1147],[-83.0733,9.2499,2933.4497],[-83.0843,9.2556,2850.25],[-83.0917,9.2538,2775.6321],[-83.0983,9.2563,2715.5496],[-83.1024,9.2592,2658.7715],[-83.1029,9.263,2669.8181],[-83.1102,9.2654,2474.1086],[-83.1132,9.2717,2542.2441],[-83.1166,9.2749,2632.9465],[-83.1342,9.2762,2870.1426],[-83.1344,9.282,2868.5815],[-83.1452,9.2896,2709.8936],[-83.1449,9.2926,2753.5835],[-83.1515,9.2949,2710.0452],[-83.1533,9.2981,2749.2266],[-83.1574,9.3,2813.0581],[-83.1572,9.3031,2825.666],[-83.1644,9.3077,2794.3628],[-83.1685,9.3193,2973.5278],[-83.1787,9.3269,3039.5366]]]]}
,"properties": {"GID_3": "CRI.6.2.8_1","GID_0": "CRI","country": "CostaRica","GID_1": "CRI.6_1","province": "Puntarenas","NL_NAME_1": "NA","GID_2": "CRI.6.2_1","county": "BuenosAires","NL_NAME_2": "NA","city": "PotreroGrande","VARNAME_3": "NA","NL_NAME_3": "NA","TYPE_3": "Distrito","ENGTYPE_3": "District","CC_3": "3","HASC_3": "NA","name": "Potrero_Grande.city","area_km2": 628.7664,"hist_schema_id": "Elevation0-9000","hist_area_km2": {"75": 1.7591,"100": 6.4079,"125": 10.7844,"150": 12.8156,"175": 12.0828,"200": 13.0461,"225": 13.6532,"250": 12.3339,"275": 12.7737,"300": 14.0721,"325": 14.7423,"350": 12.1666,"375": 10.8054,"400": 9.7162,"425": 9.9255,"450": 11.0982,"475": 10.6585,"500": 10.5119,"525": 11.0767,"550": 11.851,"575": 12.6046,"600": 11.5576,"625": 11.1386,"650": 9.5685,"675": 8.4379,"700": 8.5008,"725": 10.239,"750": 10.3016,"775": 9.0242,"800": 8.1448,"825": 7.014,"850": 6.5533,"875": 5.757,"900": 5.108,"925": 5.2127,"950": 4.4378,"975": 4.8145,"1000": 5.254,"1025": 4.5841,"1050": 4.5422,"1075": 4.7934,"1100": 4.3538,"1125": 4.6049,"1150": 4.4584,"1175": 4.0816,"1200": 4.3119,"1225": 4.6259,"1250": 3.4955,"1275": 3.7259,"1300": 3.8932,"1325": 3.8723,"1350": 3.7467,"1375": 4.1025,"1400": 3.956,"1425": 3.8722,"1450": 3.7675,"1475": 3.956,"1500": 4.0397,"1525": 4.6676,"1550": 4.27,"1575": 3.8513,"1600": 4.2489,"1625": 4.4374,"1650": 4.8979,"1675": 4.9816,"1700": 4.9397,"1725": 4.4582,"1750": 4.3117,"1775": 3.7674,"1800": 4.1023,"1825": 4.3953,"1850": 3.872,"1875": 4.7092,"1900": 3.8092,"1925": 3.6836,"1950": 4.1441,"1975": 3.5162,"2000": 3.4115,"2025": 3.5579,"2050": 3.3278,"2075": 3.2649,"2100": 3.0139,"2125": 3.4114,"2150": 2.7208,"2175": 3.244,"2200": 2.9719,"2225": 2.9928,"2250": 3.0137,"2275": 2.9091,"2300": 2.5741,"2325": 2.7415,"2350": 2.8462,"2375": 3.2857,"2400": 2.8671,"2425": 2.4067,"2450": 3.0555,"2475": 2.8253,"2500": 2.6787,"2525": 3.0345,"2550": 2.5113,"2575": 2.4695,"2600": 2.7206,"2625": 2.4694,"2650": 2.3648,"2675": 2.1974,"2700": 2.009,"2725": 1.9672,"2750": 1.8625,"2775": 1.5486,"2800": 1.5485,"2825": 1.444,"2850": 1.0882,"2875": 1.1301,"2900": 1.6533,"2925": 1.2138,"2950": 0.9627,"2975": 0.5441,"3000": 0.3558,"3025": 0.4604,"3050": 0.1884,"3075": 0.0837,"3100": 0.0209}}}