{"type": "Feature","bbox": [-84.2535,9.3395,-84.0132,9.572],"geometry": {"type": "MultiPolygon","coordinates": [[[[-84.1213,9.3459,0.0],[-84.1212,9.3456,0.0],[-84.121,9.3457,0.0],[-84.1211,9.346,0.0],[-84.1213,9.3459,0.0]]],
[[[-84.1217,9.3476,0.0],[-84.1216,9.3473,0.0],[-84.1214,9.3472,0.0],[-84.1214,9.3479,0.0],[-84.1217,9.3476,0.0]]],
[[[-84.1224,9.35,0.0],[-84.1219,9.3497,0.0],[-84.1229,9.3511,0.0],[-84.123,9.3507,0.0],[-84.1224,9.35,0.0]]],
[[[-84.1221,9.3523,1.9216],[-84.1213,9.3533,1.3021],[-84.1223,9.354,0.0],[-84.1226,9.353,1.9216],[-84.1221,9.3523,1.9216]]],
[[[-84.1521,9.3703,-0.119],[-84.1512,9.3701,-0.119],[-84.151,9.371,0.0],[-84.1511,9.371,0.0],[-84.1521,9.3703,-0.119]]],
[[[-84.1494,9.3711,0.0147],[-84.1489,9.3705,0.0147],[-84.1483,9.3707,0.0],[-84.1492,9.3719,0.0147],[-84.1494,9.3711,0.0147]]],
[[[-84.1556,9.3729,-0.1379],[-84.155,9.3735,-0.1379],[-84.1553,9.375,3.8553],[-84.1567,9.3713,0.0],[-84.1556,9.3729,-0.1379]]],
[[[-84.1669,9.3806,0.025],[-84.166,9.3801,0.0],[-84.168,9.383,0.0489],[-84.168,9.3823,0.0489],[-84.1669,9.3806,0.025]]],
[[[-84.1558,9.3829,0.0],[-84.1554,9.383,0.0],[-84.1552,9.3845,0.0],[-84.1553,9.3844,0.0],[-84.1558,9.3829,0.0]]],
[[[-84.1549,9.3864,0.0],[-84.1548,9.3862,0.0],[-84.1545,9.3861,0.0],[-84.1546,9.3865,0.0],[-84.1549,9.3864,0.0]]],
[[[-84.1824,9.3922,0.0],[-84.1818,9.3916,0.0],[-84.1811,9.3922,0.0],[-84.1817,9.3927,0.0],[-84.1824,9.3922,0.0]]],
[[[-84.1163,9.3647,0.0],[-84.1152,9.3654,0.0],[-84.1156,9.3678,0.0],[-84.1162,9.3676,0.0],[-84.1163,9.3647,0.0]]],
[[[-84.1439,9.3758,0.0],[-84.1435,9.3755,0.0],[-84.1431,9.3754,0.0],[-84.1435,9.3761,0.0],[-84.1439,9.3758,0.0]]],
[[[-84.1867,9.4531,3.7861],[-84.1866,9.4465,2.5072],[-84.1797,9.4437,4.5284],[-84.1778,9.4406,3.3079],[-84.1701,9.436,5.6422],[-84.1656,9.4299,0.0],[-84.167,9.4252,9.5954],[-84.1702,9.4248,1.8866],[-84.1693,9.4219,0.0],[-84.1663,9.4212,31.2124],[-84.1686,9.4194,37.2683],[-84.1646,9.4159,23.4582],[-84.1659,9.4146,0.0],[-84.1638,9.4128,0.0],[-84.1666,9.412,26.0813],[-84.1655,9.4088,10.8326],[-84.1636,9.4079,0.0],[-84.1635,9.405,0.0],[-84.1672,9.4008,0.0],[-84.1688,9.4026,0.0],[-84.1724,9.4028,0.0],[-84.176,9.3999,13.099],[-84.177,9.3955,22.5904],[-84.1759,9.3944,4.3795],[-84.1754,9.3957,22.5904],[-84.1729,9.3947,2.2993],[-84.1643,9.3971,42.0787],[-84.1542,9.3941,13.297],[-84.1488,9.3903,0.0],[-84.148,9.3866,0.0],[-84.1466,9.3864,0.0],[-84.1459,9.3816,1.225],[-84.1494,9.3808,0.1991],[-84.1475,9.3767,1.0306],[-84.1443,9.3771,4.3647],[-84.1458,9.3796,0.0],[-84.1436,9.3819,13.8643],[-84.1396,9.3802,14.6381],[-84.1386,9.377,0.0],[-84.1371,9.3786,24.6204],[-84.1351,9.3774,13.4069],[-84.1344,9.38,9.027],[-84.1364,9.3812,9.758],[-84.1344,9.3827,0.0],[-84.1353,9.3848,0.0],[-84.13,9.3868,38.3752],[-84.1233,9.3699,0.7029],[-84.1229,9.3742,25.0617],[-84.1177,9.3743,18.2126],[-84.1168,9.3788,4.6698],[-84.1147,9.3779,10.2983],[-84.1156,9.3759,0.0],[-84.0957,9.3737,0.0],[-84.0435,9.3503,0.0],[-84.0134,9.3395,1.9038],[-84.0132,9.3426,11.5934],[-84.0295,9.3462,0.5],[-84.0323,9.3487,0.8323],[-84.0317,9.3514,2.1354],[-84.0335,9.356,2.1957],[-84.0284,9.3556,2.3258],[-84.0264,9.3594,3.0355],[-84.0337,9.3624,7.6894],[-84.0335,9.3659,7.397],[-84.0304,9.3636,6.182],[-84.0248,9.3636,2.5593],[-84.0236,9.3623,2.5593],[-84.0223,9.364,9.7293],[-84.0257,9.3675,7.8342],[-84.0252,9.3734,9.0164],[-84.0335,9.3761,14.1953],[-84.0369,9.3822,12.8653],[-84.0367,9.3858,10.6942],[-84.0335,9.3872,15.2627],[-84.0329,9.3902,11.9328],[-84.0382,9.3994,14.6453],[-84.0409,9.4011,15.8154],[-84.0413,9.4054,24.3834],[-84.0563,9.4054,17.4972],[-84.0614,9.4081,14.8413],[-84.0605,9.4108,17.1632],[-84.0658,9.4147,19.7987],[-84.0702,9.4231,24.6831],[-84.0869,9.4359,32.0481],[-84.0948,9.4453,30.1326],[-84.0953,9.4489,35.1127],[-84.1125,9.4624,50.7748],[-84.1114,9.4678,60.4503],[-84.1152,9.4694,60.9843],[-84.1264,9.4681,51.1984],[-84.1331,9.4643,51.494],[-84.1453,9.465,46.6497],[-84.1488,9.4687,15.9011],[-84.1531,9.483,20.305],[-84.1567,9.4864,18.998],[-84.1522,9.4847,18.0216],[-84.1495,9.4865,16.6087],[-84.1461,9.4855,19.9394],[-84.1439,9.4905,16.9866],[-84.1462,9.4914,14.8618],[-84.1451,9.4938,18.8586],[-84.1433,9.4941,18.1094],[-84.1424,9.4915,16.9866],[-84.1413,9.4933,15.647],[-84.1363,9.4947,19.9946],[-84.1331,9.492,23.1643],[-84.1324,9.4955,19.903],[-84.1269,9.4971,25.6754],[-84.1228,9.4952,38.5435],[-84.1213,9.4982,22.625],[-84.1179,9.4969,33.7053],[-84.1126,9.4997,31.3136],[-84.1121,9.5055,61.1256],[-84.1094,9.5072,118.1763],[-84.1136,9.5154,216.2983],[-84.1174,9.5168,279.8175],[-84.1189,9.5198,421.948],[-84.1169,9.5272,531.7037],[-84.1176,9.5317,558.0101],[-84.1069,9.5445,609.6528],[-84.0977,9.5497,851.9936],[-84.0972,9.555,843.235],[-84.095,9.558,856.1732],[-84.0866,9.5566,807.7401],[-84.0848,9.5591,855.8155],[-84.0761,9.5581,975.4578],[-84.0719,9.571,1213.3929],[-84.075,9.5666,1004.8929],[-84.0828,9.5636,722.8255],[-84.0921,9.568,494.7343],[-84.0992,9.569,447.4162],[-84.1064,9.5635,400.9312],[-84.1091,9.5638,383.8582],[-84.11,9.5616,356.5192],[-84.1188,9.56,341.1114],[-84.1204,9.555,265.0345],[-84.1241,9.5579,318.9205],[-84.1264,9.5663,379.2853],[-84.1296,9.5704,395.1192],[-84.1355,9.572,437.8344],[-84.1411,9.5707,643.3968],[-84.149,9.5634,665.2872],[-84.1586,9.5607,554.5047],[-84.1664,9.5551,464.8959],[-84.1702,9.5541,390.9386],[-84.1739,9.547,235.3537],[-84.1803,9.5456,208.7389],[-84.185,9.5475,170.0957],[-84.1873,9.5465,180.8143],[-84.1876,9.5445,130.0541],[-84.1823,9.5365,88.5166],[-84.1835,9.5314,62.0607],[-84.1864,9.5266,69.8615],[-84.191,9.5274,42.5076],[-84.1961,9.5244,33.0237],[-84.197,9.5218,48.7799],[-84.1993,9.5218,32.7791],[-84.2002,9.5169,18.54],[-84.2026,9.5145,16.5392],[-84.214,9.5104,18.6203],[-84.2162,9.5133,21.3239],[-84.2179,9.5116,17.2067],[-84.2212,9.5141,20.0454],[-84.2322,9.5161,14.7157],[-84.2432,9.5113,5.173],[-84.2466,9.5055,18.0648],[-84.249,9.5063,21.8071],[-84.249,9.5035,11.5406],[-84.2535,9.4986,3.8381],[-84.2533,9.4961,8.871],[-84.243,9.4896,9.6807],[-84.2372,9.4763,0.0],[-84.2278,9.4653,0.0],[-84.2204,9.4605,1.494],[-84.2047,9.4614,1.1043],[-84.1867,9.4531,3.7861]]]]}
,"properties": {"GID_3": "CRI.6.12.2_1","GID_0": "CRI","country": "CostaRica","GID_1": "CRI.6_1","province": "Puntarenas","NL_NAME_1": "NA","GID_2": "CRI.6.12_1","county": "Quepos","NL_NAME_2": "NA","city": "Quepos","VARNAME_3": "NA","NL_NAME_3": "NA","TYPE_3": "Distrito","ENGTYPE_3": "District","CC_3": "1","HASC_3": "NA","name": "Quepos.city","area_km2": 237.2263,"hist_schema_id": "Elevation0-9000","hist_area_km2": {"0": 63.4799,"25": 93.8645,"50": 19.5341,"75": 7.8846,"100": 6.7341,"125": 5.6672,"150": 4.6632999999999996,"175": 3.1784,"200": 2.4464,"225": 2.4046,"250": 1.8609,"275": 1.3173,"300": 1.4218,"325": 1.4009,"350": 1.38,"375": 1.4009,"400": 1.4636,"425": 1.5263,"450": 1.4636,"475": 1.3381,"500": 1.4009,"525": 1.4636,"550": 1.2127,"575": 1.2336,"600": 1.0245,"625": 0.7527,"650": 0.7318,"675": 0.4809,"700": 0.4809,"725": 0.7109,"750": 0.6272,"775": 0.5227,"800": 0.5645,"825": 0.46,"850": 0.3136,"875": 0.3554,"900": 0.1673,"950": 0.0418,"975": 0.0209,"1000": 0.1045,"1025": 0.0418,"1050": 0.0418,"1075": 0.0209,"1100": 0.0209}}}