{"type": "Feature","bbox": [-85.3962,10.004,-85.3233,10.0677],"geometry": {"type": "MultiPolygon","coordinates": [[[[-85.3842,10.0174,813.7622],[-85.3788,10.0105,758.8924],[-85.3786,10.0061,746.9968],[-85.3763,10.004,721.7222],[-85.3715,10.0048,649.1333],[-85.3694,10.0084,608.4268],[-85.3649,10.0103,561.4299],[-85.355,10.0091,425.6197],[-85.351,10.0056,356.1673],[-85.3498,10.0066,342.1782],[-85.3423,10.0056,332.0708],[-85.3355,10.0092,311.1292],[-85.3331,10.0052,281.8507],[-85.3304,10.005,275.1437],[-85.327,10.0064,268.2111],[-85.3279,10.0087,268.4193],[-85.3262,10.0095,259.8418],[-85.3261,10.0142,260.364],[-85.3239,10.0174,260.4522],[-85.3262,10.0201,266.6828],[-85.3243,10.022,255.4266],[-85.3264,10.024,255.0693],[-85.3235,10.0249,222.5463],[-85.3257,10.0268,221.3577],[-85.3295,10.0267,261.6589],[-85.3296,10.0287,245.5039],[-85.3275,10.029,198.6756],[-85.3277,10.0311,235.2444],[-85.3251,10.0312,189.3998],[-85.3233,10.0366,176.7169],[-85.3302,10.0358,263.0989],[-85.3356,10.0399,347.8853],[-85.3397,10.0389,388.3942],[-85.3397,10.0434,471.5967],[-85.3687,10.0466,207.2543],[-85.3806,10.0617,191.112],[-85.3894,10.0677,145.9635],[-85.3886,10.0661,155.4907],[-85.3962,10.0564,265.6531],[-85.3948,10.055,300.4658],[-85.3944,10.0427,438.5258],[-85.3919,10.0382,607.8497],[-85.3916,10.0334,629.4391],[-85.3868,10.03,751.7214],[-85.3827,10.0219,697.2408],[-85.3842,10.0174,813.7622]]]]}
,"properties": {"GID_3": "CRI.3.5.2_1","GID_0": "CRI","country": "CostaRica","GID_1": "CRI.3_1","province": "Guanacaste","NL_NAME_1": "NA","GID_2": "CRI.3.5_1","county": "Hojancha","NL_NAME_2": "NA","city": "Huacas","VARNAME_3": "NA","NL_NAME_3": "NA","TYPE_3": "Distrito","ENGTYPE_3": "District","CC_3": "4","HASC_3": "NA","name": "Huacas.city","area_km2": 31.31723,"hist_schema_id": "Elevation0-9000","hist_area_km2": {"150": 0.04175,"175": 0.14614,"200": 0.3549,"225": 0.48018,"250": 0.89774,"275": 2.48451,"300": 2.81857,"325": 1.9625,"350": 1.62847,"375": 1.89986,"400": 1.56584,"425": 1.92077,"450": 1.48233,"475": 1.52409,"500": 1.50322,"525": 1.77466,"550": 2.75598,"575": 1.73293,"600": 1.00217,"625": 0.64724,"650": 0.62636,"675": 0.5846,"700": 0.3967,"725": 0.31319,"750": 0.33406,"775": 0.27143,"800": 0.14615,"825": 0.02088}}}