{"type": "Feature","bbox": [-84.223,9.9337,-84.1619,9.9731],"geometry": {"type": "MultiPolygon","coordinates": [[[[-84.223,9.9462,744.7389],[-84.2149,9.9428,809.546],[-84.21,9.9447,826.8669],[-84.2097,9.9473,832.9728],[-84.2051,9.9457,830.7679],[-84.2012,9.9475,830.006],[-84.195,9.9441,852.5658],[-84.1921,9.9381,873.7896],[-84.1795,9.9431,876.1613],[-84.1743,9.9413,898.8862],[-84.1728,9.9374,929.6942],[-84.1737,9.9337,924.7293],[-84.1639,9.9339,1032.5997],[-84.1619,9.9353,1068.5554],[-84.1638,9.9371,1084.667],[-84.1668,9.9487,1061.5801],[-84.1736,9.9523,1050.8762],[-84.1783,9.9607,982.2194],[-84.184,9.9655,939.1644],[-84.1858,9.9717,885.7022],[-84.1846,9.973,860.4781],[-84.1906,9.9731,873.1307],[-84.198,9.9657,833.8779],[-84.2015,9.965,817.2317],[-84.2031,9.9618,827.27],[-84.2064,9.9608,804.1832],[-84.2128,9.963,802.5475],[-84.2176,9.9587,817.63],[-84.2202,9.9482,800.9039],[-84.223,9.9462,744.7389]]]]}
,"properties": {"GID_3": "CRI.7.16.3_1","GID_0": "CRI","country": "CostaRica","GID_1": "CRI.7_1","province": "SanJosé","NL_NAME_1": "NA","GID_2": "CRI.7.16_1","county": "SantaAna","NL_NAME_2": "NA","city": "Pozos","VARNAME_3": "NA","NL_NAME_3": "NA","TYPE_3": "Distrito","ENGTYPE_3": "District","CC_3": "3","HASC_3": "NA","name": "Pozos.city","area_km2": 13.34433,"hist_schema_id": "Elevation0-9000","hist_area_km2": {"750": 0.02088,"775": 0.1253,"800": 0.29236,"825": 1.62889,"850": 5.22077,"875": 1.85858,"900": 0.7309,"925": 0.8771,"950": 0.48032,"975": 0.54297,"1000": 0.62651,"1025": 0.43855,"1050": 0.41767,"1075": 0.08353}}}