{"type":"Feature","properties":{"GID_3":"CRI.3.6.1_1","GID_0":"CRI","country":"CostaRica","GID_1":"CRI.3_1","province":"Guanacaste","NL_NAME_1":"NA","GID_2":"CRI.3.6_1","county":"LaCruz","NL_NAME_2":"NA","city":"LaCruz","VARNAME_3":"NA","NL_NAME_3":"NA","TYPE_3":"Distrito","ENGTYPE_3":"District","CC_3":"1","HASC_3":"NA","name":"La_Cruz.city"},
"geometry":{"type": "MultiPolygon","coordinates": [[[[-85.7472,11.0007,0.0],[-85.7452,11.0016,3.7841],[-85.7454,11.0033,17.6284],[-85.7474,11.0036,0.0],[-85.7472,11.0007,0.0]]],
[[[-85.7485,11.0031,0.0],[-85.7478,11.0033,0.0],[-85.7478,11.0036,0.0],[-85.7484,11.0037,0.0],[-85.7485,11.0031,0.0]]],
[[[-85.7402,11.0454,0.0],[-85.7398,11.0456,0.0],[-85.74,11.0462,0.0],[-85.7403,11.0459,0.0],[-85.7402,11.0454,0.0]]],
[[[-85.7142,10.9783,0.0],[-85.7138,10.982,0.0],[-85.7183,10.9833,10.2999],[-85.7157,10.9809,49.5088],[-85.7142,10.9783,0.0]]],
[[[-85.7079,11.0463,0.0],[-85.7068,11.0462,0.0],[-85.7069,11.0485,0.0],[-85.711,11.0503,7.6299],[-85.7106,11.047,0.0],[-85.7079,11.0463,0.0]]],
[[[-85.5463,10.9787,304.765],[-85.5443,10.9985,575.5792],[-85.5457,11.0024,540.2981],[-85.5365,11.0166,299.2704],[-85.54,11.0228,283.7191],[-85.5548,11.0345,258.2147],[-85.5585,11.0397,250.115],[-85.5639,11.04,229.5762],[-85.5684,11.0345,225.1793],[-85.575,11.0339,211.3772],[-85.5778,11.0372,208.7254],[-85.5791,11.0435,206.7509],[-85.5821,11.0469,202.3472],[-85.5859,11.0481,201.2158],[-85.5866,11.0519,191.7031],[-85.5842,11.0574,195.4568],[-85.5877,11.0618,175.0684],[-85.5853,11.0684,185.0338],[-85.5804,11.0733,194.7203],[-85.5806,11.0767,170.7971],[-85.5782,11.0806,184.4771],[-85.58,11.0838,160.8454],[-85.5781,11.0883,150.984],[-85.587,11.1014,125.5183],[-85.5932,11.1035,126.4934],[-85.5916,11.1054,114.4773],[-85.5945,11.1093,120.1906],[-85.5944,11.1116,123.3156],[-85.5918,11.1102,116.0938],[-85.5876,11.1146,110.0823],[-85.5916,11.1173,107.782],[-85.5953,11.123,103.9037],[-85.5981,11.1237,107.8226],[-85.5996,11.1313,98.1223],[-85.6024,11.1309,99.2493],[-85.6028,11.1328,100.8452],[-85.6021,11.1371,113.6338],[-85.5959,11.1447,87.551],[-85.5899,11.1401,112.7629],[-85.5873,11.135,159.5517],[-85.5847,11.1368,140.1678],[-85.583,11.1341,132.176],[-85.5717,11.1332,172.4824],[-85.5601,11.1285,289.8162],[-85.556,11.1289,306.5509],[-85.5565,11.1327,305.6548],[-85.5534,11.1355,258.1552],[-85.5526,11.1393,221.302],[-85.5529,11.147,182.585],[-85.5457,11.1517,141.1955],[-85.5455,11.1549,127.1978],[-85.5396,11.1651,101.0968],[-85.5315,11.1691,89.1152],[-85.5285,11.1724,83.121],[-85.5263,11.172,90.274],[-85.5604,11.21,243.9097],[-85.6098,11.2198,38.8993],[-85.693,11.0789,5.97],[-85.685,11.0745,6.1102],[-85.6826,11.0685,0.0],[-85.6767,11.0681,3.6424],[-85.6728,11.0656,8.0692],[-85.6704,11.0615,2.5869],[-85.6678,11.0462,0.0],[-85.6704,11.0384,7.751],[-85.6758,11.0325,0.0],[-85.6804,11.0318,6.2201],[-85.6882,11.027,3.1456],[-85.7075,11.0302,5.2032],[-85.7129,11.0266,7.5759],[-85.7175,11.0315,2.9007],[-85.7174,11.0358,13.8203],[-85.723,11.0461,0.0],[-85.7275,11.0492,0.0],[-85.732,11.0462,20.1387],[-85.7343,11.0479,8.7369],[-85.7362,11.0447,11.5383],[-85.7409,11.0434,21.212],[-85.7389,11.0381,11.7643],[-85.7349,11.0372,0.0],[-85.7361,11.0319,37.9071],[-85.7456,11.0338,0.0],[-85.7463,11.0286,2.6756],[-85.7485,11.0269,19.0351],[-85.7509,11.0279,0.2717],[-85.7546,11.0219,0.0],[-85.7528,11.0184,0.0],[-85.7459,11.0134,0.0],[-85.7421,11.0126,21.0701],[-85.737,11.0081,0.0],[-85.7314,11.0062,5.8426],[-85.7253,11.0063,3.9062],[-85.7184,11.0,0.0],[-85.7103,10.9964,0.0],[-85.7096,10.9894,13.589],[-85.7026,10.9854,0.0],[-85.7006,10.9859,17.090699999999998],[-85.6926,10.9791,9.9835],[-85.6875,10.9772,14.0269],[-85.6867,10.9784,14.0269],[-85.6851,10.9769,18.3841],[-85.6824,10.9776,22.0791],[-85.6791,10.9749,26.0412],[-85.6756,10.976,29.5602],[-85.6702,10.9738,56.6713],[-85.664,10.9736,219.994],[-85.662,10.9794,64.2615],[-85.659,10.9784,59.753],[-85.656,10.9756,70.0424],[-85.65,10.9739,91.1252],[-85.6481,10.9707,89.027],[-85.6447,10.9703,94.228],[-85.6391,10.9655,107.0388],[-85.6369,10.9601,171.4728],[-85.6298,10.9575,295.5283],[-85.6261,10.9534,292.6457],[-85.6121,10.9526,270.2419],[-85.6078,10.9478,266.0845],[-85.5989,10.9488,249.6302],[-85.5953,10.9564,258.738],[-85.5841,10.9652,285.5237],[-85.5742,10.9625,294.5162],[-85.5629,10.9678,298.9699],[-85.5512,10.9638,303.2844],[-85.5464,10.9646,310.9154],[-85.5447,10.9662,317.3109],[-85.5464,10.9693,321.9661],[-85.5461,10.975,319.7298],[-85.5432,10.9764,306.1246],[-85.5463,10.9787,304.765]]]]}}