{"type": "Feature","bbox": [-83.8288,9.892,-83.7605,10.0169],"geometry": {"type": "MultiPolygon","coordinates": [[[[-83.7872,9.892,1264.541],[-83.7866,9.8939,1270.1249],[-83.7854,9.8922,1302.2379],[-83.7828,9.8936,1299.5846],[-83.7853,9.8955,1376.7775],[-83.7836,9.8956,1377.835],[-83.7811,9.8992,1407.0875],[-83.7801,9.9077,1468.2078],[-83.7755,9.899,1403.7407],[-83.7741,9.8986,1364.4059],[-83.7752,9.9077,1499.855],[-83.7727,9.9089,1499.0118],[-83.7727,9.9107,1507.395],[-83.7698,9.911,1494.6866],[-83.7704,9.918,1511.2921],[-83.7693,9.9195,1508.0779],[-83.7675,9.919,1537.6416],[-83.7669,9.9214,1561.7936],[-83.7745,9.9343,1717.0276],[-83.7754,9.9406,1722.6606],[-83.7781,9.9427,1745.2734],[-83.7737,9.9431,1684.6097],[-83.7656,9.9488,1615.9443],[-83.7606,9.9469,1534.924],[-83.7605,9.9485,1516.125],[-83.7633,9.9517,1549.1982],[-83.763,9.9533,1566.6765],[-83.771,9.9556,1677.3818],[-83.7756,9.9631,1885.7271],[-83.781,9.9678,2200.0071],[-83.7832,9.9744,2307.167],[-83.7821,9.9778,2336.9229],[-83.7839,9.9815,2415.1567],[-83.7924,9.9882,2697.2261],[-83.7991,9.9894,2579.3872],[-83.809,9.9976,2117.8113],[-83.8103,10.0085,1959.1875],[-83.8135,10.0135,1833.5848],[-83.813,10.0169,1721.4934],[-83.8161,10.0151,1780.3048],[-83.8155,10.0131,1856.6235],[-83.8176,10.0126,1906.0686],[-83.8197,10.0088,1959.0039],[-83.8212,9.9996,2205.0159],[-83.8288,9.9789,3233.0107],[-83.8189,9.9822,3024.4373],[-83.8087,9.9764,3079.4805],[-83.8079,9.9725,3021.6443],[-83.811,9.9635,2671.054],[-83.8064,9.9544,2398.9863],[-83.8016,9.9508,2238.1606],[-83.8062,9.9508,2486.1897],[-83.806,9.9464,2335.1333],[-83.8028,9.9393,2115.7151],[-83.7994,9.9361,1975.349],[-83.7985,9.9314,1841.3983],[-83.7941,9.9273,1747.8179],[-83.7944,9.9225,1619.7124],[-83.7893,9.9195,1564.8936],[-83.7891,9.9092,1460.7532],[-83.787,9.9075,1416.537],[-83.7885,9.8984,1313.9224],[-83.7872,9.892,1264.541]]]]}
,"properties": {"GID_3": "CRI.2.1.1_1","GID_0": "CRI","country": "CostaRica","GID_1": "CRI.2_1","province": "Cartago","NL_NAME_1": "NA","GID_2": "CRI.2.1_1","county": "Alvarado","NL_NAME_2": "NA","city": "Capellades","VARNAME_3": "NA","NL_NAME_3": "NA","TYPE_3": "Distrito","ENGTYPE_3": "District","CC_3": "3","HASC_3": "NA","name": "Capellades.city","area_km2": 34.74925,"hist_schema_id": "Elevation0-9000","hist_area_km2": {"1250": 0.02089,"1275": 0.06266,"1300": 0.16709,"1325": 0.10443,"1350": 0.08355,"1375": 0.1462,"1400": 0.22975,"1425": 0.31329,"1450": 0.22975,"1475": 0.20886,"1500": 0.66834,"1525": 0.52214,"1550": 0.75188,"1575": 0.68921,"1600": 0.81451,"1625": 0.93981,"1650": 0.91891,"1675": 0.68918,"1700": 0.58475,"1725": 1.02331,"1750": 0.68917,"1775": 0.81447,"1800": 0.58474,"1825": 0.68916,"1850": 0.37591,"1875": 0.68916,"1900": 0.41766,"1925": 0.52207,"1950": 0.73088,"1975": 0.43854,"2000": 0.41765,"2025": 0.37589,"2050": 0.56384,"2075": 0.48029,"2100": 0.41765,"2125": 0.41765,"2150": 0.41765,"2175": 0.48029,"2200": 0.29235,"2225": 0.60558,"2250": 0.45941,"2275": 0.52206,"2300": 0.56381,"2325": 0.66822,"2350": 0.56381,"2375": 0.73086,"2400": 0.54293,"2425": 0.43852,"2450": 0.6891,"2475": 0.79351,"2500": 0.48029,"2525": 0.75174,"2550": 0.50116,"2575": 0.50116,"2600": 0.54292,"2625": 0.41763,"2650": 0.5638,"2675": 0.48028,"2700": 0.48028,"2725": 0.39675,"2750": 0.37587,"2775": 0.52203,"2800": 0.43851,"2825": 0.43851,"2850": 0.39675,"2875": 0.45939,"2900": 0.16705,"2925": 0.20881,"2950": 0.10441,"2975": 0.18793,"3000": 0.14617,"3025": 0.16705,"3050": 0.10441,"3075": 0.18793,"3100": 0.08353,"3125": 0.02088,"3175": 0.02088,"3225": 0.02088,"3275": 0.02088}}}