{"type": "Feature","bbox": [-84.3394,9.7774,-84.2672,9.8807],"geometry": {"type": "MultiPolygon","coordinates": [[[[-84.2672,9.7966,464.5763],[-84.2729,9.7994,535.9292],[-84.2758,9.8029,634.8021],[-84.281,9.8042,777.0468],[-84.2811,9.8062,803.506],[-84.2961,9.8177,1051.4365],[-84.2965,9.8402,948.17],[-84.3029,9.8443,984.6442],[-84.3016,9.8474,984.9373],[-84.3084,9.856,922.1235],[-84.3145,9.8577,856.5701],[-84.3136,9.862,804.264],[-84.3167,9.8629,745.5898],[-84.3205,9.8686,727.5519],[-84.3244,9.8706,656.6962],[-84.3265,9.8733,644.4781],[-84.3274,9.8803,606.7661],[-84.33,9.8807,664.0204],[-84.331,9.8763,650.5759],[-84.3363,9.87,762.8275],[-84.3355,9.8671,806.6556],[-84.3394,9.8545,1035.4901],[-84.3376,9.8525,1046.507],[-84.3378,9.8434,949.772],[-84.3261,9.8412,1022.4949],[-84.3261,9.8345,1100.6013],[-84.3187,9.8351,1130.7563],[-84.3158,9.8336,1113.4026],[-84.3181,9.8282,1073.7732],[-84.3192,9.8285,1079.9435],[-84.3162,9.8234,984.0162],[-84.3137,9.8228,932.6351],[-84.3109,9.8173,756.1003],[-84.3139,9.8096,625.9911],[-84.3135,9.8002,550.9775],[-84.318,9.7892,396.1971],[-84.3188,9.7823,363.143],[-84.3172,9.7801,318.175],[-84.3185,9.7783,266.2166],[-84.3115,9.7782,299.0023],[-84.3095,9.7805,383.4796],[-84.3018,9.7774,346.2122],[-84.292,9.7794,392.7001],[-84.285,9.7778,384.7716],[-84.2837,9.7797,402.2971],[-84.2745,9.7818,411.9323],[-84.2738,9.7878,421.4075],[-84.2703,9.7869,417.2132],[-84.2697,9.7919,501.9927],[-84.2675,9.7932,505.2288],[-84.2685,9.7947,451.6335],[-84.2672,9.7966,464.5763]]]]}
,"properties": {"GID_3": "CRI.7.14.9_1","GID_0": "CRI","country": "CostaRica","GID_1": "CRI.7_1","province": "SanJosé","NL_NAME_1": "NA","GID_2": "CRI.7.14_1","county": "Puriscal","NL_NAME_2": "NA","city": "Santiago","VARNAME_3": "NA","NL_NAME_3": "NA","TYPE_3": "Distrito","ENGTYPE_3": "District","CC_3": "1","HASC_3": "NA","name": "Santiago.city","area_km2": 34.34575,"hist_schema_id": "Elevation0-9000","hist_area_km2": {"250": 0.02089,"275": 0.04179,"300": 0.06268,"325": 0.12536,"350": 0.14626,"375": 0.20894,"400": 0.25073,"425": 0.45967,"450": 0.50145,"475": 0.60592,"500": 0.50145,"525": 0.73128,"550": 0.43877,"575": 0.66859,"600": 0.79395,"625": 1.02374,"650": 0.87749,"675": 1.08641,"700": 0.91925,"725": 1.00283,"750": 1.10726,"775": 1.14902,"800": 1.21171,"825": 1.37883,"850": 1.37884,"875": 1.2117,"900": 1.52507,"925": 1.54594,"950": 1.37882,"975": 2.15176,"1000": 2.27711,"1025": 1.73391,"1050": 1.73388,"1075": 1.29518,"1100": 1.37874,"1125": 0.94006,"1150": 0.4387,"1175": 0.04178}}}