{"type":"Feature","properties":{"GID_3":"CRI.3.10.3_1","GID_0":"CRI","country":"CostaRica","GID_1":"CRI.3_1","province":"Guanacaste","NL_NAME_1":"NA","GID_2":"CRI.3.10_1","county":"SantaCruz","NL_NAME_2":"NA","city":"Cartagena","VARNAME_3":"NA","NL_NAME_3":"NA","TYPE_3":"Distrito","ENGTYPE_3":"District","CC_3":"5","HASC_3":"NA","name":"Cartagena.city"},
"geometry":{"type": "MultiPolygon","coordinates": [[[[-85.6684,10.4342,470.1931],[-85.6746,10.4318,509.8993],[-85.6801,10.433,404.5105],[-85.686,10.4321,309.9989],[-85.6965,10.4356,293.2296],[-85.695,10.4257,113.9087],[-85.6915,10.4187,86.1396],[-85.693,10.4108,71.6696],[-85.6908,10.4037,62.1578],[-85.6917,10.3883,47.4404],[-85.6945,10.3824,42.9548],[-85.6967,10.3809,41.5635],[-85.6975,10.371,41.2629],[-85.7031,10.3608,36.1049],[-85.7023,10.3583,35.564],[-85.6995,10.3583,38.8523],[-85.6986,10.3558,36.7079],[-85.6992,10.3498,38.8705],[-85.7049,10.3552,37.9056],[-85.7052,10.3607,34.5758],[-85.7133,10.3632,38.8954],[-85.7184,10.3675,38.7727],[-85.7217,10.3604,84.1261],[-85.7206,10.3586,92.8356],[-85.7128,10.3558,103.8673],[-85.7118,10.3486,31.7558],[-85.702,10.3382,27.2825],[-85.7014,10.3321,30.9578],[-85.6985,10.3277,32.9962],[-85.6967,10.3187,25.8521],[-85.6943,10.316,26.6452],[-85.6951,10.3115,31.8046],[-85.6989,10.309,22.1712],[-85.6963,10.2997,20.6441],[-85.6927,10.3003,21.0015],[-85.6877,10.2953,22.5917],[-85.6836,10.2952,20.2732],[-85.6818,10.2935,19.6231],[-85.6766,10.2963,21.6802],[-85.6753,10.2954,19.2035],[-85.6704,10.3021,21.4413],[-85.6659,10.3022,21.4259],[-85.6625,10.3087,20.5856],[-85.6586,10.3094,17.4751],[-85.6576,10.3119,17.0041],[-85.656,10.3118,16.8844],[-85.6566,10.3132,16.6649],[-85.6518,10.3187,16.3098],[-85.6521,10.3219,21.0378],[-85.6498,10.324,20.4248],[-85.6472,10.3238,19.4443],[-85.6451,10.328,19.6991],[-85.6426,10.329,15.7379],[-85.6449,10.3332,16.7635],[-85.6495,10.3344,17.1378],[-85.6506,10.3379,18.3224],[-85.6499,10.3433,18.7751],[-85.653,10.3518,28.9409],[-85.6514,10.3577,78.8162],[-85.6555,10.3593,132.1199],[-85.6578,10.3583,120.6362],[-85.6638,10.3627,118.923],[-85.6577,10.3763,177.1551],[-85.6479,10.3774,168.9212],[-85.64,10.3821,254.0612],[-85.6411,10.3852,279.0211],[-85.6397,10.3921,307.0532],[-85.6436,10.3983,245.1946],[-85.6436,10.4015,234.5469],[-85.6468,10.4017,208.4881],[-85.6491,10.3996,191.3165],[-85.6511,10.4013,220.2115],[-85.6543,10.3979,260.5743],[-85.6582,10.411,233.509],[-85.6566,10.418,265.039],[-85.6593,10.4211,275.9762],[-85.663,10.4201,263.5218],[-85.6663,10.4273,367.721],[-85.6665,10.4332,447.1844],[-85.6684,10.4342,470.1931]]]]}}