{"type": "Feature","bbox": [-83.9919,9.9143,-83.9483,9.9503],"geometry": {"type": "MultiPolygon","coordinates": [[[[-83.9565,9.9496,1811.6035],[-83.9635,9.9503,1785.9412],[-83.9664,9.9478,1771.7264],[-83.9717,9.9393,1647.9916],[-83.977,9.9345,1572.4254],[-83.9792,9.9284,1495.324],[-83.9839,9.9285,1479.3787],[-83.9879,9.9237,1409.9182],[-83.9919,9.9177,1384.9092],[-83.9899,9.9143,1389.5507],[-83.9771,9.9145,1403.6135],[-83.9791,9.9168,1434.2305],[-83.9778,9.92,1461.8289],[-83.9727,9.9208,1519.005],[-83.9674,9.924,1615.5586],[-83.9651,9.9229,1658.3513],[-83.9629,9.9244,1683.7563],[-83.9583,9.921,1695.4589],[-83.9578,9.9291,1814.7321],[-83.9515,9.9319,1843.9607],[-83.9483,9.9381,1951.6453],[-83.9505,9.9418,1960.2195],[-83.9542,9.9403,1887.1671],[-83.9565,9.9496,1811.6035]]]]}
,"properties": {"GID_3": "CRI.2.5.2_1","GID_0": "CRI","country": "CostaRica","GID_1": "CRI.2_1","province": "Cartago","NL_NAME_1": "NA","GID_2": "CRI.2.5_1","county": "LaUnión","NL_NAME_2": "NA","city": "DulceNombre","VARNAME_3": "NA","NL_NAME_3": "NA","TYPE_3": "Distrito","ENGTYPE_3": "District","CC_3": "6","HASC_3": "NA","name": "Dulce_Nombre.city","area_km2": 8.374676,"hist_schema_id": "Elevation0-9000","hist_area_km2": {"1375": 0.062656,"1400": 0.480364,"1425": 0.438591,"1450": 0.480357,"1475": 0.396813,"1500": 0.271503,"1525": 0.187963,"1550": 0.396809,"1575": 0.438576,"1600": 0.187962,"1625": 0.271496,"1650": 0.417687,"1675": 0.480341,"1700": 0.438571,"1725": 0.60564,"1750": 0.605636,"1775": 0.542987,"1800": 0.584753,"1825": 0.334147,"1850": 0.292375,"1875": 0.10442,"1900": 0.167072,"1925": 0.083536,"1950": 0.10442}}}