{"type":"Feature","properties":{"GID_3":"CRI.1.7.8_1","GID_0":"CRI","country":"CostaRica","GID_1":"CRI.1_1","province":"Alajuela","NL_NAME_1":"NA","GID_2":"CRI.1.7_1","county":"Naranjo","NL_NAME_2":"NA","city":"SanMiguel","VARNAME_3":"NA","NL_NAME_3":"NA","TYPE_3":"Distrito","ENGTYPE_3":"District","CC_3":"2","HASC_3":"NA","name":"San_Miguel.city"},
"geometry":{"type": "MultiPolygon","coordinates": [[[[-84.3571,10.0632,831.68],[-84.3582,10.0685,834.5535],[-84.3631,10.0716,867.7101],[-84.364,10.0745,901.4462],[-84.3701,10.0799,910.1385],[-84.3741,10.0813,930.7894],[-84.3755,10.0844,963.0665],[-84.3814,10.0855,1007.1022],[-84.3848,10.089,1067.4993],[-84.3908,10.0888,1087.4142],[-84.3995,10.0839,1233.2971],[-84.4037,10.0865,1312.5605],[-84.4064,10.0852,1319.285],[-84.4187,10.0856,993.2435],[-84.4203,10.088,985.3927],[-84.4213,10.0845,1005.5117],[-84.4255,10.0819,951.0889],[-84.4205,10.0798,956.7655],[-84.4127,10.0729,941.9782],[-84.4121,10.0667,920.4724],[-84.4137,10.065,915.3013],[-84.4113,10.063,916.9134],[-84.4111,10.0604,934.2512],[-84.4085,10.0594,919.5484],[-84.4102,10.0566,943.8998],[-84.4079,10.0532,913.472],[-84.4122,10.0456,912.1033],[-84.4134,10.0386,897.6937],[-84.4076,10.0408,1103.6863],[-84.4038,10.0445,1098.5198],[-84.4025,10.0485,1100.8721],[-84.3989,10.05,1118.9148],[-84.3984,10.0595,1215.7905],[-84.3961,10.062,1178.5188],[-84.3905,10.061,1173.6865],[-84.386,10.0624,1200.0115],[-84.3855,10.0692,1079.4963],[-84.3834,10.0715,1090.1335],[-84.3664,10.066,879.7507],[-84.3611,10.0661,865.3726],[-84.3571,10.0632,831.68]]]]}}