{"type":"Feature","properties":{"GID_3":"CRI.7.14.2_1","GID_0":"CRI","country":"CostaRica","GID_1":"CRI.7_1","province":"SanJosé","NL_NAME_1":"NA","GID_2":"CRI.7.14_1","county":"Puriscal","NL_NAME_2":"NA","city":"Candelarita","VARNAME_3":"NA","NL_NAME_3":"NA","TYPE_3":"Distrito","ENGTYPE_3":"District","CC_3":"6","HASC_3":"NA","name":"Candelarita.city"},
"geometry":{"type": "MultiPolygon","coordinates": [[[[-84.3185,9.7783,266.2166],[-84.3172,9.7801,318.175],[-84.3188,9.7823,363.143],[-84.3176,9.7915,419.5438],[-84.316,9.7922,425.3525],[-84.3135,9.8002,550.9775],[-84.3139,9.8096,625.9911],[-84.3107,9.8156,738.051],[-84.3133,9.8223,932.6351],[-84.3162,9.8234,984.0162],[-84.3192,9.8285,1079.9435],[-84.3195,9.8241,1066.7153],[-84.3179,9.8221,1044.2211],[-84.32,9.8228,1048.6453],[-84.3209,9.8198,913.3392],[-84.3224,9.8211,996.653],[-84.3236,9.8193,948.7716],[-84.3275,9.8183,907.6541],[-84.3295,9.8136,865.8856],[-84.3327,9.8138,889.412],[-84.3336,9.8153,858.8936],[-84.3403,9.8128,782.5079],[-84.3418,9.8062,684.294],[-84.3461,9.8053,649.6138],[-84.3529,9.8002,615.7308],[-84.3567,9.7998,598.0567],[-84.3634,9.7944,516.8464],[-84.3638,9.7904,513.4091],[-84.3617,9.7806,474.0624],[-84.3553,9.7771,456.2969],[-84.3519,9.7701,355.9023],[-84.3459,9.7683,325.4703],[-84.3449,9.7609,277.6828],[-84.3471,9.7578,260.5832],[-84.3468,9.7494,224.1526],[-84.3385,9.7499,214.1462],[-84.3378,9.7517,196.586],[-84.3401,9.7538,255.1695],[-84.3362,9.7553,219.4888],[-84.3374,9.7579,223.4762],[-84.3334,9.7645,218.6133],[-84.3265,9.7661,222.4053],[-84.3271,9.768,223.7527],[-84.3228,9.771,238.6163],[-84.3231,9.7741,253.7726],[-84.3185,9.7783,266.2166]]]]}}