{"type": "Feature","bbox": [-84.4223,10.0691,-84.3589,10.1317],"geometry": {"type": "MultiPolygon","coordinates": [[[[-84.3904,10.1317,1286.6201],[-84.3915,10.1266,1221.6909],[-84.3971,10.1228,1190.8037],[-84.3976,10.1208,1184.1409],[-84.3969,10.118,1146.8671],[-84.3931,10.1149,1141.8453],[-84.3906,10.1147,1136.0973],[-84.3885,10.112,1117.7736],[-84.3887,10.1077,1112.8958],[-84.392,10.1107,1166.9008],[-84.3954,10.1095,1126.6995],[-84.4015,10.1189,1205.1648],[-84.4161,10.1192,1213.5137],[-84.4164,10.114,1182.2659],[-84.4134,10.112,1192.7947],[-84.4165,10.1091,1212.1844],[-84.4175,10.1031,1140.7518],[-84.4223,10.1048,1083.8767],[-84.4214,10.0996,1051.3572],[-84.4119,10.1004,1072.907],[-84.4094,10.0969,1150.0168],[-84.4065,10.0962,1163.7982],[-84.4055,10.0875,1289.7856],[-84.4073,10.0853,1319.285],[-84.4037,10.0865,1312.5605],[-84.3992,10.0839,1165.6985],[-84.3908,10.0888,1087.4142],[-84.3848,10.089,1067.4993],[-84.3814,10.0855,1007.1022],[-84.3755,10.0844,963.0665],[-84.3741,10.0813,930.7894],[-84.3698,10.0797,910.1385],[-84.364,10.0745,901.4462],[-84.3631,10.0716,867.7101],[-84.3589,10.0691,843.0325],[-84.3597,10.0818,878.3188],[-84.3672,10.0868,945.5786],[-84.3671,10.0903,950.4899],[-84.3721,10.0942,974.8258],[-84.3735,10.0969,978.6475],[-84.3727,10.1009,999.1449],[-84.3752,10.1028,1023.4611],[-84.3759,10.1073,1035.3223],[-84.3788,10.1113,1073.8896],[-84.3781,10.1151,1098.3859],[-84.3798,10.1174,1117.0244],[-84.3838,10.1173,1152.8953],[-84.3904,10.1317,1286.6201]]]]}
,"properties": {"GID_3": "CRI.1.7.3_1","GID_0": "CRI","country": "CostaRica","GID_1": "CRI.1_1","province": "Alajuela","NL_NAME_1": "NA","GID_2": "CRI.1.7_1","county": "Naranjo","NL_NAME_2": "NA","city": "Naranjo","VARNAME_3": "NA","NL_NAME_3": "NA","TYPE_3": "Distrito","ENGTYPE_3": "District","CC_3": "1","HASC_3": "NA","name": "Naranjo.city","area_km2": 17.24157,"hist_schema_id": "Elevation0-9000","hist_area_km2": {"850": 0.12525,"875": 0.12525,"900": 0.22963,"925": 0.54275,"950": 0.4175,"975": 0.79323,"1000": 0.81409,"1025": 1.31506,"1050": 1.5029,"1075": 1.64902,"1100": 1.9621,"1125": 2.71354,"1150": 1.89946,"1175": 1.31499,"1200": 0.73055,"1225": 0.39658,"1250": 0.25048,"1275": 0.20872,"1300": 0.20873,"1325": 0.04175}}}