{"type": "Feature","bbox": [-84.1041,9.8706,-84.0781,9.8890999999999991],"geometry": {"type": "MultiPolygon","coordinates": [[[[-84.1004,9.8776,1477.9697],[-84.1041,9.8751,1413.5088],[-84.0995,9.8744,1374.5082],[-84.0936,9.8706,1316.0763],[-84.0824,9.8714,1206.8477],[-84.0793,9.8746,1190.6183],[-84.0793,9.8815,1169.7],[-84.0781,9.8825,1173.2561],[-84.0811,9.883,1164.6151],[-84.0815,9.8866,1159.6177],[-84.0842,9.8890999999999991,1148.8477],[-84.0844,9.8854,1160.6582],[-84.0918,9.8837,1234.3577],[-84.1004,9.8776,1477.9697]]]]}
,"properties": {"GID_3": "CRI.7.5.10_1","GID_0": "CRI","country": "CostaRica","GID_1": "CRI.7_1","province": "SanJosé","NL_NAME_1": "NA","GID_2": "CRI.7.5_1","county": "Desamparados","NL_NAME_2": "NA","city": "SanJuandeDios","VARNAME_3": "NA","NL_NAME_3": "NA","TYPE_3": "Distrito","ENGTYPE_3": "District","CC_3": "3","HASC_3": "NA","name": "San_Juande_Dios.city","area_km2": 3.133184,"hist_schema_id": "Elevation0-9000","hist_area_km2": {"1150": 0.167099,"1175": 0.563967,"1200": 0.543085,"1225": 0.396871,"1250": 0.292432,"1275": 0.167105,"1300": 0.187992,"1325": 0.167105,"1350": 0.083552,"1375": 0.187993,"1400": 0.125328,"1425": 0.062664,"1450": 0.083552,"1475": 0.062664,"1500": 0.020888,"1525": 0.020888}}}