{"type": "Feature","bbox": [-85.8722,10.4318,-85.5788,10.6369],"geometry": {"type": "MultiPolygon","coordinates": [[[[-85.8707,10.4763,0.0],[-85.8705,10.476,0.1154],[-85.8705,10.4774,0.5353],[-85.8709,10.4771,0.0],[-85.8707,10.4763,0.0]]],
[[[-85.8713,10.4788,0.19],[-85.8704,10.4788,0.3894],[-85.8722,10.4816,0.2269],[-85.8719,10.4794,0.19],[-85.8713,10.4788,0.19]]],
[[[-85.804,10.5019,0.0],[-85.8031,10.5015,0.0],[-85.8026,10.5017,5.9519],[-85.8031,10.5022,0.0],[-85.804,10.5019,0.0]]],
[[[-85.8215,10.5042,0.0],[-85.821,10.5043,0.0],[-85.8217,10.5051,0.0],[-85.8218,10.5049,0.0],[-85.8215,10.5042,0.0]]],
[[[-85.8232,10.5059,0.2518],[-85.8228,10.5058,0.2518],[-85.8223,10.5074,0.0],[-85.8228,10.507,0.2518],[-85.8232,10.5059,0.2518]]],
[[[-85.8216,10.5104,17.1046],[-85.8245,10.5109,0.0],[-85.8262,10.5101,0.0],[-85.8191,10.5098,0.0],[-85.8216,10.5104,17.1046]]],
[[[-85.8035,10.5211,0.0],[-85.8035,10.5209,0.0],[-85.8031,10.5212,0.0],[-85.8033,10.5212,0.0],[-85.8035,10.5211,0.0]]],
[[[-85.8027,10.5209,0.0],[-85.8022,10.5206,0.0],[-85.8018,10.5213,0.0],[-85.8025,10.5216,0.0],[-85.8027,10.5209,0.0]]],
[[[-85.5846,10.4852,19.2286],[-85.5808,10.4856,24.6486],[-85.5789,10.4879,25.8828],[-85.58,10.4892,25.6331],[-85.5788,10.4959,26.3071],[-85.5847,10.5025,21.9862],[-85.5839,10.5058,22.6937],[-85.5892,10.514,29.1075],[-85.5883,10.5177,34.389],[-85.5896,10.5216,30.0313],[-85.5958,10.5266,31.1934],[-85.5939,10.5305,25.7102],[-85.5975,10.536,27.9559],[-85.5961,10.5391,34.2278],[-85.5978,10.5433,29.6365],[-85.6053,10.5433,26.7815],[-85.6108,10.5524,27.3761],[-85.6187,10.5577,29.2158],[-85.616,10.5622,27.9836],[-85.6159,10.5793,35.7911],[-85.613,10.5827,33.8456],[-85.6077,10.5854,32.8628],[-85.6029,10.5943,37.4384],[-85.6022,10.6022,35.733],[-85.6039,10.6066,37.1721],[-85.6022,10.6148,41.6969],[-85.6036,10.6163,45.7017],[-85.6107,10.6168,58.5815],[-85.6133,10.6213,106.2875],[-85.6136,10.628,129.6004],[-85.6088,10.6369,144.5714],[-85.6188,10.6369,23.5856],[-85.6216,10.6319,19.2623],[-85.6283,10.6315,11.167],[-85.6266,10.6238,2.9624],[-85.6286,10.6236,0.0],[-85.6342,10.6171,0.0],[-85.6404,10.6142,0.0],[-85.6416,10.6076,3.2553],[-85.6449,10.6039,0.0],[-85.6489,10.6046,0.0],[-85.6506,10.6002,0.0],[-85.6492,10.5951,4.1967],[-85.6523,10.5899,7.0337],[-85.6619,10.5884,0.0],[-85.6638,10.5935,0.0],[-85.6716,10.5911,0.0],[-85.6762,10.5925,0.0],[-85.6805,10.5901,6.1571],[-85.681,10.588,8.0539],[-85.6793,10.5871,8.0539],[-85.677,10.5803,8.4401],[-85.6819,10.5721,0.0],[-85.6847,10.5706,0.0],[-85.6951,10.574,0.0],[-85.6973,10.5732,18.2845],[-85.6986,10.5743,0.0],[-85.7006,10.5728,0.0],[-85.7,10.5698,0.0],[-85.6934,10.5675,30.3726],[-85.6911,10.5643,0.0],[-85.6935,10.5562,3.9494],[-85.7003,10.5505,0.0],[-85.7059,10.5499,5.0232],[-85.709,10.5542,28.6282],[-85.7141,10.5565,15.9464],[-85.7156,10.5524,45.4585],[-85.7187,10.5511,0.0],[-85.7186,10.548,13.1069],[-85.7221,10.546,5.3033],[-85.7272,10.5464,0.0],[-85.7287,10.544,9.6175],[-85.7356,10.5439,0.0],[-85.7388,10.5386,32.2785],[-85.7431,10.5372,0.0],[-85.7433,10.535,30.8506],[-85.7464,10.5338,0.0],[-85.7473,10.5317,5.089],[-85.7536,10.5297,7.4855],[-85.7588,10.5305,0.0],[-85.7643,10.5343,6.5958],[-85.7691,10.5422,0.0],[-85.7704,10.5403,69.5889],[-85.7741,10.5401,11.9614],[-85.7759,10.5431,0.0],[-85.7787,10.5441,0.0],[-85.7798,10.543,0.0],[-85.7791,10.5386,19.8173],[-85.7831,10.5383,0.0],[-85.7833,10.5355,14.8008],[-85.7813,10.5339,26.6793],[-85.7821,10.5305,7.4063],[-85.7854,10.53,9.3403],[-85.785,10.5279,31.2703],[-85.7874,10.5243,0.0],[-85.7917,10.5248,5.9486],[-85.7922,10.5232,0.0],[-85.7897,10.5218,5.8229],[-85.7915,10.5181,2.3278],[-85.7949,10.5175,40.7973],[-85.8007,10.5199,0.0],[-85.801,10.5174,7.4229],[-85.8037,10.518,5.1031],[-85.8075,10.5149,18.1191],[-85.8095,10.5146,19.9586],[-85.8113,10.5171,0.0],[-85.8122,10.516,14.1538],[-85.81,10.5129,3.0837],[-85.7998,10.5091,26.9664],[-85.7987,10.5073,0.0],[-85.7993,10.5025,0.0],[-85.8037,10.4986,0.0843],[-85.8025,10.4964,0.0],[-85.8001,10.4978,17.8743],[-85.7991,10.4954,0.0],[-85.7968,10.4961,24.72],[-85.7948,10.4947,0.0],[-85.794,10.4912,6.2506],[-85.7981,10.4835,12.7739],[-85.7917,10.487,49.102],[-85.7849,10.4885,93.7266],[-85.7755,10.4854,111.6628],[-85.7687,10.4793,209.4571],[-85.7632,10.4812,233.898],[-85.7581,10.4789,321.5333],[-85.7496,10.4858,148.2149],[-85.7374,10.482,148.0015],[-85.7315,10.4777,197.4578],[-85.7313,10.4726,236.5224],[-85.7277,10.4653,297.0061],[-85.7246,10.4636,271.2144],[-85.7252,10.4613,231.8726],[-85.7229,10.4588,335.6647],[-85.715,10.4565,337.4291],[-85.7089,10.4494,307.3096],[-85.7053,10.4492,292.9526],[-85.699,10.4361,238.405],[-85.6894,10.4323,314.5666],[-85.6746,10.4318,509.8993],[-85.6684,10.4342,470.1931],[-85.6632,10.4478,361.1266],[-85.653,10.451,278.531],[-85.6498,10.4547,240.4529],[-85.6444,10.4552,185.9756],[-85.6379,10.4483,287.4435],[-85.6347,10.4493,257.813],[-85.6329,10.4481,266.0914],[-85.6317,10.4518,263.1765],[-85.6284,10.4524,268.7879],[-85.6258,10.4567,157.796],[-85.6154,10.4615,111.3893],[-85.6108,10.4676,107.8758],[-85.6074,10.4674,78.9239],[-85.6037,10.4695,57.4159],[-85.6032,10.4752,38.0923],[-85.6008,10.4755,28.6914],[-85.6015,10.4812,34.9076],[-85.5846,10.4852,19.2286]]],
[[[-85.7852,10.5372,0.0],[-85.7847,10.537,0.0],[-85.7845,10.5371,0.0],[-85.7852,10.5377,0.0],[-85.7852,10.5372,0.0]]],
[[[-85.7009,10.5777,0.0],[-85.7006,10.5776,0.0],[-85.7005,10.5777,0.0],[-85.7008,10.5779,0.0],[-85.7009,10.5777,0.0]]],
[[[-85.708,10.5793,0.0],[-85.7095,10.5792,6.4586],[-85.7095,10.5776,0.0],[-85.7077,10.5788,0.0],[-85.708,10.5793,0.0]]],
[[[-85.7037,10.5782,0.0],[-85.7027,10.5788,0.0],[-85.7044,10.5797,0.0],[-85.7051,10.5784,0.0],[-85.7037,10.5782,0.0]]],
[[[-85.7125,10.5794,0.0],[-85.7117,10.5791,16.1283],[-85.7095,10.5796,6.4586],[-85.7112,10.5813,3.8765],[-85.7125,10.5794,0.0]]]]}
,"properties": {"GID_3": "CRI.3.4.4_1","GID_0": "CRI","country": "CostaRica","GID_1": "CRI.3_1","province": "Guanacaste","NL_NAME_1": "NA","GID_2": "CRI.3.4_1","county": "Carrillo","NL_NAME_2": "NA","city": "Sardinal","VARNAME_3": "NA","NL_NAME_3": "NA","TYPE_3": "Distrito","ENGTYPE_3": "District","CC_3": "3","HASC_3": "NA","name": "Sardinal.city","area_km2": 262.8675,"hist_schema_id": "Elevation0-9000","hist_area_km2": {"0": 5.3567,"25": 49.8401,"50": 41.7738,"75": 29.2255,"100": 26.3279,"125": 23.7634,"150": 21.2207,"175": 13.8219,"200": 11.633,"225": 10.6117,"250": 8.6522,"275": 7.6307,"300": 5.2957,"325": 3.8154,"350": 1.8347,"375": 1.0008,"400": 0.6672,"425": 0.1668,"450": 0.1251,"475": 0.0417,"500": 0.0417,"525": 0.0209}}}