{"type":"Feature","properties":{"GID_3":"CRI.7.15.1_1","GID_0":"CRI","country":"CostaRica","GID_1":"CRI.7_1","province":"SanJosé","NL_NAME_1":"NA","GID_2":"CRI.7.15_1","county":"SanJosé","NL_NAME_2":"NA","city":"Catedral","VARNAME_3":"NA","NL_NAME_3":"NA","TYPE_3":"Distrito","ENGTYPE_3":"District","CC_3":"4","HASC_3":"NA","name":"Catedral.city"},
"geometry":{"type": "MultiPolygon","coordinates": [[[[-84.0615,9.932,1186.1592],[-84.079,9.9341,1166.4429],[-84.0805,9.9207,1126.786],[-84.0761,9.9198,1130.8151],[-84.0749,9.9161,1132.114],[-84.0696,9.9153,1139.856],[-84.0715,9.92,1138.9038],[-84.0615,9.932,1186.1592]]]]}}