{"type": "Feature","bbox": [-82.9334,9.5906,-82.6126,9.7678],"geometry": {"type": "MultiPolygon","coordinates": [[[[-82.6158,9.6311,0.2691],[-82.6171,9.6317,0.2691],[-82.6175,9.6308,0.0],[-82.6157,9.6301,0.0],[-82.6158,9.6311,0.2691]]],
[[[-82.9004,9.6553,459.0158],[-82.9014,9.6507,400.1125],[-82.8967,9.6412,475.0671],[-82.8933,9.6385,395.1254],[-82.8818,9.6363,308.9445],[-82.8763,9.637,266.7918],[-82.8717,9.641,104.5897],[-82.8675,9.6421,217.142],[-82.8599,9.6408,325.954],[-82.8314,9.6268,195.4369],[-82.8164,9.6248,207.1756],[-82.8102,9.6257,203.9695],[-82.8041,9.6237,200.0706],[-82.8013,9.6273,270.5241],[-82.8,9.6225,191.665],[-82.7954,9.6171,194.3541],[-82.7789,9.611,186.2564],[-82.7653,9.6114,138.8543],[-82.7618,9.6138,126.9791],[-82.7579,9.6136,145.1788],[-82.755,9.6175,153.2402],[-82.7481,9.6213,202.4283],[-82.7419,9.615,84.6347],[-82.7391,9.6156,60.82],[-82.7344,9.6202,34.1121],[-82.7225,9.6206,102.7526],[-82.7198,9.6192,78.922],[-82.7198,9.6159,119.2932],[-82.7162,9.6131,112.0486],[-82.7146,9.6087,111.3159],[-82.7076,9.6089,74.0523],[-82.7065,9.6065,118.7351],[-82.6995,9.6027,100.7164],[-82.697,9.5974,76.8692],[-82.6929,9.5971,93.1103],[-82.6898,9.5991,101.7857],[-82.6838,9.5981,94.8215],[-82.67,9.5906,101.7209],[-82.6684,9.5969,64.1219],[-82.6697,9.5993,62.8665],[-82.6674,9.6022,52.4772],[-82.6567,9.5986,46.963],[-82.6471,9.6014,42.3754],[-82.6304,9.5991,48.4227],[-82.6182,9.6011,26.2344],[-82.6126,9.6079,1.458],[-82.6197,9.6168,20.6515],[-82.6205,9.6214,11.4092],[-82.6187,9.6302,0.0],[-82.622,9.6322,20.7183],[-82.622,9.6346,12.0028],[-82.6272,9.6365,3.6033],[-82.6333,9.6379,13.9601],[-82.6396,9.636,4.2963],[-82.6488,9.6399,4.5285],[-82.653,9.6355,3.9597],[-82.6593,9.6322,0.0],[-82.6682,9.6319,18.7937],[-82.6779,9.636,2.0824],[-82.6854,9.6438,0.0],[-82.6907,9.6409,3.2725],[-82.6935,9.6416,0.0],[-82.6931,9.6388,9.5562],[-82.6973,9.6375,3.0997],[-82.7059,9.6409,0.0],[-82.7084,9.6402,16.1095],[-82.7161,9.6423,3.0948],[-82.7198,9.6456,0.0],[-82.7246,9.6436,11.3207],[-82.7306,9.6469,15.3162],[-82.7334,9.646,26.3584],[-82.7342,9.6495,0.0],[-82.7424,9.6573,0.0],[-82.7487,9.6602,6.6815],[-82.7551,9.6583,3.1995],[-82.7561,9.6554,7.3754],[-82.7586,9.6543,2.3696],[-82.7722,9.6588,0.0],[-82.7822,9.6659,3.8988],[-82.7895,9.6739,0.0],[-82.7901,9.6724,1.68],[-82.7899,9.6745,0.0],[-82.8132,9.7153,11.7565],[-82.8154,9.7271,11.9903],[-82.8135,9.7329,6.5228],[-82.8103,9.7364,0.0],[-82.8096,9.7456,0.0],[-82.8157,9.7497,2.5844],[-82.8185,9.7464,2.6488],[-82.8193,9.7418,9.9338],[-82.8278,9.7346,3.7314],[-82.8322,9.7347,4.6996],[-82.8377,9.7363,5.2907],[-82.8408,9.7415,1.4489],[-82.8456,9.7406,0.0],[-82.8512,9.7435,2.4191],[-82.8727,9.7628,8.7802],[-82.8802,9.7598,14.6789],[-82.8901,9.7631,14.8195],[-82.8923,9.7666,13.8599],[-82.8957,9.7678,14.4982],[-82.8968,9.764,19.162],[-82.8993,9.7647,15.8784],[-82.9043,9.7614,20.8251],[-82.9042,9.759,23.3744],[-82.9068,9.7583,31.6768],[-82.9059,9.7568,46.0891],[-82.9034,9.7574,32.1665],[-82.9041,9.7533,56.6016],[-82.9,9.7502,35.7215],[-82.9032,9.7463,42.0076],[-82.9033,9.7425,43.6178],[-82.9093,9.7396,58.3153],[-82.9122,9.7359,82.415],[-82.9185,9.7339,120.4695],[-82.9217,9.7345,123.3319],[-82.925,9.7244,229.3111],[-82.9334,9.719,404.7293],[-82.9268,9.7154,231.5661],[-82.9274,9.7107,225.4561],[-82.9257,9.7086,202.583],[-82.9222,9.7078,248.7697],[-82.9223,9.7045,185.0179],[-82.9139,9.6955,255.1183],[-82.9099,9.694,217.0306],[-82.9076,9.6949,192.4496],[-82.9042,9.6859,210.319],[-82.9016,9.6857,187.3043],[-82.8958,9.677,249.8666],[-82.8913,9.6734,344.4674],[-82.8889,9.6672,330.6171],[-82.8898,9.6643,399.9872],[-82.8912,9.6628,436.1243],[-82.8964,9.6622,457.5252],[-82.8997,9.6591,483.9214],[-82.9004,9.6553,459.0158]]]]}
,"properties": {"GID_3": "CRI.5.6.2_1","GID_0": "CRI","country": "CostaRica","GID_1": "CRI.5_1","province": "Limón","NL_NAME_1": "NA","GID_2": "CRI.5.6_1","county": "Talamanca","NL_NAME_2": "NA","city": "Cahuita","VARNAME_3": "NA","NL_NAME_3": "NA","TYPE_3": "Distrito","ENGTYPE_3": "District","CC_3": "3","HASC_3": "NA","name": "Cahuita.city","area_km2": 236.0769,"hist_schema_id": "Elevation0-9000","hist_area_km2": {"0": 14.8184,"25": 50.747,"50": 29.5138,"75": 22.6573,"100": 20.3782,"125": 19.2708,"150": 18.7271,"175": 17.8696,"200": 12.791,"225": 8.7992,"250": 5.5806,"275": 4.243,"300": 3.4697,"325": 2.4246,"350": 0.9615,"375": 0.6898,"400": 1.066,"425": 0.648,"450": 1.0242,"475": 0.3553,"500": 0.0418}}}