{"type":"Feature","properties":{"GID_3":"CRI.1.1.3_1","GID_0":"CRI","country":"CostaRica","GID_1":"CRI.1_1","province":"Alajuela","NL_NAME_1":"NA","GID_2":"CRI.1.1_1","county":"Alajuela","NL_NAME_2":"NA","city":"Desamparados","VARNAME_3":"NA","NL_NAME_3":"NA","TYPE_3":"Distrito","ENGTYPE_3":"District","CC_3":"10","HASC_3":"NA","name":"Desamparados.city"},
"geometry":{"type": "MultiPolygon","coordinates": [[[[-84.2073,10.0083,917.2627],[-84.2016,10.0033,903.5923],[-84.198,10.0028,927.324],[-84.1912,10.0069,938.832],[-84.1854,10.0056,949.8285],[-84.1837,10.0085,953.9372],[-84.1736,10.014099999999999,1018.2571],[-84.1735,10.0274,1064.5403],[-84.168,10.0612,1249.5834],[-84.1717,10.0583,1231.3372],[-84.1755,10.0595,1234.968],[-84.1751,10.0576,1224.5812],[-84.1776,10.057,1206.5939],[-84.1827,10.0488,1143.3157],[-84.1823,10.0463,1084.0848],[-84.1873,10.0437,1061.2761],[-84.1878,10.0386,1038.7764],[-84.1971,10.0322,998.3479],[-84.1992,10.028,1000.3066],[-84.1978,10.0185,947.8934],[-84.2018,10.015,936.6488],[-84.2025,10.0118,928.7896],[-84.2073,10.0083,917.2627]]]]}}