{"type":"Feature","properties":{"GID_3":"CRI.6.5.4_1","GID_0":"CRI","country":"CostaRica","GID_1":"CRI.6_1","province":"Puntarenas","NL_NAME_1":"NA","GID_2":"CRI.6.5_1","county":"Esparza","NL_NAME_2":"NA","city":"SanJerónimo","VARNAME_3":"NA","NL_NAME_3":"NA","TYPE_3":"Distrito","ENGTYPE_3":"District","CC_3":"5","HASC_3":"NA","name":"San_Jerónimo.city"},
"geometry":{"type": "MultiPolygon","coordinates": [[[[-84.6315,10.0711,283.8504],[-84.6376,10.0774,358.3862],[-84.6425,10.0794,363.6918],[-84.6452,10.0858,369.7516],[-84.648,10.0871,425.666],[-84.6482,10.0949,431.403],[-84.6538,10.1016,506.6967],[-84.6572,10.1092,563.8717],[-84.66,10.1108,574.5187],[-84.664,10.1216,683.7521],[-84.6655,10.1224,699.1887],[-84.6693,10.1198,771.2277],[-84.6816,10.1275,1252.3103],[-84.686,10.1277,1397.3774],[-84.6865,10.1179,1251.9255],[-84.6842,10.1143,1181.8108],[-84.6832,10.1078,1175.9625],[-84.677,10.1064,995.342],[-84.6789,10.1001,844.2736],[-84.678,10.0981,802.6872],[-84.6807,10.0922,771.7016],[-84.6769,10.0774,500.9822],[-84.6777,10.0739,447.2502],[-84.6744,10.0704,404.4106],[-84.6726,10.063,357.6637],[-84.6681,10.058,321.1264],[-84.6655,10.0584,317.4474],[-84.6673,10.0522,375.6873],[-84.6737,10.0521,265.6821],[-84.683,10.0469,164.3372],[-84.6855,10.0471,165.4253],[-84.6929,10.0416,125.5685],[-84.6925,10.0378,138.9288],[-84.6899,10.0374,142.2634],[-84.6865,10.034,263.3546],[-84.6819,10.0348,323.3831],[-84.6797,10.0335,289.5717],[-84.6727,10.0357,183.7571],[-84.6635,10.0321,136.0676],[-84.6618,10.0288,127.3994],[-84.662,10.0217,105.1741],[-84.6649,10.0183,147.0438],[-84.6661,10.0139,101.0688],[-84.6626,10.0164,93.0707],[-84.6557,10.0174,97.4365],[-84.6504,10.0144,125.2177],[-84.6371,10.0171,131.4892],[-84.6323,10.0247,137.3823],[-84.6193,10.0349,220.6867],[-84.6193,10.0397,191.3252],[-84.6178,10.0411,184.8771],[-84.6184,10.0442,188.9097],[-84.6248,10.0479,197.7219],[-84.6282,10.0574,248.9196],[-84.6287,10.064,253.207],[-84.632,10.0686,320.7137],[-84.6315,10.0711,283.8504]]]]}}