{"type":"Feature","properties":{"GID_2":"CRI.2.5_1","GID_0":"CRI","country":"CostaRica","GID_1":"CRI.2_1","province":"Cartago","NL_NAME_1":"NA","county":"LaUnión","VARNAME_2":"NA","NL_NAME_2":"NA","TYPE_2":"Cantón","ENGTYPE_2":"Canton","CC_2":"3","HASC_2":"CR.CA.LU","name":"La_Unión.county"},
"geometry":{"type": "MultiPolygon","coordinates": [[[[-84.0006,9.8768,1557.3298],[-83.9976,9.8762,1586.27],[-83.9942,9.8802,1599.7692],[-83.9847,9.8839,1848.6031],[-83.9797,9.884,1819.1025],[-83.9763,9.8819,1836.038],[-83.9732,9.8834,1796.5957],[-83.97,9.889,1758.1014],[-83.962,9.8909,1660.8994],[-83.9627,9.8984,1518.5433],[-83.96,9.8965,1587.6035],[-83.9593,9.9005,1531.7584],[-83.9548,9.9023,1522.7439],[-83.9547,9.915,1594.7384],[-83.9531,9.9161,1608.4705],[-83.9583,9.92,1684.1261],[-83.9579,9.9287,1800.3477],[-83.9515,9.9319,1843.9607],[-83.9483,9.9381,1951.6453],[-83.9505,9.9418,1960.2195],[-83.9542,9.9403,1887.1671],[-83.9565,9.9496,1811.6035],[-83.9635,9.9503,1785.9412],[-83.9693,9.9437,1693.2079],[-84.0084,9.9398,1356.6577],[-84.0054,9.9313,1359.7175],[-84.0051,9.9245,1344.2422],[-84.0159,9.9095,1237.2393],[-84.0177,9.9048,1237.4296],[-84.0157,9.8991,1242.4543],[-84.0263,9.8936,1312.7368],[-84.0305,9.8959,1230.8984],[-84.0343,9.894,1180.7394],[-84.0418,9.8967,1170.2114],[-84.0377,9.8889,1170.2982],[-84.0361,9.8886,1171.4417],[-84.0374,9.8868,1180.6221],[-84.0349,9.8873,1173.4308],[-84.0318,9.8836,1211.5859],[-84.0203,9.8842,1371.0129],[-84.0006,9.8768,1557.3298]]]]}}