{"type":"Feature","properties":{"GID_3":"CRI.7.14.8_1","GID_0":"CRI","country":"CostaRica","GID_1":"CRI.7_1","province":"SanJosé","NL_NAME_1":"NA","GID_2":"CRI.7.14_1","county":"Puriscal","NL_NAME_2":"NA","city":"SanRafael","VARNAME_3":"NA","NL_NAME_3":"NA","TYPE_3":"Distrito","ENGTYPE_3":"District","CC_3":"5","HASC_3":"NA","name":"San_Rafael.city"},
"geometry":{"type": "MultiPolygon","coordinates": [[[[-84.2634,9.8091,496.283],[-84.2659,9.8125,526.2676],[-84.2641,9.8158,547.2567],[-84.2663,9.8177,556.8909],[-84.2626,9.8209,586.9492],[-84.2634,9.8248,601.2996],[-84.2597,9.8258,643.5647],[-84.2585,9.8375,669.8461],[-84.2563,9.8404,679.5746],[-84.2542,9.8404,688.7371],[-84.252,9.8442,725.8947],[-84.2697,9.8442,745.3218],[-84.2721,9.8385,680.3692],[-84.2704,9.8338,632.7855],[-84.272,9.8329,627.1688],[-84.2853,9.8416,760.082],[-84.2897,9.842,821.0424],[-84.2949,9.853,1007.5041],[-84.2978,9.8519,1015.3411],[-84.3029,9.8443,984.6442],[-84.2965,9.8402,948.17],[-84.2961,9.8177,1051.4365],[-84.2811,9.8062,803.506],[-84.281,9.8042,777.0468],[-84.2758,9.8029,634.8021],[-84.2729,9.7994,535.9292],[-84.2672,9.7966,464.5763],[-84.2677,9.8036,479.0468],[-84.2634,9.8091,496.283]]]]}}