{"type":"Feature","properties":{"GID_3":"CRI.1.14.5_1","GID_0":"CRI","country":"CostaRica","GID_1":"CRI.1_1","province":"Alajuela","NL_NAME_1":"NA","GID_2":"CRI.1.14_1","county":"Upala","NL_NAME_2":"NA","city":"DosRios","VARNAME_3":"NA","NL_NAME_3":"NA","TYPE_3":"Distrito","ENGTYPE_3":"District","CC_3":"6","HASC_3":"NA","name":"Dos_Rios.city"},
"geometry":{"type": "MultiPolygon","coordinates": [[[[-85.2646,10.9769,82.6062],[-85.2628,10.9796,81.9137],[-85.2643,10.9857,93.0745],[-85.2595,10.9898,83.1415],[-85.26,10.9928,88.3656],[-85.2665,10.9968,89.8533],[-85.2712,11.0038,124.868],[-85.2865,11.0135,171.5787],[-85.2896,11.0174,177.4308],[-85.2909,11.0243,180.3241],[-85.2967,11.0277,182.6451],[-85.2997,11.0333,183.9958],[-85.305,11.0356,206.1476],[-85.3042,11.0373,205.234],[-85.307,11.0381,215.4666],[-85.3059,11.0396,194.5122],[-85.3093,11.0402,199.5576],[-85.3118,11.043,184.1926],[-85.3216,11.0404,199.5282],[-85.3231,11.0421,240.9964],[-85.3252,11.0419,199.3903],[-85.3286,11.0395,211.9103],[-85.3312,11.0411,229.7694],[-85.3334,11.0362,231.5563],[-85.3358,11.0366,233.1985],[-85.3391,11.0343,231.0924],[-85.3406,11.036,236.5849],[-85.3508,11.0348,271.3399],[-85.3517,11.0326,277.6667],[-85.354,11.0328,275.3221],[-85.3536,11.0307,286.5062],[-85.3557,11.0303,308.0013],[-85.3562,11.0274,327.188],[-85.3546,11.025,326.8659],[-85.3566,11.0243,330.3034],[-85.3571,11.0188,311.0415],[-85.3624,11.0144,334.4419],[-85.3621,11.0104,346.7124],[-85.3638,11.0104,328.1653],[-85.3649,11.0074,342.3636],[-85.3661,11.0094,343.1593],[-85.3689,11.0048,353.9776],[-85.3675,11.0033,363.7368],[-85.3687,11.0007,386.4251],[-85.3664,10.9991,372.124],[-85.3701,10.997,378.2579],[-85.3744,10.998,366.827],[-85.3776,10.9957,400.8461],[-85.3768,10.9948,391.4878],[-85.3784,10.9936,390.0935],[-85.3767,10.9895,396.8612],[-85.3793,10.9886,398.2161],[-85.3806,10.9843,400.617],[-85.3789,10.9812,420.6987],[-85.3802,10.9797,426.1291],[-85.3775,10.9776,431.6233],[-85.3813,10.9745,446.3943],[-85.3801,10.9732,442.7252],[-85.389,10.9681,467.7684],[-85.3914,10.9651,482.8811],[-85.3967,10.9664,495.2081],[-85.4042,10.9619,533.0636],[-85.4084,10.9632,551.5432],[-85.4121,10.9618,601.7898],[-85.4199,10.9645,616.549],[-85.4235,10.9628,646.3656],[-85.4265,10.9583,699.1886],[-85.4306,10.9568,735.0027],[-85.4353,10.9505,860.8794],[-85.444,10.9442,1055.2875],[-85.4486,10.937,1447.7124],[-85.4491,10.9345,1596.1426],[-85.4455,10.9283,1539.176],[-85.4477,10.9226,1326.4753],[-85.4471,10.9169,1311.2067],[-85.4366,10.9082,997.8392],[-85.4343,10.8986,923.9818],[-85.4271,10.8965,932.7153],[-85.4227,10.8907,866.9504],[-85.4205,10.8902,810.3322],[-85.4139,10.8794,684.8885],[-85.4087,10.8799,696.312],[-85.4051,10.8716,648.1708],[-85.3945,10.8644,718.6066],[-85.3814,10.8441,1161.2815],[-85.3777,10.8353,1459.8328],[-85.3745,10.8349,1543.0763],[-85.3712,10.8302,1653.1139],[-85.3667,10.8276,1752.0211],[-85.3605,10.8272,1759.0112],[-85.3573,10.8335,1610.5712],[-85.3598,10.8463,1213.3726],[-85.3567,10.8521,1075.3478],[-85.3582,10.8621,884.0018],[-85.3531,10.8681,766.5584],[-85.3552,10.8753,703.2863],[-85.3463,10.8817,581.1658],[-85.3453,10.8896,526.7134],[-85.3344,10.899,442.6818],[-85.3305,10.9096,405.3584],[-85.3249,10.9159,355.2739],[-85.3204,10.9164,322.9944],[-85.3179,10.9205,347.6407],[-85.3148,10.9182,319.3344],[-85.3131,10.9205,356.9033],[-85.3103,10.9175,300.855],[-85.3064,10.9196,287.0759],[-85.3067,10.9233,284.1151],[-85.3028,10.9211,290.321],[-85.3002,10.9234,290.1071],[-85.2988,10.932,274.5923],[-85.2992,10.9357,269.871],[-85.3017,10.9385,274.4996],[-85.3007,10.9419,265.5792],[-85.305,10.9453,303.5804],[-85.3072,10.9495,232.2256],[-85.3047,10.9506,277.7952],[-85.3053,10.9544,221.7448],[-85.3072,10.956,221.5336],[-85.303,10.9592,171.9685],[-85.3018,10.9668,166.2298],[-85.2932,10.9731,143.4563],[-85.2845,10.9713,126.3351],[-85.2832,10.973,126.1141],[-85.2865,10.9786,120.2964],[-85.2827,10.9809,120.3666],[-85.2778,10.9811,94.6291],[-85.2756,10.9832,91.1452],[-85.2721,10.9829,88.347],[-85.2695,10.9788,85.8225],[-85.2646,10.9769,82.6062]]]]}}