{"type": "Feature","bbox": [-83.4678,9.9818,-83.2379,10.2238],"geometry": {"type": "MultiPolygon","coordinates": [[[[-83.3811,9.9818,418.7558],[-83.3732,9.99,302.6528],[-83.3743,9.9942,308.4192],[-83.3807,10.0001,253.872],[-83.3798,10.0019,238.1336],[-83.3845,10.0049,176.3083],[-83.3838,10.0113,214.7501],[-83.3871,10.0153,171.2205],[-83.3863,10.0169,117.7447],[-83.3877,10.0191,125.6077],[-83.3768,10.0327,61.2018],[-83.3755,10.0458,91.0313],[-83.3701,10.0441,67.7426],[-83.3733,10.0497,44.9071],[-83.3702,10.0531,63.1263],[-83.3707,10.0641,31.373],[-83.3676,10.0662,33.5718],[-83.3617,10.0595,29.8306],[-83.355,10.0582,20.6852],[-83.3527,10.0524,22.1777],[-83.3485,10.0538,24.5436],[-83.3449,10.0514,24.3985],[-83.3428,10.053,18.4677],[-83.3414,10.0491,21.2158],[-83.3381,10.0502,18.7965],[-83.3376,10.0536,18.528],[-83.3306,10.0542,16.6514],[-83.3282,10.0529,16.8257],[-83.3234,10.069,15.2426],[-83.3196,10.0737,14.1689],[-83.3211,10.075,13.9766],[-83.3184,10.0796,18.1538],[-83.3188,10.0848,12.1773],[-83.3144,10.0872,10.9404],[-83.3119,10.0853,10.9132],[-83.3095,10.0869,10.882],[-83.3049,10.0944,9.9441],[-83.2985,10.0972,11.4931],[-83.2922,10.1053,12.8939],[-83.2841,10.1116,8.4258],[-83.2846,10.1142,7.6016],[-83.2831,10.1169,6.7313],[-83.2844,10.1209,5.1592],[-83.2818,10.1281,10.5561],[-83.2733,10.1355,11.2613],[-83.269,10.1355,3.0157],[-83.2654,10.144,14.8753],[-83.2664,10.1469,11.6889],[-83.2645,10.1509,3.3304],[-83.2563,10.1539,6.974],[-83.252,10.1524,7.5046],[-83.2518,10.1597,14.2269],[-83.2462,10.1614,6.9961],[-83.2446,10.1652,8.4792],[-83.2453,10.1673,11.6875],[-83.2379,10.174,0.0],[-83.2785,10.2238,0.9279],[-83.2809,10.2202,0.0],[-83.2711,10.207,0.0],[-83.2698,10.1947,3.6952],[-83.2769,10.1902,9.4945],[-83.2792,10.1933,13.5607],[-83.2847,10.1917,11.1479],[-83.2877,10.1948,13.4848],[-83.296,10.1921,6.5845],[-83.2983,10.1948,5.7922],[-83.3002,10.1945,9.2667],[-83.2994,10.1963,5.2816],[-83.3012,10.1964,7.5487],[-83.3032,10.1957,3.1285],[-83.3049,10.1915,6.5155],[-83.3086,10.192,6.8946],[-83.31,10.1899,11.4796],[-83.3085,10.1868,14.5905],[-83.3108,10.187,16.4956],[-83.3105,10.1851,16.4515],[-83.3156,10.1873,15.8567],[-83.3212,10.1857,6.2252],[-83.3216,10.1837,10.367],[-83.3232,10.1847,13.9742],[-83.3295,10.1815,8.1552],[-83.33,10.1794,11.2101],[-83.3337,10.1791,4.1542],[-83.3417,10.1676,12.9812],[-83.3442,10.1677,9.5621],[-83.3455,10.1613,10.5178],[-83.3484,10.16,6.0842],[-83.3547,10.1495,15.2708],[-83.3623,10.1417,12.3447],[-83.3638,10.1368,14.7496],[-83.3624,10.1306,13.4615],[-83.3662,10.1276,12.5917],[-83.3633,10.1233,13.6608],[-83.3705,10.1105,16.1579],[-83.3753,10.1075,18.2892],[-83.3812,10.0997,26.5955],[-83.3838,10.1015,23.0699],[-83.3927,10.0973,37.2462],[-83.3981,10.0914,51.539],[-83.4021,10.0834,77.2482],[-83.4065,10.0787,95.9049],[-83.4117,10.0771,117.6124],[-83.4174,10.0703,156.4319],[-83.4121,10.0616,178.1139],[-83.42,10.044,246.059],[-83.424,10.0411,251.22559999999999],[-83.4332,10.0412,280.2429],[-83.4445,10.0345,353.8456],[-83.4462,10.0284,471.8598],[-83.4561,10.0267,559.7211],[-83.4577,10.0235,577.5669],[-83.463,10.0203,541.7971],[-83.4673,10.0127,666.4662],[-83.4678,10.008,637.4503],[-83.4617,9.9935,598.9271],[-83.4581,9.9931,624.899],[-83.4592,9.9889,580.1464],[-83.4553,9.9845,541.3498],[-83.45,9.9819,555.895],[-83.3811,9.9818,418.7558]]]]}
,"properties": {"GID_3": "CRI.5.3.1_1","GID_0": "CRI","country": "CostaRica","GID_1": "CRI.5_1","province": "Limón","NL_NAME_1": "NA","GID_2": "CRI.5.3_1","county": "Matina","NL_NAME_2": "NA","city": "Batan","VARNAME_3": "NA","NL_NAME_3": "NA","TYPE_3": "Distrito","ENGTYPE_3": "District","CC_3": "2","HASC_3": "NA","name": "Batan.city","area_km2": 214.1057,"hist_schema_id": "Elevation0-9000","hist_area_km2": {"0": 64.5956,"25": 70.882,"50": 4.0706,"75": 2.4842,"100": 2.3591,"125": 2.7767,"150": 3.0064,"175": 3.9669,"200": 4.7394,"225": 4.4679,"250": 5.4075,"275": 5.4284,"300": 5.9086,"325": 5.1361,"350": 4.0297,"375": 3.4451,"400": 3.4868,"425": 3.5286,"450": 3.967,"475": 2.4429,"500": 1.7539,"525": 1.399,"550": 1.3781,"575": 0.8561,"600": 0.6682,"625": 0.5847,"650": 0.5429,"675": 0.2297,"700": 0.2715,"725": 0.167,"750": 0.1253}}}