{"type": "Feature","bbox": [-83.8805,10.2602,-83.6261,10.6087],"geometry": {"type": "MultiPolygon","coordinates": [[[[-83.8487,10.3375,75.2075],[-83.8397,10.3258,82.252],[-83.834,10.3117,93.6648],[-83.8268,10.306,100.0046],[-83.8245,10.2996,103.9076],[-83.8261,10.2904,109.4079],[-83.8184,10.2834,118.6191],[-83.8091,10.2833,121.862],[-83.8084,10.2776,122.5395],[-83.8059,10.2762,128.8399],[-83.8052,10.267,138.1865],[-83.8036,10.2671,133.1011],[-83.8016,10.2602,148.6724],[-83.7767,10.2602,143.6773],[-83.7766,10.269,132.3397],[-83.7734,10.2729,122.4265],[-83.7737,10.2764,118.9124],[-83.77,10.2781,122.0448],[-83.7648,10.2904,102.0877],[-83.7588,10.2938,94.3368],[-83.7565,10.299,92.0439],[-83.7528,10.3021,92.7296],[-83.7523,10.309,81.9035],[-83.7505,10.3098,84.9409],[-83.7508,10.315,83.3927],[-83.7477,10.3088,83.456],[-83.7477,10.3192,76.914],[-83.7461,10.3205,77.254],[-83.7462,10.3216,77.254],[-83.7617,10.3215,78.3378],[-83.7593,10.3254,83.5254],[-83.7611,10.3258,73.6973],[-83.7617,10.3292,82.7377],[-83.7592,10.3287,82.2529],[-83.7591,10.3305,68.6524],[-83.7565,10.3308,74.9207],[-83.7586,10.3319,68.6524],[-83.7926,10.3317,84.3981],[-83.791,10.335,94.1165],[-83.7798,10.3418,81.0155],[-83.7781,10.3453,80.0467],[-83.7781,10.3568,72.2508],[-83.7701,10.3745,65.2078],[-83.7687,10.3858,57.7502],[-83.7643,10.3907,56.7141],[-83.7635,10.3945,55.6915],[-83.7605,10.3945,54.9377],[-83.7598,10.3985,54.464],[-83.7612,10.3994,54.0825],[-83.7595,10.4002,54.0825],[-83.7597,10.4023,55.5799],[-83.7578,10.4012,53.2802],[-83.755,10.4055,50.4347],[-83.7531,10.4042,54.1279],[-83.754,10.4052,52.7773],[-83.7516,10.4093,52.2789],[-83.7528,10.4099,52.2789],[-83.7486,10.4126,51.5022],[-83.7458,10.4125,46.7639],[-83.744,10.4148,48.5439],[-83.7408,10.4116,45.5845],[-83.7408,10.4144,52.4909],[-83.7368,10.4141,47.7487],[-83.7367,10.416,47.5988],[-83.7343,10.4162,47.104],[-83.7339,10.4204,45.6393],[-83.7319,10.4205,45.2314],[-83.7334,10.4214,47.8456],[-83.7313,10.4244,43.9113],[-83.7318,10.4276,51.4049],[-83.7283,10.4288,52.676],[-83.7287,10.4318,51.368],[-83.7252,10.4319,56.5035],[-83.7273,10.4345,41.7178],[-83.7256,10.435,43.2901],[-83.7271,10.4368,42.3085],[-83.7239,10.4348,40.9411],[-83.7227,10.4365,39.2755],[-83.7221,10.4351,38.1129],[-83.7204,10.4355,36.6807],[-83.7176,10.4415,36.7639],[-83.7145,10.4409,37.3915],[-83.715,10.443,33.2261],[-83.7064,10.4452,31.9196],[-83.7064,10.4467,30.7952],[-83.7048,10.4459,34.8034],[-83.7028,10.4507,35.7605],[-83.6976,10.4523,31.6173],[-83.6975,10.4558,34.3683],[-83.695,10.4561,30.5769],[-83.6967,10.4572,30.916],[-83.6945,10.4588,31.0415],[-83.6967,10.4597,29.2519],[-83.6947,10.4609,29.4703],[-83.6976,10.4626,28.3768],[-83.6968,10.4654,32.4451],[-83.6936,10.4671,28.4865],[-83.694,10.4695,32.0693],[-83.6913,10.4697,27.284],[-83.6925,10.4707,32.7813],[-83.6916,10.4734,32.3539],[-83.6877,10.4729,26.3762],[-83.6819,10.4764,28.1793],[-83.6822,10.4786,23.7448],[-83.6796,10.4814,24.4622],[-83.6809,10.4821,25.6198],[-83.6777,10.482,24.5631],[-83.6785,10.485,26.679],[-83.6759,10.4841,26.7843],[-83.6748,10.4869,22.2147],[-83.6766,10.4887,25.4323],[-83.6742,10.4919,26.7954],[-83.6761,10.4918,22.8403],[-83.6761,10.4932,25.5759],[-83.6704,10.499,28.6793],[-83.6679,10.4963,27.943],[-83.6632,10.4958,31.9906],[-83.6642,10.499,23.011],[-83.6622,10.5027,25.7001],[-83.6564,10.503,28.8133],[-83.654,10.5084,20.1486],[-83.6518,10.5098,18.8818],[-83.6538,10.5101,23.1214],[-83.6533,10.514,25.248],[-83.6413,10.513,26.4951],[-83.6406,10.5166,17.4542],[-83.6361,10.5163,18.5287],[-83.6305,10.5201,19.481],[-83.6305,10.5243,13.6901],[-83.6261,10.5302,14.3213],[-83.6285,10.5325,14.4132],[-83.6299,10.538,11.4016],[-83.6287,10.5431,13.2053],[-83.7995,10.6087,112.2386],[-83.8435,10.6078,26.2721],[-83.8434,10.606,24.7627],[-83.8456,10.6063,27.0363],[-83.8457,10.6039,25.3799],[-83.842,10.6011,26.1324],[-83.8414,10.5951,28.9728],[-83.8389,10.5943,28.2293],[-83.8363,10.5903,36.1568],[-83.8387,10.5888,39.1955],[-83.837,10.5831,40.5784],[-83.8438,10.5724,31.4391],[-83.8404,10.5663,32.8369],[-83.844,10.5636,33.8289],[-83.8457,10.5588,34.5898],[-83.845,10.5559,35.6969],[-83.8473,10.5511,35.7506],[-83.8431,10.5487,35.0751],[-83.8462,10.5463,35.9523],[-83.8454,10.54,36.9661],[-83.8404,10.5392,37.2527],[-83.8378,10.5324,37.0951],[-83.8376,10.5157,41.8504],[-83.8392,10.5115,41.4595],[-83.8311,10.5034,41.7883],[-83.8322,10.4962,45.8023],[-83.8281,10.4944,44.0269],[-83.831,10.4819,44.5719],[-83.8365,10.4787,46.3812],[-83.8386,10.4745,45.8632],[-83.838,10.4721,45.9904],[-83.8319,10.4675,48.0085],[-83.831,10.4622,47.4213],[-83.8393,10.4551,51.3616],[-83.8447,10.4451,50.7882],[-83.856,10.4466,52.0775],[-83.8594,10.4446,53.2413],[-83.8598,10.4377,54.6062],[-83.8665,10.4354,56.038],[-83.874,10.429,56.8103],[-83.8753,10.4164,59.7469],[-83.8805,10.4036,62.7281],[-83.8754,10.3904,61.3822],[-83.8727,10.3896,63.4067],[-83.8691,10.3808,62.3964],[-83.8653,10.3797,69.5667],[-83.865,10.3755,66.1271],[-83.8576,10.3673,64.5884],[-83.8549,10.359,67.3641],[-83.8504,10.3543,73.4617],[-83.8517,10.3487,77.5689],[-83.8487,10.3375,75.2075]]]]}
,"properties": {"GID_3": "CRI.5.4.6_1","GID_0": "CRI","country": "CostaRica","GID_1": "CRI.5_1","province": "Limón","NL_NAME_1": "NA","GID_2": "CRI.5.4_1","county": "Pococí","NL_NAME_2": "NA","city": "LaRita","VARNAME_3": "NA","NL_NAME_3": "NA","TYPE_3": "Distrito","ENGTYPE_3": "District","CC_3": "3","HASC_3": "NA","name": "La_Rita.city","area_km2": 504.5617,"hist_schema_id": "Elevation0-9000","hist_area_km2": {"0": 1.7093,"25": 179.518,"50": 195.0843,"75": 80.8771,"100": 34.9186,"125": 10.4308,"150": 2.0237}}}