{"type": "Feature","bbox": [-84.1098,9.7144,-83.9489,9.9087],"geometry": {"type": "MultiPolygon","coordinates": [[[[-84.0325,9.7649,1411.6394],[-84.0371,9.7649,1378.0042],[-84.0411,9.7678,1383.0049],[-84.0467,9.7659,1332.1548],[-84.0493,9.7673,1368.1843],[-84.0553,9.7661,1271.9026],[-84.058,9.7674,1297.851],[-84.0634,9.764,1234.1295],[-84.0666,9.7656,1272.7004],[-84.0714,9.7638,1245.066],[-84.0788,9.7662,1175.0898],[-84.0817,9.7655,1181.1636],[-84.0885,9.77,1137.5831],[-84.0866,9.7746,1232.7161],[-84.0845,9.7758,1192.4226],[-84.084,9.7868,1219.7313],[-84.082,9.7875,1235.4346],[-84.0823,9.7902,1243.5212],[-84.0768,9.7956,1308.0935],[-84.0753,9.8019,1349.1284],[-84.0653,9.8088,1435.1614],[-84.0462,9.8135,1621.0599],[-84.0416,9.8192,1717.6907],[-84.0344,9.8233,1796.7935],[-84.0302,9.8238,1893.6249],[-84.0255,9.8391,1842.8718],[-84.0165,9.8443,1797.8176],[-84.0186,9.8479,1790.5769],[-84.0168,9.8542,1707.7906],[-84.0125,9.8589,1709.5764],[-83.9993,9.8679,1599.9539],[-83.9984,9.8757,1592.9744],[-84.0138,9.8825,1447.9958],[-84.0207,9.8843,1371.0129],[-84.0308,9.8834,1218.1594],[-84.0335,9.8845,1188.8073],[-84.0349,9.8873,1173.4308],[-84.0373,9.8866,1180.6221],[-84.0361,9.8886,1171.4417],[-84.0374,9.8885,1177.2612],[-84.0388,9.8931,1170.7281],[-84.0399,9.8928,1167.2815],[-84.0403,9.8957,1167.2688],[-84.0419,9.8965,1170.2114],[-84.0341,9.894,1180.7394],[-84.0304,9.897,1230.8984],[-84.0335,9.9005,1315.7471],[-84.0474,9.9042,1171.6295],[-84.0506,9.9006,1161.3667],[-84.0547,9.9028,1163.8014],[-84.058,9.9004,1154.1011],[-84.0583,9.9016,1151.7181],[-84.0663,9.9038,1144.7037],[-84.0679,9.9064,1143.8774],[-84.072,9.906,1145.9756],[-84.0715,9.9087,1140.7007],[-84.0739,9.9084,1142.3107],[-84.0748,9.9067,1137.1876],[-84.0779,9.9061,1127.6194],[-84.0791,9.9031,1127.5817],[-84.0829,9.904,1129.5568],[-84.083,9.9027,1123.0917],[-84.0846,9.9036,1121.6482],[-84.087,9.9015,1123.4824],[-84.0878,9.9027,1127.4072],[-84.0904,9.8999,1123.2],[-84.0916,9.9009,1114.7073],[-84.0918,9.8981,1118.3199],[-84.0865,9.8939,1132.1434],[-84.0862,9.8906,1137.151],[-84.0842,9.8890999999999991,1148.8477],[-84.0844,9.8854,1160.6582],[-84.0918,9.8837,1234.3577],[-84.1041,9.8751,1413.5088],[-84.0995,9.8744,1374.5082],[-84.0933,9.8705,1316.0763],[-84.0824,9.8714,1206.8477],[-84.0796,9.874,1190.6183],[-84.0805,9.8668,1228.1342],[-84.0607,9.8633,1225.149],[-84.0614,9.8591,1215.4026],[-84.07,9.8506,1272.1897],[-84.0675,9.8468,1337.6494],[-84.0658,9.8368,1560.151],[-84.0624,9.8313,1666.9087],[-84.0655,9.8313,1677.0471],[-84.0698,9.834,1634.7141],[-84.0722,9.8313,1734.7799],[-84.0786,9.8319,1677.6091],[-84.0792,9.8297,1679.8948],[-84.0826,9.8305,1706.4142],[-84.0823,9.8273,1641.6371],[-84.0772,9.827,1568.1726],[-84.078,9.8244,1538.5964],[-84.0887,9.8261,1644.6755],[-84.0969,9.8243,1707.7501],[-84.1039,9.8262,1833.6956],[-84.1011,9.8228,1825.1809],[-84.0955,9.8229,1739.7162],[-84.091,9.8195,1819.754],[-84.0882,9.8204,1819.9327],[-84.086,9.8176,1853.7122],[-84.0893,9.8048,1402.8087],[-84.0945,9.8044,1451.1028],[-84.1025,9.8076,1593.476],[-84.1018,9.8028,1589.783],[-84.0975,9.7998,1543.8887],[-84.0945,9.7946,1485.4509],[-84.0965,9.7917,1455.7976],[-84.0953,9.7857,1473.3325],[-84.0992,9.7808,1479.1974],[-84.0969,9.7752,1427.147],[-84.1043,9.7713,1375.9608],[-84.1081,9.7676,1297.7349],[-84.1073,9.7662,1248.2891],[-84.109,9.7669,1248.2891],[-84.1076,9.7627,1053.5519],[-84.1092,9.7628,1053.5519],[-84.1098,9.7613,950.6053],[-84.1018,9.7548,1004.8071],[-84.1008,9.7523,1023.5416],[-84.096,9.7524,1112.6077],[-84.0898,9.7452,1131.683],[-84.086,9.7462,1169.6564],[-84.0837,9.7439,1194.1604],[-84.0821,9.7446,1210.2625],[-84.0808,9.7415,1195.6409],[-84.078,9.7427,1215.5371],[-84.0704,9.74,1255.0492],[-84.0608,9.7425,1288.2598],[-84.0589,9.7414,1287.6493],[-84.0585,9.7431,1298.8945],[-84.0569,9.7422,1331.5865],[-84.0528,9.7443,1371.6062],[-84.0465,9.7405,1385.1355],[-84.0365,9.7407,1432.606],[-84.0367,9.7426,1451.0474],[-84.0287,9.7423,1513.4698],[-84.028,9.7407,1465.4423],[-84.018,9.7387,1550.8834],[-84.015,9.7394,1532.5352],[-84.0158,9.7404,1532.5352],[-84.0129,9.7424,1591.9985],[-84.0025,9.7372,1631.3494],[-84.0008,9.7389,1698.0005],[-83.9918,9.7363,1713.0273],[-83.9893,9.7389,1721.1562],[-83.9862,9.7394,1749.6992],[-83.9834,9.7372,1782.4031],[-83.9734,9.7384,1880.5281],[-83.9728,9.736,1909.5229],[-83.9632,9.7361,1962.625],[-83.9564,9.7328,2060.78],[-83.9549,9.7298,2139.9036],[-83.9559,9.7251,2220.4434],[-83.9489,9.7144,2349.3691],[-83.95,9.7318,2234.7905],[-83.9491,9.7356,2168.8723],[-83.9512,9.7351,2184.0293],[-83.9508,9.7396,2136.6499],[-83.9536,9.7407,2062.6848],[-83.9553,9.7384,2107.4639],[-83.9594,9.7429,2029.166],[-83.9609,9.741,2051.8843],[-83.9661,9.7412,2007.7233],[-83.9791,9.7452,1998.2931],[-83.9775,9.7535,1914.5668],[-83.978,9.7577,1897.6714],[-83.9825,9.7601,1917.4204],[-83.9815,9.7696,1838.7988],[-83.9843,9.7717,1846.464],[-83.9877,9.7714,1865.144],[-83.9888,9.777,1867.6299],[-83.9919,9.779,1863.6528],[-83.9918,9.7837,1882.5011],[-83.9946,9.7833,1888.1274],[-83.9992,9.7853,1798.0134],[-84.0021,9.7788,1757.2568],[-84.0187,9.7722,1582.5881],[-84.0195,9.7703,1523.7931],[-84.0249,9.7704,1464.8895],[-84.0289,9.7681,1445.4504],[-84.0296,9.7647,1417.8921],[-84.0325,9.7649,1411.6394]]]]}
,"properties": {"GID_2": "CRI.7.5_1","GID_0": "CRI","country": "CostaRica","GID_1": "CRI.7_1","province": "SanJosé","NL_NAME_1": "NA","county": "Desamparados","VARNAME_2": "NA","NL_NAME_2": "NA","TYPE_2": "Cantón","ENGTYPE_2": "Canton","CC_2": "3","HASC_2": "CR.SJ.DE","name": "Desamparados.county","area_km2": 120.27461,"hist_schema_id": "Elevation0-9000","hist_area_km2": {"950": 0.0209,"975": 0.08358,"1000": 0.12537,"1025": 0.12537,"1050": 0.08358,"1075": 0.20895,"1100": 0.35522,"1125": 1.23245,"1150": 6.87194,"1175": 7.08096,"1200": 4.36587,"1225": 4.32416,"1250": 5.3896,"1275": 4.42874,"1300": 3.82303,"1325": 3.67686,"1350": 3.50984,"1375": 3.11291,"1400": 3.42627,"1425": 3.92783,"1450": 3.96959,"1475": 3.69807,"1500": 3.82337,"1525": 4.0323,"1550": 4.15766,"1575": 3.6981,"1600": 3.69808,"1625": 3.38469,"1650": 3.51003,"1675": 3.48914,"1700": 3.07134,"1725": 3.32205,"1750": 2.84154,"1775": 2.40278,"1800": 2.69529,"1825": 2.19392,"1850": 2.19389,"1875": 2.11032,"1900": 1.35816,"1925": 1.3373,"1950": 0.58505,"1975": 0.33432,"2000": 0.25076,"2025": 0.10448,"2050": 0.10448,"2075": 0.18807,"2100": 0.20897,"2125": 0.14628,"2150": 0.10448,"2175": 0.35525,"2200": 0.14628,"2225": 0.08359,"2250": 0.18808,"2275": 0.06269,"2300": 0.10449,"2325": 0.14629}}}