{"type":"Feature","properties":{"GID_2":"CRI.7.3_1","GID_0":"CRI","country":"CostaRica","GID_1":"CRI.7_1","province":"SanJosé","NL_NAME_1":"NA","county":"Aserrí","VARNAME_2":"NA","NL_NAME_2":"NA","TYPE_2":"Cantón","ENGTYPE_2":"Canton","CC_2":"6","HASC_2":"CR.SJ.AS","name":"Aserrí.county"},
"geometry":{"type": "MultiPolygon","coordinates": [[[[-84.1509,9.6294,2070.2856],[-84.1489,9.6297,2119.8896],[-84.1451,9.6401,1837.5175],[-84.1466,9.6481,1337.2645],[-84.1534,9.6553,968.8492],[-84.1587,9.6565,640.4871],[-84.1572,9.6581,666.1713],[-84.1571,9.6622,725.2374],[-84.1535,9.6623,757.6269],[-84.1534,9.6712,883.5788],[-84.1502,9.6778,1006.7413],[-84.1424,9.6813,1190.4525],[-84.1421,9.6846,1245.5012],[-84.1366,9.6909,1332.2219],[-84.1265,9.6972,1487.6349],[-84.1186,9.7055,1685.8979],[-84.1112,9.703,1850.0052],[-84.1065,9.7098,2217.3538],[-84.0917,9.709,2179.4824],[-84.0937,9.7156,2050.0776],[-84.0923,9.7256,1769.7336],[-84.0945,9.7263,1754.0524],[-84.0931,9.7302,1647.5804],[-84.0945,9.7354,1606.8698],[-84.0974,9.737,1536.5004],[-84.0991,9.7407,1509.3145],[-84.0991,9.7464,1245.934],[-84.0956,9.7499,1115.4968],[-84.0956,9.7518,1051.5947],[-84.1008,9.7523,1023.5416],[-84.1018,9.7548,1004.8071],[-84.1065,9.7574,979.2015],[-84.1079,9.7609,963.4773],[-84.1098,9.7617,950.6053],[-84.1076,9.7627,1053.5519],[-84.109,9.7669,1248.2891],[-84.1073,9.7662,1248.2891],[-84.1081,9.7676,1297.7349],[-84.1043,9.7713,1375.9608],[-84.0969,9.7752,1427.147],[-84.0992,9.7808,1479.1974],[-84.0953,9.7857,1473.3325],[-84.0965,9.7917,1455.7976],[-84.0945,9.7946,1485.4509],[-84.0975,9.7998,1543.8887],[-84.1018,9.8028,1589.783],[-84.1025,9.8076,1593.476],[-84.0945,9.8044,1451.1028],[-84.0893,9.8048,1402.8087],[-84.086,9.8176,1853.7122],[-84.0882,9.8204,1819.9327],[-84.091,9.8195,1819.754],[-84.0955,9.8229,1739.7162],[-84.1011,9.8228,1825.1809],[-84.1039,9.8262,1833.6956],[-84.0969,9.8243,1707.7501],[-84.0887,9.8261,1644.6755],[-84.078,9.8244,1538.5964],[-84.0772,9.827,1568.1726],[-84.0823,9.8273,1641.6371],[-84.0826,9.8305,1706.4142],[-84.0792,9.8297,1679.8948],[-84.0786,9.8319,1677.6091],[-84.0722,9.8313,1734.7799],[-84.0698,9.834,1634.7141],[-84.0655,9.8313,1677.0471],[-84.0624,9.8313,1666.9087],[-84.0658,9.8368,1560.151],[-84.0675,9.8468,1337.6494],[-84.07,9.8506,1272.1897],[-84.0614,9.8591,1215.4026],[-84.0607,9.8633,1225.149],[-84.0805,9.8668,1228.1342],[-84.0796,9.874,1190.6183],[-84.0824,9.8714,1206.8477],[-84.0909,9.8706,1286.2942],[-84.0936,9.8706,1316.0763],[-84.103,9.8754,1382.3711],[-84.114,9.8721,1554.6359],[-84.1185,9.8658,1609.7747],[-84.1212,9.8645,1656.656],[-84.1223,9.8613,1723.4299],[-84.1341,9.8525,2124.866],[-84.1378,9.8398,2060.116],[-84.1356,9.8332,1835.2151],[-84.1411,9.8277,1686.824],[-84.1397,9.8201,1545.0596],[-84.1416,9.8166,1463.2249],[-84.1382,9.8112,1467.9658],[-84.1321,9.8102,1334.3835],[-84.1325,9.8036,1226.238],[-84.1343,9.8,1212.4791],[-84.1409,9.7982,1146.7661],[-84.1424,9.7912,1151.9215],[-84.1513,9.7851,952.0042],[-84.1479,9.7835,898.0608],[-84.1461,9.7847,940.2114],[-84.1439,9.7818,794.1703],[-84.1484,9.7797,832.774],[-84.1503,9.7816,783.9191],[-84.1528,9.7796,780.1793],[-84.1558,9.7809,794.015],[-84.1572,9.7774,752.0438],[-84.1622,9.7765,715.4548],[-84.1628,9.7649,1032.4473],[-84.1616,9.7614,1179.9144],[-84.157,9.7594,1261.1857],[-84.1398,9.7366,1938.3774],[-84.135,9.733,2134.7905],[-84.1338,9.7286,2152.9702],[-84.1391,9.7221,2469.4197],[-84.1446,9.7233,2372.2031],[-84.1508,9.7215,2249.4453],[-84.1586,9.7097,2230.3691],[-84.1683,9.7128,2099.9331],[-84.1685,9.7077,2068.7715],[-84.1703,9.7039,2167.8811],[-84.1734,9.7017,2184.928],[-84.1732,9.6985,2142.4941],[-84.185,9.69,2059.6113],[-84.1994,9.6855,1475.1387],[-84.2039,9.6818,1163.3478],[-84.208,9.6682,806.1052],[-84.207,9.6618,659.0178],[-84.2097,9.6568,527.1442],[-84.2142,9.6545,494.8276],[-84.2114,9.6508,443.5646],[-84.2118,9.6475,433.1231],[-84.2153,9.6471,429.1714],[-84.2177,9.6446,349.3412],[-84.2147,9.6415,302.6967],[-84.2208,9.64,257.0558],[-84.2192,9.638,276.0003],[-84.2254,9.6281,924.4163],[-84.2226,9.6272,863.1903],[-84.2173,9.6207,904.943],[-84.2107,9.6216,674.7206],[-84.2084,9.6196,613.5396],[-84.2033,9.6204,598.3173],[-84.2001,9.6183,622.2842],[-84.191,9.6173,814.291],[-84.1815,9.6242,1029.5085],[-84.1606,9.6258,1661.7566],[-84.158,9.6282,1758.126],[-84.1509,9.6294,2070.2856]]]]}}