{"type":"Feature","properties":{"GID_2":"CRI.6.10_1","GID_0":"CRI","country":"CostaRica","GID_1":"CRI.6_1","province":"Puntarenas","NL_NAME_1":"NA","county":"Parrita","VARNAME_2":"NA","NL_NAME_2":"NA","TYPE_2":"Cantón","ENGTYPE_2":"Canton","CC_2":"9","HASC_2":"CR.PU.PA","name":"Parrita.county"},
"geometry":{"type": "MultiPolygon","coordinates": [[[[-84.5339,9.5106,0.0],[-84.5338,9.5104,0.0],[-84.5336,9.5105,0.0],[-84.5337,9.5107,0.0],[-84.5339,9.5106,0.0]]],
[[[-84.533,9.5114,0.0],[-84.5327,9.5112,0.0],[-84.5324,9.5115,0.0],[-84.5327,9.5116,0.0],[-84.533,9.5114,0.0]]],
[[[-84.5359,9.5154,0.0],[-84.5359,9.5151,0.0],[-84.5348,9.5173,0.0],[-84.5354,9.5168,0.0],[-84.5359,9.5154,0.0]]],
[[[-84.5256,9.5164,0.0],[-84.5254,9.5161,0.0],[-84.5253,9.5162,0.0],[-84.5254,9.5164,0.0],[-84.5256,9.5164,0.0]]],
[[[-84.5219,9.5198,0.0],[-84.5217,9.5199,0.0],[-84.5217,9.5205,0.0],[-84.5221,9.5204,0.0],[-84.5219,9.5198,0.0]]],
[[[-84.5168,9.521,0.0],[-84.5165,9.521,0.0],[-84.5167,9.5216,0.0],[-84.5169,9.5214,0.0],[-84.5168,9.521,0.0]]],
[[[-84.5149,9.5208,0.0],[-84.5145,9.5208,0.0],[-84.5145,9.5218,0.0],[-84.5147,9.5216,0.0],[-84.5149,9.5208,0.0]]],
[[[-84.5138,9.5219,0.0],[-84.5137,9.5219,0.0],[-84.5135,9.5222,0.0],[-84.5137,9.5222,0.0],[-84.5138,9.5219,0.0]]],
[[[-84.5164,9.5219,0.0],[-84.5162,9.5218,0.0],[-84.5161,9.5229,0.0],[-84.5164,9.5227,0.0],[-84.5164,9.5219,0.0]]],
[[[-84.5551,9.5408,3.7973],[-84.5556,9.5392,0.5958],[-84.5411,9.527,2.623],[-84.5361,9.5193,2.7086],[-84.5326,9.5181,1.6442],[-84.5239,9.52,5.8699],[-84.5178,9.5235,0.0],[-84.5098,9.5238,24.8541],[-84.4985,9.5279,6.4151],[-84.4851,9.5303,1.0204],[-84.4833,9.5284,0.0],[-84.4734,9.5285,0.0],[-84.4721,9.5271,0.0],[-84.4548,9.5242,4.2202],[-84.4299,9.5157,6.6103],[-84.4196,9.5145,2.432],[-84.4171,9.5125,10.9195],[-84.4067,9.5097,4.5057],[-84.3962,9.5086,0.0],[-84.3896,9.5059,2.6353],[-84.363,9.5002,3.6536],[-84.3391,9.4926,1.0538],[-84.3105,9.4887,3.9911],[-84.2853,9.4833,4.1181],[-84.2612,9.4753,0.0],[-84.2518,9.476,2.3017],[-84.2501,9.4773,0.0],[-84.2515,9.479,0.0],[-84.2499,9.4808,3.9874],[-84.2482,9.4796,2.3425],[-84.248,9.473,1.9683],[-84.2445,9.4696,0.0],[-84.2219,9.4588,0.889],[-84.1866,9.4465,2.5072],[-84.1867,9.4531,3.7861],[-84.2047,9.4614,1.1043],[-84.2204,9.4605,1.494],[-84.225,9.463,0.0],[-84.2372,9.4763,0.0],[-84.243,9.4896,9.6807],[-84.2533,9.4961,8.871],[-84.2535,9.4986,3.8381],[-84.249,9.5035,11.5406],[-84.2488,9.5064,21.8071],[-84.2466,9.5055,18.0648],[-84.2432,9.5113,5.173],[-84.2353,9.5154,4.5789],[-84.2306,9.5164,17.0504],[-84.2256,9.514,17.1669],[-84.2212,9.5141,20.0454],[-84.2178,9.5116,17.2067],[-84.2162,9.5133,21.3239],[-84.2143,9.5105,15.9973],[-84.2123,9.5104,18.6203],[-84.2026,9.5145,16.5392],[-84.2002,9.5169,18.54],[-84.1993,9.5218,32.7791],[-84.197,9.5218,48.7799],[-84.1957,9.5247,33.0237],[-84.191,9.5274,42.5076],[-84.1864,9.5266,69.8615],[-84.1822,9.5359,88.5166],[-84.1836,9.5401,128.8819],[-84.1876,9.5445,130.0541],[-84.1873,9.5465,180.8143],[-84.185,9.5475,170.0957],[-84.1803,9.5456,208.7389],[-84.1739,9.547,235.3537],[-84.1702,9.5541,390.9386],[-84.1664,9.5551,464.8959],[-84.1586,9.5607,554.5047],[-84.149,9.5634,665.2872],[-84.1418,9.5703,701.0681],[-84.136,9.572,479.2133],[-84.1432,9.5809,618.89],[-84.1393,9.5898,853.1245],[-84.142,9.6005,1304.2773],[-84.1337,9.6,1528.2179],[-84.1309,9.6047,1646.8828],[-84.1306,9.6088,1717.55],[-84.1392,9.6215,1652.9818],[-84.1482,9.623,2091.584],[-84.1503,9.6294,2119.8896],[-84.158,9.6282,1758.126],[-84.1606,9.6258,1661.7566],[-84.1815,9.6242,1029.5085],[-84.191,9.6173,814.291],[-84.2001,9.6183,622.2842],[-84.2033,9.6204,598.3173],[-84.2084,9.6196,613.5396],[-84.2107,9.6216,674.7206],[-84.2173,9.6207,904.943],[-84.2226,9.6272,863.1903],[-84.2268,9.6282,898.6487],[-84.2387,9.6226,610.6184],[-84.2435,9.6236,565.6714],[-84.2464,9.6271,633.0018],[-84.2572,9.6281,239.8834],[-84.2593,9.627,182.2507],[-84.266,9.6308,117.6605],[-84.284,9.6296,72.8934],[-84.2882,9.6381,61.6104],[-84.2924,9.6342,58.5984],[-84.2939,9.6351,58.5984],[-84.2954,9.6338,57.2729],[-84.2971,9.6346,50.9464],[-84.2951,9.6467,60.8109],[-84.3036,9.6499,66.1192],[-84.305,9.6466,129.4634],[-84.3042,9.644,185.3834],[-84.3091,9.6416,179.5399],[-84.3122,9.6428,262.951],[-84.3247,9.6365,294.9835],[-84.3344,9.641,320.6898],[-84.3369,9.6377,355.9603],[-84.3368,9.635,305.6382],[-84.3416,9.6358,353.7876],[-84.3411,9.6335,343.8181],[-84.3457,9.6306,339.2141],[-84.3502,9.6397,321.0067],[-84.357,9.6375,314.409],[-84.3594,9.6387,308.426],[-84.361,9.6361,307.9844],[-84.3601,9.6326,304.9639],[-84.3657,9.6315,268.3275],[-84.3692,9.6349,274.7458],[-84.3687,9.6374,274.4519],[-84.3724,9.6349,279.8544],[-84.376,9.6365,266.562],[-84.3761,9.6395,270.0469],[-84.3783,9.6341,258.256],[-84.3803,9.6355,257.7839],[-84.384,9.6335,253.8798],[-84.3857,9.6355,237.0772],[-84.3848,9.6369,245.1371],[-84.3883,9.6386,230.8167],[-84.3982,9.6351,139.1641],[-84.3964,9.6321,163.2377],[-84.3969,9.6249,141.7057],[-84.394,9.6211,130.1186],[-84.3978,9.6165,119.062],[-84.3975,9.6093,106.7008],[-84.3918,9.6002,96.605],[-84.394,9.5972,103.8703],[-84.3972,9.5968,114.4572],[-84.3991,9.5927,113.3501],[-84.3985,9.5894,79.6745],[-84.401,9.5896,71.1819],[-84.4024,9.5873,89.0477],[-84.4018,9.5828,66.9801],[-84.4047,9.5834,68.4575],[-84.4052,9.5815,75.1676],[-84.4078,9.5813,63.7809],[-84.4097,9.5833,65.7696],[-84.4143,9.5833,60.3003],[-84.4155,9.5798,62.1957],[-84.4128,9.5799,67.7267],[-84.4146,9.5777,57.6715],[-84.4128,9.5746,60.5624],[-84.415,9.5751,56.6446],[-84.4143,9.5727,56.928],[-84.418,9.5721,76.2693],[-84.4174,9.569,69.8719],[-84.4234,9.5693,53.9623],[-84.4227,9.5621,47.6808],[-84.4264,9.566,83.7882],[-84.4281,9.5649,48.965],[-84.4249,9.5587,58.0923],[-84.4284,9.5586,41.1853],[-84.4294,9.5605,53.0687],[-84.4309,9.5566,47.5321],[-84.4318,9.5595,39.2924],[-84.4366,9.5626,62.0372],[-84.4348,9.5648,37.9727],[-84.4383,9.5651,39.9689],[-84.4342,9.5693,88.5199],[-84.4398,9.5689,35.4642],[-84.4392,9.5722,42.6184],[-84.442,9.5729,35.9909],[-84.4417,9.5756,30.9696],[-84.4452,9.5755,36.1379],[-84.4447,9.5777,36.6261],[-84.4495,9.5757,32.879],[-84.4513,9.578,40.4511],[-84.4534,9.5771,45.9055],[-84.4571,9.5821,51.1428],[-84.4621,9.5765,60.0715],[-84.4621,9.5723,29.952],[-84.4639,9.57,31.901],[-84.4645,9.5731,30.8708],[-84.4696,9.5761,56.8173],[-84.4723,9.5743,53.2741],[-84.4728,9.5719,35.0136],[-84.4747,9.5743,42.0717],[-84.4784,9.5734,46.9404],[-84.4819,9.5768,23.8175],[-84.4839,9.5752,75.8189],[-84.4846,9.5696,38.9423],[-84.4899,9.5724,41.2708],[-84.4941,9.57,61.0144],[-84.503,9.573,19.8665],[-84.507,9.5708,26.9591],[-84.511,9.5725,24.1422],[-84.521,9.5726,10.7115],[-84.5274,9.576,19.639],[-84.5321,9.5729,9.3068],[-84.534,9.5684,10.9641],[-84.5382,9.566,6.7942],[-84.5397,9.5612,14.1074],[-84.5385,9.5586,5.8256],[-84.5459,9.5527,7.4075],[-84.5411,9.5492,3.8287],[-84.5459,9.5488,3.1971],[-84.5478,9.5462,5.1215],[-84.548,9.5433,6.4444],[-84.5451,9.5408,4.3005],[-84.545,9.5386,6.8134],[-84.5507,9.5377,3.3923],[-84.5551,9.5408,3.7973]]]]}}