{"type":"Feature","properties":{"GID_3":"CRI.6.9.4_1","GID_0":"CRI","country":"CostaRica","GID_1":"CRI.6_1","province":"Puntarenas","NL_NAME_1":"NA","GID_2":"CRI.6.9_1","county":"Osa","NL_NAME_2":"NA","city":"PiedrasBlancas","VARNAME_3":"NA","NL_NAME_3":"NA","TYPE_3":"Distrito","ENGTYPE_3":"District","CC_3":"5","HASC_3":"NA","name":"Piedras_Blancas.city"},
"geometry":{"type": "MultiPolygon","coordinates": [[[[-83.2435,8.8982,913.5533],[-83.2569,8.8966,557.3162],[-83.2617,8.8936,836.0854],[-83.2663,8.8973,819.6642],[-83.2703,8.8956,659.3055],[-83.2814,8.9003,709.7032],[-83.2837,8.8967,707.0939],[-83.2838,8.892,677.0194],[-83.2901,8.8886,820.2383],[-83.2898,8.8863,834.7283],[-83.2938,8.8874,712.7652],[-83.3012,8.8941,750.8043],[-83.3167,8.8743,109.7403],[-83.3179,8.8701,63.3965],[-83.3253,8.8712,41.0148],[-83.3284,8.875,41.9055],[-83.3352,8.8761,25.9489],[-83.3356,8.8734,29.0471],[-83.339,8.8705,22.6483],[-83.3423,8.872,20.5201],[-83.3462,8.8702,17.4418],[-83.3468,8.8664,20.6914],[-83.3452,8.8643,13.1112],[-83.3469,8.8646,13.9932],[-83.3479,8.8612,17.5995],[-83.3281,8.8343,15.1881],[-83.3313,8.8294,16.4183],[-83.3292,8.8264,16.1702],[-83.337,8.8156,3.4472],[-83.341,8.8177,2.5716],[-83.3433,8.8173,2.7307],[-83.3461,8.82,7.9962],[-83.3479,8.8185,14.2491],[-83.349,8.8205,6.1774],[-83.3502,8.8201,13.5393],[-83.3504,8.8162,11.7986],[-83.3475,8.8141,10.1522],[-83.3459,8.8088,8.31],[-83.3507,8.8042,9.2529],[-83.3477,8.7969,1.9787],[-83.3505,8.7961,4.1228],[-83.3525,8.7926,4.1514],[-83.3555,8.7825,2.9319],[-83.3503,8.7708,23.1211],[-83.3414,8.7654,137.0685],[-83.3439,8.7622,162.5564],[-83.3423,8.7536,259.2172],[-83.3413,8.7577,210.9889],[-83.3359,8.7532,143.8283],[-83.335,8.7482,114.3203],[-83.3322,8.7481,91.8153],[-83.3303,8.7462,74.3546],[-83.3294,8.7418,45.3548],[-83.3264,8.7386,9.2295],[-83.3266,8.7353,4.4263],[-83.3212,8.7316,23.5529],[-83.3222,8.7266,9.7943],[-83.3143,8.7288,40.6562],[-83.3081,8.7279,17.0992],[-83.3044,8.7256,14.2459],[-83.2988,8.726,17.2528],[-83.2956,8.7298,7.0415],[-83.2977,8.7323,3.4222],[-83.2958,8.7388,8.6405],[-83.2936,8.7409,2.9351],[-83.2944,8.7435,21.6349],[-83.2915,8.7448,6.8289],[-83.2894,8.7437,8.1633],[-83.2876,8.7473,9.8062],[-83.2869,8.7499,8.8208],[-83.2883,8.7515,18.5732],[-83.2865,8.7534,10.178],[-83.2886,8.7551,40.4054],[-83.2848,8.7618,13.4315],[-83.2823,8.7628,23.1334],[-83.283,8.7607,8.4771],[-83.2798,8.7599,7.6424],[-83.2788,8.7628,9.3684],[-83.2774,8.7606,12.674],[-83.2741,8.7691,8.9611],[-83.2692,8.7659,10.4702],[-83.265,8.7659,9.477],[-83.2637,8.7684,21.3247],[-83.2635,8.7661,9.477],[-83.2613,8.7662,14.218],[-83.2612,8.7687,9.9506],[-83.2564,8.7669,36.8128],[-83.2544,8.7713,12.3444],[-83.2509,8.7701,8.5806],[-83.2484,8.7721,8.0312],[-83.2512,8.7746,18.8967],[-83.249,8.779,19.9195],[-83.2492,8.7758,16.0471],[-83.2473,8.7736,8.0312],[-83.2429,8.7762,19.4505],[-83.2424,8.7724,21.985],[-83.2364,8.7742,14.6435],[-83.2355,8.7727,32.2882],[-83.2331,8.7731,15.0891],[-83.2339,8.7653,15.745],[-83.2288,8.764,24.0454],[-83.228,8.7661,17.4192],[-83.2249,8.7666,18.7104],[-83.224,8.7648,19.0941],[-83.226,8.7585,39.5722],[-83.2209,8.7571,19.213],[-83.2197,8.7539,26.2281],[-83.2164,8.7574,20.4431],[-83.2117,8.7513,24.0895],[-83.2076,8.7498,38.5772],[-83.2039,8.7444,33.72],[-83.1907,8.7444,48.9385],[-83.187,8.737,64.5755],[-83.1842,8.7354,90.8134],[-83.1795,8.7379,65.4736],[-83.1757,8.745,95.3092],[-83.1748,8.7514,125.2577],[-83.1721,8.7529,173.5184],[-83.1728,8.7596,271.8357],[-83.171,8.7627,268.7404],[-83.173,8.7674,385.136],[-83.1739,8.7784,502.9691],[-83.1726,8.7794,543.457],[-83.171,8.7926,775.1277],[-83.1665,8.8004,1200.1307],[-83.1672,8.8041,1377.3396],[-83.1643,8.8073,1476.2955],[-83.1627,8.8142,1622.7148],[-83.1661,8.8117,1581.0704],[-83.1701,8.8166,1577.7339],[-83.1763,8.8203,1511.9767],[-83.1862,8.8434,1541.8477],[-83.1948,8.8492,1450.3744],[-83.197,8.8566,1320.4302],[-83.2094,8.866,1139.821],[-83.2157,8.8749,1046.718],[-83.2172,8.8745,1066.1643],[-83.2285,8.883,556.5452],[-83.2355,8.8842,986.4656],[-83.2368,8.891,1047.0105],[-83.2435,8.8982,913.5533]]]]}}