{"type": "Feature","bbox": [-84.0983,9.9172,-84.079,9.9359],"geometry": {"type": "MultiPolygon","coordinates": [[[[-84.079,9.9341,1166.4429],[-84.0981,9.9359,1140.2122],[-84.0983,9.9237,1116.9552],[-84.0957,9.9245,1115.1874],[-84.0961,9.9229,1110.3499],[-84.0908,9.9194,1119.0032],[-84.0878,9.9192,1126.0222],[-84.0876,9.921,1137.6127],[-84.0842,9.9172,1129.2014],[-84.0807,9.9213,1126.786],[-84.079,9.9341,1166.4429]]]]}
,"properties": {"GID_3": "CRI.7.15.4_1","GID_0": "CRI","country": "CostaRica","GID_1": "CRI.7_1","province": "SanJosé","NL_NAME_1": "NA","GID_2": "CRI.7.15_1","county": "SanJosé","NL_NAME_2": "NA","city": "Hospital","VARNAME_3": "NA","NL_NAME_3": "NA","TYPE_3": "Distrito","ENGTYPE_3": "District","CC_3": "3","HASC_3": "NA","name": "Hospital.city","area_km2": 3.299784,"hist_schema_id": "Elevation0-9000","hist_area_km2": {"1100": 0.062655,"1125": 0.689205,"1150": 2.401733,"1175": 0.146191}}}