{"type":"Feature","properties":{"GID_3":"CRI.7.9.4_1","GID_0":"CRI","country":"CostaRica","GID_1":"CRI.7_1","province":"SanJosé","NL_NAME_1":"NA","GID_2":"CRI.7.9_1","county":"LeónCortésCastro","NL_NAME_2":"NA","city":"SanIsidro","VARNAME_3":"NA","NL_NAME_3":"NA","TYPE_3":"Distrito","ENGTYPE_3":"District","CC_3":"4","HASC_3":"NA","name":"San_Isidro.city"},
"geometry":{"type": "MultiPolygon","coordinates": [[[[-84.087,9.6441,1205.5],[-84.0816,9.6473,1205.5],[-84.0811,9.6497,1205.5],[-84.0774,9.6501,1221.1573],[-84.0756,9.6535,1232.377],[-84.0733,9.652,1273.6207],[-84.0653,9.6554,1302.1737],[-84.0625,9.6543,1284.0432],[-84.0612,9.6569,1319.8029],[-84.0651,9.6596,1392.6603],[-84.0637,9.6643,1454.059],[-84.0648,9.6672,1454.5737],[-84.0721,9.6712,1517.8923],[-84.0658,9.6763,1706.8535],[-84.0634,9.6829,1972.8784],[-84.066,9.6872,1955.5154],[-84.0659,9.6915,1989.4346],[-84.0768,9.6985,2205.8391],[-84.0772,9.7011,2164.1973],[-84.0816,9.7046,2114.5127],[-84.0873,9.7077,2190.7922],[-84.0917,9.7078,2193.0835],[-84.0926,9.7002,2033.4691],[-84.0942,9.6972,2003.4873],[-84.0996,9.6951,1988.2604],[-84.0989,9.6913,1895.168],[-84.1016,9.6859,1921.8057],[-84.0995,9.6838,1848.4883],[-84.1002,9.6794,1742.4762],[-84.0987,9.6779,1595.5411],[-84.0975,9.6674,1381.9187],[-84.0875,9.6519,1258.5953],[-84.087,9.6441,1205.5]]]]}}