{"type": "Feature","bbox": [-84.2271,9.8882,-84.1883,9.9444],"geometry": {"type": "MultiPolygon","coordinates": [[[[-84.1939,9.8882,1785.835],[-84.1891,9.8938,1456.3276],[-84.1883,9.8995,1268.8279],[-84.191,9.9009,1173.3534],[-84.1931,9.9066,1086.1641],[-84.1959,9.9088,1036.8926],[-84.1976,9.9213,944.163],[-84.2014,9.9296,888.5239],[-84.2052,9.9331,868.561],[-84.2058,9.9383,852.5472],[-84.2188,9.9444,764.9922],[-84.2174,9.9416,827.1044],[-84.2203,9.9378,853.7666],[-84.2198,9.9362,853.4191],[-84.2234,9.9348,835.4711],[-84.2237,9.9304,911.1837],[-84.2259,9.93,867.2048],[-84.2271,9.9274,871.9561],[-84.224,9.9234,1008.3564],[-84.2203,9.9119,1242.0889],[-84.2015,9.8974,1577.6173],[-84.1939,9.8882,1785.835]]]]}
,"properties": {"GID_3": "CRI.7.16.2_1","GID_0": "CRI","country": "CostaRica","GID_1": "CRI.7_1","province": "SanJosé","NL_NAME_1": "NA","GID_2": "CRI.7.16_1","county": "SantaAna","NL_NAME_2": "NA","city": "Piedades","VARNAME_3": "NA","NL_NAME_3": "NA","TYPE_3": "Distrito","ENGTYPE_3": "District","CC_3": "5","HASC_3": "NA","name": "Piedades.city","area_km2": 11.904662,"hist_schema_id": "Elevation0-9000","hist_area_km2": {"800": 0.083535,"825": 0.146188,"850": 1.085976,"875": 1.127762,"900": 0.856274,"925": 0.751856,"950": 0.45947,"975": 0.396817,"1000": 0.375934,"1025": 0.396821,"1050": 0.334167,"1075": 0.396825,"1100": 0.271512,"1125": 0.375942,"1150": 0.271513,"1175": 0.375943,"1200": 0.396829,"1225": 0.292401,"1250": 0.334176,"1275": 0.459491,"1300": 0.187973,"1325": 0.355064,"1350": 0.167091,"1375": 0.375948,"1400": 0.187977,"1425": 0.229751,"1450": 0.125319,"1475": 0.187978,"1500": 0.146206,"1525": 0.167093,"1550": 0.167094,"1575": 0.12532,"1600": 0.104434,"1625": 0.06266,"1650": 0.062661,"1675": 0.020887,"1700": 0.020887,"1775": 0.020887}}}