{"type": "Feature","bbox": [-85.4631,10.9333,-85.2291,11.129],"geometry": {"type": "MultiPolygon","coordinates": [[[[-85.2898,11.0224,184.2342],[-85.2881,11.0241,190.1561],[-85.2862,11.0227,158.7463],[-85.2849,11.0247,150.3015],[-85.2787,11.0191,156.905],[-85.2789,11.0171,151.8237],[-85.2762,11.0166,161.0528],[-85.2772,11.0148,159.7516],[-85.2732,11.014099999999999,144.2101],[-85.272,11.016,145.4375],[-85.2685,11.016,129.7905],[-85.2688,11.0117,133.2143],[-85.265,11.014099999999999,154.8344],[-85.2629,11.0126,119.3013],[-85.2582,11.0209,132.0806],[-85.2589,11.0339,95.4527],[-85.2613,11.0355,93.887],[-85.2608,11.039,81.6583],[-85.2633,11.0429,76.082],[-85.2587,11.0451,56.3395],[-85.2567,11.0441,56.8857],[-85.2543,11.0492,54.269],[-85.2517,11.0494,56.7265],[-85.2486,11.0622,64.7152],[-85.245,11.0611,44.82],[-85.2432,11.0622,42.6074],[-85.2428,11.0656,40.6033],[-85.2393,11.0636,44.9659],[-85.2353,11.0655,42.1353],[-85.2332,11.0622,41.3765],[-85.2291,11.0633,40.042],[-85.3575,11.1263,46.1073],[-85.4238,11.129,72.4717],[-85.4303,11.1209,101.994],[-85.4282,11.1197,91.1417],[-85.4304,11.1139,127.7145],[-85.4263,11.1105,131.2463],[-85.4277,11.107,147.0022],[-85.4269,11.103,164.0835],[-85.4209,11.099,168.6773],[-85.4258,11.0931,182.3049],[-85.4237,11.0883,241.5215],[-85.4255,11.0864,234.0456],[-85.4256,11.0802,275.2548],[-85.4268,11.0797,261.0299],[-85.4257,11.0769,278.5827],[-85.4278,11.0793,261.0299],[-85.4327,11.0774,270.6381],[-85.4345,11.0784,278.9201],[-85.4396,11.0745,273.661],[-85.4426,11.0701,270.5505],[-85.4408,11.0665,276.6888],[-85.4428,11.0667,272.5783],[-85.4464,11.0596,283.4395],[-85.4482,11.0598,281.4827],[-85.4528,11.0549,278.0292],[-85.4533,11.0482,297.9091],[-85.4566,11.0456,296.3385],[-85.4579,11.0414,319.4199],[-85.4571,11.0363,321.0328],[-85.4521,11.0326,329.8414],[-85.4528,11.0299,359.3302],[-85.4482,11.0207,399.8007],[-85.4491,11.008,469.9053],[-85.457,10.9924,628.375],[-85.4572,10.983,769.9617],[-85.4551,10.9724,911.2912],[-85.4577,10.9678,1091.2634],[-85.4631,10.966,1124.3944],[-85.4574,10.9602,1175.2671],[-85.4599,10.9427,1258.4005],[-85.4592,10.9344,1384.7178],[-85.4554,10.9333,1466.7858],[-85.4489,10.9342,1596.1426],[-85.444,10.9442,1055.2875],[-85.4205,10.9644,644.9935],[-85.4121,10.9618,601.7898],[-85.4084,10.9632,551.5432],[-85.4042,10.9619,533.0636],[-85.3967,10.9664,495.2081],[-85.3914,10.9651,482.8811],[-85.389,10.9681,467.7684],[-85.3821,10.9711,447.5767],[-85.3801,10.9732,442.7252],[-85.3813,10.9745,446.3943],[-85.3795,10.9772,441.3155],[-85.3775,10.9776,431.6233],[-85.3802,10.9797,426.1291],[-85.3789,10.9812,420.6987],[-85.3806,10.9843,400.617],[-85.3793,10.9886,398.2161],[-85.3767,10.9895,396.8612],[-85.3784,10.9936,390.0935],[-85.3768,10.9948,391.4878],[-85.3776,10.9957,400.8461],[-85.3744,10.998,366.827],[-85.3701,10.997,378.2579],[-85.3664,10.9991,372.124],[-85.3687,11.0007,386.4251],[-85.3675,11.0033,363.7368],[-85.3689,11.0048,353.9776],[-85.3661,11.0094,343.1593],[-85.3649,11.0074,342.3636],[-85.3638,11.0104,328.1653],[-85.3621,11.0104,346.7124],[-85.3624,11.0144,334.4419],[-85.3571,11.0188,311.0415],[-85.3566,11.0243,330.3034],[-85.3546,11.025,326.8659],[-85.3562,11.0274,327.188],[-85.3557,11.0303,308.0013],[-85.3536,11.0307,286.5062],[-85.354,11.0328,275.3221],[-85.3517,11.0326,277.6667],[-85.3508,11.0348,271.3399],[-85.3406,11.036,236.5849],[-85.3391,11.0343,231.0924],[-85.3358,11.0366,233.1985],[-85.3334,11.0362,231.5563],[-85.3312,11.0411,229.7694],[-85.3286,11.0395,211.9103],[-85.3255,11.0419,208.2488],[-85.3231,11.0421,240.9964],[-85.3216,11.0404,199.5282],[-85.3118,11.043,184.1926],[-85.3093,11.0402,199.5576],[-85.3059,11.0396,194.5122],[-85.307,11.0381,215.4666],[-85.3042,11.0373,205.234],[-85.305,11.0356,206.1476],[-85.2984,11.0322,205.3127],[-85.2976,11.0311,186.9063],[-85.2997,11.0314,178.4483],[-85.2967,11.0277,182.6451],[-85.2898,11.0224,184.2342]]]]}
,"properties": {"GID_3": "CRI.3.6.3_1","GID_0": "CRI","country": "CostaRica","GID_1": "CRI.3_1","province": "Guanacaste","NL_NAME_1": "NA","GID_2": "CRI.3.6_1","county": "LaCruz","NL_NAME_2": "NA","city": "SantaCecilia","VARNAME_3": "NA","NL_NAME_3": "NA","TYPE_3": "Distrito","ENGTYPE_3": "District","CC_3": "2","HASC_3": "NA","name": "Santa_Cecilia.city","area_km2": 258.8039,"hist_schema_id": "Elevation0-9000","hist_area_km2": {"50": 11.3398,"75": 18.7254,"100": 13.087,"125": 10.4241,"150": 11.1944,"175": 11.0697,"200": 13.1089,"225": 10.3205,"250": 8.3645,"275": 11.0072,"300": 13.6084,"325": 19.8514,"350": 24.7839,"375": 15.4829,"400": 7.9915,"425": 4.4537,"450": 5.5777,"475": 5.5778,"500": 3.7879,"525": 3.3092,"550": 2.789,"575": 2.4976,"600": 2.2062,"625": 2.4144,"650": 2.0189,"675": 3.0596,"700": 1.8733,"725": 1.0615,"750": 1.124,"775": 0.895,"800": 0.9366,"825": 0.7077,"850": 0.7285,"875": 0.7285,"900": 0.7493,"925": 0.7493,"950": 0.6244,"975": 0.6036,"1000": 0.6036,"1025": 0.7702,"1050": 0.8742,"1075": 0.8326,"1100": 1.0408,"1125": 1.2073,"1150": 1.3322,"1175": 0.8326,"1200": 0.7494,"1225": 0.4788,"1250": 0.3331,"1275": 0.1249,"1300": 0.1665,"1325": 0.0833,"1350": 0.0833,"1375": 0.0625,"1400": 0.0416,"1425": 0.1041,"1450": 0.0833,"1475": 0.0208,"1500": 0.0416,"1525": 0.0416,"1575": 0.0416,"1650": 0.0208}}}