{"type": "Feature","bbox": [-84.7466,10.8438,-84.4515,11.0845],"geometry": {"type": "MultiPolygon","coordinates": [[[[-84.7238,10.9287,41.2555],[-84.7205,10.9278,48.6406],[-84.7199,10.9256,48.8555],[-84.7179,10.9258,45.4139],[-84.7174,10.9206,52.4828],[-84.7192,10.9195,46.6809],[-84.7174,10.9198,54.7221],[-84.7162,10.9176,54.0285],[-84.7115,10.9192,42.7215],[-84.7124,10.9176,52.3437],[-84.7107,10.9169,50.8875],[-84.7112,10.9148,42.2866],[-84.7102,10.9134,35.9011],[-84.708,10.9141,40.2002],[-84.7081,10.9123,38.3723],[-84.7033,10.9123,35.0609],[-84.6969,10.9089,42.0709],[-84.6927,10.9094,43.9267],[-84.6894,10.9037,51.7958],[-84.6834,10.9008,54.0172],[-84.6808,10.8943,58.0188],[-84.676,10.8913,47.1846],[-84.6601,10.8913,44.528],[-84.6603,10.8963,40.8922],[-84.6575,10.9029,51.6297],[-84.6505,10.9011,40.1297],[-84.641,10.8942,48.2298],[-84.6298,10.8923,49.0798],[-84.6227,10.8875,47.6289],[-84.6188,10.8827,49.4329],[-84.6192,10.8755,47.0821],[-84.6127,10.8702,48.6403],[-84.612,10.8671,53.1077],[-84.6006,10.8672,50.3192],[-84.6006,10.8699,50.9206],[-84.5965,10.8717,46.8382],[-84.5976,10.8761,42.7328],[-84.5929,10.8764,50.0829],[-84.5892,10.869,46.0439],[-84.5808,10.8603,56.3042],[-84.573,10.8572,57.301],[-84.5696,10.851,68.0499],[-84.5682,10.8438,77.0992],[-84.5424,10.8438,40.2313],[-84.5422,10.8457,44.9374],[-84.5442,10.8462,38.372],[-84.5434,10.8476,43.6221],[-84.5463,10.8471,43.9193],[-84.5444,10.8552,51.9191],[-84.5465,10.8564,45.2328],[-84.5457,10.859,55.0096],[-84.5481,10.8599,45.696],[-84.5446,10.8607,54.0737],[-84.5464,10.8621,43.078],[-84.5453,10.8649,51.6669],[-84.5437,10.8626,56.8836],[-84.5427,10.8634,57.3458],[-84.5438,10.8674,47.6629],[-84.5365,10.8691,40.4959],[-84.5386,10.8716,55.8623],[-84.5366,10.872,46.3005],[-84.5367,10.8744,35.725],[-84.5354,10.8735,35.9891],[-84.5354,10.8704,40.4959],[-84.5338,10.8746,40.386],[-84.5307,10.8736,55.516],[-84.531,10.8712,48.4352],[-84.5294,10.8714,48.4352],[-84.5261,10.8757,47.4906],[-84.5229,10.8748,46.1042],[-84.5238,10.8784,45.5843],[-84.5206,10.8787,55.3057],[-84.5183,10.8762,44.201],[-84.5171,10.8798,36.987],[-84.5143,10.8788,48.487],[-84.513,10.8808,36.4099],[-84.5114,10.8782,54.1262],[-84.5084,10.883,47.1652],[-84.5063,10.8801,54.1495],[-84.5045,10.88,54.1495],[-84.5051,10.8766,51.49],[-84.5024,10.8745,43.7706],[-84.5009,10.875,53.5671],[-84.5021,10.8727,52.2976],[-84.4992,10.8726,41.6898],[-84.4999,10.8745,49.2342],[-84.4968,10.8755,39.0397],[-84.4972,10.8732,33.2041],[-84.4936,10.8733,35.1859],[-84.4925,10.8751,39.3282],[-84.4946,10.8744,44.7831],[-84.4953,10.8759,34.8144],[-84.4927,10.8775,41.0788],[-84.4903,10.8754,33.4559],[-84.4874,10.8763,35.3006],[-84.4863,10.8745,35.3379],[-84.4856,10.8763,35.7318],[-84.4835,10.8738,35.2239],[-84.4811,10.8747,41.0369],[-84.477,10.8725,46.487],[-84.4757,10.8731,46.487],[-84.4742,10.8713,39.0685],[-84.4727,10.8725,47.7829],[-84.4737,10.8734,40.9324],[-84.4702,10.8726,41.395],[-84.4715,10.8762,40.6338],[-84.4661,10.8794,39.5825],[-84.4703,10.8823,42.087],[-84.4685,10.8835,35.4604],[-84.4695,10.8854,38.3814],[-84.4651,10.8877,48.7322],[-84.4685,10.8882,41.6719],[-84.4688,10.8916,49.9012],[-84.4716,10.892,45.2311],[-84.4681,10.8981,44.8249],[-84.4703,10.8985,36.0436],[-84.4699,10.9014,36.115],[-84.4718,10.9021,37.4528],[-84.4704,10.9038,32.6041],[-84.4705,10.908,37.8031],[-84.4684,10.9084,31.8957],[-84.467,10.9117,37.5348],[-84.469,10.9103,36.534],[-84.4716,10.9117,35.3609],[-84.4701,10.9142,40.0732],[-84.4721,10.9176,34.6901],[-84.4691,10.9194,30.9575],[-84.4724,10.9214,33.7099],[-84.4708,10.9237,37.9393],[-84.4725,10.926,32.4591],[-84.4762,10.9283,34.4154],[-84.4788,10.9258,31.8987],[-84.4802,10.9276,33.534],[-84.4829,10.9276,33.4358],[-84.4794,10.9288,31.3249],[-84.4745,10.9337,31.4593],[-84.473,10.9368,37.5395],[-84.4756,10.9396,36.9248],[-84.4721,10.9413,35.3701],[-84.4735,10.9439,42.9973],[-84.4758,10.9432,35.0469],[-84.4732,10.9466,43.5141],[-84.4794,10.9478,53.4083],[-84.4768,10.9499,48.7965],[-84.4779,10.9517,43.3398],[-84.4759,10.9521,32.8173],[-84.4746,10.9505,37.9015],[-84.4736,10.9533,35.0339],[-84.4715,10.9523,37.5577],[-84.4713,10.9574,30.5745],[-84.4666,10.9528,36.5299],[-84.4654,10.9539,31.8455],[-84.4662,10.959,32.417],[-84.4632,10.96,32.9853],[-84.4597,10.9584,35.5501],[-84.4611,10.9646,34.0581],[-84.4515,10.962,33.203],[-84.4859,11.0008,81.1124],[-84.5644,11.0332,57.8327],[-84.5745,11.0512,40.9],[-84.606,11.0384,57.1465],[-84.6665,11.0726,40.7758],[-84.6804,11.0845,35.0901],[-84.7419,11.0471,33.9281],[-84.7379,11.0436,36.8302],[-84.7358,11.0351,35.2425],[-84.7279,11.0361,36.134],[-84.7184,11.028,35.1708],[-84.7189,11.0225,38.8262],[-84.7211,11.0193,36.0803],[-84.7167,11.0186,38.2881],[-84.7185,11.0162,34.0741],[-84.7156,11.014099999999999,36.9267],[-84.7145,11.0101,38.4696],[-84.7201,11.0056,37.3136],[-84.716,11.0046,37.0825],[-84.7158,11.0019,36.7853],[-84.7169,11.001,35.0883],[-84.7195,11.0029,42.4479],[-84.7216,11.0014,39.2446],[-84.7198,10.997,39.0659],[-84.7223,10.9912,35.0844],[-84.728,10.9913,38.3459],[-84.7257,10.9894,42.1934],[-84.7272,10.9883,40.437],[-84.7319,10.9888,38.4778],[-84.7294,10.9852,39.3374],[-84.7336,10.9851,39.4621],[-84.731,10.9835,36.8389],[-84.7316,10.9817,39.4676],[-84.7393,10.9789,35.3989],[-84.7412,10.9758,37.9326],[-84.7393,10.9729,36.6735],[-84.7426,10.9732,38.974],[-84.7465,10.9673,40.1947],[-84.7431,10.9646,38.7645],[-84.7452,10.9639,38.4352],[-84.745,10.9595,39.9104],[-84.7466,10.9564,38.3765],[-84.7448,10.955,41.751],[-84.745,10.9521,40.857],[-84.7404,10.9497,40.7832],[-84.7375,10.9522,44.8369],[-84.7381,10.9487,38.4281],[-84.7358,10.949,48.4087],[-84.7357,10.9466,39.9897],[-84.7331,10.9442,42.3051],[-84.73,10.9441,44.1589],[-84.7303,10.941,41.9486],[-84.7284,10.9397,39.074],[-84.7308,10.9356,40.1821],[-84.7286,10.9313,39.6279],[-84.7254,10.9313,42.7444],[-84.7238,10.9287,41.2555]]]]}
,"properties": {"GID_3": "CRI.1.6.3_1","GID_0": "CRI","country": "CostaRica","GID_1": "CRI.1_1","province": "Alajuela","NL_NAME_1": "NA","GID_2": "CRI.1.6_1","county": "LosChiles","NL_NAME_2": "NA","city": "LosChiles","VARNAME_3": "NA","NL_NAME_3": "NA","TYPE_3": "Distrito","ENGTYPE_3": "District","CC_3": "1","HASC_3": "NA","name": "Los_Chiles.city","area_km2": 506.2694,"hist_schema_id": "Elevation0-9000","hist_area_km2": {"25": 79.9451,"50": 389.5429,"75": 35.2412,"100": 1.5194,"125": 0.0208}}}