{"type": "Feature","bbox": [-84.7285,10.4907,-84.5183,10.6627],"geometry": {"type": "MultiPolygon","coordinates": [[[[-84.6903,10.6171,124.9451],[-84.692,10.6129,151.2373],[-84.6903,10.6147,130.7776],[-84.6877,10.6118,138.9597],[-84.6858,10.6125,153.9148],[-84.6867,10.6052,139.6384],[-84.6842,10.6044,143.116],[-84.6856,10.6026,148.9537],[-84.6819,10.5949,162.4514],[-84.6845,10.594,186.5023],[-84.6907,10.5968,166.0358],[-84.6982,10.5926,173.4683],[-84.6966,10.5908,188.6223],[-84.6965,10.5863,211.5863],[-84.7002,10.5793,233.2705],[-84.701,10.5705,293.6541],[-84.7086,10.5624,348.5903],[-84.7064,10.5601,330.5415],[-84.7069,10.5499,422.9022],[-84.7101,10.5486,467.8925],[-84.7127,10.5498,443.9392],[-84.7171,10.5473,477.6027],[-84.7201,10.548,488.6509],[-84.7196,10.5437,545.5432],[-84.7177,10.5417,592.2758],[-84.7192,10.5395,607.841],[-84.7222,10.5399,588.4401],[-84.7266,10.5354,583.5356],[-84.7256,10.531,580.0437],[-84.7278,10.5291,587.366],[-84.7285,10.5229,681.8553],[-84.7189,10.513,559.3862],[-84.7171,10.5042,433.3672],[-84.7127,10.5076,420.784],[-84.7081,10.5058,388.2563],[-84.7024,10.5101,377.2448],[-84.6931,10.5063,330.1393],[-84.6866,10.51,373.2594],[-84.6839,10.5134,307.8455],[-84.6843,10.516,308.6472],[-84.6767,10.5196,272.235],[-84.6673,10.514,249.4965],[-84.6641,10.5156,257.8704],[-84.6564,10.5151,232.6974],[-84.6503,10.5118,238.7868],[-84.6451,10.514,256.078],[-84.6433,10.5102,233.1306],[-84.6382,10.513,200.0721],[-84.6385,10.5147,233.3942],[-84.6322,10.5147,195.1849],[-84.6302,10.5127,182.1931],[-84.6274,10.5158,197.6045],[-84.624,10.5151,169.6195],[-84.6222,10.5129,182.6495],[-84.6055,10.5121,153.4958],[-84.6028,10.5092,137.5184],[-84.5986,10.509,145.271],[-84.6003,10.5055,129.6748],[-84.5981,10.5019,130.0292],[-84.5929,10.5021,122.7469],[-84.5917,10.4974,120.0907],[-84.5871,10.5002,123.0571],[-84.5823,10.4974,102.4547],[-84.5783,10.4975,105.7824],[-84.5741,10.4938,97.0141],[-84.5692,10.4957,92.0795],[-84.5656,10.4938,84.3918],[-84.5618,10.4947,89.8563],[-84.5563,10.4907,87.4229],[-84.5488,10.4942,83.6179],[-84.5464,10.4984,74.6022],[-84.539,10.4961,70.1778],[-84.5337,10.4979,71.2342],[-84.5293,10.5026,73.6226],[-84.5234,10.5,71.6742],[-84.5245,10.5047,69.2319],[-84.5204,10.5044,62.0882],[-84.5183,10.506,63.0139],[-84.52,10.5074,67.131],[-84.5194,10.5093,76.1273],[-84.5262,10.5098,96.0184],[-84.5257,10.514099999999999,84.5571],[-84.5303,10.523,99.6952],[-84.5425,10.531,144.879],[-84.5507,10.5315,163.0726],[-84.5521,10.5344,179.6811],[-84.5544,10.5338,179.182],[-84.5584,10.5379,190.7587],[-84.5656,10.5393,171.259],[-84.5673,10.5409,169.6633],[-84.5708,10.5393,170.7997],[-84.5731,10.5422,182.5172],[-84.5737,10.5452,187.2455],[-84.5714,10.5471,180.2976],[-84.5722,10.5493,174.8117],[-84.5701,10.5515,158.9816],[-84.5709,10.5542,159.6542],[-84.5691,10.5565,151.8984],[-84.5713,10.5612,146.0074],[-84.5709,10.5655,135.0071],[-84.5671,10.5735,127.6321],[-84.5617,10.5777,116.5508],[-84.5613,10.5843,114.5999],[-84.5696,10.5861,141.0555],[-84.5747,10.5851,143.7612],[-84.5778,10.5897,132.0678],[-84.5816,10.5915,131.7096],[-84.5947,10.5905,139.0745],[-84.5998,10.5879,160.4733],[-84.6051,10.5895,150.4423],[-84.6037,10.5951,143.3798],[-84.6051,10.5946,143.3798],[-84.6061,10.5964,155.3594],[-84.6032,10.5983,152.328],[-84.6039,10.6043,147.5259],[-84.5992,10.6062,133.9922],[-84.5981,10.6111,134.6348],[-84.5992,10.6127,124.5385],[-84.5963,10.6166,120.331],[-84.5976,10.6187,131.6509],[-84.5964,10.6246,133.7682],[-84.5984,10.6267,125.9854],[-84.5961,10.6281,126.2786],[-84.5954,10.6339,136.4481],[-84.5932,10.635,126.7567],[-84.5939,10.6384,111.0279],[-84.5907,10.6377,129.5279],[-84.5887,10.6403,122.5436],[-84.5848,10.6415,117.3965],[-84.5846,10.6476,121.717],[-84.6145,10.6475,128.8978],[-84.6158,10.6322,138.214],[-84.6204,10.6294,137.0459],[-84.6223,10.639,137.5963],[-84.629,10.65,132.4032],[-84.6329,10.6518,126.432],[-84.6426,10.6623,106.5512],[-84.6499,10.6627,99.9313],[-84.649,10.6614,84.5149],[-84.651,10.6613,75.0537],[-84.6493,10.6588,81.2825],[-84.6494,10.653,83.0596],[-84.6467,10.6505,82.1948],[-84.6488,10.6452,88.6111],[-84.6473,10.6385,102.8137],[-84.6605,10.6396,116.2129],[-84.6637,10.6374,103.1391],[-84.6682,10.6371,97.0289],[-84.6697,10.6396,89.8258],[-84.6726,10.6404,88.449],[-84.6737,10.6431,76.6648],[-84.6768,10.643,81.0871],[-84.6818,10.6451,79.591],[-84.6816,10.6466,78.7331],[-84.6832,10.6461,78.7331],[-84.6844,10.6382,87.1555],[-84.6914,10.6288,130.8961],[-84.6903,10.6171,124.9451]]]]}
,"properties": {"GID_3": "CRI.1.11.8_1","GID_0": "CRI","country": "CostaRica","GID_1": "CRI.1_1","province": "Alajuela","NL_NAME_1": "NA","GID_2": "CRI.1.11_1","county": "SanCarlos","NL_NAME_2": "NA","city": "Monterrey","VARNAME_3": "NA","NL_NAME_3": "NA","TYPE_3": "Distrito","ENGTYPE_3": "District","CC_3": "12","HASC_3": "NA","name": "Monterrey.city","area_km2": 221.2045,"hist_schema_id": "Elevation0-9000","hist_area_km2": {"50": 0.0625,"75": 1.9803,"100": 9.7345,"125": 26.5298,"150": 42.0569,"175": 17.779,"200": 30.8675,"225": 20.4262,"250": 10.5887,"275": 8.692,"300": 7.2538,"325": 6.6494,"350": 4.9401,"375": 5.2737,"400": 4.7109,"425": 5.0236,"450": 3.4811,"475": 3.4186,"500": 3.0017,"525": 2.3347,"550": 2.3138,"575": 2.0845,"600": 0.8963,"625": 0.2918,"650": 0.4169,"675": 0.3544,"700": 0.0417}}}