{"type": "Feature","bbox": [-84.7013,9.6748,-84.5388,9.8788],"geometry": {"type": "MultiPolygon","coordinates": [[[[-84.6171,9.8615,43.4574],[-84.6292,9.8622,36.1594],[-84.638,9.8661,31.8264],[-84.6407,9.8647,27.1264],[-84.6429,9.8659,26.503],[-84.6455,9.8649,22.0075],[-84.6466,9.8663,16.7217],[-84.6476,9.8652,22.2717],[-84.6473,9.8701,20.6383],[-84.6559,9.8728,13.1252],[-84.6595,9.8763,11.1425],[-84.6611,9.875,13.9945],[-84.6646,9.8756,7.704],[-84.6647,9.8772,12.3291],[-84.6696,9.8771,14.0321],[-84.6708,9.8788,14.1928],[-84.6745,9.8773,32.3031],[-84.6773,9.8783,32.4661],[-84.678,9.8752,25.3791],[-84.6809,9.8747,29.6057],[-84.6845,9.8703,18.7911],[-84.6907,9.8701,14.8677],[-84.6917,9.8653,9.3342],[-84.6953,9.8658,2.0295],[-84.6953,9.8631,12.195],[-84.6984,9.8633,0.0],[-84.6987,9.8615,0.0],[-84.6952,9.86,7.1343],[-84.7013,9.8596,2.7702],[-84.7011,9.8577,1.2187],[-84.6947,9.8549,1.0744],[-84.6812,9.8447,4.8444],[-84.6745,9.8363,5.4402],[-84.6745,9.8355,5.4402],[-84.6763,9.8356,0.0],[-84.675299999999993,9.8339,0.0],[-84.6646,9.8237,1.1475],[-84.6503,9.8053,6.3546],[-84.6409,9.7867,1.2109],[-84.6363,9.7848,0.334],[-84.6367,9.7819,8.6472],[-84.6393,9.7837,0.0],[-84.6409,9.7818,0.0],[-84.633,9.7712,0.0],[-84.6297,9.7705,9.6385],[-84.6306,9.7668,0.0],[-84.6266,9.7555,6.4872],[-84.6275,9.7524,12.6371],[-84.6307,9.75,5.2608],[-84.6322,9.7395,3.7906],[-84.6391,9.7366,28.0192],[-84.6454,9.7299,53.5274],[-84.6468,9.7294,30.3447],[-84.6479,9.7309,0.0],[-84.6503,9.7295,31.0345],[-84.652,9.7223,9.833],[-84.6554,9.7216,8.4311],[-84.6582,9.7176,25.1956],[-84.6606,9.7065,65.5895],[-84.6621,9.7051,12.3196],[-84.6667,9.7051,31.2669],[-84.6682,9.7005,20.9363],[-84.6749,9.6964,29.5621],[-84.6735,9.6925,3.0121],[-84.6757,9.6889,2.87],[-84.6729,9.685,35.8115],[-84.6744,9.6824,0.0],[-84.6689,9.6748,45.6755],[-84.6654,9.6764,107.7133],[-84.6594,9.6848,335.0262],[-84.655,9.685,323.5175],[-84.6365,9.6951,295.9696],[-84.6296,9.696,355.2089],[-84.6166,9.7018,417.5488],[-84.6032,9.6944,680.9329],[-84.6,9.699,412.4707],[-84.5987,9.7048,151.2393],[-84.5906,9.7001,298.3018],[-84.5846,9.7018,494.3046],[-84.5831,9.7045,565.4798],[-84.5834,9.711,481.7388],[-84.5894,9.7233,369.7526],[-84.5897,9.7324,304.8277],[-84.592,9.736,254.4673],[-84.5927,9.7433,205.4151],[-84.5903,9.744,263.7917],[-84.583,9.7411,431.5844],[-84.5779,9.7419,432.1167],[-84.5773,9.7399,451.4787],[-84.5749,9.7407,444.1587],[-84.5749,9.7391,430.4667],[-84.5728,9.7382,429.0248],[-84.5661,9.747,448.3126],[-84.5659,9.7587,483.7428],[-84.5543,9.7558,612.4865],[-84.552,9.757,633.149],[-84.5491,9.7652,458.6871],[-84.5388,9.7771,172.1194],[-84.5414,9.7816,141.6597],[-84.544,9.7821,178.9834],[-84.5499,9.7779,169.0559],[-84.5501,9.7802,137.0959],[-84.552,9.7798,170.1395],[-84.5581,9.7841,145.1663],[-84.5574,9.788,142.8127],[-84.5585,9.7898,78.1334],[-84.5616,9.7901,62.7061],[-84.563,9.7925,80.9913],[-84.5609,9.7936,60.6195],[-84.5676,9.8053,50.7889],[-84.5676,9.81,36.1133],[-84.578,9.8091,10.1207],[-84.583,9.8061,6.3504],[-84.5799,9.8121,17.0635],[-84.5828,9.8173,7.5],[-84.5823,9.823,13.5928],[-84.5714,9.8295,14.7402],[-84.568,9.8268,57.035],[-84.5605,9.8325,21.9742],[-84.56,9.8369,25.903199999999998],[-84.5637,9.8388,14.7952],[-84.563,9.8419,14.6458],[-84.5746,9.8459,177.4723],[-84.5801,9.8411,175.9821],[-84.5904,9.8406,174.8282],[-84.5965,9.8486,142.5808],[-84.5999,9.8492,123.4461],[-84.5985,9.8517,130.4181],[-84.5955,9.853,111.2862],[-84.5969,9.8583,91.1674],[-84.5996,9.8575,92.6298],[-84.6034,9.8621,75.8704],[-84.6171,9.8615,43.4574]]]]}
,"properties": {"GID_3": "CRI.6.6.2_1","GID_0": "CRI","country": "CostaRica","GID_1": "CRI.6_1","province": "Puntarenas","NL_NAME_1": "NA","GID_2": "CRI.6.6_1","county": "Garabito","NL_NAME_2": "NA","city": "Tárcoles","VARNAME_3": "NA","NL_NAME_3": "NA","TYPE_3": "Distrito","ENGTYPE_3": "District","CC_3": "2","HASC_3": "NA","name": "Tárcoles.city","area_km2": 173.877,"hist_schema_id": "Elevation0-9000","hist_area_km2": {"0": 21.3943,"25": 33.2397,"50": 19.848,"75": 16.7352,"100": 14.1862,"125": 10.0079,"150": 7.5634,"175": 5.8295,"200": 4.2,"225": 3.1762,"250": 3.7195,"275": 3.3016,"300": 3.4061,"325": 2.9254,"350": 2.6538,"375": 1.8179,"400": 1.5672,"425": 2.1941,"450": 3.0091,"475": 2.6956,"500": 2.8001,"525": 2.3613,"550": 2.1732,"575": 1.4001,"600": 0.9403,"625": 0.3762,"650": 0.2508,"675": 0.1045}}}