{"type":"Feature","properties":{"GID_3":"CRI.3.1.4_1","GID_0":"CRI","country":"CostaRica","GID_1":"CRI.3_1","province":"Guanacaste","NL_NAME_1":"NA","GID_2":"CRI.3.1_1","county":"Abangares","NL_NAME_2":"NA","city":"Sierra","VARNAME_3":"NA","NL_NAME_3":"NA","TYPE_3":"Distrito","ENGTYPE_3":"District","CC_3":"2","HASC_3":"NA","name":"Sierra.city"},
"geometry":{"type": "MultiPolygon","coordinates": [[[[-84.941,10.2728,337.2883],[-84.9317,10.2723,369.9742],[-84.9245,10.2769,475.9235],[-84.9186,10.2769,582.2562],[-84.915,10.2745,675.4901],[-84.9088,10.2736,687.9022],[-84.8953,10.279,670.0729],[-84.8923,10.2835,707.0751],[-84.8876,10.2836,729.2517],[-84.8835,10.2819,790.4266],[-84.8803,10.2776,589.9304],[-84.8769,10.2785,574.5254],[-84.8747,10.2775,538.2133],[-84.8711,10.2643,431.3372],[-84.8659,10.2698,483.2977],[-84.8631,10.2811,548.3046],[-84.8586,10.2843,643.6165],[-84.855,10.2843,653.3212],[-84.8466,10.2886,787.9995],[-84.8438,10.294,852.0042],[-84.8432,10.3035,926.0832],[-84.8447,10.3113,1044.3134],[-84.8434,10.3167,1173.667],[-84.8412,10.319,1189.6539],[-84.8374,10.3302,1346.7035],[-84.8271,10.3372,1484.8562],[-84.8285,10.3411,1505.3557],[-84.8412,10.343,1361.9258],[-84.8479,10.3497,1278.9227],[-84.8564,10.3503,1082.5618],[-84.8598,10.3476,1062.8066],[-84.8666,10.3477,981.2866],[-84.8733,10.352,943.1381],[-84.885,10.3554,934.4186],[-84.8926,10.362,828.895],[-84.8941,10.3616,830.9219],[-84.8972,10.3656,864.2963],[-84.9002,10.3649,804.8549],[-84.9074,10.3779,786.0983],[-84.9096,10.3785,741.7362],[-84.9133,10.3853,681.9852],[-84.915,10.385,680.0754],[-84.919,10.3894,611.5747],[-84.948,10.3655,1004.7228],[-84.9448,10.3643,967.8053],[-84.9425,10.3592,887.4762],[-84.9414,10.3434,480.0367],[-84.9434,10.3393,470.243],[-84.951,10.3329,422.3829],[-84.953,10.3264,394.2713],[-84.9548,10.3255,394.2713],[-84.954,10.3157,577.0706],[-84.9568,10.3099,512.6315],[-84.9581,10.3006,453.2973],[-84.9563,10.2968,370.9551],[-84.9478,10.2918,447.4934],[-84.9425,10.2928,477.7212],[-84.9398,10.296,529.1266],[-84.938,10.2884,302.5374],[-84.941,10.2728,337.2883]]]]}}