{"type":"Feature","properties":{"GID_3":"CRI.1.5.4_1","GID_0":"CRI","country":"CostaRica","GID_1":"CRI.1_1","province":"Alajuela","NL_NAME_1":"NA","GID_2":"CRI.1.5_1","county":"Guatuso","NL_NAME_2":"NA","city":"SanRafael","VARNAME_3":"NA","NL_NAME_3":"NA","TYPE_3":"Distrito","ENGTYPE_3":"District","CC_3":"1","HASC_3":"NA","name":"San_Rafael.city"},
"geometry":{"type": "MultiPolygon","coordinates": [[[[-84.8631,10.705,80.7229],[-84.866,10.7017,108.7064],[-84.8709,10.7006,105.9553],[-84.8742,10.7024,105.6782],[-84.8828,10.6975,100.2082],[-84.8865,10.7013,126.7875],[-84.8896,10.699,135.4693],[-84.8906,10.7018,136.962],[-84.9093,10.7008,183.3608],[-84.9149,10.7028,173.512],[-84.9238,10.7014,203.6797],[-84.9324,10.704,247.6646],[-84.934,10.7027,247.3839],[-84.9392,10.704,282.7372],[-84.9529,10.7021,462.0023],[-84.9684,10.7028,598.1019],[-84.9765,10.6994,683.2272],[-84.987799999999993,10.6896,885.9083],[-84.9856,10.6748,1141.364],[-84.9846,10.6719,1171.2095],[-84.977,10.6699,1131.1097],[-84.9764,10.6578,1126.4462],[-84.9451,10.657,452.4386],[-84.9427,10.6598,355.8512],[-84.9426,10.6653,369.2419],[-84.9234,10.6653,287.331],[-84.9241,10.6704,266.9908],[-84.9227,10.6727,258.1305],[-84.9196,10.6741,230.3372],[-84.9132,10.6717,209.7474],[-84.9131,10.6742,187.7626],[-84.9089,10.6745,202.6104],[-84.9061,10.6791,157.2161],[-84.8946,10.6766,123.3939],[-84.8923,10.6744,110.2678],[-84.8922,10.67,91.9989],[-84.8832,10.6709,93.3839],[-84.8824,10.6688,81.3686],[-84.8711,10.666,72.6038],[-84.8689,10.663,76.0663],[-84.8639,10.6615,61.3593],[-84.8542,10.6548,58.8239],[-84.8406,10.6589,55.2051],[-84.8388,10.6524,56.4831],[-84.8327,10.6483,68.1369],[-84.8279,10.6418,113.0634],[-84.8251,10.645,87.0963],[-84.8214,10.6459,57.9181],[-84.8205,10.648,57.1571],[-84.8144,10.6448,71.4154],[-84.8162,10.6383,93.1962],[-84.815,10.6305,107.4729],[-84.8168,10.6287,138.3344],[-84.816,10.6262,135.9243],[-84.8225,10.6222,184.3348],[-84.8258,10.6153,214.3579],[-84.828,10.6138,200.2502],[-84.8293,10.6062,292.3207],[-84.8272,10.5991,306.8263],[-84.8247,10.5971,302.6299],[-84.8205,10.5999,336.187],[-84.8178,10.5966,374.9959],[-84.814,10.5965,389.2153],[-84.8046,10.5895,478.7101],[-84.8049,10.5852,471.3732],[-84.7966,10.5826,476.4307],[-84.7919,10.5844,468.2218],[-84.7912,10.5868,465.9919],[-84.7899,10.5862,469.2621],[-84.7876,10.6002,347.3551],[-84.7846,10.601,289.2693],[-84.7837,10.6034,287.6466],[-84.7753,10.6052,269.3638],[-84.7741,10.6095,229.1749],[-84.771,10.6112,205.5353],[-84.773,10.6165,167.7765],[-84.7691,10.6196,146.4482],[-84.7654,10.6197,122.4273],[-84.7617,10.6257,98.9492],[-84.7599,10.6259,95.8845],[-84.7617,10.627,98.9492],[-84.7604,10.6279,89.7717],[-84.7607,10.6302,92.1176],[-84.7649,10.6314,81.3511],[-84.7619,10.6348,77.4412],[-84.7632,10.6384,124.1917],[-84.7531,10.6383,68.9196],[-84.7555,10.643,65.4612],[-84.7545,10.6464,61.6612],[-84.7517,10.6471,63.3569],[-84.7472,10.6452,79.7567],[-84.7424,10.6409,96.9499],[-84.738,10.6415,92.3194],[-84.7324,10.6396,116.9506],[-84.725,10.6337,128.8544],[-84.7195,10.6379,75.462],[-84.7161,10.6384,73.7258],[-84.7153,10.6367,70.4925],[-84.7131,10.6367,72.879],[-84.7133,10.6351,71.833],[-84.7115,10.6357,83.2692],[-84.7103,10.6307,70.4366],[-84.7085,10.6304,75.6904],[-84.7095,10.6278,79.6249],[-84.7075,10.6244,85.181],[-84.6997,10.6212,106.3237],[-84.6991,10.6183,101.069],[-84.6927,10.6198,121.519],[-84.6933,10.6176,136.6993],[-84.691,10.6171,124.9451],[-84.6914,10.6288,130.8961],[-84.6844,10.6382,87.1555],[-84.6832,10.6461,78.7331],[-84.6816,10.6466,78.7331],[-84.6818,10.6451,79.591],[-84.6768,10.643,81.0871],[-84.6737,10.6431,76.6648],[-84.6726,10.6404,88.449],[-84.6697,10.6396,89.8258],[-84.6682,10.6371,97.0289],[-84.6637,10.6374,103.1391],[-84.6605,10.6396,116.2129],[-84.6473,10.6385,102.8137],[-84.6488,10.6452,88.6111],[-84.6467,10.6509,82.1948],[-84.6493,10.6527,83.0596],[-84.6493,10.6588,81.2825],[-84.651,10.6613,75.0537],[-84.6491,10.6619,84.5149],[-84.6577,10.6673,74.4624],[-84.6596,10.6719,73.2543],[-84.6623,10.6726,72.7916],[-84.6624,10.6749,93.5323],[-84.6666,10.6773,77.5773],[-84.6727,10.6871,66.912],[-84.6776,10.687,98.8005],[-84.6791,10.6886,98.6153],[-84.6825,10.6963,90.2975],[-84.6797,10.6999,83.9968],[-84.6843,10.7086,62.7005],[-84.6866,10.7171,68.1023],[-84.6967,10.7197,50.8349],[-84.7001,10.728,49.5316],[-84.7054,10.7303,50.2611],[-84.7059,10.7394,45.6568],[-84.7033,10.7421,47.9548],[-84.7056,10.7467,50.9366],[-84.7115,10.7528,50.0829],[-84.7188,10.7537,59.2072],[-84.7236,10.7577,48.4568],[-84.7311,10.7577,43.0161],[-84.7311,10.7599,47.9825],[-84.7329,10.7591,46.9828],[-84.7355,10.7605,47.0331],[-84.7387,10.7645,45.3307],[-84.7384,10.7679,42.5863],[-84.742,10.7717,40.6113],[-84.7429,10.775,43.5357],[-84.7471,10.7741,42.3383],[-84.7481,10.7718,45.1311],[-84.7512,10.7739,43.6314],[-84.7542,10.772,47.2567],[-84.7537,10.7694,51.9129],[-84.7553,10.7678,48.3186],[-84.7538,10.766,51.5403],[-84.7554,10.766,43.1929],[-84.7553,10.7634,44.9382],[-84.7589,10.7611,43.9446],[-84.7648,10.7613,49.2825],[-84.7658,10.76,43.4094],[-84.7644,10.7583,49.4541],[-84.7681,10.7595,43.0718],[-84.7696,10.7567,45.4881],[-84.7673,10.7555,43.5741],[-84.7679,10.7539,44.4573],[-84.7723,10.7548,44.4473],[-84.7737,10.7516,43.6195],[-84.7761,10.7539,43.4492],[-84.7777,10.7508,43.3003],[-84.78,10.7519,45.9307],[-84.7788,10.7497,45.3349],[-84.7816,10.7483,46.3953],[-84.7816,10.7466,50.1097],[-84.7842,10.7476,48.3119],[-84.7883,10.7444,47.0881],[-84.7917,10.7442,47.8999],[-84.7942,10.7395,43.6369],[-84.7964,10.7403,45.2454],[-84.7986,10.738,44.8553],[-84.8,10.7318,47.3855],[-84.8058,10.7255,45.9919],[-84.8119,10.723,47.1655],[-84.8129,10.7167,52.1167],[-84.8169,10.7161,51.4277],[-84.8157,10.7142,51.2777],[-84.8188,10.715,49.6507],[-84.8198,10.7099,53.7637],[-84.8225,10.707,48.7922],[-84.8259,10.7086,47.3161],[-84.8292,10.7079,51.3964],[-84.8278,10.707,46.5001],[-84.829,10.7048,48.0617],[-84.8335,10.7001,47.0338],[-84.8357,10.7022,47.8456],[-84.8464,10.701,56.54],[-84.8507,10.7035,73.8849],[-84.8517,10.7066,78.0543],[-84.8543,10.7081,80.007],[-84.8604,10.7085,97.0515],[-84.8631,10.705,80.7229]]]]}}