{"type": "Feature","bbox": [-83.6697,8.9296,-83.4783,9.1174],"geometry": {"type": "MultiPolygon","coordinates": [[[[-83.5488,9.0822,936.5425],[-83.5581,9.0857,959.8495],[-83.5621,9.0847,977.0967],[-83.5697,9.0863,998.3342],[-83.5801,9.0961,1080.052],[-83.5833,9.1023,1059.1885],[-83.5889,9.1063,879.2795],[-83.5986,9.1097,920.6537],[-83.6054,9.1144,1015.7552],[-83.6067,9.1131,1050.6824],[-83.6103,9.1169,911.9701],[-83.6162,9.1174,688.1849],[-83.6242,9.1161,523.4443],[-83.6362,9.1115,312.6307],[-83.6397,9.1077,238.737],[-83.6438,9.1064,195.3325],[-83.6559,9.0954,62.906],[-83.6648,9.0842,33.5721],[-83.6654,9.077,4.6148],[-83.6665,9.0764,4.6148],[-83.6689,9.0794,7.2435],[-83.6697,9.0774,0.7551],[-83.6639,9.0648,0.0],[-83.6603,9.0604,1.564],[-83.6568,9.0599,5.0794],[-83.6583,9.0628,1.4121],[-83.6576,9.0652,0.0],[-83.6546,9.0657,0.0],[-83.6569,9.0681,0.0],[-83.6555,9.0684,0.0],[-83.6472,9.0624,11.1725],[-83.6375,9.0507,15.5626],[-83.6309,9.0506,14.2019],[-83.629,9.0492,9.8573],[-83.6287,9.0466,22.8654],[-83.6252,9.0444,16.1616],[-83.6329,9.0411,0.0],[-83.6359,9.0462,0.0],[-83.6424,9.0487,4.434],[-83.6453,9.0473,5.8486],[-83.6454,9.0421,5.5904],[-83.6357,9.0243,10.111],[-83.6328,9.0141,2.3432],[-83.6303,8.9641,0.0],[-83.6259,8.9558,0.0],[-83.6206,8.9546,0.2913],[-83.624,8.9523,0.0],[-83.627,8.9471,0.0],[-83.6256,8.9355,0.0],[-83.6228,8.9296,0.0],[-83.6177,8.9314,0.0],[-83.6126,8.9387,0.0],[-83.6135,8.9503,13.6271],[-83.6152,8.9529,11.0399],[-83.6143,8.9562,0.0],[-83.6124,8.9566,1.416],[-83.6112,8.9512,26.984],[-83.6052,8.9444,16.2136],[-83.6018,8.9465,6.9067],[-83.5985,8.9521,8.2541],[-83.5943,8.9518,6.4026],[-83.5944,8.955,8.5635],[-83.5927,8.9564,7.3191],[-83.5975,8.9575,8.3377],[-83.5978,8.9621,2.2106],[-83.6015,8.9659,0.0],[-83.6004,8.971,0.5],[-83.5936,8.9702,1.8292],[-83.5784,8.9731,3.1119],[-83.5729,8.9636,3.1704],[-83.554,8.9583,4.19],[-83.5442,8.948,3.4431],[-83.5276,8.9494,1.0],[-83.5178,8.9449,6.7337],[-83.511,8.9389,6.6664],[-83.5082,8.9395,7.3773],[-83.4989,8.9488,7.694],[-83.495,8.9552,1.125],[-83.4837,8.9565,11.0852],[-83.4783,8.9632,13.618],[-83.4803,8.9645,30.0881],[-83.4802,8.9675,32.6212],[-83.4881,8.969,41.6912],[-83.4887,8.9708,45.337],[-83.4914,8.9713,48.1536],[-83.4915,8.9744,61.1111],[-83.4936,8.9764,64.9589],[-83.4921,8.9799,73.3378],[-83.4954,8.9862,101.0044],[-83.4903,8.9951,193.3099],[-83.4902,9.0011,300.6568],[-83.4872,9.0124,836.5355],[-83.4876,9.0156,907.7551],[-83.4944,9.021,868.0998],[-83.497,9.0212,855.7487],[-83.494,9.027,862.1486],[-83.4976,9.0327,916.5955],[-83.5076,9.0345,833.6797],[-83.5159,9.0442,836.3261],[-83.5254,9.0457,914.6459],[-83.5316,9.0505,880.8818],[-83.5386,9.0481,818.3334],[-83.5484,9.0507,940.266],[-83.5551,9.0546,967.6757],[-83.5592,9.0536,922.5142],[-83.5634,9.0576,894.9521],[-83.562,9.0655,907.3829],[-83.5519,9.0703,768.9849],[-83.5539,9.0745,750.8722],[-83.5488,9.0822,936.5425]]]]}
,"properties": {"GID_3": "CRI.6.9.5_1","GID_0": "CRI","country": "CostaRica","GID_1": "CRI.6_1","province": "Puntarenas","NL_NAME_1": "NA","GID_2": "CRI.6.9_1","county": "Osa","NL_NAME_2": "NA","city": "PuertoCortés","VARNAME_3": "NA","NL_NAME_3": "NA","TYPE_3": "Distrito","ENGTYPE_3": "District","CC_3": "1","HASC_3": "NA","name": "Puerto_Cortés.city","area_km2": 231.5319,"hist_schema_id": "Elevation0-9000","hist_area_km2": {"0": 60.5219,"25": 40.9613,"50": 9.6322,"75": 9.255,"100": 9.5482,"125": 9.0037,"150": 8.3547,"175": 7.9988,"200": 7.4125,"225": 5.4232,"250": 4.7531,"275": 3.79,"300": 3.6224,"325": 2.9732,"350": 2.7848,"375": 2.7847,"400": 2.366,"425": 2.1147,"450": 2.2822,"475": 2.1356,"500": 1.8425,"525": 2.2612,"550": 1.8216,"575": 1.8844,"600": 1.9472,"625": 2.1356,"650": 1.6541,"675": 1.9891,"700": 2.1147,"725": 2.3031,"750": 2.2403,"775": 2.0937,"800": 1.8006,"825": 1.6959,"850": 1.3609,"875": 0.9631,"900": 0.9003,"925": 0.8165,"950": 0.3768,"975": 0.4187,"1000": 0.335,"1025": 0.2512,"1050": 0.314,"1075": 0.2094,"1100": 0.0837}}}