{"type":"Feature","properties":{"GID_3":"CRI.3.8.3_1","GID_0":"CRI","country":"CostaRica","GID_1":"CRI.3_1","province":"Guanacaste","NL_NAME_1":"NA","GID_2":"CRI.3.8_1","county":"Nandayure","NL_NAME_2":"NA","city":"Porvenir","VARNAME_3":"NA","NL_NAME_3":"NA","TYPE_3":"Distrito","ENGTYPE_3":"District","CC_3":"5","HASC_3":"NA","name":"Porvenir.city"},
"geometry":{"type": "MultiPolygon","coordinates": [[[[-85.2304,9.9026,89.9753],[-85.2318,9.907,92.3243],[-85.2376,9.9061,96.3387],[-85.2392,9.91,112.1441],[-85.2422,9.9103,109.5485],[-85.2468,9.9079,119.9109],[-85.2541,9.9108,162.9681],[-85.2543,9.9133,153.2347],[-85.2563,9.9143,167.5511],[-85.2587,9.9125,162.6419],[-85.2619,9.9151,222.16],[-85.2654,9.9139,283.6902],[-85.2642,9.9174,317.2091],[-85.2674,9.9153,307.9204],[-85.2721,9.9191,336.5098],[-85.2729,9.9158,307.3156],[-85.2772,9.9159,345.0684],[-85.2797,9.9217,360.3728],[-85.2779,9.9229,429.56],[-85.2779,9.9264,459.5071],[-85.2747,9.9327,473.4096],[-85.2706,9.934,504.6681],[-85.2683,9.9373,549.6493],[-85.2713,9.943,720.5995],[-85.2695,9.9461,787.0747],[-85.2731,9.9512,995.1221],[-85.2702,9.9622,635.2245],[-85.28,9.966,402.032],[-85.2938,9.9663,261.494],[-85.2943,9.9598,418.2254],[-85.2908,9.952,690.3374],[-85.2951,9.9537,650.9926],[-85.3024,9.9506,714.4549],[-85.3002,9.9411,603.0615],[-85.3104,9.9257,737.45],[-85.3089,9.9249,750.8566],[-85.3146,9.9178,286.4452],[-85.3166,9.9081,662.3301],[-85.3039,9.908,662.8202],[-85.3009,9.9097,718.8531],[-85.2977,9.9082,657.6174],[-85.295,9.8997,667.0981],[-85.2904,9.8946,698.9537],[-85.2877,9.8871,815.4164],[-85.2902,9.8787,699.3812],[-85.2866,9.8745,667.9267],[-85.2859,9.8702,773.803],[-85.2762,9.8711,684.7102],[-85.2668,9.8848,658.8117],[-85.2568,9.8906,434.3284],[-85.2565,9.8938,367.9162],[-85.2518,9.8907,364.4354],[-85.2487,9.8913,393.5981],[-85.2478,9.8896,337.3972],[-85.247,9.8945,578.3082],[-85.2454,9.8953,578.3082],[-85.2442,9.892,451.4427],[-85.2419,9.8931,330.9339],[-85.2304,9.9026,89.9753]]]]}}