{"type": "Feature","bbox": [-84.0299,9.6109,-83.7905,9.8539],"geometry": {"type": "MultiPolygon","coordinates": [[[[-83.938,9.8393,1370.4329],[-83.9337,9.8415,1368.2844],[-83.9298,9.8393,1359.1921],[-83.9238,9.8396,1340.058],[-83.9254,9.8431,1358.3365],[-83.9306,9.8447,1370.4927],[-83.9289,9.848,1382.194],[-83.9311,9.848,1381.3821],[-83.9294,9.8522,1392.7896],[-83.9379,9.8539,1395.7687],[-83.9427,9.8527,1389.4426],[-83.9488,9.848,1384.8783],[-83.9566,9.8504,1385.3907],[-83.9582,9.8466,1381.6375],[-83.964,9.8467,1380.437],[-83.9673,9.8438,1382.4075],[-83.9753,9.8427,1386.5685],[-83.9835,9.8441,1397.6533],[-83.9853,9.8434,1398.5645],[-83.9843,9.842,1397.7488],[-83.9883,9.8422,1409.422],[-83.9992,9.836,1443.9226],[-84.0,9.837,1443.9226],[-83.9981,9.8384,1429.8674],[-83.9993,9.8416,1526.5105],[-84.0133,9.8379,1780.1372],[-84.0153,9.8365,1776.988],[-84.0112,9.8329,1671.9296],[-84.0116,9.8281,1583.5222],[-84.0139,9.8287,1592.2606],[-84.0157,9.8253,1708.0205],[-84.0233,9.8257,1834.0781],[-84.0264,9.8205,1935.6252],[-84.0195,9.8167,1985.7549],[-84.0116,9.8034,1937.0778],[-84.0143,9.8046,1932.5747],[-84.0211,9.7999,1697.2954],[-84.0297,9.7903,1533.7974],[-84.0284,9.7884,1575.6365],[-84.0299,9.7876,1555.201],[-84.0283,9.7805,1661.3164],[-84.0298,9.7782,1676.8086],[-84.0246,9.7796,1746.6821],[-84.0242,9.778,1698.0011],[-84.0215,9.7788,1721.0253],[-84.0215,9.7705,1532.2524],[-84.0195,9.7703,1523.7931],[-84.0187,9.7722,1582.5881],[-84.0021,9.7788,1757.2568],[-83.9992,9.7853,1798.0134],[-83.9946,9.7833,1888.1274],[-83.9918,9.7837,1882.5011],[-83.9919,9.779,1863.6528],[-83.9888,9.777,1867.6299],[-83.9877,9.7714,1865.144],[-83.9843,9.7717,1846.464],[-83.9815,9.7696,1838.7988],[-83.9825,9.7601,1917.4204],[-83.978,9.7577,1897.6714],[-83.9775,9.7535,1914.5668],[-83.9791,9.7452,1998.2931],[-83.9661,9.7412,2007.7233],[-83.9609,9.741,2051.8843],[-83.9594,9.7429,2029.166],[-83.9553,9.7384,2107.4639],[-83.9536,9.7407,2062.6848],[-83.9508,9.7396,2136.6499],[-83.9512,9.7351,2184.0293],[-83.9491,9.7356,2168.8723],[-83.9497,9.7178,2331.7786],[-83.9473,9.7099,2409.7383],[-83.9493,9.7064,2425.8613],[-83.946,9.7051,2428.8774],[-83.9455,9.7014,2415.7007],[-83.9426,9.6987,2417.6748],[-83.9345,9.6988,2477.0505],[-83.926,9.6952,2546.6072],[-83.9248,9.6916,2601.5129],[-83.9214,9.6888,2562.1394],[-83.9211,9.6829,2524.7676],[-83.9149,9.6853,2499.6284],[-83.9127,9.6847,2495.5161],[-83.91,9.6867,2509.2729],[-83.906,9.6858,2534.0454],[-83.9032,9.6891,2528.417],[-83.9011,9.689,2489.8745],[-83.8968,9.6855,2500.7207],[-83.896,9.6798,2495.3909],[-83.8884,9.6711,2541.2842],[-83.8828,9.6706,2554.2024],[-83.882,9.6685,2541.5413],[-83.8746,9.6702,2544.8259],[-83.8738,9.6722,2596.9617],[-83.8633,9.6709,2640.3032],[-83.858,9.6725,2666.4526],[-83.85,9.664,2668.7883],[-83.85,9.6557,2700.1069],[-83.846,9.649,2764.1147],[-83.8466,9.6334,2956.2288],[-83.8491,9.6311,3013.283],[-83.8506,9.6253,3143.2024],[-83.8352,9.6226,3005.4668],[-83.832,9.6174,2994.106],[-83.826,9.6189,2965.3401],[-83.8173,9.6149,2979.8682],[-83.8113,9.6153,2930.5266],[-83.8013,9.6119,2912.2444],[-83.800299999999993,9.6141,2930.1121],[-83.794,9.6109,3012.1057],[-83.7905,9.6116,3060.7461],[-83.9327,9.7845,1375.1108],[-83.9321,9.7856,1369.0844],[-83.9348,9.7872,1523.9318],[-83.9346,9.7889,1542.0525],[-83.9364,9.7895,1554.4895],[-83.9393,9.7985,1757.0642],[-83.9426,9.7995,1788.2771],[-83.9449,9.8106,1480.6921],[-83.9463,9.8109,1480.6921],[-83.9477,9.8154,1450.8385],[-83.9455,9.8242,1384.6479],[-83.9465,9.8277,1383.2664],[-83.9431,9.8313,1383.0585],[-83.9423,9.8358,1393.8071],[-83.9397,9.8355,1388.6661],[-83.938,9.8393,1370.4329]]]]}
,"properties": {"GID_2": "CRI.2.3_1","GID_0": "CRI","country": "CostaRica","GID_1": "CRI.2_1","province": "Cartago","NL_NAME_1": "NA","county": "ElGuarco","VARNAME_2": "NA","NL_NAME_2": "NA","TYPE_2": "Cantón","ENGTYPE_2": "Canton","CC_2": "8","HASC_2": "CR.CA.EG","name": "El_Guarco.county","area_km2": 172.2886,"hist_schema_id": "Elevation0-9000","hist_area_km2": {"1350": 0.188,"1375": 7.625,"1400": 2.9038,"1425": 1.4415,"1450": 1.734,"1475": 1.4833,"1500": 2.1519,"1525": 2.7787,"1550": 3.0712,"1575": 2.925,"1600": 3.1548,"1625": 2.9668,"1650": 3.4683,"1675": 3.8862,"1700": 3.5519,"1725": 4.2832,"1750": 4.3041,"1775": 4.325,"1800": 3.9071,"1825": 4.4504,"1850": 3.9907,"1875": 4.2832,"1900": 3.8027,"1925": 3.7818,"1950": 2.8834,"1975": 2.5282,"2000": 2.5909,"2025": 2.6746,"2050": 2.8418,"2075": 2.6538,"2100": 2.4866,"2125": 2.2359,"2150": 2.2778,"2175": 2.0061,"2200": 2.7585,"2225": 2.1107,"2250": 2.5495,"2275": 2.0898,"2300": 2.0898,"2325": 2.0898,"2350": 2.8631,"2375": 2.884,"2400": 3.5946,"2425": 3.1766,"2450": 2.4034,"2475": 2.1318,"2500": 2.5707,"2525": 2.1527,"2550": 1.9647,"2575": 1.7766,"2600": 2.8007,"2625": 2.4036,"2650": 2.6545,"2675": 2.6963,"2700": 2.5708,"2725": 1.7766,"2750": 2.2365,"2775": 1.6303,"2800": 1.0242,"2825": 1.1288,"2850": 1.087,"2875": 1.0661,"2900": 0.8153,"2925": 0.9198,"2950": 0.8153,"2975": 0.648,"3000": 0.5644,"3025": 0.209,"3050": 0.209,"3075": 0.0627,"3100": 0.1045,"3125": 0.0209}}}