{"type": "Feature","bbox": [-84.105,10.0097,-84.0934,10.0223],"geometry": {"type": "MultiPolygon","coordinates": [[[[-84.105,10.0195,1265.6033],[-84.1047,10.0097,1231.2043],[-84.0998,10.0127,1256.3544],[-84.0983,10.0113,1257.6979],[-84.0934,10.0121,1264.0449],[-84.0943,10.0215,1316.7201],[-84.0998,10.0223,1327.8109],[-84.101,10.0193,1287.4266],[-84.105,10.0195,1265.6033]]]]}
,"properties": {"GID_3": "CRI.4.7.4_1","GID_0": "CRI","country": "CostaRica","GID_1": "CRI.4_1","province": "Heredia","NL_NAME_1": "NA","GID_2": "CRI.4.7_1","county": "SanRafael","NL_NAME_2": "NA","city": "SanRafael","VARNAME_3": "NA","NL_NAME_3": "NA","TYPE_3": "Distrito","ENGTYPE_3": "District","CC_3": "1","HASC_3": "NA","name": "San_Rafael.city","area_km2": 1.2945015,"hist_schema_id": "Elevation0-9000","hist_area_km2": {"1250": 0.4384635,"1275": 0.5846137,"1300": 0.1670307,"1325": 0.1043936}}}