{"type": "Feature","bbox": [-84.242,10.1797,-84.161,10.4137],"geometry": {"type": "MultiPolygon","coordinates": [[[[-84.1613,10.1966,1583.7136],[-84.161,10.4135,182.9064],[-84.1622,10.4137,182.9064],[-84.165,10.4096,203.073],[-84.1675,10.4094,218.7339],[-84.1705,10.4019,220.7596],[-84.1751,10.397,235.3576],[-84.1759,10.3912,237.3533],[-84.1789,10.387,241.1562],[-84.1773,10.3861,241.1562],[-84.1777,10.3827,246.9804],[-84.1795,10.3813,255.8961],[-84.181,10.3728,291.7051],[-84.1827,10.3717,290.2123],[-84.1832,10.3655,293.6791],[-84.1811,10.3536,327.321],[-84.1862,10.3471,348.5755],[-84.1849,10.3389,381.4792],[-84.1878,10.3373,385.3629],[-84.1948,10.3267,447.4641],[-84.1944,10.3183,505.4591],[-84.1977,10.311,648.5541],[-84.1971,10.3062,712.8813],[-84.1917,10.3021,739.4854],[-84.1944,10.2971,790.3694],[-84.2023,10.2917,887.9146],[-84.205,10.2869,917.3273],[-84.1994,10.2851,886.9905],[-84.201,10.2767,979.8071],[-84.2103,10.2683,1146.196],[-84.212,10.259,1262.986],[-84.2158,10.2513,1455.1909],[-84.2241,10.2471,1612.644],[-84.231,10.247,1665.0795],[-84.242,10.2419,1634.7338],[-84.2409,10.2347,1792.548],[-84.2356,10.2295,1940.4368],[-84.2351,10.2255,2037.5673],[-84.2268,10.2128,2612.1147],[-84.2268,10.2064,2439.0244],[-84.2307,10.1981,2309.5],[-84.2218,10.1818,2561.7378],[-84.2173,10.1812,2508.3335],[-84.2129,10.1837,2472.7832],[-84.2091,10.1828,2394.5156],[-84.205,10.1844,2275.8074],[-84.1914,10.1797,2026.7864],[-84.1859,10.1802,1951.3259],[-84.1753,10.184,1765.3909],[-84.1738,10.188,1717.1522],[-84.1661,10.192,1629.1451],[-84.1643,10.1954,1576.8333],[-84.1635,10.1932,1599.9852],[-84.1622,10.1937,1569.9691],[-84.1613,10.1966,1583.7136]]]]}
,"properties": {"GID_3": "CRI.1.1.12_1","GID_0": "CRI","country": "CostaRica","GID_1": "CRI.1_1","province": "Alajuela","NL_NAME_1": "NA","GID_2": "CRI.1.1_1","county": "Alajuela","NL_NAME_2": "NA","city": "Sarapiquí","VARNAME_3": "NA","NL_NAME_3": "NA","TYPE_3": "Distrito","ENGTYPE_3": "District","CC_3": "14","HASC_3": "NA","name": "Sarapiquí.city","area_km2": 115.62158,"hist_schema_id": "Elevation0-9000","hist_area_km2": {"175": 0.06256,"200": 0.75073,"225": 1.16783,"250": 2.33572,"275": 2.62778,"300": 3.17014,"325": 2.94082,"350": 2.25262,"375": 2.23181,"400": 2.48214,"425": 1.93988,"450": 2.06505,"475": 1.89821,"500": 1.12642,"525": 1.14729,"550": 0.91785,"575": 0.68839,"600": 0.50065,"625": 0.56323,"650": 0.52152,"675": 0.45894,"700": 0.52152,"725": 1.02218,"750": 1.37683,"775": 1.83578,"800": 1.37687,"825": 2.46169,"850": 3.00414,"875": 2.27399,"900": 2.10712,"925": 1.94024,"950": 1.87766,"975": 1.43956,"1000": 1.4187,"1025": 1.08491,"1050": 1.14749,"1075": 1.43959,"1100": 1.41874,"1125": 1.18925,"1150": 1.35616,"1175": 1.00149,"1200": 1.31446,"1225": 0.98062,"1250": 1.00149,"1275": 1.1267,"1300": 1.33534,"1325": 1.35622,"1350": 1.08498,"1375": 1.33538,"1400": 1.10585,"1425": 0.87634,"1450": 1.085,"1475": 1.18934,"1500": 1.23107,"1525": 1.02242,"1550": 1.31455,"1575": 1.50234,"1600": 1.25195,"1625": 1.10589,"1650": 1.21021,"1675": 1.73185,"1700": 1.39799,"1725": 1.398,"1750": 1.18936,"1775": 0.9807,"1800": 0.87638,"1825": 0.91812,"1850": 1.02245,"1875": 0.91812,"1900": 1.06419,"1925": 0.81379,"1950": 0.93899,"1975": 1.04334,"2000": 0.73033,"2025": 0.626,"2050": 0.81381,"2075": 0.626,"2100": 0.98075,"2125": 0.7512,"2150": 0.87641,"2175": 0.93901,"2200": 0.83468,"2225": 0.64688,"2250": 0.75121,"2275": 0.73034,"2300": 0.60514,"2325": 0.60515,"2350": 0.54254,"2375": 0.64688,"2400": 0.73035,"2425": 0.43821,"2450": 0.75122,"2475": 0.60516,"2500": 0.41735,"2525": 0.29215,"2550": 0.14607,"2575": 0.20867,"2600": 0.22954,"2625": 0.0626,"2650": 0.02087,"2675": 0.0626,"2700": 0.08347}}}