{"type": "Feature","bbox": [-83.6324,9.2342,-83.5133,9.4282],"geometry": {"type": "MultiPolygon","coordinates": [[[[-83.6246,9.2543,500.8528],[-83.6169,9.254,519.2393],[-83.6146,9.2526,494.4219],[-83.6113,9.2559,526.241],[-83.6087,9.2506,480.0397],[-83.6024,9.2454,536.4269],[-83.6,9.2464,492.1407],[-83.5976,9.2518,469.73],[-83.5948,9.2519,471.5659],[-83.5903,9.2551,467.8617],[-83.5842,9.2485,465.4893],[-83.5794,9.2468,455.8071],[-83.5766,9.2436,493.4393],[-83.5742,9.2366,451.1797],[-83.5683,9.2342,447.2191],[-83.5657,9.2531,485.4871],[-83.571,9.2555,528.0912],[-83.5738,9.2618,548.8973],[-83.5737,9.2679,573.6363],[-83.5764,9.2753,602.1849],[-83.5689,9.287,661.5534],[-83.5628,9.2878,650.9204],[-83.5594,9.2843,619.0294],[-83.5585,9.2885,630.9518],[-83.5632,9.3017,717.4019],[-83.5631,9.3111,755.4852],[-83.5688,9.3194,856.8677],[-83.5668,9.3295,919.1814],[-83.5682,9.3342,991.4434],[-83.5592,9.3466,1119.5964],[-83.551,9.3521,1233.3335],[-83.551,9.3594,1310.5684],[-83.5529,9.3632,1356.8245],[-83.5473,9.3732,1546.5897],[-83.5503,9.3782,1633.717],[-83.5463,9.3826,1727.9111],[-83.5475,9.3875,1816.4012],[-83.5458,9.3921,1893.6116],[-83.5395,9.3989,2032.7817],[-83.5375,9.4043,2138.2197],[-83.5276,9.4088,2406.0542],[-83.5186,9.4187,2906.0508],[-83.5133,9.421,3158.5645],[-83.5142,9.4239,3141.3516],[-83.5229,9.4274,3039.8853],[-83.5284,9.4226,3031.5588],[-83.5373,9.4282,2886.98],[-83.5609,9.411,1711.7399],[-83.5705,9.4086,1536.4027],[-83.5787,9.4036,1391.151],[-83.5853,9.3969,1326.3015],[-83.594,9.3943,1188.2773],[-83.5972,9.3906,1183.9934],[-83.603,9.3784,1083.792],[-83.6091,9.3699,949.85],[-83.6079,9.3609,887.5271],[-83.6116,9.358,856.657],[-83.6148,9.3516,820.4673],[-83.6229,9.3465,755.5193],[-83.6252,9.3405,728.8401],[-83.6258,9.3368,705.4427],[-83.6237,9.3332,685.9176],[-83.6262,9.3304,667.2626],[-83.6263,9.3241,653.5626],[-83.6244,9.315,609.8616],[-83.6298,9.3038,583.8572],[-83.6293,9.2967,556.4041],[-83.631,9.2905,561.2841],[-83.6267,9.2823,550.5267],[-83.629,9.273,544.173],[-83.6324,9.2671,529.3859],[-83.6291,9.256,505.6039],[-83.6246,9.2543,500.8528]]]]}
,"properties": {"GID_3": "CRI.7.13.2_1","GID_0": "CRI","country": "CostaRica","GID_1": "CRI.7_1","province": "SanJosé","NL_NAME_1": "NA","GID_2": "CRI.7.13_1","county": "PérezZeledón","NL_NAME_2": "NA","city": "Cajón","VARNAME_3": "NA","NL_NAME_3": "NA","TYPE_3": "Distrito","ENGTYPE_3": "District","CC_3": "8","HASC_3": "NA","name": "Cajón.city","area_km2": 119.25338,"hist_schema_id": "Elevation0-9000","hist_area_km2": {"450": 0.39761,"475": 1.6532,"500": 1.84152,"525": 1.50669,"550": 3.2434,"575": 4.56165,"600": 7.3237,"625": 9.47887,"650": 5.7123,"675": 3.78715,"700": 3.47324,"725": 4.18453,"750": 3.99622,"775": 3.28479,"800": 3.32663,"825": 2.97091,"850": 2.34322,"875": 2.59425,"900": 2.63609,"925": 2.0921,"950": 1.50631,"975": 1.69459,"1000": 1.10879,"1025": 1.23429,"1050": 1.27614,"1075": 1.3598,"1100": 0.87864,"1125": 0.69036,"1150": 0.96232,"1175": 0.96231,"1200": 1.02506,"1225": 0.92047,"1250": 0.92045,"1275": 0.9623,"1300": 0.9832,"1325": 1.15057,"1350": 0.96228,"1375": 0.85769,"1400": 1.23423,"1425": 1.15055,"1450": 1.02503,"1475": 0.83676,"1500": 0.92043,"1525": 0.73216,"1550": 0.8786,"1575": 0.6694,"1600": 0.69032,"1625": 0.89951,"1650": 0.85767,"1675": 0.69032,"1700": 0.87859,"1725": 0.83674,"1750": 0.83675,"1775": 0.81581,"1800": 0.48112,"1825": 0.50204,"1850": 0.60663,"1875": 0.52295,"1900": 0.37652,"1925": 0.41836,"1950": 0.52295,"1975": 0.3556,"2000": 0.46019,"2025": 0.43927,"2050": 0.29285,"2075": 0.4811,"2100": 0.4811,"2125": 0.33468,"2150": 0.46018,"2175": 0.52293,"2200": 0.41835,"2225": 0.35559,"2250": 0.31376,"2275": 0.41834,"2300": 0.33467,"2325": 0.27192,"2350": 0.46018,"2375": 0.37651,"2400": 0.46017,"2425": 0.33467,"2450": 0.18825,"2475": 0.16733,"2500": 0.14642,"2525": 0.16733,"2550": 0.14642,"2575": 0.23008,"2600": 0.10458,"2625": 0.1255,"2650": 0.1255,"2675": 0.23008,"2700": 0.20916,"2725": 0.1255,"2750": 0.16733,"2775": 0.18825,"2800": 0.23008,"2825": 0.23008,"2850": 0.18825,"2875": 0.1255,"2900": 0.16733,"2925": 0.18825,"2950": 0.18825,"2975": 0.20916,"3000": 0.1255,"3025": 0.14641,"3050": 0.06275,"3075": 0.1255,"3100": 0.08366,"3125": 0.04183}}}