{"type":"Feature","properties":{"GID_3":"CRI.4.1.3_1","GID_0":"CRI","country":"CostaRica","GID_1":"CRI.4_1","province":"Heredia","NL_NAME_1":"NA","GID_2":"CRI.4.1_1","county":"Barva","NL_NAME_2":"NA","city":"SanPablo","VARNAME_3":"NA","NL_NAME_3":"NA","TYPE_3":"Distrito","ENGTYPE_3":"District","CC_3":"3","HASC_3":"NA","name":"San_Pablo.city"},
"geometry":{"type": "MultiPolygon","coordinates": [[[[-84.118,10.026,1239.6667],[-84.1143,10.0302,1292.0435],[-84.1133,10.0366,1356.5928],[-84.108,10.0413,1405.9843],[-84.1062,10.0407,1429.7279],[-84.1045,10.0483,1502.9668],[-84.0986,10.0548,1611.8013],[-84.0925,10.0651,1752.7567],[-84.0912,10.0753,1847.23],[-84.0883,10.0825,1936.1548],[-84.0909,10.0777,1864.1001],[-84.0989,10.0717,1787.8748],[-84.1,10.0613,1692.9156],[-84.1028,10.0573,1634.407],[-84.109,10.0544,1558.9541],[-84.1156,10.0467,1437.2029],[-84.1168,10.0395,1370.0157],[-84.1255,10.0323,1252.8108],[-84.1309,10.0315,1190.1213],[-84.1405,10.0222,1127.224],[-84.145,10.0207,1093.3434],[-84.1385,10.0171,1108.7827],[-84.1358,10.0174,1138.6105],[-84.1318,10.0208,1149.1812],[-84.124,10.0224,1176.1313],[-84.118,10.026,1239.6667]]]]}}