{"type":"Feature","properties":{"GID_2":"CRI.3.4_1","GID_0":"CRI","country":"CostaRica","GID_1":"CRI.3_1","province":"Guanacaste","NL_NAME_1":"NA","county":"Carrillo","VARNAME_2":"NA","NL_NAME_2":"NA","TYPE_2":"Cantón","ENGTYPE_2":"Canton","CC_2":"5","HASC_2":"CR.GU.CR","name":"Carrillo.county"},
"geometry":{"type": "MultiPolygon","coordinates": [[[[-85.4646,10.3665,8.9733],[-85.4619,10.3675,11.5116],[-85.4543,10.3661,12.438],[-85.4497,10.3687,11.4959],[-85.4322,10.3676,9.4175],[-85.4233,10.3699,11.6742],[-85.4167,10.3674,10.6537],[-85.4133,10.3678,8.808],[-85.4102,10.3651,9.4294],[-85.4092,10.3692,8.5467],[-85.4049,10.3708,7.2892],[-85.4061,10.3728,4.5516],[-85.4031,10.3745,5.3644],[-85.404,10.3775,7.433],[-85.398,10.3791,10.1001],[-85.3987,10.3809,7.716],[-85.4026,10.3803,9.9313],[-85.3982,10.3862,7.9728],[-85.3999,10.389,19.2102],[-85.3968,10.3871,8.7437],[-85.3936,10.3876,8.992],[-85.3959,10.3931,5.6981],[-85.3946,10.3946,5.5436],[-85.392,10.391,6.7696],[-85.3929,10.3938,9.0175],[-85.3915,10.3968,4.5715],[-85.3904,10.3954,11.0208],[-85.3918,10.3936,10.1584],[-85.3903,10.392,8.8801],[-85.387,10.3934,10.3579],[-85.3822,10.3913,7.8868],[-85.3843,10.3927,10.5758],[-85.3814,10.3932,11.3582],[-85.3786,10.3955,7.4348],[-85.3795,10.3972,7.7009],[-85.3777,10.3967,7.4348],[-85.3751,10.3996,10.2341],[-85.3768,10.4043,6.9357],[-85.3734,10.4028,7.1458],[-85.3734,10.4066,13.9019],[-85.37,10.4078,12.7324],[-85.3691,10.4102,15.2383],[-85.3703,10.412,12.0883],[-85.3713,10.4098,16.9823],[-85.3778,10.4114,15.9756],[-85.3776,10.4132,16.245],[-85.3732,10.4172,17.0714],[-85.3772,10.4184,15.6797],[-85.3788,10.4233,16.1779],[-85.3819,10.424,16.3106],[-85.386,10.4221,16.7651],[-85.3888,10.4246,17.0096],[-85.3926,10.4216,7.0098],[-85.401,10.4214,8.2364],[-85.4036,10.4273,7.362],[-85.4065,10.4298,9.6265],[-85.4133,10.4291,6.6846],[-85.4174,10.4317,7.1044],[-85.4278,10.4337,7.5207],[-85.4317,10.4391,7.0313],[-85.4387,10.444,7.7188],[-85.4446,10.4433,9.3714],[-85.4459,10.4461,11.9643],[-85.4513,10.4492,11.1688],[-85.4532,10.4549,12.3204],[-85.4652,10.4568,11.4783],[-85.4732,10.4513,9.9054],[-85.4717,10.4432,14.8574],[-85.4761,10.4341,14.7108],[-85.471,10.4265,15.8182],[-85.4769,10.4205,16.4501],[-85.4839,10.4185,13.4852],[-85.4866,10.4194,13.7703],[-85.488,10.4232,15.741],[-85.498,10.4208,14.3775],[-85.5143,10.4244,13.7004],[-85.5225,10.4218,15.8897],[-85.528,10.4223,13.2785],[-85.529,10.4241,12.3245],[-85.5272,10.432,16.8358],[-85.5326,10.4358,13.945],[-85.5372,10.4419,13.6294],[-85.5464,10.4439,18.2085],[-85.5585,10.4658,14.8679],[-85.5591,10.4773,13.8523],[-85.5627,10.4852,16.0644],[-85.5689,10.4936,22.7254],[-85.5706,10.4992,17.9278],[-85.5696,10.5029,14.6631],[-85.571,10.5088,17.3539],[-85.5687,10.5145,22.4935],[-85.57,10.5198,14.5752],[-85.5733,10.5236,18.6244],[-85.5826,10.5264,24.4971],[-85.5819,10.5304,24.1807],[-85.5766,10.5367,30.2024],[-85.5804,10.5404,17.4547],[-85.5891,10.5604,24.1916],[-85.5936,10.5625,30.3671],[-85.5932,10.5647,38.0916],[-85.5905,10.5666,32.4738],[-85.5906,10.5755,26.6917],[-85.5864,10.5813,26.127],[-85.5906,10.5892,40.2297],[-85.5884,10.5958,34.8951],[-85.59,10.6036,36.6208],[-85.5809,10.6151,31.1063],[-85.6107,10.6168,58.5815],[-85.6131,10.6201,84.3947],[-85.6139,10.6263,123.4084],[-85.6088,10.6369,144.5714],[-85.6188,10.6369,23.5856],[-85.6216,10.6319,19.2623],[-85.6283,10.6315,11.167],[-85.6266,10.6238,2.9624],[-85.6286,10.6236,0.0],[-85.6342,10.6171,0.0],[-85.6404,10.6142,0.0],[-85.6416,10.6076,3.2553],[-85.6449,10.6039,0.0],[-85.6489,10.6046,0.0],[-85.6506,10.6002,0.0],[-85.6492,10.5951,4.1967],[-85.6523,10.5899,7.0337],[-85.6619,10.5884,0.0],[-85.6638,10.5935,0.0],[-85.6716,10.5911,0.0],[-85.6762,10.5925,0.0],[-85.6805,10.5901,6.1571],[-85.681,10.588,8.0539],[-85.6793,10.5871,8.0539],[-85.677,10.5803,8.4401],[-85.6819,10.5721,0.0],[-85.6847,10.5706,0.0],[-85.6951,10.574,0.0],[-85.6973,10.5732,18.2845],[-85.6986,10.5743,0.0],[-85.7006,10.5728,0.0],[-85.7,10.5698,0.0],[-85.6934,10.5675,30.3726],[-85.6911,10.5643,0.0],[-85.6935,10.5562,3.9494],[-85.7003,10.5505,0.0],[-85.7059,10.5499,5.0232],[-85.709,10.5542,28.6282],[-85.7141,10.5565,15.9464],[-85.7156,10.5524,45.4585],[-85.7187,10.5511,0.0],[-85.7186,10.548,13.1069],[-85.7221,10.546,5.3033],[-85.7272,10.5464,0.0],[-85.7287,10.544,9.6175],[-85.7356,10.5439,0.0],[-85.7388,10.5386,32.2785],[-85.7431,10.5372,0.0],[-85.7433,10.535,30.8506],[-85.7464,10.5338,0.0],[-85.7473,10.5317,5.089],[-85.7536,10.5297,7.4855],[-85.7588,10.5305,0.0],[-85.7643,10.5343,6.5958],[-85.7691,10.5422,0.0],[-85.7704,10.5403,69.5889],[-85.7741,10.5401,11.9614],[-85.7759,10.5431,0.0],[-85.7787,10.5441,0.0],[-85.7798,10.543,0.0],[-85.7791,10.5386,19.8173],[-85.7831,10.5383,0.0],[-85.7833,10.5355,14.8008],[-85.7813,10.5339,26.6793],[-85.7821,10.5305,7.4063],[-85.7854,10.53,9.3403],[-85.785,10.5279,31.2703],[-85.7874,10.5243,0.0],[-85.7917,10.5248,5.9486],[-85.7922,10.5232,0.0],[-85.7897,10.5218,5.8229],[-85.7915,10.5181,2.3278],[-85.7949,10.5175,40.7973],[-85.8007,10.5199,0.0],[-85.801,10.5174,7.4229],[-85.8037,10.518,5.1031],[-85.8075,10.5149,18.1191],[-85.8095,10.5146,19.9586],[-85.8113,10.5171,0.0],[-85.8121,10.5162,14.1538],[-85.81,10.5129,3.0837],[-85.7998,10.5091,26.9664],[-85.7985,10.5067,2.5312],[-85.7993,10.5025,0.0],[-85.8037,10.4986,0.0843],[-85.8025,10.4964,0.0],[-85.8001,10.4978,17.8743],[-85.7991,10.4954,0.0],[-85.7968,10.4961,24.72],[-85.7948,10.4947,0.0],[-85.794,10.4912,6.2506],[-85.7981,10.4835,12.7739],[-85.7917,10.487,49.102],[-85.7849,10.4885,93.7266],[-85.7755,10.4854,111.6628],[-85.7687,10.4793,209.4571],[-85.7632,10.4812,233.898],[-85.7581,10.4789,321.5333],[-85.7509,10.4855,148.2149],[-85.7419,10.4841,213.1097],[-85.7318,10.4782,197.4578],[-85.7313,10.4726,236.5224],[-85.7277,10.4653,297.0061],[-85.7246,10.4636,271.2144],[-85.7252,10.4613,231.8726],[-85.7229,10.4588,335.6647],[-85.715,10.4565,337.4291],[-85.7089,10.4494,307.3096],[-85.7053,10.4492,292.9526],[-85.699,10.4361,238.405],[-85.686,10.4321,309.9989],[-85.6801,10.433,404.5105],[-85.6746,10.4318,509.8993],[-85.6699,10.4346,410.2593],[-85.6672,10.4343,470.1931],[-85.6663,10.4273,367.721],[-85.663,10.4201,263.5218],[-85.6593,10.4211,275.9762],[-85.6566,10.418,265.039],[-85.6582,10.411,233.509],[-85.6543,10.3979,260.5743],[-85.6511,10.4013,220.2115],[-85.6491,10.3996,191.3165],[-85.6468,10.4017,208.4881],[-85.6436,10.4015,234.5469],[-85.6436,10.3983,245.1946],[-85.6397,10.3921,307.0532],[-85.6411,10.3852,279.0211],[-85.64,10.3821,254.0612],[-85.6479,10.3774,168.9212],[-85.6577,10.3763,177.1551],[-85.6638,10.3627,118.923],[-85.6578,10.3583,120.6362],[-85.6555,10.3593,132.1199],[-85.6514,10.3577,78.8162],[-85.653,10.3518,28.9409],[-85.6499,10.3433,18.7751],[-85.6506,10.3379,18.3224],[-85.6495,10.3344,17.1378],[-85.6449,10.3332,16.7635],[-85.6426,10.329,15.7379],[-85.6367,10.3294,15.5204],[-85.6299,10.3253,19.3982],[-85.6276,10.3257,19.5984],[-85.6267,10.3287,18.8886],[-85.6243,10.3285,19.5822],[-85.6213,10.3308,15.3896],[-85.6185,10.3347,14.976],[-85.6084,10.3358,15.3546],[-85.6064,10.3381,17.7588],[-85.603,10.3379,29.7976],[-85.604,10.3359,14.4419],[-85.593,10.336,15.294],[-85.5913,10.3404,14.0668],[-85.5891,10.3407,19.2578],[-85.5817,10.3494,16.5387],[-85.5728,10.3506,19.5809],[-85.5717,10.3527,18.7369],[-85.5692,10.3512,19.2016],[-85.5686,10.3535,20.8022],[-85.5608,10.3583,18.5115],[-85.5586,10.3646,17.1943],[-85.559,10.3617,16.3662],[-85.5567,10.3581,20.3418],[-85.5508,10.3612,15.6749],[-85.5498,10.3583,16.0922],[-85.5453,10.3553,16.9431],[-85.5436,10.3592,14.3677],[-85.542,10.3573,13.8988],[-85.5421,10.3535,15.971],[-85.5367,10.3526,16.4836],[-85.5338,10.3547,14.6872],[-85.5351,10.3516,15.2175],[-85.533,10.3495,17.4775],[-85.5286,10.3517,21.0061],[-85.5211,10.3517,18.771],[-85.5093,10.3446,11.7943],[-85.5027,10.3444,13.0758],[-85.503,10.3428,13.609],[-85.5005,10.3423,17.1497],[-85.4984,10.3462,10.6029],[-85.4956,10.3454,11.5363],[-85.4962,10.3467,11.0861],[-85.4944,10.3463,14.9163],[-85.4941,10.349,9.4446],[-85.4924,10.3481,13.3148],[-85.4901,10.3501,14.1182],[-85.4884,10.3489,22.1909],[-85.486,10.3509,16.0012],[-85.4849,10.3492,16.5891],[-85.4839,10.3506,17.4771],[-85.4816,10.3471,20.4098],[-85.4789,10.3516,13.2013],[-85.4817,10.3522,10.3166],[-85.4805,10.3531,10.3166],[-85.481,10.3549,8.5364],[-85.4837,10.3569,11.7489],[-85.4803,10.358,9.0691],[-85.479,10.3566,9.729],[-85.4756,10.3588,7.7002],[-85.4733,10.357,11.1723],[-85.4681,10.3607,9.7703],[-85.4685,10.3621,8.2971],[-85.4648,10.3631,10.8738],[-85.4652,10.3649,9.9358],[-85.4665,10.3634,9.5763],[-85.4674,10.3664,8.1183],[-85.4646,10.3665,8.9733]]],
[[[-85.7008,10.5776,0.0],[-85.7006,10.5776,0.0],[-85.7005,10.5777,0.0],[-85.7008,10.5779,0.0],[-85.7008,10.5776,0.0]]],
[[[-85.7037,10.5782,0.0],[-85.7027,10.5788,0.0],[-85.7044,10.5797,0.0],[-85.7051,10.5784,0.0],[-85.7037,10.5782,0.0]]],
[[[-85.7125,10.5794,0.0],[-85.7117,10.5791,16.1283],[-85.7095,10.5796,6.4586],[-85.7112,10.5813,3.8765],[-85.7125,10.5794,0.0]]],
[[[-85.8707,10.4763,0.0],[-85.8705,10.476,0.1154],[-85.8705,10.4774,0.5353],[-85.8709,10.4771,0.0],[-85.8707,10.4763,0.0]]],
[[[-85.8713,10.4788,0.19],[-85.8704,10.4788,0.3894],[-85.8722,10.4816,0.2269],[-85.8719,10.4794,0.19],[-85.8713,10.4788,0.19]]],
[[[-85.804,10.5019,0.0],[-85.8031,10.5015,0.0],[-85.8026,10.5017,5.9519],[-85.8031,10.5022,0.0],[-85.804,10.5019,0.0]]],
[[[-85.8215,10.5042,0.0],[-85.821,10.5043,0.0],[-85.8217,10.5051,0.0],[-85.8218,10.5049,0.0],[-85.8215,10.5042,0.0]]],
[[[-85.8232,10.5061,0.2518],[-85.8228,10.5058,0.2518],[-85.8223,10.5074,0.0],[-85.8226,10.5074,0.0],[-85.8232,10.5061,0.2518]]],
[[[-85.8216,10.5104,17.1046],[-85.8245,10.5109,0.0],[-85.8262,10.5101,0.0],[-85.8191,10.5098,0.0],[-85.8216,10.5104,17.1046]]],
[[[-85.8033,10.5212,0.0],[-85.8035,10.521,0.0],[-85.8036,10.5209,0.0],[-85.8031,10.5211,0.0],[-85.8033,10.5212,0.0]]],
[[[-85.8028,10.5211,0.0],[-85.8023,10.5206,0.0],[-85.8018,10.521,0.0],[-85.8023,10.5217,0.0],[-85.8028,10.5211,0.0]]],
[[[-85.7854,10.5375,0.0],[-85.7849,10.537,0.0],[-85.7845,10.5371,0.0],[-85.7849,10.5377,0.0],[-85.7854,10.5375,0.0]]],
[[[-85.7077,10.5794,0.0],[-85.7095,10.5792,6.4586],[-85.7095,10.5776,0.0],[-85.7077,10.5788,0.0],[-85.7077,10.5794,0.0]]]]}}