{"type":"Feature","properties":{"GID_3":"CRI.3.10.2_1","GID_0":"CRI","country":"CostaRica","GID_1":"CRI.3_1","province":"Guanacaste","NL_NAME_1":"NA","GID_2":"CRI.3.10_1","county":"SantaCruz","NL_NAME_2":"NA","city":"CaboVelas","VARNAME_3":"NA","NL_NAME_3":"NA","TYPE_3":"Distrito","ENGTYPE_3":"District","CC_3":"8","HASC_3":"NA","name":"Cabo_Velas.city"},
"geometry":{"type": "MultiPolygon","coordinates": [[[[-85.8665,10.3674,2.3749],[-85.8663,10.3681,2.3749],[-85.8676,10.3683,0.0],[-85.8675,10.368,0.0],[-85.8665,10.3674,2.3749]]],
[[[-85.849,10.3724,0.0],[-85.8488,10.3723,0.0],[-85.8488,10.3727,0.0],[-85.8491,10.3726,0.0],[-85.849,10.3724,0.0]]],
[[[-85.8451,10.3844,0.0],[-85.8448,10.3848,0.0],[-85.8455,10.3852,0.0],[-85.8456,10.3847,0.0],[-85.8451,10.3844,0.0]]],
[[[-85.7769,10.4364,97.6762],[-85.7795,10.4385,7.5382],[-85.785,10.4369,4.2361],[-85.7905,10.4383,8.4371],[-85.7885,10.4423,0.0],[-85.8,10.4459,0.0],[-85.7995,10.4431,0.0],[-85.7961,10.4423,25.4311],[-85.7938,10.4397,8.3925],[-85.7931,10.4326,0.0],[-85.7957,10.4295,0.0],[-85.7907,10.4227,0.0],[-85.7944,10.4192,0.0],[-85.794,10.4162,7.688],[-85.7985,10.4075,1.5419],[-85.8076,10.401,0.0],[-85.8158,10.4003,5.8695],[-85.8196,10.4023,0.0],[-85.8194,10.4074,0.0],[-85.8209,10.4102,0.0],[-85.8249,10.4096,10.1203],[-85.8263,10.4114,0.0],[-85.8279,10.3989,7.4628],[-85.8328,10.397,14.2297],[-85.8364,10.3997,1.5035],[-85.835,10.3974,13.9684],[-85.8358,10.3926,0.0],[-85.8406,10.385,6.6462],[-85.8443,10.3836,5.89],[-85.8463,10.3804,1.0526],[-85.8454,10.3791,16.5074],[-85.8476,10.3771,4.7924],[-85.8472,10.3726,20.4034],[-85.8505,10.3707,4.3022],[-85.8544,10.3713,0.0],[-85.8542,10.369,0.0],[-85.8571,10.3667,27.1475],[-85.8593,10.3682,10.8148],[-85.8623,10.3661,7.0434],[-85.8654,10.3667,9.8521],[-85.8682,10.3617,81.5061],[-85.8754,10.3562,0.0],[-85.8725,10.3489,37.2667],[-85.8695,10.3491,23.7558],[-85.8661,10.3468,0.0],[-85.8651,10.3485,28.7605],[-85.863,10.3483,1.6117],[-85.8613,10.3442,3.4788],[-85.8579,10.3451,0.0],[-85.8543,10.3386,0.0],[-85.845,10.3299,6.7363],[-85.8396,10.3186,5.8278],[-85.8394,10.3076,0.0],[-85.8346,10.3093,1.7732],[-85.8335,10.3155,3.8662],[-85.8344,10.3205,5.5658],[-85.831,10.325,4.9809],[-85.8278,10.3242,9.9307],[-85.8277,10.3222,15.1007],[-85.8212,10.3267,8.4642],[-85.8117,10.3262,11.3544],[-85.8081,10.3295,14.5462],[-85.8059,10.3286,12.3797],[-85.7969,10.3336,15.2091],[-85.7965,10.3372,15.466],[-85.7879,10.3423,30.5215],[-85.7955,10.3467,18.2555],[-85.7936,10.3488,21.8267],[-85.7909,10.359,29.6313],[-85.7923,10.3763,27.7417],[-85.7844,10.381,85.179],[-85.7822,10.3845,79.965],[-85.7753,10.3862,216.2165],[-85.7762,10.3911,275.7197],[-85.7703,10.39,253.6265],[-85.764,10.3952,412.6497],[-85.7664,10.4202,256.881],[-85.7699,10.4224,151.5],[-85.7685,10.4255,129.8303],[-85.7702,10.4323,56.8278],[-85.7769,10.4364,97.6762]]],
[[[-85.8399,10.3872,0.0],[-85.8397,10.3872,0.0],[-85.8397,10.3874,0.0],[-85.84,10.3875,0.0],[-85.8399,10.3872,0.0]]],
[[[-85.8018,10.4494,5.3159],[-85.8043,10.4503,18.537],[-85.8054,10.449,0.0],[-85.8036,10.4453,0.0],[-85.8011,10.4469,6.1153],[-85.8006,10.4492,0.0],[-85.8018,10.4494,5.3159]]]]}}