{"type":"Feature","properties":{"GID_3":"CRI.1.9.7_1","GID_0":"CRI","country":"CostaRica","GID_1":"CRI.1_1","province":"Alajuela","NL_NAME_1":"NA","GID_2":"CRI.1.9_1","county":"Palmares","NL_NAME_2":"NA","city":"Zaragoza","VARNAME_3":"NA","NL_NAME_3":"NA","TYPE_3":"Distrito","ENGTYPE_3":"District","CC_3":"2","HASC_3":"NA","name":"Zaragoza.city"},
"geometry":{"type": "MultiPolygon","coordinates": [[[[-84.4122,10.0456,912.1033],[-84.4145,10.0448,925.0544],[-84.4148,10.041,965.973],[-84.4162,10.041,989.3915],[-84.4206,10.0467,1002.0367],[-84.4286,10.0526,1013.9394],[-84.4321,10.0501,1027.564],[-84.4318,10.0484,1020.1416],[-84.4404,10.0471,1040.6281],[-84.4493,10.0422,1121.4167],[-84.4546,10.0413,1178.3813],[-84.46,10.0431,1395.9534],[-84.4639,10.0399,1415.2766],[-84.4641,10.0354,1410.7258],[-84.4687,10.029,1465.6659],[-84.4688,10.0176,1353.0833],[-84.47,10.016,1383.4479],[-84.4688,10.0152,1386.2688],[-84.4472,10.0353,1061.9946],[-84.4369,10.0359,1015.9032],[-84.4329,10.0344,974.1961],[-84.4317,10.0359,989.0839],[-84.4303,10.0347,969.2005],[-84.4289,10.0364,970.6649],[-84.4281,10.0351,978.7831],[-84.4214,10.0379,958.0885],[-84.4181,10.0368,945.8356],[-84.4134,10.0386,897.6937],[-84.4122,10.0456,912.1033]]]]}}