{"type":"Feature","properties":{"GID_3":"CRI.7.11.1_1","GID_0":"CRI","country":"CostaRica","GID_1":"CRI.7_1","province":"SanJosé","NL_NAME_1":"NA","GID_2":"CRI.7.11_1","county":"Mora","NL_NAME_2":"NA","city":"Colón","VARNAME_3":"NA","NL_NAME_3":"NA","TYPE_3":"Distrito","ENGTYPE_3":"District","CC_3":"1","HASC_3":"NA","name":"Colón.city"},
"geometry":{"type": "MultiPolygon","coordinates": [[[[-84.3098,9.9234,469.7645],[-84.3117,9.9191,453.0936],[-84.3151,9.9175,465.2953],[-84.3197,9.9203,425.6278],[-84.3207,9.916,447.1237],[-84.3246,9.9156,426.6917],[-84.3191,9.913,498.7821],[-84.3181,9.9108,478.5732],[-84.3084,9.9098,501.7022],[-84.3027,9.9054,535.3348],[-84.3012,9.9064,519.5255],[-84.3005,9.9032,518.9198],[-84.2915,9.9,555.2813],[-84.2902,9.8965,560.3073],[-84.2863,9.8957,571.8123],[-84.2826,9.8882,605.2908],[-84.2754,9.885,690.4463],[-84.2684,9.8778,725.86],[-84.2656,9.8788,780.4233],[-84.2583,9.8755,820.182],[-84.2547,9.8765,857.7561],[-84.2453,9.875,980.6993],[-84.2412,9.873,1167.1311],[-84.2397,9.8699,1230.744],[-84.2294,9.8708,1176.9497],[-84.2196,9.8756,1242.8373],[-84.2101,9.8741,1467.8794],[-84.2082,9.8767,1465.5653],[-84.2024,9.8783,1470.0935],[-84.2022,9.8805,1531.2699],[-84.1939,9.8882,1785.835],[-84.2015,9.8974,1577.6173],[-84.2194,9.9105,1242.0889],[-84.224,9.9234,1008.3564],[-84.229,9.9306,797.8824],[-84.2333,9.9332,783.6211],[-84.2383,9.9329,775.6433],[-84.2456,9.935,680.6634],[-84.2468,9.9319,673.6696],[-84.2489,9.9316,653.7532],[-84.2516,9.9281,611.1757],[-84.2584,9.93,648.5986],[-84.2604,9.9325,650.0134],[-84.2663,9.9313,590.9818],[-84.2692,9.9333,590.7415],[-84.2839,9.929,566.3411],[-84.2866,9.9308,593.741],[-84.2887,9.9287,564.4728],[-84.2933,9.9304,550.3284],[-84.2989,9.9252,525.0505],[-84.3098,9.9234,469.7645]]]]}}