{"type":"Feature","properties":{"GID_3":"CRI.4.4.4_1","GID_0":"CRI","country":"CostaRica","GID_1":"CRI.4_1","province":"Heredia","NL_NAME_1":"NA","GID_2":"CRI.4.4_1","county":"Heredia","NL_NAME_2":"NA","city":"Ulloa","VARNAME_3":"NA","NL_NAME_3":"NA","TYPE_3":"Distrito","ENGTYPE_3":"District","CC_3":"4","HASC_3":"NA","name":"Ulloa.city"},
"geometry":{"type": "MultiPolygon","coordinates": [[[[-84.157,9.9685,948.8105],[-84.1469,9.9642,963.692],[-84.1456,9.9623,952.9376],[-84.1379,9.964,991.1828],[-84.1333,9.9675,996.4274],[-84.1159,9.9622,1018.8143],[-84.1138,9.9597,1008.9287],[-84.1095,9.9615,1012.3206],[-84.1121,9.964,1052.2031],[-84.1139,9.9713,1049.2744],[-84.1225,9.9741,1032.5181],[-84.1204,9.9784,1046.6738],[-84.1208,9.9886,1107.0569],[-84.1233,9.9897,1119.6338],[-84.1285,9.9898,1114.7631],[-84.1301,9.9873,1119.7054],[-84.1331,9.9865,1110.1832],[-84.1345,9.991,1115.5054],[-84.1531,9.9877,1041.2645],[-84.1627,9.981,995.2292],[-84.155,9.9765,969.7166],[-84.1535,9.9726,969.8007],[-84.157,9.9685,948.8105]]]]}}