{"type": "Feature","bbox": [-84.6061,10.5068,-84.3049,10.9959],"geometry": {"type": "MultiPolygon","coordinates": [[[[-84.548,10.7922,44.1492],[-84.547,10.7908,46.5904],[-84.5499,10.7895,41.5703],[-84.5492,10.7882,43.7545],[-84.5465,10.7888,42.7504],[-84.5474,10.7831,45.3279],[-84.5442,10.783,44.8023],[-84.5474,10.7785,43.5067],[-84.5439,10.7741,48.4867],[-84.5455,10.771,43.2957],[-84.5417,10.7717,44.5831],[-84.5434,10.7697,44.7449],[-84.5407,10.769,54.9853],[-84.539,10.7663,51.794],[-84.5378,10.7695,66.1012],[-84.5364,10.7677,57.2623],[-84.5339,10.7682,50.3725],[-84.5337,10.7654,47.0212],[-84.5317,10.7636,64.8839],[-84.5284,10.7651,46.208],[-84.5307,10.7598,45.2444],[-84.5263,10.7513,49.3889],[-84.529,10.7507,45.6659],[-84.5269,10.7498,47.0575],[-84.5266,10.7473,50.9509],[-84.5221,10.7468,49.5305],[-84.5194,10.7489,49.156],[-84.527,10.7384,61.3998],[-84.5238,10.7401,52.0686],[-84.5255,10.7375,51.481],[-84.5234,10.7339,50.0484],[-84.5262,10.7319,51.0154],[-84.5239,10.731,52.6921],[-84.5245,10.7293,53.4822],[-84.523,10.7286,51.9823],[-84.5244,10.7257,55.2158],[-84.5217,10.7239,56.3515],[-84.5232,10.7221,67.2104],[-84.521,10.7215,58.3334],[-84.5224,10.7193,56.5472],[-84.5196,10.7166,59.9466],[-84.5221,10.7115,59.5581],[-84.5205,10.7066,76.8689],[-84.5224,10.701,59.4858],[-84.5189,10.694,68.7846],[-84.5232,10.6913,84.8068],[-84.5254,10.6855,75.461],[-84.5292,10.6843,95.5057],[-84.5307,10.6853,95.5057],[-84.5288,10.6889,94.6703],[-84.5353,10.6876,89.7539],[-84.5349,10.6913,82.5287],[-84.538,10.6886,73.9827],[-84.5378,10.6865,72.4206],[-84.5431,10.6835,74.5899],[-84.5505,10.6825,82.1755],[-84.552,10.6845,75.7526],[-84.5559,10.6814,79.7366],[-84.5568,10.6835,75.9088],[-84.5606,10.6839,98.6927],[-84.5611,10.6821,82.9075],[-84.5635,10.6814,87.4301],[-84.5665,10.6743,91.783],[-84.5708,10.6723,104.8892],[-84.5686,10.6652,103.3693],[-84.5708,10.6621,101.7176],[-84.5702,10.66,102.056],[-84.5731,10.6584,107.9335],[-84.5761,10.6595,93.856],[-84.5776,10.6546,116.2299],[-84.5854,10.6507,123.5711],[-84.5838,10.6439,110.2038],[-84.5853,10.641,117.3965],[-84.5884,10.6404,120.9297],[-84.5907,10.6377,129.5279],[-84.5941,10.6381,111.0279],[-84.5932,10.635,126.7567],[-84.5954,10.6339,136.4481],[-84.5961,10.6281,126.2786],[-84.5984,10.6267,125.9854],[-84.5964,10.6246,133.7682],[-84.5976,10.6187,131.6509],[-84.5963,10.6166,120.331],[-84.5992,10.6127,124.5385],[-84.5981,10.6111,134.6348],[-84.5992,10.6062,133.9922],[-84.6039,10.6043,147.5259],[-84.6032,10.5983,152.328],[-84.6061,10.5964,155.3594],[-84.6051,10.5946,143.3798],[-84.6037,10.5951,143.3798],[-84.6056,10.5908,167.3644],[-84.5998,10.5879,160.4733],[-84.5947,10.5905,139.0745],[-84.5816,10.5915,131.7096],[-84.5778,10.5897,132.0678],[-84.5747,10.5851,143.7612],[-84.5696,10.5861,141.0555],[-84.5613,10.5843,114.5999],[-84.5617,10.5777,116.5508],[-84.5671,10.5735,127.6321],[-84.5709,10.5655,135.0071],[-84.5713,10.5612,146.0074],[-84.5691,10.5565,151.8984],[-84.5709,10.5542,159.6542],[-84.5701,10.5515,158.9816],[-84.5722,10.5493,174.8117],[-84.5714,10.5471,180.2976],[-84.5737,10.5452,187.2455],[-84.5731,10.5422,182.5172],[-84.5708,10.5393,170.7997],[-84.5673,10.5409,169.6633],[-84.5656,10.5393,171.259],[-84.5584,10.5379,190.7587],[-84.5544,10.5338,179.182],[-84.5521,10.5344,179.6811],[-84.5507,10.5315,163.0726],[-84.5421,10.5308,144.879],[-84.5295,10.5224,99.6952],[-84.5284,10.5175,79.4807],[-84.5257,10.514099999999999,84.5571],[-84.5262,10.5098,96.0184],[-84.5104,10.5068,72.5572],[-84.5092,10.509,62.5512],[-84.5123,10.5134,63.6787],[-84.5111,10.5187,57.1822],[-84.5027,10.522,64.2322],[-84.4953,10.5166,65.0494],[-84.4879,10.5259,55.8589],[-84.4874,10.5309,63.8989],[-84.4903,10.5339,63.6161],[-84.4886,10.5367,62.317],[-84.4926,10.5541,62.4934],[-84.4866,10.5583,59.2172],[-84.4857,10.5657,72.8556],[-84.4803,10.5651,56.6397],[-84.4744,10.5709,55.1308],[-84.4655,10.5744,52.6276],[-84.456,10.5833,51.7792],[-84.455,10.5911,83.9065],[-84.4513,10.5916,52.8862],[-84.445,10.5873,49.1046],[-84.4391,10.5945,48.129],[-84.4332,10.5955,52.3062],[-84.4265,10.6003,47.6029],[-84.4174,10.6037,72.0285],[-84.4175,10.6096,54.1],[-84.4103,10.6182,49.148],[-84.4053,10.6166,79.1418],[-84.4031,10.619,50.3294],[-84.4072,10.6221,61.3531],[-84.4214,10.6251,46.6136],[-84.4223,10.6338,73.8208],[-84.4142,10.6313,50.4158],[-84.4127,10.6337,43.6883],[-84.4217,10.6375,52.3302],[-84.4227,10.6409,84.4744],[-84.4284,10.6435,97.6503],[-84.4299,10.6494,97.2087],[-84.433,10.6473,99.577],[-84.4385,10.649,94.7715],[-84.4446,10.646,90.8905],[-84.4494,10.6567,82.1807],[-84.4492,10.6632,72.7641],[-84.4507,10.6642,72.2582],[-84.4475,10.6657,68.3053],[-84.4509,10.672,79.251],[-84.449,10.677,73.148],[-84.4564,10.6798,72.3774],[-84.4594,10.6862,82.9321],[-84.4616,10.6852,95.3561],[-84.4639,10.6898,76.2233],[-84.4633,10.6927,78.9966],[-84.4651,10.694,78.2126],[-84.4632,10.6945,78.2126],[-84.4636,10.6975,80.6256],[-84.4616,10.6978,84.7253],[-84.4629,10.7003,77.8395],[-84.4608,10.7022,83.6769],[-84.4627,10.7064,64.8806],[-84.4592,10.7072,68.3826],[-84.4607,10.7098,61.4382],[-84.4582,10.713,62.9035],[-84.4557,10.713,61.19],[-84.4526,10.7156,70.3671],[-84.4528,10.7173,60.2322],[-84.45,10.7176,67.5174],[-84.4519,10.7205,63.6041],[-84.4496,10.7216,72.7014],[-84.4498,10.7235,69.2622],[-84.4461,10.7238,70.7523],[-84.4486,10.7249,61.1225],[-84.4466,10.7258,69.879],[-84.4486,10.7289,58.5827],[-84.4467,10.7303,58.5827],[-84.4459,10.7349,53.7578],[-84.4438,10.7342,71.9652],[-84.4428,10.7356,68.839],[-84.4444,10.7372,63.3726],[-84.4421,10.7386,82.1498],[-84.4425,10.7417,64.1133],[-84.4382,10.7427,57.0042],[-84.4372,10.7446,49.9388],[-84.4388,10.7463,63.1789],[-84.4356,10.7473,50.2862],[-84.4332,10.7503,42.958],[-84.4346,10.7582,48.6723],[-84.4375,10.7591,52.5788],[-84.4358,10.7622,70.4398],[-84.4367,10.7668,51.0966],[-84.433,10.7707,47.88],[-84.4277,10.7718,40.8634],[-84.4271,10.7767,44.7054],[-84.425,10.7779,52.7643],[-84.4258,10.7799,49.9062],[-84.4236,10.7819,52.0654],[-84.4232,10.7848,44.2964],[-84.4203,10.7852,45.1413],[-84.4162,10.7917,48.2974],[-84.4105,10.7948,50.5911],[-84.4096,10.8023,42.888],[-84.4071,10.8052,43.2753],[-84.4064,10.8098,37.5551],[-84.3992,10.8172,37.1182],[-84.3989,10.824,43.5711],[-84.3962,10.8259,46.6034],[-84.3974,10.8304,41.4487],[-84.3965,10.8346,32.8443],[-84.3993,10.8361,32.4555],[-84.3991,10.8401,32.4339],[-84.3951,10.8474,39.8634],[-84.3907,10.8508,33.5262],[-84.391,10.8546,33.5805],[-84.3839,10.8578,36.0719],[-84.3793,10.8566,43.8425],[-84.3772,10.8526,33.9441],[-84.3718,10.8522,36.1096],[-84.3658,10.8471,48.3263],[-84.3627,10.8484,44.27],[-84.3582,10.8467,45.8433],[-84.3549,10.8522,32.4309],[-84.3538,10.85,38.525],[-84.3508,10.8528,43.9552],[-84.3534,10.8598,55.4893],[-84.355,10.8566,38.1912],[-84.3552,10.8595,47.2621],[-84.3567,10.8594,49.4731],[-84.3559,10.8609,45.321],[-84.3582,10.8641,34.9604],[-84.358,10.8667,33.5175],[-84.3626,10.8636,47.9111],[-84.3622,10.8652,35.0534],[-84.3649,10.8638,30.428],[-84.3671,10.8655,38.4011],[-84.3653,10.8661,28.0351],[-84.365,10.872,36.5737],[-84.3664,10.8719,36.5737],[-84.3667,10.874,50.5057],[-84.3641,10.8761,49.3344],[-84.3681,10.8767,44.4346],[-84.3665,10.8788,47.6456],[-84.3674,10.8809,46.2656],[-84.3634,10.8813,50.6345],[-84.3621,10.8835,58.4391],[-84.364,10.8863,55.391],[-84.3636,10.8887,66.9507],[-84.3648,10.8878,52.384],[-84.3637,10.8915,56.5044],[-84.3667,10.8922,44.0374],[-84.3632,10.8984,32.2615],[-84.3664,10.898,30.9965],[-84.3645,10.9008,46.6088],[-84.3671,10.9057,45.5944],[-84.3606,10.9113,37.4122],[-84.3539,10.9115,39.8441],[-84.3487,10.9099,33.0003],[-84.348,10.9046,42.7729],[-84.3418,10.9069,32.5247],[-84.3427,10.9046,34.4742],[-84.3392,10.9026,41.691],[-84.3395,10.8999,31.9471],[-84.3342,10.9004,29.5625],[-84.3344,10.8977,40.3099],[-84.3322,10.8974,30.2254],[-84.3313,10.9,45.6267],[-84.3327,10.9034,38.5911],[-84.3291,10.9063,50.1998],[-84.3276,10.912,40.9634],[-84.316,10.9105,35.3246],[-84.3104,10.9149,39.2564],[-84.3065,10.9137,51.7916],[-84.3049,10.9157,23.7755],[-84.311,10.9219,41.3538],[-84.3159,10.9164,25.3385],[-84.3227,10.9181,34.5952],[-84.3319,10.9316,34.986],[-84.3362,10.946,23.0848],[-84.351,10.9512,28.8468],[-84.3474,10.9665,30.9083],[-84.3416,10.9712,24.767],[-84.3415,10.9728,24.0],[-84.3508,10.9882,30.277],[-84.3584,10.9959,36.671],[-84.3764,10.9775,78.8525],[-84.3999,10.9751,49.7556],[-84.4203,10.9552,51.4408],[-84.4506,10.961,37.1566],[-84.4611,10.9646,34.0581],[-84.4596,10.9587,35.5501],[-84.4632,10.96,32.9853],[-84.4662,10.959,32.417],[-84.4658,10.9532,36.5299],[-84.4713,10.9574,30.5745],[-84.4715,10.9523,37.5577],[-84.4736,10.9533,35.0339],[-84.4746,10.9505,37.9015],[-84.4759,10.9521,32.8173],[-84.4779,10.9517,43.3398],[-84.4768,10.9499,48.7965],[-84.4792,10.9473,53.4083],[-84.4731,10.9465,43.5141],[-84.4758,10.9432,35.0469],[-84.4728,10.9431,42.9688],[-84.4722,10.9411,35.3701],[-84.4756,10.9396,36.9248],[-84.473,10.9365,37.5395],[-84.4768,10.931,32.4833],[-84.4829,10.9276,33.4358],[-84.4802,10.9276,33.534],[-84.4788,10.9258,31.8987],[-84.4765,10.9283,34.4154],[-84.4737,10.927,33.5071],[-84.4708,10.9237,37.9393],[-84.4722,10.921,33.7099],[-84.4691,10.9194,30.9575],[-84.4721,10.9176,34.6901],[-84.4701,10.9142,40.0732],[-84.4716,10.9117,35.3609],[-84.469,10.9103,36.534],[-84.4679,10.9121,43.7243],[-84.4671,10.9112,37.5348],[-84.4684,10.9084,31.8957],[-84.4705,10.908,37.8031],[-84.4704,10.9038,32.6041],[-84.4718,10.9021,37.4528],[-84.4699,10.9014,36.115],[-84.4703,10.8985,36.0436],[-84.4681,10.8978,44.8249],[-84.4717,10.8928,49.2544],[-84.4709,10.8913,41.171],[-84.4688,10.8916,49.9012],[-84.4685,10.8882,41.6719],[-84.4651,10.8877,48.7322],[-84.4693,10.8856,40.5633],[-84.4685,10.8835,35.4604],[-84.4703,10.8827,42.087],[-84.469,10.8804,40.9493],[-84.4688,10.8819,39.2918],[-84.4664,10.8808,38.7249],[-84.4663,10.8789,39.5825],[-84.4715,10.8762,40.6338],[-84.4702,10.8726,41.395],[-84.4737,10.8734,40.9324],[-84.4727,10.8725,47.7829],[-84.4739,10.8714,39.0685],[-84.4806,10.8747,41.0369],[-84.4835,10.8738,35.2239],[-84.4856,10.8763,35.7318],[-84.4863,10.8745,35.3379],[-84.4874,10.8763,35.3006],[-84.4903,10.8754,33.4559],[-84.4927,10.8775,41.0788],[-84.4953,10.8759,34.8144],[-84.4946,10.8744,44.7831],[-84.4925,10.8751,39.3282],[-84.4936,10.8733,35.1859],[-84.4972,10.8732,33.2041],[-84.4968,10.8755,39.0397],[-84.4999,10.8745,49.2342],[-84.4992,10.8726,41.6898],[-84.5019,10.8727,52.2976],[-84.5009,10.875,53.5671],[-84.5024,10.8745,43.7706],[-84.5051,10.8766,51.49],[-84.5045,10.88,54.1495],[-84.5085,10.883,39.4465],[-84.5114,10.8782,54.1262],[-84.513,10.8808,36.4099],[-84.5143,10.8788,48.487],[-84.5171,10.8798,36.987],[-84.5183,10.8762,44.201],[-84.5206,10.8787,55.3057],[-84.5238,10.8784,45.5843],[-84.5229,10.8748,46.1042],[-84.5261,10.8757,47.4906],[-84.5294,10.8714,48.4352],[-84.531,10.8712,48.4352],[-84.5307,10.8736,55.516],[-84.5338,10.8746,40.386],[-84.5354,10.8704,40.4959],[-84.5354,10.8735,35.9891],[-84.5371,10.8742,35.725],[-84.5366,10.872,46.3005],[-84.5386,10.8716,55.8623],[-84.5365,10.8691,40.4959],[-84.5438,10.8674,47.6629],[-84.5427,10.8634,57.3458],[-84.5437,10.8626,56.8836],[-84.5453,10.8649,51.6669],[-84.5464,10.8621,43.078],[-84.5446,10.8607,54.0737],[-84.5481,10.8599,45.696],[-84.5457,10.859,55.0096],[-84.5465,10.8564,45.2328],[-84.5444,10.8556,44.8994],[-84.544,10.8526,52.1607],[-84.5461,10.8509,48.1931],[-84.545,10.8501,42.1265],[-84.5464,10.8477,43.9193],[-84.5434,10.8476,43.6221],[-84.5442,10.8462,38.372],[-84.5422,10.8457,44.9374],[-84.5413,10.8432,38.8537],[-84.5418,10.8398,36.7034],[-84.5403,10.8399,39.2675],[-84.5394,10.8365,45.4113],[-84.541,10.8366,45.4113],[-84.5419,10.8346,37.2282],[-84.54,10.8311,50.5229],[-84.5397,10.8325,41.4178],[-84.5379,10.8315,43.8499],[-84.5381,10.8253,46.0577],[-84.5389,10.8223,44.4594],[-84.5436,10.8193,40.2131],[-84.5422,10.8197,54.8611],[-84.543,10.8179,50.2033],[-84.5415,10.8175,50.2033],[-84.5505,10.8124,44.3812],[-84.546,10.8108,51.09],[-84.544,10.8056,55.4835],[-84.5439,10.8031,49.448],[-84.5473,10.8027,52.2504],[-84.5454,10.8008,41.4277],[-84.5475,10.8005,57.2486],[-84.5452,10.7955,47.0098],[-84.5488,10.7944,42.1356],[-84.548,10.7922,44.1492]]]]}
,"properties": {"GID_3": "CRI.1.11.10_1","GID_0": "CRI","country": "CostaRica","GID_1": "CRI.1_1","province": "Alajuela","NL_NAME_1": "NA","GID_2": "CRI.1.11_1","county": "SanCarlos","NL_NAME_2": "NA","city": "Pocosol","VARNAME_3": "NA","NL_NAME_3": "NA","TYPE_3": "Distrito","ENGTYPE_3": "District","CC_3": "13","HASC_3": "NA","name": "Pocosol.city","area_km2": 663.5485,"hist_schema_id": "Elevation0-9000","hist_area_km2": {"25": 25.0882,"50": 185.5524,"75": 214.2974,"100": 125.4757,"125": 93.774,"150": 16.4428,"175": 2.6053,"200": 0.3127}}}