{"type": "Feature","bbox": [-84.0472,9.6213,-83.9723,9.7186],"geometry": {"type": "MultiPolygon","coordinates": [[[[-83.9723,9.7144,2217.7695],[-83.9782,9.7157,2204.9846],[-83.9792,9.7186,2193.1035],[-83.9861,9.7167,2120.0146],[-83.9883,9.7178,2133.595],[-84.0047,9.7112,2040.0613],[-84.0094,9.7108,2071.5242],[-84.0142,9.7044,2110.9885],[-84.0207,9.7015,2075.0908],[-84.0216,9.6956,2054.7192],[-84.0183,9.6897,2036.0157],[-84.0202,9.6884,2025.9102],[-84.0262,9.6891,1871.7614],[-84.0284,9.6853,1772.7371],[-84.0315,9.6853,1735.3379],[-84.0292,9.6822,1718.1959],[-84.0295,9.6781,1633.5132],[-84.0345,9.6745,1574.3763],[-84.038,9.6639,1504.088],[-84.0472,9.6573,1354.7485],[-84.042,9.6554,1366.6184],[-84.0352,9.6552,1364.2852],[-84.0295,9.6469,1393.2109],[-84.025,9.6454,1408.9178],[-84.0234,9.6425,1423.6694],[-84.0154,9.637,1630.8713],[-84.0064,9.6244,1988.9058],[-84.0018,9.6213,1922.6284],[-83.9968,9.6213,2015.214],[-83.9948,9.6231,2043.1484],[-83.9903,9.6215,2135.2051],[-83.9896,9.6235,2179.5151],[-83.9897,9.6538,1492.3638],[-83.9723,9.7144,2217.7695]]]]}
,"properties": {"GID_3": "CRI.7.17.3_1","GID_0": "CRI","country": "CostaRica","GID_1": "CRI.7_1","province": "SanJosé","NL_NAME_1": "NA","GID_2": "CRI.7.17_1","county": "Tarrazú","NL_NAME_2": "NA","city": "SanMarcos","VARNAME_3": "NA","NL_NAME_3": "NA","TYPE_3": "Distrito","ENGTYPE_3": "District","CC_3": "1","HASC_3": "NA","name": "San_Marcos.city","area_km2": 45.56377,"hist_schema_id": "Elevation0-9000","hist_area_km2": {"1325": 0.08361,"1350": 0.33443,"1375": 0.79427,"1400": 1.19141,"1425": 1.58854,"1450": 1.83936,"1475": 2.11107,"1500": 1.56761,"1525": 1.81844,"1550": 1.77663,"1575": 1.88114,"1600": 1.75574,"1625": 1.88109,"1650": 1.60941,"1675": 1.77661,"1700": 1.56759,"1725": 1.23316,"1750": 1.31674,"1775": 1.08684,"1800": 1.23315,"1825": 1.21222,"1850": 1.44213,"1875": 1.46302,"1900": 1.23309,"1925": 1.86011,"1950": 1.37939,"1975": 1.50478,"2000": 1.77646,"2025": 1.35847,"2050": 1.31667,"2075": 0.79417,"2100": 0.56429,"2125": 0.52249,"2150": 0.27169,"2175": 0.20898,"2200": 0.20898}}}