{"type": "Feature","bbox": [-83.7751,10.0387,-83.4703,10.3706],"geometry": {"type": "MultiPolygon","coordinates": [[[[-83.5456,10.2251,23.6203],[-83.543,10.2289,19.09],[-83.5407,10.2278,18.7238],[-83.5354,10.229,16.755],[-83.5305,10.2353,15.1101],[-83.5276,10.2296,19.5556],[-83.5214,10.2324,17.5324],[-83.5178,10.2319,15.5866],[-83.5172,10.2366,14.5794],[-83.5158,10.2377,15.5774],[-83.5134,10.2349,15.0163],[-83.5079,10.2373,14.174],[-83.5087,10.2328,12.2894],[-83.5046,10.2323,13.01],[-83.5028,10.2375,11.9042],[-83.4995,10.241,12.9897],[-83.4994,10.2451,14.4756],[-83.4939,10.2424,12.6755],[-83.4911,10.2464,11.9992],[-83.489,10.2431,13.3668],[-83.4905,10.2511,11.0911],[-83.4847,10.2513,9.5951],[-83.4864,10.2568,10.5302],[-83.4829,10.2584,9.9382],[-83.4825,10.2615,9.7786],[-83.4808,10.2621,9.9712],[-83.4852,10.2638,10.7025],[-83.4819,10.2654,11.2963],[-83.4829,10.2711,9.1467],[-83.4792,10.2712,8.1147],[-83.4839,10.2762,10.5402],[-83.4848,10.2739,13.7302],[-83.4867,10.2738,8.8552],[-83.4884,10.2805,15.4029],[-83.4831,10.2844,10.2434],[-83.481,10.2838,11.1729],[-83.4806,10.281,10.2171],[-83.4785,10.2862,10.2813],[-83.4754,10.2839,7.7733],[-83.4703,10.2886,9.6333],[-83.4743,10.2895,8.1092],[-83.4733,10.2913,9.3465],[-83.4747,10.2924,19.4035],[-83.4767,10.2923,12.5121],[-83.476,10.2908,8.8151],[-83.4788,10.292,8.4095],[-83.4788,10.2896,9.3897],[-83.4822,10.2921,9.1215],[-83.4843,10.2918,9.2389],[-83.4846,10.2936,8.6818],[-83.4904,10.2949,9.1929],[-83.4909,10.2989,11.6538],[-83.4927,10.2996,11.3609],[-83.4938,10.2995,11.3609],[-83.4922,10.2978,9.9653],[-83.4929,10.296,11.8371],[-83.4958,10.296,10.2797],[-83.4947,10.2988,11.5451],[-83.4957,10.2997,11.5451],[-83.4974,10.2988,12.3425],[-83.4972,10.2962,11.077],[-83.499,10.2965,11.8662],[-83.4993,10.2994,12.4171],[-83.5027,10.2997,12.7927],[-83.5037,10.3037,12.0938],[-83.5055,10.3025,13.1249],[-83.5098,10.3033,12.0356],[-83.5116,10.2975,19.1826],[-83.5129,10.3017,19.0413],[-83.5119,10.3042,16.6119],[-83.5145,10.3057,13.6603],[-83.5167,10.3039,11.7691],[-83.5174,10.3073,14.9907],[-83.5208,10.3043,16.3023],[-83.5177,10.3017,14.5497],[-83.5208,10.3012,15.257],[-83.5226,10.3029,14.9656],[-83.5277,10.2976,15.6585],[-83.5244,10.298,17.0994],[-83.5244,10.2963,16.7915],[-83.5292,10.2945,16.9839],[-83.5305,10.2969,15.5727],[-83.5345,10.2965,23.1868],[-83.5344,10.2997,17.5434],[-83.5375,10.299,16.1936],[-83.5392,10.2957,17.0789],[-83.5406,10.2982,18.8029],[-83.5442,10.2966,18.6602],[-83.5442,10.2985,20.5173],[-83.5485,10.2996,21.946],[-83.5562,10.2974,20.936],[-83.5594,10.3007,23.3735],[-83.5688,10.2997,21.5814],[-83.5697,10.3036,57.0534],[-83.5669,10.3123,136.936],[-83.5735,10.3229,108.561],[-83.5758,10.3314,133.9454],[-83.5758,10.3361,126.3578],[-83.5727,10.3396,164.6467],[-83.5742,10.3421,177.1824],[-83.5729,10.3467,180.7545],[-83.5777,10.3517,236.4464],[-83.5807,10.3514,191.5238],[-83.587,10.3573,33.8574],[-83.5877,10.3612,29.6615],[-83.5899,10.3619,25.9371],[-83.5896,10.3643,28.132],[-83.5919,10.3646,25.1889],[-83.595,10.3686,26.0605],[-83.5931,10.3705,34.8601],[-83.5956,10.3706,29.3159],[-83.6025,10.3613,25.0019],[-83.6102,10.3607,46.3183],[-83.6193,10.3565,33.8159],[-83.6266,10.3594,39.5302],[-83.6313,10.3566,37.6808],[-83.6391,10.3587,39.9009],[-83.6474,10.3569,40.0408],[-83.6502,10.3542,40.7138],[-83.6617,10.3538,42.0214],[-83.6629,10.3526,43.5385],[-83.6637,10.3538,44.5688],[-83.6673,10.3534,50.4372],[-83.6675,10.2907,48.6153],[-83.6692,10.2872,56.534],[-83.6697,10.2885,56.534],[-83.6721,10.2883,59.9456],[-83.6722,10.2864,56.8131],[-83.6734,10.2873,65.7716],[-83.6743,10.2852,63.5176],[-83.6722,10.2842,55.3608],[-83.675,10.2819,58.5635],[-83.6748,10.278,57.3917],[-83.6811,10.2781,59.6399],[-83.6802,10.2745,59.105],[-83.6814,10.2721,57.5222],[-83.6861,10.2703,64.8296],[-83.6863,10.2674,66.2049],[-83.6918,10.2663,72.3342],[-83.6931,10.2638,74.1386],[-83.6968,10.2635,79.472],[-83.7001,10.2612,86.1906],[-83.7006,10.2585,89.4289],[-83.7021,10.2596,88.7717],[-83.7047,10.2572,90.8221],[-83.7127,10.255,98.531],[-83.7159,10.2502,107.9814],[-83.7194,10.2497,115.5243],[-83.7215,10.2467,123.6956],[-83.7275,10.2435,136.0573],[-83.7265,10.2419,136.4544],[-83.7284,10.2409,136.4544],[-83.7279,10.2384,145.3877],[-83.7307,10.2318,157.2544],[-83.7297,10.2288,167.0647],[-83.7335,10.2244,176.8075],[-83.7363,10.2147,207.0953],[-83.7472,10.1934,301.33],[-83.7508,10.1795,373.4889],[-83.7527,10.1774,378.9984],[-83.751,10.1704,472.3756],[-83.7525,10.1622,475.496],[-83.7567,10.1563,535.3063],[-83.7555,10.1493,558.0663],[-83.7574,10.1437,608.6627],[-83.756,10.1396,625.7036],[-83.7571,10.1359,646.826],[-83.7627,10.1291,741.7206],[-83.7727,10.1091,909.5865],[-83.7725,10.1006,970.7214],[-83.7685,10.0965,1022.5721],[-83.7721,10.0897,1125.0573],[-83.7718,10.0791,1341.7228],[-83.7751,10.0738,1431.3418],[-83.7739,10.063,1734.833],[-83.7252,10.0398,2414.7217],[-83.7204,10.0387,2338.7578],[-83.7105,10.0444,2027.1776],[-83.7073,10.0506,1822.4917],[-83.6975,10.0561,1544.3325],[-83.6899,10.0544,1481.4806],[-83.6872,10.0556,1330.0796],[-83.6629,10.0546,1062.4019],[-83.6402,10.064,928.7139],[-83.6371,10.0684,865.746],[-83.6264,10.0723,729.798],[-83.6233,10.0751,694.6034],[-83.6225,10.0818,600.0065],[-83.6164,10.0949,478.7517],[-83.6149,10.1098,354.9786],[-83.6131,10.1155,302.2966],[-83.6107,10.1178,295.868],[-83.6101,10.1285,245.5117],[-83.6073,10.128,244.1039],[-83.6065,10.1335,246.7427],[-83.6034,10.1377,201.7295],[-83.61,10.1401,195.1411],[-83.608,10.1447,173.8485],[-83.6118,10.1475,181.7102],[-83.6018,10.1612,112.1353],[-83.596,10.1641,93.2936],[-83.5966,10.1666,79.2747],[-83.5895,10.1798,55.6088],[-83.5797,10.1876,37.683],[-83.577,10.2019,43.5882],[-83.5734,10.2017,41.5091],[-83.5722,10.2064,38.6572],[-83.5686,10.2022,29.6988],[-83.5638,10.203,20.6976],[-83.5636,10.2053,22.9511],[-83.561,10.2052,22.188],[-83.5607,10.2094,23.7052],[-83.5623,10.2099,25.7561],[-83.56,10.2142,28.345],[-83.5542,10.2148,23.5528],[-83.5518,10.2181,27.6455],[-83.5536,10.2193,21.6674],[-83.552,10.2203,21.6674],[-83.552,10.223,20.291],[-83.5473,10.2233,19.3163],[-83.5456,10.2251,23.6203]]]]}
,"properties": {"GID_2": "CRI.5.1_1","GID_0": "CRI","country": "CostaRica","GID_1": "CRI.5_1","province": "Limón","NL_NAME_1": "NA","county": "Guácimo","VARNAME_2": "NA","NL_NAME_2": "NA","TYPE_2": "Cantón","ENGTYPE_2": "Canton","CC_2": "6","HASC_2": "CR.LI.GU","name": "Guácimo.county","area_km2": 582.7104,"hist_schema_id": "Elevation0-9000","hist_area_km2": {"0": 17.0654,"25": 144.4066,"50": 94.9047,"75": 29.3784,"100": 20.0315,"125": 15.5038,"150": 12.3533,"175": 11.7276,"200": 12.0202,"225": 10.5598,"250": 8.6192,"275": 6.574,"300": 5.3845,"325": 5.6766,"350": 7.2627,"375": 7.3254,"400": 6.9499,"425": 7.6387,"450": 7.0961,"475": 6.1987,"500": 6.0736,"525": 5.8858,"550": 5.5728,"575": 5.0092,"600": 4.6962,"625": 4.7797,"650": 4.8841,"675": 3.7571,"700": 3.5901,"725": 3.0475,"750": 3.2771,"775": 3.0058,"800": 3.131,"825": 3.1519,"850": 3.0684,"875": 3.1936,"900": 3.8407,"925": 2.7553,"950": 3.0058,"975": 2.7554,"1000": 2.7136,"1025": 3.0685,"1050": 3.5069,"1075": 2.484,"1100": 2.3588,"1125": 1.8787,"1150": 2.004,"1175": 1.4612,"1200": 1.4612,"1225": 1.6074,"1250": 1.2942,"1275": 1.8996,"1300": 1.5239,"1325": 1.3151,"1350": 1.4404,"1375": 1.5865,"1400": 1.1272,"1425": 1.0646,"1450": 1.2108,"1475": 1.0646,"1500": 1.2734,"1525": 1.2943,"1550": 0.9603,"1575": 1.0646,"1600": 1.0438,"1625": 0.8768,"1650": 0.9394,"1675": 1.1273,"1700": 1.1064,"1725": 1.169,"1750": 1.0229,"1775": 1.169,"1800": 1.169,"1825": 1.1482,"1850": 1.0229,"1875": 1.2526,"1900": 1.3778,"1925": 1.3778,"1950": 1.2735,"1975": 1.4613,"2000": 1.2526,"2025": 1.2735,"2050": 1.1273,"2075": 0.7724,"2100": 0.7098,"2125": 0.6263,"2150": 0.4802,"2175": 0.3758,"2200": 0.4593,"2225": 0.2088,"2250": 0.2296,"2275": 0.1879,"2300": 0.1461,"2325": 0.0835,"2350": 0.1253,"2375": 0.1253,"2400": 0.0418,"2425": 0.0418,"2450": 0.0835}}}