{"type":"Feature","properties":{"GID_3":"CRI.7.8.6_1","GID_0":"CRI","country":"CostaRica","GID_1":"CRI.7_1","province":"SanJosé","NL_NAME_1":"NA","GID_2":"CRI.7.8_1","county":"Goicoechea","NL_NAME_2":"NA","city":"RanchoRedondo","VARNAME_3":"NA","NL_NAME_3":"NA","TYPE_3":"Distrito","ENGTYPE_3":"District","CC_3":"6","HASC_3":"NA","name":"Rancho_Redondo.city"},
"geometry":{"type": "MultiPolygon","coordinates": [[[[-83.8872,9.9701,3047.489],[-83.9047,9.9757,2767.6567],[-83.9086,9.9698,2581.1897],[-83.9189,9.97,2316.8428],[-83.9315,9.9657,2152.6233],[-83.9363,9.9676,2126.1201],[-83.9431,9.9672,2048.2073],[-83.9498,9.9644,1910.8865],[-83.9628,9.9694,1750.9524],[-83.9666,9.9684,1724.8416],[-83.9731,9.971,1650.1058],[-83.992,9.9717,1484.1528],[-83.9924,9.9675,1476.6554],[-83.9986,9.9685,1440.4937],[-83.9981,9.9651,1449.4617],[-83.9995,9.9648,1445.3351],[-83.9988,9.9625,1424.0912],[-83.996,9.9647,1455.6517],[-83.9864,9.9619,1529.4431],[-83.9837,9.9639,1554.6558],[-83.979,9.9612,1606.8328],[-83.9739,9.9625,1642.2173],[-83.9725,9.961,1647.5658],[-83.9693,9.9619,1670.0779],[-83.9636,9.96,1750.8479],[-83.9585,9.9573,1875.2313],[-83.9565,9.9496,1811.6035],[-83.9523,9.9538,1925.446],[-83.9479,9.9532,1955.4132],[-83.9383,9.9583,2069.6519],[-83.937,9.9553,2162.9644],[-83.9314,9.9518,2168.0354],[-83.9207,9.952,2293.5186],[-83.9153,9.9546,2369.0508],[-83.9106,9.9607,2595.5591],[-83.906,9.9613,2673.4204],[-83.9041,9.9661,2781.0305],[-83.8991,9.9686,2920.9453],[-83.8912,9.9678,3003.9414],[-83.8872,9.9701,3047.489]]]]}}