{"type": "Feature","bbox": [-83.6521,9.8713,-83.5747,9.9584],"geometry": {"type": "MultiPolygon","coordinates": [[[[-83.6506,9.9018,506.6454],[-83.6521,9.8965,533.9682],[-83.6506,9.8923,549.8677],[-83.6485,9.8949,510.2556],[-83.6455,9.8907,574.338],[-83.6514,9.8865,553.1039],[-83.6462,9.8838,596.3398],[-83.6487,9.8795,586.1151],[-83.6389,9.874,553.3337],[-83.6381,9.8715,560.998],[-83.6293,9.8726,653.0935],[-83.6275,9.8713,674.918],[-83.6173,9.8828,986.3727],[-83.6145,9.8832,995.9095],[-83.6126,9.8812,1015.2643],[-83.607,9.885,1143.5903],[-83.6049,9.8884,1163.3065],[-83.6043,9.89,1179.5408],[-83.609,9.8979,1197.0348],[-83.5965,9.9151,915.9473],[-83.6005,9.9162,867.1183],[-83.6029,9.919,864.8066],[-83.6013,9.922,804.5432],[-83.5946,9.9202,931.6108],[-83.5908,9.9214,895.7393],[-83.5882,9.9255,885.3823],[-83.5854,9.9257,879.5936],[-83.5844,9.9273,944.7357],[-83.5885,9.9308,827.1802],[-83.5888,9.9343,774.6619],[-83.5837,9.9406,820.0824],[-83.5831,9.9436,827.2788],[-83.5782,9.945,805.2809],[-83.5747,9.9442,774.7669],[-83.5889,9.9499,705.1538],[-83.5978,9.9505,603.5602],[-83.5992,9.9525,580.0935],[-83.6024,9.9526,562.3563],[-83.6061,9.9553,522.1612],[-83.6127,9.9551,403.2703],[-83.6135,9.9584,367.6346],[-83.6248,9.9497,388.3667],[-83.6295,9.9488,395.4771],[-83.6294,9.9405,451.567],[-83.6309,9.9384,422.6015],[-83.6352,9.9389,425.6831],[-83.6342,9.9336,433.8224],[-83.6413,9.929,446.3184],[-83.6444,9.9213,482.3743],[-83.6442,9.9158,469.6918],[-83.6477,9.9143,481.3683],[-83.6454,9.9101,535.0312],[-83.6491,9.9078,495.6792],[-83.6506,9.9018,506.6454]]]]}
,"properties": {"GID_3": "CRI.2.8.4_1","GID_0": "CRI","country": "CostaRica","GID_1": "CRI.2_1","province": "Cartago","NL_NAME_1": "NA","GID_2": "CRI.2.8_1","county": "Turrialba","NL_NAME_2": "NA","city": "Pavones","VARNAME_3": "NA","NL_NAME_3": "NA","TYPE_3": "Distrito","ENGTYPE_3": "District","CC_3": "6","HASC_3": "NA","name": "Pavones.city","area_km2": 42.37665,"hist_schema_id": "Elevation0-9000","hist_area_km2": {"375": 0.20883,"400": 0.43855,"425": 0.73093,"450": 0.68917,"475": 1.02332,"500": 1.27394,"525": 1.48282,"550": 1.69166,"575": 2.10941,"600": 2.4645,"625": 1.9006,"650": 2.10942,"675": 1.62904,"700": 1.98408,"725": 2.58976,"750": 2.86129,"775": 3.00751,"800": 2.69426,"825": 1.90062,"850": 1.50382,"875": 1.39938,"900": 1.00254,"925": 0.6266,"950": 0.50128,"975": 0.87725,"1000": 1.02346,"1025": 0.66838,"1050": 0.39685,"1075": 0.39684,"1100": 0.41773,"1125": 0.39684,"1150": 0.14621,"1175": 0.20887,"1200": 0.02089}}}