{"type":"Feature","properties":{"GID_3":"CRI.1.5.2_1","GID_0":"CRI","country":"CostaRica","GID_1":"CRI.1_1","province":"Alajuela","NL_NAME_1":"NA","GID_2":"CRI.1.5_1","county":"Guatuso","NL_NAME_2":"NA","city":"Cote","VARNAME_3":"NA","NL_NAME_3":"NA","TYPE_3":"Distrito","ENGTYPE_3":"District","CC_3":"3","HASC_3":"NA","name":"Cote.city"},
"geometry":{"type": "MultiPolygon","coordinates": [[[[-85.0125,10.6709,1838.9661],[-85.0101,10.664,1705.1089],[-85.0008,10.6556,1326.0597],[-85.0008,10.6477,1217.5984],[-85.003,10.641,1144.5415],[-85.001,10.6356,1023.424],[-85.0024,10.6304,1048.7043],[-85.0017,10.6256,1112.2856],[-84.9985,10.6252,1090.8274],[-84.9982,10.623,1084.4243],[-84.9921,10.6217,1021.3281],[-84.9882,10.6184,984.0976],[-84.9855,10.605,1148.142],[-84.9748,10.6062,1184.1907],[-84.9687,10.601,1064.5819],[-84.9558,10.5946,1033.9894],[-84.9453,10.5952,938.7307],[-84.9443,10.5914,941.9136],[-84.9412,10.5898,945.4199],[-84.9392,10.5856,979.8667],[-84.9336,10.5857,819.7296],[-84.9295,10.5836,825.4218],[-84.9301,10.5801,774.0996],[-84.9252,10.5736,795.3263],[-84.9222,10.5723,760.5237],[-84.9191,10.5739,710.8466],[-84.9089,10.5688,703.2866],[-84.9032,10.5707,704.4955],[-84.8953,10.5628,752.7038],[-84.8894,10.5598,743.5453],[-84.8836,10.5639,774.4993],[-84.8793,10.562,790.9357],[-84.8718,10.5632,791.1008],[-84.8632,10.5558,798.3001],[-84.8594,10.5588,782.5184],[-84.856,10.5587,789.368],[-84.843,10.5639,669.2734],[-84.8367,10.5634,648.7053],[-84.8257,10.5724,557.5406],[-84.8208,10.5742,467.766],[-84.8172,10.5783,471.467],[-84.819,10.5925,375.6353],[-84.8237,10.5975,302.6299],[-84.8272,10.5991,306.8263],[-84.8292,10.6069,292.3207],[-84.828,10.6138,200.2502],[-84.8258,10.6153,214.3579],[-84.8239,10.6204,178.9015],[-84.8158,10.6266,135.9243],[-84.8162,10.6383,93.1962],[-84.8144,10.6448,71.4154],[-84.8205,10.648,57.1571],[-84.8214,10.6459,57.9181],[-84.8251,10.645,87.0963],[-84.8279,10.6418,113.0634],[-84.8327,10.6483,68.1369],[-84.8388,10.6524,56.4831],[-84.8406,10.6589,55.2051],[-84.8542,10.6548,58.8239],[-84.8639,10.6615,61.3593],[-84.8689,10.663,76.0663],[-84.8711,10.666,72.6038],[-84.8824,10.6688,81.3686],[-84.8832,10.6709,93.3839],[-84.8922,10.67,91.9989],[-84.8923,10.6744,110.2678],[-84.8946,10.6766,123.3939],[-84.9061,10.6791,157.2161],[-84.9089,10.6745,202.6104],[-84.9131,10.6742,187.7626],[-84.9132,10.6717,209.7474],[-84.9196,10.6741,230.3372],[-84.9227,10.6727,258.1305],[-84.9241,10.6704,266.9908],[-84.9234,10.6653,287.331],[-84.9426,10.6653,369.2419],[-84.9427,10.6598,355.8512],[-84.9451,10.657,452.4386],[-84.9764,10.6578,1126.4462],[-84.977,10.6699,1131.1097],[-84.983,10.6721,1141.3188],[-84.9916,10.6663,1268.3003],[-85.0018,10.6715,1473.2594],[-85.0059,10.6678,1559.173],[-85.0102,10.6679,1808.942],[-85.0125,10.6709,1838.9661]]]]}}