{"type":"Feature","properties":{"GID_3":"CRI.1.13.9_1","GID_0":"CRI","country":"CostaRica","GID_1":"CRI.1_1","province":"Alajuela","NL_NAME_1":"NA","GID_2":"CRI.1.13_1","county":"SanRamón","NL_NAME_2":"NA","city":"SanLorenzo","VARNAME_3":"NA","NL_NAME_3":"NA","TYPE_3":"Distrito","ENGTYPE_3":"District","CC_3":"8","HASC_3":"NA","name":"San_Lorenzo.city"},
"geometry":{"type": "MultiPolygon","coordinates": [[[[-84.5321,10.3729,139.7129],[-84.5309,10.369,161.1787],[-84.5337,10.367,176.0073],[-84.5317,10.3638,157.8834],[-84.5367,10.3566,169.404],[-84.5482,10.3536,192.6431],[-84.5593,10.3434,236.9235],[-84.5776,10.3328,304.6105],[-84.581,10.3296,328.3979],[-84.5833,10.3227,383.5934],[-84.5879,10.3203,387.8616],[-84.5893,10.3169,428.4444],[-84.5964,10.3107,468.5776],[-84.6013,10.3091,503.283],[-84.6087,10.3114,510.7359],[-84.6233,10.3109,591.9791],[-84.6294,10.316,719.0573],[-84.6357,10.3268,1017.3559],[-84.6325,10.3366,1184.4523],[-84.6341,10.3441,1087.5936],[-84.6312,10.3549,757.8319],[-84.6335,10.3604,520.9066],[-84.6327,10.3625,393.4466],[-84.6412,10.3603,393.2169],[-84.6508,10.3488,450.5103],[-84.6684,10.3416,498.8821],[-84.6779,10.3335,560.1128],[-84.6783,10.3311,582.9468],[-84.6856,10.3281,682.0657],[-84.6899,10.3227,706.6808],[-84.6956,10.3215,682.4073],[-84.6977,10.3226,738.7407],[-84.699,10.3209,714.3724],[-84.7003,10.3222,789.1035],[-84.7065,10.322,738.5034],[-84.7182,10.3112,792.6107],[-84.7194,10.3075,809.2054],[-84.7277,10.3093,868.8786],[-84.7327,10.3044,895.3674],[-84.7408,10.3031,930.404],[-84.758,10.2942,1051.825],[-84.76,10.292,1079.1154],[-84.7591,10.2837,1204.9359],[-84.7561,10.2811,1192.3859],[-84.7548,10.2763,1232.1899],[-84.7567,10.2758,1233.9935],[-84.7556,10.2735,1275.7041],[-84.759,10.2706,1367.6912],[-84.7641,10.2691,1700.1218],[-84.7658,10.2625,1724.4861],[-84.7551,10.2552,1653.4807],[-84.7483,10.2551,1658.4614],[-84.7449,10.2524,1671.8589],[-84.7379,10.2534,1723.3949],[-84.7317,10.2504,1766.9492],[-84.7285,10.255,1739.3477],[-84.7237,10.2562,1770.8799],[-84.7211,10.2616,1753.6302],[-84.7227,10.2684,1783.2162],[-84.7141,10.2671,1731.2617],[-84.7081,10.2635,1711.4702],[-84.7022,10.263,1658.8921],[-84.7006,10.2659,1652.7791],[-84.6977,10.2673,1620.5488],[-84.6939,10.2785,1525.8175],[-84.6854,10.2843,1574.0261],[-84.6827,10.2823,1613.0177],[-84.6811,10.2837,1620.8993],[-84.6774,10.2823,1647.5254],[-84.6737,10.279,1636.0317],[-84.6745,10.2715,1576.9556],[-84.6705,10.2677,1500.3685],[-84.6701,10.2607,1426.5669],[-84.6572,10.2433,1324.3933],[-84.6586,10.2377,1334.9828],[-84.6566,10.2339,1309.582],[-84.6628,10.226,1282.5096],[-84.6608,10.2235,1329.313],[-84.66,10.2173,1220.6163],[-84.6615,10.2152,1215.7974],[-84.6604,10.2113,1340.5629],[-84.6644,10.2063,1408.3896],[-84.6616,10.2013,1413.7173],[-84.6624,10.1981,1436.2369],[-84.6563,10.1956,1397.9547],[-84.6536,10.1964,1375.1064],[-84.646,10.1904,1359.1074],[-84.6433,10.1791,1476.0859],[-84.6395,10.1812,1514.3938],[-84.634,10.1808,1414.7942],[-84.6261,10.1832,1421.5159],[-84.6171,10.1785,1508.7488],[-84.6169,10.1757,1498.6455],[-84.614,10.1723,1576.8445],[-84.6071,10.1741,1409.5165],[-84.5988,10.1707,1492.9523],[-84.5955,10.1711,1480.3997],[-84.5856,10.1813,1492.2771],[-84.5877,10.1951,1179.709],[-84.5586,10.2145,1019.8868],[-84.5294,10.2302,792.8751],[-84.5183,10.2453,501.6942],[-84.5193,10.2607,426.6448],[-84.5174,10.2637,442.9541],[-84.5174,10.2679,433.6331],[-84.5184,10.2734,402.3391],[-84.5217,10.2778,393.3367],[-84.5222,10.2882,382.8693],[-84.5249,10.2941,421.5869],[-84.5239,10.3094,250.68],[-84.525,10.3134,242.8936],[-84.5231,10.3197,228.3427],[-84.524,10.3228,221.5321],[-84.518,10.3338,189.2986],[-84.5178,10.3403,179.698],[-84.5204,10.3468,167.1869],[-84.52,10.359,154.9866],[-84.5231,10.366,153.5321],[-84.5271,10.3671,150.0584],[-84.5284,10.3745,174.4364],[-84.5321,10.3729,139.7129]]]]}}