{"type": "Feature","bbox": [-85.563,10.6354,-85.3501,10.8561],"geometry": {"type": "MultiPolygon","coordinates": [[[[-85.3605,10.8272,1759.0112],[-85.3667,10.8276,1752.0211],[-85.3712,10.8302,1653.1139],[-85.3754,10.8355,1518.0756],[-85.3812,10.834,1317.6953],[-85.3953,10.8425,978.2916],[-85.3987,10.8407,912.4792],[-85.4018,10.8425,819.9126],[-85.4089,10.8431,715.5513],[-85.4168,10.8466,610.422],[-85.4156,10.8481,604.8587],[-85.418,10.8515,559.733],[-85.425,10.8544,503.0866],[-85.4259,10.8561,490.7741],[-85.4293,10.8527,467.3224],[-85.4339,10.8529,458.4721],[-85.4347,10.8512,501.2479],[-85.4333,10.8499,448.9108],[-85.4351,10.8449,418.1914],[-85.4428,10.8451,392.3124],[-85.4428,10.8434,391.0007],[-85.4525,10.8323,361.6995],[-85.4623,10.8306,338.8889],[-85.4634,10.8282,327.5419],[-85.4673,10.8269,319.514],[-85.4653,10.822,288.9696],[-85.4668,10.8212,288.9696],[-85.466,10.8182,276.7804],[-85.4673,10.8156,285.5356],[-85.4712,10.8151,292.4662],[-85.4735,10.8176,268.863],[-85.476,10.8139,250.905],[-85.4775,10.8141,250.905],[-85.4772,10.8117,275.117],[-85.4786,10.8119,252.581],[-85.4804,10.8086,246.6703],[-85.4811,10.7992,203.3556],[-85.4836,10.7997,198.6823],[-85.4891,10.7973,179.308],[-85.495,10.8029,167.4522],[-85.498,10.8031,162.1882],[-85.5042,10.7999,158.3884],[-85.504,10.7965,178.8581],[-85.5057,10.7944,152.8431],[-85.5043,10.7933,183.5802],[-85.5043,10.785,174.4642],[-85.5106,10.7797,118.4519],[-85.5141,10.7709,97.8105],[-85.5127,10.7661,95.0413],[-85.5167,10.7647,93.8473],[-85.5141,10.7572,87.6382],[-85.5178,10.7511,84.1213],[-85.5172,10.7487,81.3137],[-85.5198,10.7394,74.2888],[-85.5178,10.7372,73.3091],[-85.5278,10.7311,62.2572],[-85.5273,10.7285,75.8394],[-85.5242,10.7263,53.8018],[-85.5286,10.7234,56.5398],[-85.5256,10.72,59.1672],[-85.5298,10.7155,57.56],[-85.5271,10.7099,53.7628],[-85.5314,10.7084,81.5861],[-85.5337,10.6985,54.6123],[-85.5416,10.6905,94.0282],[-85.5413,10.6854,115.4345],[-85.5445,10.684,48.7381],[-85.5439,10.6791,50.0005],[-85.5492,10.6737,63.4993],[-85.5489,10.6687,67.4486],[-85.556,10.6652,45.427],[-85.555,10.6483,39.8364],[-85.563,10.6382,30.9594],[-85.5627,10.6354,33.3579],[-85.5548,10.6403,46.5933],[-85.5497,10.6379,49.4732],[-85.5488,10.6439,51.8552],[-85.5517,10.6462,49.1892],[-85.5501,10.6482,49.9151],[-85.5509,10.6506,49.7901],[-85.5477,10.6506,50.9353],[-85.5419,10.6557,53.5697],[-85.5307,10.6572,57.9125],[-85.5305,10.6603,59.2469],[-85.5207,10.667,65.7277],[-85.5205,10.6696,67.411],[-85.5168,10.6692,69.0613],[-85.5149,10.6711,67.6106],[-85.5121,10.6693,72.0125],[-85.5039,10.6698,80.3489],[-85.4961,10.6647,93.3959],[-85.4913,10.6656,95.7456],[-85.487,10.664,102.7247],[-85.4812,10.6694,104.7271],[-85.4814,10.6748,107.9462],[-85.4773,10.6765,108.1193],[-85.4673,10.6866,124.1212],[-85.4607,10.6892,138.4583],[-85.4576,10.6941,144.2583],[-85.4588,10.6984,146.178],[-85.4563,10.701,151.7886],[-85.4564,10.7038,162.6395],[-85.4517,10.713,187.0363],[-85.4491,10.7129,194.792],[-85.45,10.715,193.4267],[-85.4479,10.714,201.4633],[-85.438,10.7241,269.2947],[-85.4356,10.7227,267.4127],[-85.4347,10.7243,277.9864],[-85.4335,10.7234,276.953],[-85.4307,10.7253,285.5964],[-85.422,10.7267,312.0112],[-85.4129,10.7257,328.1249],[-85.4084,10.7323,352.9318],[-85.3952,10.739,451.1728],[-85.3883,10.7501,482.6012],[-85.3867,10.7516,491.1588],[-85.3838,10.7513,499.6177],[-85.3812,10.7566,547.6147],[-85.366,10.7604,618.4146],[-85.3624,10.7649,659.8249],[-85.3549,10.7673,727.3091],[-85.3507,10.7746,796.0285],[-85.3501,10.7785,842.7383],[-85.3514,10.7829,898.4227],[-85.3506,10.7899,1006.4803],[-85.352,10.7947,1080.7405],[-85.3528,10.8145,1357.293],[-85.3547,10.8192,1453.894],[-85.3514,10.8275,1867.3341],[-85.3605,10.8272,1759.0112]]]]}
,"properties": {"GID_3": "CRI.3.7.1_1","GID_0": "CRI","country": "CostaRica","GID_1": "CRI.3_1","province": "Guanacaste","NL_NAME_1": "NA","GID_2": "CRI.3.7_1","county": "Liberia","NL_NAME_2": "NA","city": "CañasDulces","VARNAME_3": "NA","NL_NAME_3": "NA","TYPE_3": "Distrito","ENGTYPE_3": "District","CC_3": "2","HASC_3": "NA","name": "Cañas_Dulces.city","area_km2": 244.1622,"hist_schema_id": "Elevation0-9000","hist_area_km2": {"25": 0.3542,"50": 7.9594,"75": 24.1661,"100": 29.52,"125": 12.0202,"150": 6.541,"175": 5.1658,"200": 6.9568,"225": 5.4779,"250": 4.9364,"275": 5.2697,"300": 7.8941,"325": 8.1439,"350": 7.1859,"375": 6.4777,"400": 5.6652,"425": 5.6444,"450": 4.9988,"475": 5.1029,"500": 5.9152,"525": 6.2276,"550": 6.2066,"575": 6.0399,"600": 5.769,"625": 4.7901,"650": 4.1445,"675": 3.6238,"700": 3.1449,"725": 2.8741,"750": 3.0824,"775": 2.8533,"800": 2.166,"825": 1.8952,"850": 1.7078,"875": 1.5203,"900": 1.4162,"925": 1.5203,"950": 1.1454,"975": 0.8955,"1000": 0.9788,"1025": 0.958,"1050": 0.8747,"1075": 0.9996,"1100": 0.9372,"1125": 0.8122,"1150": 0.7706,"1175": 0.9372,"1200": 0.8122,"1225": 0.7289,"1250": 0.8747,"1275": 0.5207,"1300": 0.4998,"1325": 0.6248,"1350": 0.6664,"1375": 0.6664,"1400": 0.4373,"1425": 0.4582,"1450": 0.3957,"1475": 0.4165,"1500": 0.354,"1525": 0.3124,"1550": 0.3124,"1575": 0.3332,"1600": 0.4165,"1625": 0.354,"1650": 0.2499,"1675": 0.1041,"1700": 0.2707,"1725": 0.1874,"1750": 0.1666,"1775": 0.2082,"1800": 0.1041}}}