{"type": "Feature","bbox": [-84.741,9.8637,-84.6529,9.972],"geometry": {"type": "MultiPolygon","coordinates": [[[[-84.6674,9.9175,8.6344],[-84.6654,9.9193,10.6144],[-84.6677,9.9226,8.3489],[-84.6647,9.921,9.5057],[-84.6636,9.9225,10.0907],[-84.6652,9.925,11.0433],[-84.6604,9.9255,18.1381],[-84.6576,9.9301,13.7112],[-84.6585,9.9311,15.5598],[-84.6614,9.9302,10.7962],[-84.6621,9.9331,11.7879],[-84.6531,9.9351,40.2454],[-84.6529,9.9412,19.3974],[-84.6575,9.9454,42.9571],[-84.6622,9.9452,42.404],[-84.6774,9.9536,162.5762],[-84.6778,9.9562,147.9886],[-84.6842,9.9607,123.1316],[-84.6901,9.9684,130.7299],[-84.6943,9.9684,91.7264],[-84.6995,9.972,101.854],[-84.7043,9.969,31.661],[-84.7079,9.9714,22.8138],[-84.7115,9.9694,59.8269],[-84.7187,9.9696,3.4658],[-84.7279,9.9629,4.5623],[-84.7388,9.9588,0.0],[-84.7387,9.9552,38.1982],[-84.741,9.9519,0.0],[-84.7405,9.9492,33.6138],[-84.7358,9.9454,8.2125],[-84.7364,9.9417,7.3616],[-84.7185,9.9288,0.0],[-84.7125,9.9176,2.0427],[-84.7153,9.9115,6.1554],[-84.7225,9.9068,25.8757],[-84.7257,9.9002,0.0],[-84.7294,9.9002,33.8628],[-84.7293,9.8948,24.7095],[-84.731,9.8932,5.6761],[-84.7229,9.8873,27.0393],[-84.7219,9.8839,46.0125],[-84.7053,9.8744,12.2324],[-84.6967,9.8637,11.2134],[-84.6953,9.8658,2.0295],[-84.6917,9.8653,9.3342],[-84.6902,9.8704,14.8677],[-84.6845,9.8703,18.7911],[-84.6809,9.8742,29.6057],[-84.6809,9.8761,33.6798],[-84.6788,9.877,29.3833],[-84.6809,9.8776,24.2288],[-84.679,9.88,17.7995],[-84.6823,9.8841,5.125],[-84.683,9.8878,8.5955],[-84.6844,9.8859,7.5],[-84.685,9.8877,6.8165],[-84.6888,9.8864,7.465],[-84.6838,9.894,7.6897],[-84.6857,9.8948,11.1748],[-84.6845,9.8974,5.2762],[-84.687,9.8969,8.1972],[-84.6862,9.8996,5.8048],[-84.6871,9.9011,5.5537],[-84.6883,9.9002,6.0638],[-84.6891,9.904,6.7824],[-84.6871,9.9045,5.2924],[-84.6872,9.907,5.8155],[-84.6826,9.9091,7.7035],[-84.6804,9.9084,7.8972],[-84.6804,9.905,6.0527],[-84.6796,9.907,6.236],[-84.6766,9.9075,9.4253],[-84.6767,9.909,6.8891],[-84.6752,9.9087,9.4253],[-84.6741,9.911,7.3458],[-84.6712,9.9118,19.7584],[-84.6713,9.9147,7.7335],[-84.6674,9.9175,8.6344]]]]}
,"properties": {"GID_3": "CRI.6.5.1_1","GID_0": "CRI","country": "CostaRica","GID_1": "CRI.6_1","province": "Puntarenas","NL_NAME_1": "NA","GID_2": "CRI.6.5_1","county": "Esparza","NL_NAME_2": "NA","city": "Caldera","VARNAME_3": "NA","NL_NAME_3": "NA","TYPE_3": "Distrito","ENGTYPE_3": "District","CC_3": "1","HASC_3": "NA","name": "Caldera.city","area_km2": 60.31554,"hist_schema_id": "Elevation0-9000","hist_area_km2": {"0": 12.74001,"25": 11.54979,"50": 6.91276,"75": 5.70148,"100": 5.84774,"125": 5.9103,"150": 5.97299,"175": 3.92625,"200": 1.0233,"225": 0.64739,"250": 0.08353}}}