{"type": "Feature","bbox": [-84.1628,9.733,-84.1132,9.8114],"geometry": {"type": "MultiPolygon","coordinates": [[[[-84.135,9.733,2134.7905],[-84.1295,9.7459,1864.3284],[-84.1349,9.7498,1676.4432],[-84.1367,9.7542,1688.5369],[-84.1292,9.7563,1263.8297],[-84.1222,9.7662,940.9572],[-84.1229,9.7684,868.9487],[-84.128,9.771,842.077],[-84.1215,9.7827,1027.5056],[-84.1198,9.7916,1187.8799],[-84.1167,9.7939,1180.0479],[-84.1151,9.7998,1253.5514],[-84.1132,9.8014,1312.8359],[-84.1142,9.8058,1454.2299],[-84.116,9.8063,1485.7897],[-84.1148,9.8092,1609.0143],[-84.1162,9.809,1624.3761],[-84.1166,9.8107,1683.0361],[-84.1202,9.8105,1592.2693],[-84.1227,9.8073,1610.4423],[-84.1254,9.8065,1559.1376],[-84.1264,9.8078,1541.054],[-84.1274,9.8071,1541.054],[-84.1264,9.8114,1372.8787],[-84.1315,9.8114,1324.599],[-84.1338,9.8005,1213.0081],[-84.1409,9.7982,1146.7661],[-84.1424,9.7912,1151.9215],[-84.1513,9.7851,952.0042],[-84.1479,9.7835,898.0608],[-84.1461,9.7847,940.2114],[-84.1439,9.7818,794.1703],[-84.1484,9.7797,832.774],[-84.1503,9.7816,783.9191],[-84.1528,9.7796,780.1793],[-84.1558,9.7809,794.015],[-84.1572,9.7774,752.0438],[-84.1622,9.7765,715.4548],[-84.1628,9.7649,1032.4473],[-84.1616,9.7614,1179.9144],[-84.157,9.7594,1261.1857],[-84.1398,9.7366,1938.3774],[-84.135,9.733,2134.7905]]]]}
,"properties": {"GID_3": "CRI.7.3.7_1","GID_0": "CRI","country": "CostaRica","GID_1": "CRI.7_1","province": "SanJosé","NL_NAME_1": "NA","GID_2": "CRI.7.3_1","county": "Aserrí","NL_NAME_2": "NA","city": "VueltadeJorco","VARNAME_3": "NA","NL_NAME_3": "NA","TYPE_3": "Distrito","ENGTYPE_3": "District","CC_3": "3","HASC_3": "NA","name": "Vueltade_Jorco.city","area_km2": 22.1272,"hist_schema_id": "Elevation0-9000","hist_area_km2": {"725": 0.04179,"750": 0.12537,"775": 0.14626,"800": 0.33431,"825": 0.43878,"850": 0.52236,"875": 0.3552,"900": 0.50147,"925": 0.50146,"950": 0.58505,"975": 0.66862,"1000": 0.60594,"1025": 0.77309,"1050": 0.89845,"1075": 0.96114,"1100": 0.7313,"1125": 0.79398,"1150": 0.83577,"1175": 0.73129,"1200": 0.79398,"1225": 0.94023,"1250": 0.98201,"1275": 0.89845,"1300": 0.98201,"1325": 0.56413,"1350": 0.66861,"1375": 0.43877,"1400": 0.41788,"1425": 0.43877,"1450": 0.45968,"1475": 0.33431,"1500": 0.25074,"1525": 0.29251,"1550": 0.31342,"1575": 0.27163,"1600": 0.35522,"1625": 0.18806,"1650": 0.31344,"1675": 0.14627,"1700": 0.14627,"1725": 0.29255,"1750": 0.22986,"1775": 0.12538,"1800": 0.12538,"1825": 0.12538,"1850": 0.04179,"1875": 0.06269,"1900": 0.06269,"1925": 0.0209,"1950": 0.08359,"1975": 0.06269,"2000": 0.04179,"2025": 0.04179,"2075": 0.0209,"2100": 0.0209,"2150": 0.0209}}}