{"type":"Feature","properties":{"GID_2":"CRI.6.8_1","GID_0":"CRI","country":"CostaRica","GID_1":"CRI.6_1","province":"Puntarenas","NL_NAME_1":"NA","county":"MontesdeOro","VARNAME_2":"NA","NL_NAME_2":"NA","TYPE_2":"Cantón","ENGTYPE_2":"Canton","CC_2":"4","HASC_2":"CR.PU.MO","name":"Montesde_Oro.county"},
"geometry":{"type": "MultiPolygon","coordinates": [[[[-84.6805,10.0906,720.6483],[-84.677,10.1064,995.342],[-84.6832,10.1078,1175.9625],[-84.6842,10.1143,1181.8108],[-84.6865,10.1179,1251.9255],[-84.6866,10.1265,1364.9755],[-84.6822,10.1278,1252.3103],[-84.6693,10.1198,771.2277],[-84.6651,10.1224,699.1887],[-84.6712,10.1282,854.1971],[-84.6705,10.1299,854.2616],[-84.6735,10.1399,966.894],[-84.6653,10.1464,1144.5824],[-84.6653,10.1524,1244.5791],[-84.6702,10.1558,1296.7183],[-84.6651,10.163,1294.5901],[-84.6658,10.1642,1303.7632],[-84.6637,10.1655,1299.7108],[-84.6651,10.1656,1310.2708],[-84.6638,10.167,1299.7108],[-84.6652,10.1685,1303.2748],[-84.6646,10.1709,1299.7942],[-84.6682,10.1755,1311.2739],[-84.6786,10.1742,1312.6361],[-84.6836,10.1763,1320.7731],[-84.6683,10.1926,1406.25],[-84.6643,10.1949,1424.4158],[-84.6615,10.1993,1434.2388],[-84.6644,10.206,1408.3896],[-84.6603,10.2119,1340.5629],[-84.6615,10.2152,1215.7974],[-84.66,10.2173,1220.6163],[-84.6608,10.2235,1329.313],[-84.6628,10.226,1282.5096],[-84.6566,10.2341,1309.582],[-84.6586,10.2377,1334.9828],[-84.6575,10.2439,1328.0366],[-84.664,10.254,1400.2769],[-84.6673,10.2559,1403.0509],[-84.6701,10.2607,1426.5669],[-84.6705,10.2677,1500.3685],[-84.6745,10.2715,1576.9556],[-84.6738,10.2792,1636.0317],[-84.6774,10.2823,1647.5254],[-84.6811,10.2837,1620.8993],[-84.6827,10.2823,1613.0177],[-84.6849,10.2844,1614.459],[-84.6947,10.2777,1525.8175],[-84.6971,10.2707,1658.4167],[-84.6944,10.2709,1595.036],[-84.6923,10.2743,1537.1945],[-84.6888,10.2727,1472.4041],[-84.688,10.268,1392.9783],[-84.6886,10.2649,1352.6606],[-84.6903,10.2642,1369.7004],[-84.6893,10.2601,1245.9697],[-84.6851,10.2563,1208.0356],[-84.6822,10.2465,1087.356],[-84.6788,10.243,1017.5289],[-84.6788,10.2391,1012.1804],[-84.682,10.2367,977.675],[-84.6829,10.2267,864.7875],[-84.6879,10.2239,862.8621],[-84.6885,10.2214,834.4122],[-84.6944,10.2186,856.5333],[-84.6979,10.2195,809.5665],[-84.7022,10.2149,849.3451],[-84.7057,10.2144,806.5276],[-84.7111,10.2108,656.3099],[-84.7142,10.2084,615.2016],[-84.7141,10.2067,650.6186],[-84.716,10.2079,615.2016],[-84.7186,10.206,619.1744],[-84.7273,10.196,571.3251],[-84.7289,10.191,536.8541],[-84.7326,10.188,564.1151],[-84.7375,10.1873,543.351],[-84.7391,10.1837,499.4277],[-84.7419,10.1836,473.5386],[-84.7491,10.1742,431.5976],[-84.7572,10.1694,359.5257],[-84.7637,10.158,298.6987],[-84.7696,10.1535,298.6746],[-84.7783,10.1509,255.7664],[-84.7825,10.1533,244.733],[-84.7889,10.1463,227.4274],[-84.7922,10.1449,252.9894],[-84.7961,10.1474,222.162],[-84.7972,10.1454,226.7016],[-84.7955,10.1409,184.167],[-84.799,10.1388,218.6214],[-84.8023,10.1305,190.6001],[-84.8104,10.1252,166.6251],[-84.8121,10.1174,152.2069],[-84.8095,10.1003,101.458],[-84.8051,10.1048,163.5565],[-84.7954,10.1012,153.8257],[-84.7928,10.1024,116.2108],[-84.7914,10.1007,112.0982],[-84.7925,10.0979,108.6787],[-84.7912,10.0973,111.808],[-84.7946,10.0957,115.4386],[-84.7916,10.0856,79.9615],[-84.7888,10.0834,58.1793],[-84.793,10.0788,55.3448],[-84.7901,10.075,52.1694],[-84.7912,10.0715,37.552],[-84.7886,10.07,34.7202],[-84.7892,10.0685,48.7826],[-84.7869,10.0663,40.9796],[-84.7827,10.0672,36.8339],[-84.7791,10.0645,33.1095],[-84.7814,10.0544,16.2077],[-84.7847,10.0509,17.968],[-84.7837,10.0479,13.7592],[-84.7709,10.0429,20.0034],[-84.7622,10.0269,10.5245],[-84.7455,10.0232,38.0271],[-84.7445,10.0201,10.7733],[-84.7456,10.0177,6.8838],[-84.7397,10.0177,13.5812],[-84.7377,10.0154,14.2156],[-84.7373,10.0088,11.9531],[-84.7327,10.0094,33.1016],[-84.7324,10.013,16.0358],[-84.7266,10.0139,14.8373],[-84.7257,10.0164,17.758],[-84.7215,10.0189,48.4928],[-84.7195,10.0228,85.1653],[-84.7144,10.0269,209.5438],[-84.7061,10.0207,404.7689],[-84.704,10.0233,377.9385],[-84.7049,10.0266,323.9075],[-84.7024,10.0301,203.1762],[-84.7032,10.0349,139.1629],[-84.7062,10.0375,81.9666],[-84.702,10.0409,96.1195],[-84.6992,10.0388,105.7361],[-84.6962,10.0394,128.7481],[-84.6956,10.0419,118.5989],[-84.6937,10.0403,137.6107],[-84.6906,10.0421,124.9118],[-84.6895,10.0448,135.8329],[-84.6871,10.0448,144.3295],[-84.6855,10.0471,165.4253],[-84.683,10.0469,164.3372],[-84.6768,10.051,219.5324],[-84.6673,10.0522,375.6873],[-84.6655,10.0584,317.4474],[-84.6681,10.058,321.1264],[-84.6739,10.0648,395.4672],[-84.6742,10.07,404.4106],[-84.6777,10.0739,447.2502],[-84.6769,10.0774,500.9822],[-84.6805,10.0906,720.6483]]]]}}