{"type": "Feature","bbox": [-83.8192,9.484,-83.3119,10.0836],"geometry": {"type": "MultiPolygon","coordinates": [[[[-83.6303,9.5846,3259.2551],[-83.6344,9.5806,3327.9302],[-83.6296,9.5753,3335.0413],[-83.6301,9.5696,3295.8555],[-83.6188,9.5577,3131.2102],[-83.6111,9.5566,3028.7295],[-83.6064,9.552,2896.8015],[-83.5962,9.5524,2992.1633],[-83.5933,9.545,2938.7666],[-83.5715,9.5346,3164.6665],[-83.5614,9.5334,3228.8274],[-83.5563,9.5305,3278.9866],[-83.55,9.5322,3311.7939],[-83.5465,9.529,3286.5312],[-83.5454,9.5249,3263.9644],[-83.5347,9.51,3589.7314],[-83.5143,9.5025,3672.3599],[-83.5089,9.4962,3704.5322],[-83.5058,9.4967,3692.6262],[-83.5041,9.4947,3715.709],[-83.5009,9.4945,3691.5249],[-83.4968,9.4881,3736.1807],[-83.4938,9.4877,3700.1494],[-83.4891,9.484,3753.5232],[-83.4875,9.4917,3496.6694],[-83.4886,9.495,3503.9116],[-83.4865,9.4988,3486.8706],[-83.4947,9.5104,3322.9141],[-83.4962,9.5215,3114.1948],[-83.5032,9.5299,2857.4468],[-83.5073,9.5298,2800.7739],[-83.5155,9.5356,2661.1104],[-83.5138,9.5407,2602.8218],[-83.5162,9.5531,2413.2241],[-83.5131,9.5569,2382.1411],[-83.5144,9.561,2417.6628],[-83.5133,9.5676,2242.9932],[-83.5078,9.575,1900.8062],[-83.5045,9.5837,1676.7437],[-83.5068,9.5895,1559.9727],[-83.5114,9.5941,1469.9213],[-83.5118,9.5971,1307.1112],[-83.5066,9.6017,1306.5077],[-83.5027,9.603,1269.157],[-83.4939,9.6129,1209.8806],[-83.4914,9.6136,1228.4158],[-83.4821,9.6283,1115.2428],[-83.4736,9.6323,1133.1042],[-83.4681,9.6329,1057.6592],[-83.4634,9.6429,1070.9387],[-83.4575,9.6474,1006.007],[-83.4517,9.6479,967.8444],[-83.4496,9.6522,918.8438],[-83.4468,9.6533,915.7955],[-83.4407,9.6649,855.7419],[-83.4331,9.6718,816.8909],[-83.428,9.6799,885.483],[-83.4268,9.6915,791.4656],[-83.4293,9.6994,737.065],[-83.4292,9.7067,726.3571],[-83.4109,9.7256,674.6644],[-83.4104,9.7288,736.9778],[-83.4079,9.73,660.1652],[-83.4047,9.7368,691.1974],[-83.397,9.7417,635.029],[-83.3831,9.7676,606.59],[-83.3781,9.7739,556.7697],[-83.3686,9.7808,583.3624],[-83.3674,9.7856,534.4299],[-83.3566,9.7966,514.1466],[-83.3556,9.8022,551.8942],[-83.3463,9.8103,514.9507],[-83.3404,9.8213,511.2071],[-83.3363,9.8231,474.8091],[-83.3363,9.8303,457.1037],[-83.3387,9.8338,433.4713],[-83.3341,9.8383,453.1148],[-83.3321,9.844,450.2598],[-83.3358,9.8475,455.9419],[-83.3394,9.8601,384.008],[-83.3347,9.8719,349.0669],[-83.3366,9.8751,328.1845],[-83.3341,9.8792,304.8527],[-83.3374,9.8841,269.6485],[-83.3348,9.8851,284.975],[-83.3424,9.8890999999999991,252.6867],[-83.3403,9.894,217.9289],[-83.3438,9.8936,250.6719],[-83.3478,9.898,218.9715],[-83.3439,9.8999,186.2071],[-83.3494,9.9035,219.5695],[-83.3476,9.9056,275.9532],[-83.3489,9.9079,247.1682],[-83.3487,9.9148,163.8116],[-83.3449,9.9168,202.0484],[-83.3467,9.9201,166.5569],[-83.3498,9.9216,156.5477],[-83.3507,9.9264,204.3656],[-83.3487,9.9294,182.4863],[-83.3513,9.9318,167.7139],[-83.353,9.9383,132.4196],[-83.3482,9.9361,119.468],[-83.3453,9.9401,112.6296],[-83.3383,9.9421,101.8649],[-83.3377,9.9439,126.0694],[-83.341,9.9541,88.1486],[-83.3399,9.9602,100.7841],[-83.3331,9.9647,75.117],[-83.3278,9.9651,71.2055],[-83.3165,9.979,53.203],[-83.3119,9.9816,52.7434],[-83.6048,9.982,340.4409],[-83.6179,9.9879,482.0151],[-83.6249,9.9991,471.4297],[-83.6295,10.0005,496.1339],[-83.6305,9.9993,582.6473],[-83.6341,10.0057,607.7054],[-83.6373,10.0045,623.3113],[-83.6376,10.0084,700.9794],[-83.6394,10.0101,678.2791],[-83.6452,10.0108,710.7134],[-83.6494,10.0148,775.8674],[-83.6543,10.0158,855.7557],[-83.6564,10.018,888.905],[-83.6591,10.0163,929.3668],[-83.6644,10.0193,1017.5441],[-83.6689,10.0247,1161.5155],[-83.6801,10.0258,1356.8042],[-83.6897,10.0298,1661.5001],[-83.7068,10.0408,2131.4265],[-83.7091,10.041,2222.0156],[-83.7143,10.0378,2331.8296],[-83.7224,10.0385,2340.9106],[-83.8177,10.0836,934.67],[-83.8192,10.0692,1194.564],[-83.8148,10.0665,1123.9673],[-83.8134,10.0594,1170.2286],[-83.8162,10.055,1199.335],[-83.8081,10.0411,1320.5947],[-83.8005,10.0367,1432.731],[-83.8026,10.0304,1560.4878],[-83.8132,10.0155,1721.4934],[-83.8135,10.0135,1833.5848],[-83.8103,10.0085,1959.1875],[-83.809,9.9976,2117.8113],[-83.7991,9.9894,2579.3872],[-83.7924,9.9882,2697.2261],[-83.7839,9.9815,2415.1567],[-83.7821,9.9778,2336.9229],[-83.7832,9.9744,2307.167],[-83.781,9.9678,2200.0071],[-83.7756,9.9631,1885.7271],[-83.7698,9.9545,1641.874],[-83.763,9.9533,1566.6765],[-83.7595,9.9442,1556.0645],[-83.7557,9.9413,1378.7203],[-83.7524,9.9411,1286.9666],[-83.7523,9.9385,1332.0776],[-83.7478,9.9338,1194.8867],[-83.7441,9.9319,1211.7325],[-83.7381,9.9329,1090.4747],[-83.7302,9.9281,1025.2177],[-83.7221,9.9326,944.5817],[-83.7226,9.8802,918.7258],[-83.7178,9.8712,815.4249],[-83.7165,9.8717,815.4249],[-83.7152,9.8664,752.8764],[-83.7078,9.8568,645.6248],[-83.6923,9.8571,650.5635],[-83.6864,9.8558,623.4188],[-83.6765,9.8569,605.5373],[-83.6702,9.855,608.0345],[-83.6656,9.8486,587.5883],[-83.6622,9.8469,651.0016],[-83.6513,9.8483,582.2333],[-83.6535,9.8457,582.0472],[-83.6519,9.8377,599.2996],[-83.6532,9.8282,626.5588],[-83.6579,9.8231,642.3101],[-83.6531,9.8187,663.6484],[-83.6524,9.8157,680.4694],[-83.6492,9.8124,692.1439],[-83.649,9.8091,712.4119],[-83.6446,9.8053,753.5716],[-83.6439,9.8015,765.936],[-83.6391,9.7979,799.9846],[-83.6394,9.7959,818.3082],[-83.635,9.7879,874.7445],[-83.6281,9.781,940.3546],[-83.6272,9.776,996.6637],[-83.6287,9.7724,1024.2961],[-83.6176,9.7616,1175.3702],[-83.6147,9.7493,1369.8926],[-83.5991,9.7343,1863.5913],[-83.6721,9.6897,2289.5981],[-83.678,9.6802,2467.5767],[-83.6792,9.6746,2514.1255],[-83.6774,9.6653,2494.0264],[-83.6795,9.6539,2619.1294],[-83.6766,9.6441,2764.313],[-83.67,9.6341,2763.2808],[-83.6608,9.6316,2877.2019],[-83.6576,9.628,2888.1001],[-83.6532,9.6262,2846.3364],[-83.648,9.6185,2944.3264],[-83.6414,9.6133,2943.8296],[-83.6389,9.605,2947.1799],[-83.6349,9.6039,3018.7661],[-83.6289,9.6051,3152.0381],[-83.627,9.593,3220.0215],[-83.6303,9.5846,3259.2551]]]]}
,"properties": {"GID_2": "CRI.2.8_1","GID_0": "CRI","country": "CostaRica","GID_1": "CRI.2_1","province": "Cartago","NL_NAME_1": "NA","county": "Turrialba","VARNAME_2": "NA","NL_NAME_2": "NA","TYPE_2": "Cantón","ENGTYPE_2": "Canton","CC_2": "5","HASC_2": "CR.CA.TU","name": "Turrialba.county","area_km2": 1594.891,"hist_schema_id": "Elevation0-9000","hist_area_km2": {"50": 0.668,"75": 2.36,"100": 1.399,"125": 1.232,"150": 1.42,"175": 1.566,"200": 1.232,"225": 1.253,"250": 1.441,"275": 2.172,"300": 2.527,"325": 2.736,"350": 4.511,"375": 6.453,"400": 6.891,"425": 8.27,"450": 10.504,"475": 10.003,"500": 13.595,"525": 13.554,"550": 15.893,"575": 24.562,"600": 28.614,"625": 25.648,"650": 24.959,"675": 26.755,"700": 26.275,"725": 27.466,"750": 30.014,"775": 31.978,"800": 32.605,"825": 31.373,"850": 30.392,"875": 32.314,"900": 31.04,"925": 29.954,"950": 30.539,"975": 28.68,"1000": 30.498,"1025": 29.12,"1050": 29.684,"1075": 28.347,"1100": 30.437,"1125": 30.353,"1150": 29.059,"1175": 27.847,"1200": 27.471,"1225": 23.356,"1250": 21.915,"1275": 19.346,"1300": 18.469,"1325": 18.929,"1350": 18.114,"1375": 17.55,"1400": 17.55,"1425": 17.3,"1450": 16.193,"1475": 15.587,"1500": 15.963,"1525": 14.396,"1550": 14.877,"1575": 15.462,"1600": 14.605,"1625": 13.895,"1650": 12.851,"1675": 14.105,"1700": 13.123,"1725": 13.06,"1750": 12.078,"1775": 11.974,"1800": 11.389,"1825": 11.075,"1850": 11.848,"1875": 9.613,"1900": 8.881,"1925": 8.777,"1950": 8.337,"1975": 8.233,"2000": 7.209,"2025": 7.209,"2050": 7.167,"2075": 7.376,"2100": 6.478,"2125": 6.561,"2150": 6.958,"2175": 6.143,"2200": 6.54,"2225": 6.373,"2250": 6.31,"2275": 6.603,"2300": 5.913,"2325": 5.433,"2350": 5.349,"2375": 5.809,"2400": 5.851,"2425": 5.83,"2450": 5.768,"2475": 5.433,"2500": 5.601,"2525": 5.078,"2550": 5.831,"2575": 5.956,"2600": 6.311,"2625": 7.481,"2650": 7.334,"2675": 7.752,"2700": 6.897,"2725": 6.144,"2750": 6.04,"2775": 5.769,"2800": 5.978,"2825": 6.333,"2850": 5.665,"2875": 5.142,"2900": 5.142,"2925": 4.557,"2950": 5.038,"2975": 4.432,"3000": 3.742,"3025": 3.031,"3050": 2.696,"3075": 2.362,"3100": 2.32,"3125": 1.86,"3150": 2.215,"3175": 1.923,"3200": 1.568,"3225": 1.463,"3250": 1.338,"3275": 1.171,"3300": 1.024,"3325": 0.481,"3350": 0.481,"3375": 0.439,"3400": 0.544,"3425": 0.481,"3450": 0.606,"3475": 0.502,"3500": 0.544,"3525": 0.544,"3550": 0.941,"3575": 0.606,"3600": 0.523,"3625": 0.753,"3650": 0.606,"3675": 0.355,"3700": 0.293,"3725": 0.167}}}