{"type": "Feature","bbox": [-84.5316,10.067,-84.4744,10.112],"geometry": {"type": "MultiPolygon","coordinates": [[[[-84.5085,10.1093,899.7798],[-84.5121,10.1074,869.4908],[-84.5147,10.1082,863.155],[-84.5205,10.103,835.4272],[-84.5193,10.0965,762.4434],[-84.5219,10.0954,758.2739],[-84.5206,10.0928,809.9481],[-84.5232,10.0906,856.7598],[-84.5225,10.0862,787.0334],[-84.5298,10.0798,688.3804],[-84.5316,10.0759,773.3342],[-84.5293,10.067,639.7825],[-84.5173,10.0738,903.731],[-84.5124,10.0728,961.783],[-84.5017,10.0746,1148.3733],[-84.4997,10.0708,1223.7963],[-84.4967,10.0713,1210.0803],[-84.4863,10.0749,1189.1305],[-84.4838,10.0785,1169.2688],[-84.476,10.0831,1089.0706],[-84.4744,10.0929,1066.2509],[-84.4796,10.0944,1085.7092],[-84.481,10.0979,1113.3455],[-84.483,10.098,1089.623],[-84.4868,10.1016,1028.5223],[-84.4887,10.1057,986.4558],[-84.493,10.106,999.6844],[-84.5001,10.1036,1050.8015],[-84.5019,10.112,905.2958],[-84.5085,10.1093,899.7798]]]]}
,"properties": {"GID_3": "CRI.1.13.1_1","GID_0": "CRI","country": "CostaRica","GID_1": "CRI.1_1","province": "Alajuela","NL_NAME_1": "NA","GID_2": "CRI.1.13_1","county": "SanRamón","NL_NAME_2": "NA","city": "Alfaro","VARNAME_3": "NA","NL_NAME_3": "NA","TYPE_3": "Distrito","ENGTYPE_3": "District","CC_3": "9","HASC_3": "NA","name": "Alfaro.city","area_km2": 18.13984,"hist_schema_id": "Elevation0-9000","hist_area_km2": {"600": 0.02088,"625": 0.06263,"650": 0.14613,"675": 0.20875,"700": 0.31313,"725": 0.12525,"750": 0.20875,"775": 0.25049,"800": 0.29224,"825": 0.37574,"850": 0.48012,"875": 0.62623,"900": 0.85584,"925": 1.08546,"950": 1.66993,"975": 1.66993,"1000": 1.7743,"1025": 1.7743,"1050": 1.41945,"1075": 2.2127,"1100": 1.04374,"1125": 0.70975,"1150": 0.35487,"1175": 0.22963,"1200": 0.167,"1225": 0.06263}}}