{"type":"Feature","properties":{"GID_3":"CRI.6.5.2_1","GID_0":"CRI","country":"CostaRica","GID_1":"CRI.6_1","province":"Puntarenas","NL_NAME_1":"NA","GID_2":"CRI.6.5_1","county":"Esparza","NL_NAME_2":"NA","city":"EspírituSanto","VARNAME_3":"NA","NL_NAME_3":"NA","TYPE_3":"Distrito","ENGTYPE_3":"District","CC_3":"1","HASC_3":"NA","name":"Espíritu_Santo.city"},
"geometry":{"type": "MultiPolygon","coordinates": [[[[-84.684,9.961,123.1316],[-84.6829,9.9644,110.3588],[-84.6804,9.9638,131.8981],[-84.6791,9.9701,176.446],[-84.6733,9.9738,192.0596],[-84.6721,9.9786,167.0109],[-84.6751,9.9805,140.371],[-84.6718,9.9844,160.0067],[-84.6672,9.9818,170.2813],[-84.6622,9.9884,186.9747],[-84.659,9.9866,199.8589],[-84.658,9.9881,202.3756],[-84.6552,9.9858,207.1398],[-84.6529,9.9882,209.2],[-84.6539,9.9916,217.7873],[-84.652,9.9944,229.478],[-84.6544,9.995,224.972],[-84.6538,9.9981,227.3645],[-84.6572,9.9972,225.9519],[-84.6597,10.01,175.3358],[-84.6575,10.0163,97.2566],[-84.6626,10.0164,93.0707],[-84.6655,10.0145,101.0688],[-84.6669,10.0099,80.4397],[-84.6707,10.0067,124.1504],[-84.6787,10.0084,61.8085],[-84.6824,10.0065,64.4642],[-84.6844,10.002,119.375],[-84.6932,10.0018,48.9607],[-84.6956,9.9926,41.9813],[-84.7048,9.992,34.0272],[-84.7098,9.9851,40.3574],[-84.7142,9.983,21.6944],[-84.7188,9.9744,13.2547],[-84.7187,9.9696,3.4658],[-84.7115,9.9694,59.8269],[-84.7079,9.9714,22.8138],[-84.7043,9.969,31.661],[-84.6995,9.972,101.854],[-84.6943,9.9684,91.7264],[-84.6901,9.9684,130.7299],[-84.684,9.961,123.1316]]]]}}