{"type":"Feature","properties":{"GID_3":"CRI.2.6.3_1","GID_0":"CRI","country":"CostaRica","GID_1":"CRI.2_1","province":"Cartago","NL_NAME_1":"NA","GID_2":"CRI.2.6_1","county":"Oreamuno","NL_NAME_2":"NA","city":"PotreroCerrado","VARNAME_3":"NA","NL_NAME_3":"NA","TYPE_3":"Distrito","ENGTYPE_3":"District","CC_3":"3","HASC_3":"NA","name":"Potrero_Cerrado.city"},
"geometry":{"type": "MultiPolygon","coordinates": [[[[-83.8973,9.8921,1749.3003],[-83.8935,9.8895,1733.0403],[-83.8853,9.8898,1759.4857],[-83.8859,9.8937,1787.7313],[-83.8828,9.9016,1922.1105],[-83.8831,9.9104,2068.4924],[-83.8791,9.9068,2009.3829],[-83.8753,9.9077,2020.7946],[-83.8699,9.9058,1987.1165],[-83.8724,9.9039,1947.356],[-83.8676,9.9057,2004.8027],[-83.8677,9.9099,2088.041],[-83.8632,9.9185,2243.7537],[-83.8627,9.9306,2435.0591],[-83.8559,9.9435,2774.6733],[-83.8562,9.9486,2827.5786],[-83.8534,9.9521,2940.7195],[-83.8557,9.9547,2988.3333],[-83.8537,9.961,3121.0322],[-83.8559,9.9645,3216.7476],[-83.8558,9.9675,3274.9529],[-83.8608,9.9715,3378.5986],[-83.8685,9.9706,3131.7026],[-83.8728,9.9617,2836.5693],[-83.8724,9.9509,2685.0593],[-83.8757,9.949,2625.5771],[-83.8778,9.9439,2536.0378],[-83.8831,9.9406,2430.5256],[-83.8851,9.9312,2330.2681],[-83.8837,9.9307,2334.3438],[-83.888,9.9222,2231.6199],[-83.8893,9.9115,2058.9626],[-83.8922,9.9062,1961.984],[-83.8936,9.8967,1811.2019],[-83.8973,9.8921,1749.3003]]]]}}