{"type": "Feature","bbox": [-83.6794,9.6039,-83.5355,9.9319],"geometry": {"type": "MultiPolygon","coordinates": [[[[-83.6721,9.6897,2289.5981],[-83.6776,9.6818,2441.8823],[-83.6792,9.6746,2514.1255],[-83.6774,9.6653,2494.0264],[-83.6794,9.653,2667.0298],[-83.6766,9.6441,2764.313],[-83.67,9.6341,2763.2808],[-83.6608,9.6316,2877.2019],[-83.6576,9.628,2888.1001],[-83.6532,9.6262,2846.3364],[-83.648,9.6185,2944.3264],[-83.6414,9.6133,2943.8296],[-83.64,9.6064,2953.7803],[-83.6365,9.6039,2982.6318],[-83.6339,9.6205,2583.0493],[-83.6363,9.6268,2449.498],[-83.6326,9.6374,2249.2783],[-83.6305,9.6382,2222.0088],[-83.635,9.644,2089.9246],[-83.6351,9.6492,2028.9231],[-83.638,9.6549,1955.2891],[-83.6366,9.6608,1846.4753],[-83.6378,9.6699,1802.9607],[-83.6353,9.6751,1728.6721],[-83.6351,9.6824,1666.2339],[-83.6295,9.6891,1621.5356],[-83.6249,9.6879,1608.0751],[-83.6227,9.69,1590.7682],[-83.6196,9.6891,1579.6726],[-83.6192,9.6938,1556.3038],[-83.6171,9.6944,1551.3293],[-83.6155,9.692,1562.7971],[-83.6149,9.6939,1551.1008],[-83.6118,9.6932,1525.2094],[-83.6115,9.6956,1550.6448],[-83.6097,9.6958,1478.2817],[-83.6055,9.6918,1481.8037],[-83.6006,9.6908,1429.0195],[-83.5984,9.6929,1418.2415],[-83.5968,9.6984,1384.1273],[-83.5948,9.6988,1398.124],[-83.5953,9.7007,1425.4183],[-83.5933,9.7007,1356.9922],[-83.596,9.7383,1987.3898],[-83.5917,9.7487,1869.1844],[-83.5946,9.754,1755.3143],[-83.5904,9.7627,1536.7212],[-83.5931,9.7693,1445.7034],[-83.5995,9.7736,1396.7732],[-83.6009,9.7809,1305.7328],[-83.5947,9.7883,1185.1755],[-83.5925,9.7961,1131.7297],[-83.5964,9.8028,1382.1705],[-83.5956,9.8158,1131.5875],[-83.5972,9.819,1026.7096],[-83.5953,9.8253,920.2351],[-83.5985,9.8281,874.5361],[-83.5967,9.8307,813.7539],[-83.5984,9.8361,747.4835],[-83.5965,9.8398,705.0398],[-83.5931,9.8419,692.0963],[-83.5954,9.8453,679.3697],[-83.6011,9.8455,662.2467],[-83.6043,9.8493,645.7196],[-83.6051,9.8567,697.0579],[-83.6028,9.8588,830.8074],[-83.5971,9.8567,844.4715],[-83.5902,9.8574,1078.0233],[-83.59,9.8622,1141.8379],[-83.5875,9.8649,1167.7583],[-83.5827,9.8646,1225.1329],[-83.5826,9.8664,1256.6488],[-83.5784,9.8653,1244.748],[-83.5712,9.8753,1140.5768],[-83.5595,9.8787,950.0878],[-83.5551,9.8829,786.0168],[-83.5477,9.8854,693.8643],[-83.5426,9.8933,662.5132],[-83.5355,9.8963,443.2051],[-83.5391,9.8985,434.1766],[-83.5425,9.9061,496.2497],[-83.5517,9.9135,458.0518],[-83.5447,9.9223,390.39],[-83.5456,9.9292,401.6979],[-83.5522,9.9295,476.245],[-83.5574,9.9319,586.8531],[-83.5588,9.9294,615.6706],[-83.5725,9.9258,753.4607],[-83.5878,9.9162,1060.2075],[-83.5905,9.9174,1024.7556],[-83.5965,9.9151,915.9473],[-83.609,9.8979,1197.0348],[-83.6043,9.89,1179.5408],[-83.607,9.885,1143.5903],[-83.6126,9.8812,1015.2643],[-83.6145,9.8832,995.9095],[-83.6173,9.8828,986.3727],[-83.628,9.8712,650.8913],[-83.6293,9.8726,653.0935],[-83.635,9.8714,581.4708],[-83.6433,9.8727,572.2429],[-83.6446,9.8638,575.5],[-83.6474,9.8647,579.7124],[-83.6468,9.8694,580.8242],[-83.6496,9.8675,578.4095],[-83.6475,9.8594,575.5],[-83.6424,9.8566,575.5],[-83.6534,9.8464,582.0472],[-83.6519,9.8377,599.2996],[-83.6532,9.8282,626.5588],[-83.6579,9.8231,642.3101],[-83.6531,9.8187,663.6484],[-83.6524,9.8157,680.4694],[-83.6492,9.8124,692.1439],[-83.649,9.8091,712.4119],[-83.6446,9.8053,753.5716],[-83.6439,9.8015,765.936],[-83.6391,9.7979,799.9846],[-83.6394,9.7959,818.3082],[-83.635,9.7879,874.7445],[-83.6281,9.781,940.3546],[-83.6272,9.776,996.6637],[-83.6287,9.7724,1024.2961],[-83.6176,9.7616,1175.3702],[-83.6147,9.7493,1369.8926],[-83.5991,9.7343,1863.5913],[-83.6721,9.6897,2289.5981]]]]}
,"properties": {"GID_3": "CRI.2.8.3_1","GID_0": "CRI","country": "CostaRica","GID_1": "CRI.2_1","province": "Cartago","NL_NAME_1": "NA","GID_2": "CRI.2.8_1","county": "Turrialba","NL_NAME_2": "NA","city": "LaSuiza","VARNAME_3": "NA","NL_NAME_3": "NA","TYPE_3": "Distrito","ENGTYPE_3": "District","CC_3": "2","HASC_3": "NA","name": "La_Suiza.city","area_km2": 161.2147,"hist_schema_id": "Elevation0-9000","hist_area_km2": {"375": 0.0209,"400": 0.0835,"425": 0.1462,"450": 0.2089,"475": 0.3133,"500": 0.2924,"525": 0.5013,"550": 0.6475,"575": 3.6137,"600": 3.4258,"625": 2.9662,"650": 2.5693,"675": 3.7181,"700": 2.987,"725": 2.9244,"750": 2.3813,"775": 2.9244,"800": 2.6737,"825": 3.0915,"850": 3.1751,"875": 3.3422,"900": 3.3839,"925": 2.632,"950": 3.0498,"975": 2.841,"1000": 3.029,"1025": 3.1125,"1050": 3.3005,"1075": 2.7574,"1100": 3.0291,"1125": 2.8619,"1150": 3.3424,"1175": 2.8828,"1200": 3.1336,"1225": 3.4677,"1250": 1.8175,"1275": 1.5251999999999999,"1300": 1.4207,"1325": 1.379,"1350": 1.3999,"1375": 1.5253,"1400": 1.7342,"1425": 1.5044,"1450": 1.6507,"1475": 1.6717,"1500": 1.5463,"1525": 1.3583,"1550": 1.3374,"1575": 1.818,"1600": 1.3165,"1625": 1.5464,"1650": 1.7554,"1675": 2.0271,"1700": 2.1943,"1725": 2.048,"1750": 2.2152,"1775": 2.0898,"1800": 1.4838,"1825": 1.7137,"1850": 1.9854,"1875": 1.5256,"1900": 1.2331,"1925": 1.1077,"1950": 0.9196,"1975": 0.8778,"2000": 0.8151,"2025": 0.8987,"2050": 0.9823,"2075": 1.0659,"2100": 0.8988,"2125": 0.8778,"2150": 1.3376999999999999,"2175": 0.8987,"2200": 1.2331,"2225": 1.0869,"2250": 1.0242,"2275": 1.1078,"2300": 1.0451,"2325": 0.8152,"2350": 0.9406,"2375": 0.857,"2400": 0.7525,"2425": 1.0033,"2450": 0.8152,"2475": 0.7525,"2500": 0.6689,"2525": 0.4599,"2550": 0.6271,"2575": 0.648,"2600": 0.648,"2625": 0.7525,"2650": 0.6062,"2675": 0.7525,"2700": 0.6898,"2725": 0.5644,"2750": 0.4181,"2775": 0.4808,"2800": 0.2717,"2825": 0.3972,"2850": 0.2299,"2875": 0.2927,"2900": 0.439,"2925": 0.2299,"2950": 0.2509,"2975": 0.0209}}}