{"type":"Feature","properties":{"GID_2":"CRI.2.4_1","GID_0":"CRI","country":"CostaRica","GID_1":"CRI.2_1","province":"Cartago","NL_NAME_1":"NA","county":"Jiménez","VARNAME_2":"NA","NL_NAME_2":"NA","TYPE_2":"Cantón","ENGTYPE_2":"Canton","CC_2":"4","HASC_2":"CR.CA.JI","name":"Jiménez.county"},
"geometry":{"type": "MultiPolygon","coordinates": [[[[-83.696,9.8571,643.3383],[-83.7078,9.8568,645.6248],[-83.7152,9.8664,752.8764],[-83.7165,9.8717,815.4249],[-83.7178,9.8712,815.4249],[-83.7226,9.8802,918.7258],[-83.7221,9.9326,944.5817],[-83.7293,9.9281,1025.2177],[-83.7381,9.9329,1090.4747],[-83.7448,9.932,1211.7325],[-83.7523,9.9385,1332.0776],[-83.7524,9.9411,1286.9666],[-83.756,9.9415,1378.7203],[-83.7595,9.9442,1556.0645],[-83.7601,9.9466,1534.924],[-83.7654,9.9488,1601.5337],[-83.7745,9.9428,1699.2866],[-83.7781,9.9427,1745.2734],[-83.7754,9.9406,1722.6606],[-83.7745,9.9343,1717.0276],[-83.7669,9.9214,1561.7936],[-83.7675,9.919,1537.6416],[-83.7693,9.9195,1508.0779],[-83.7704,9.918,1511.2921],[-83.7698,9.911,1494.6866],[-83.7727,9.9107,1507.395],[-83.7727,9.9089,1499.0118],[-83.7752,9.9077,1499.855],[-83.7741,9.8986,1364.4059],[-83.7755,9.899,1403.7407],[-83.7801,9.9077,1468.2078],[-83.7782,9.8958,1249.9214],[-83.7747,9.892,1059.9622],[-83.774,9.8859,1026.788],[-83.7668,9.8763,784.0847],[-83.763,9.8758,787.0148],[-83.7644,9.8743,783.7759],[-83.7643,9.8699,918.1395],[-83.7616,9.8666,1010.559],[-83.7608,9.8625,1076.9576],[-83.7665,9.8579,1150.0469],[-83.7667,9.8502,1305.6407],[-83.7714,9.8468,1502.0425],[-83.7605,9.8413,1507.1492],[-83.7616,9.8354,1569.255],[-83.7635,9.8332,1630.142],[-83.7621,9.8319,1600.1871],[-83.7623,9.8274,1606.0972],[-83.7716,9.8172,1825.3372],[-83.7717,9.8096,1718.78],[-83.7764,9.808,1874.2688],[-83.7783,9.8025,1899.7554],[-83.778,9.7978,1876.7119],[-83.7823,9.789,1985.813],[-83.7818,9.7862,1867.6561],[-83.7853,9.7812,1711.6436],[-83.7855,9.7748,1606.7905],[-83.7802,9.7694,1646.3311],[-83.7711,9.7673,1523.4772],[-83.7663,9.7691,1332.756],[-83.7578,9.769,1082.274],[-83.7446,9.7831,918.4487],[-83.7354,9.7814,855.4507],[-83.7262,9.7826,781.921],[-83.7192,9.7793,736.7423],[-83.7236,9.7703,856.3385],[-83.7257,9.7712,796.3123],[-83.7272,9.766,849.1382],[-83.7212,9.7642,831.3009],[-83.7217,9.7608,838.5391],[-83.7193,9.7547,858.4684],[-83.6721,9.6897,2289.5981],[-83.5991,9.7343,1863.5913],[-83.6147,9.7493,1369.8926],[-83.6176,9.7616,1175.3702],[-83.6287,9.7724,1024.2961],[-83.6272,9.776,996.6637],[-83.6281,9.781,940.3546],[-83.635,9.7879,874.7445],[-83.6394,9.7959,818.3082],[-83.6391,9.7979,799.9846],[-83.6439,9.8015,765.936],[-83.6446,9.8053,753.5716],[-83.649,9.8091,712.4119],[-83.6492,9.8124,692.1439],[-83.6524,9.8157,680.4694],[-83.6531,9.8187,663.6484],[-83.6579,9.8231,642.3101],[-83.6532,9.8282,626.5588],[-83.6519,9.8377,599.2996],[-83.6535,9.8457,582.0472],[-83.6513,9.8483,582.2333],[-83.6622,9.8469,651.0016],[-83.6656,9.8486,587.5883],[-83.6702,9.855,608.0345],[-83.6765,9.8569,605.5373],[-83.6864,9.8558,623.4188],[-83.696,9.8571,643.3383]]]]}}