{"type":"Feature","properties":{"GID_3":"CRI.7.10.2_1","GID_0":"CRI","country":"CostaRica","GID_1":"CRI.7_1","province":"SanJosé","NL_NAME_1":"NA","GID_2":"CRI.7.10_1","county":"MontesdeOca","NL_NAME_2":"NA","city":"Sabanilla","VARNAME_3":"NA","NL_NAME_3":"NA","TYPE_3":"Distrito","ENGTYPE_3":"District","CC_3":"2","HASC_3":"NA","name":"Sabanilla.city"},
"geometry":{"type": "MultiPolygon","coordinates": [[[[-84.0439,9.9502,1206.5961],[-84.0398,9.9466,1242.5459],[-84.0397,9.9438,1239.5294],[-84.0361,9.9442,1257.1663],[-84.035,9.9407,1252.1194],[-84.0303,9.9395,1275.4849],[-84.0308,9.9351,1265.8567],[-84.0296,9.9342,1265.8567],[-84.0226,9.944,1311.6139],[-84.0268,9.9481,1290.4752],[-84.031,9.9471,1277.6047],[-84.0336,9.9499,1253.6294],[-84.0374,9.9493,1244.0903],[-84.0401,9.9519,1228.8115],[-84.0425,9.9496,1213.8756],[-84.0439,9.9502,1206.5961]]]]}}