{"type":"Feature","properties":{"GID_3":"CRI.1.13.4_1","GID_0":"CRI","country":"CostaRica","GID_1":"CRI.1_1","province":"Alajuela","NL_NAME_1":"NA","GID_2":"CRI.1.13_1","county":"SanRamón","NL_NAME_2":"NA","city":"PeñasBlancas","VARNAME_3":"NA","NL_NAME_3":"NA","TYPE_3":"Distrito","ENGTYPE_3":"District","CC_3":"13","HASC_3":"NA","name":"Peñas_Blancas.city"},
"geometry":{"type": "MultiPolygon","coordinates": [[[[-84.5453,10.4365,77.4702],[-84.550299999999993,10.4424,84.3031],[-84.5537,10.4436,83.719],[-84.5537,10.4425,83.719],[-84.5554,10.445,85.3886],[-84.5591,10.4455,90.6015],[-84.5585,10.4477,92.5034],[-84.5569,10.4473,88.1478],[-84.5572,10.4489,90.3345],[-84.5612,10.4476,88.7141],[-84.564,10.4493,95.5794],[-84.5644,10.4473,91.043],[-84.5626,10.4455,92.2851],[-84.5666,10.4452,95.2389],[-84.5702,10.4401,95.3156],[-84.5765,10.4401,99.1061],[-84.5768,10.4414,101.471],[-84.5822,10.4384,112.6558],[-84.582,10.4403,100.4826],[-84.5833,10.4394,100.0804],[-84.5837,10.4407,105.0695],[-84.5822,10.4424,105.4934],[-84.5847,10.4421,109.4351],[-84.5882,10.4445,110.5819],[-84.5931,10.4433,114.344],[-84.5968,10.4468,116.7565],[-84.6053,10.4424,134.1619],[-84.6102,10.4471,142.6008],[-84.6156,10.4494,154.3902],[-84.6178,10.4488,158.6379],[-84.6211,10.4539,180.8923],[-84.6268,10.4572,195.1667],[-84.6288,10.4558,221.1771],[-84.6306,10.4566,222.5655],[-84.6347,10.4532,236.3767],[-84.6449,10.454,276.2066],[-84.6503,10.4502,343.3911],[-84.6527,10.4375,471.7319],[-84.6564,10.4293,599.7999],[-84.665,10.4185,958.5203],[-84.6681,10.4105,1131.0447],[-84.6885,10.443,1087.5],[-84.7215,10.3767,1451.9059],[-84.7216,10.3809,1295.8982],[-84.7266,10.3873,1125.0646],[-84.7272,10.3917,1019.0863],[-84.7318,10.3952,958.8158],[-84.7355,10.3948,936.6478],[-84.7405,10.3982,885.7352],[-84.7474,10.3991,854.4509],[-84.7494,10.4075,723.8023],[-84.7536,10.4134,669.8727],[-84.7516,10.4178,637.1149],[-84.7519,10.4221,618.1642],[-84.7477,10.4301,552.7806],[-84.7475,10.434,540.0],[-84.7481,10.4317,542.0821],[-84.7505,10.4351,540.0],[-84.7522,10.4351,540.0],[-84.7524,10.4328,540.0],[-84.7588,10.4307,543.0991],[-84.7599,10.4326,540.0],[-84.7637,10.4321,540.0],[-84.7659,10.4287,540.0],[-84.7672,10.4123,583.3141],[-84.7718,10.4063,608.0601],[-84.7745,10.3958,662.2812],[-84.7814,10.3851,742.9058],[-84.7792,10.3797,794.5483],[-84.7712,10.3744,835.0398],[-84.7716,10.3697,866.9445],[-84.7695,10.3675,915.6339],[-84.7685,10.3575,975.9213],[-84.7664,10.3546,1001.7781],[-84.7677,10.3513,1065.6277],[-84.7743,10.3502,1181.3214],[-84.7739,10.3478,1228.8982],[-84.7762,10.3466,1356.3674],[-84.7776,10.343,1399.6403],[-84.7773,10.3398,1502.8086],[-84.7788,10.3396,1509.538],[-84.781,10.3319,1606.873],[-84.7866,10.3225,1696.8127],[-84.7941,10.3205,1780.2399],[-84.7903,10.3119,1699.9851],[-84.7866,10.308,1621.0212],[-84.786,10.3014,1605.3621],[-84.7832,10.2984,1555.2336],[-84.782,10.2912,1539.0178],[-84.7707,10.2801,1482.7244],[-84.7669,10.2796,1506.7072],[-84.766,10.2696,1667.0482],[-84.759,10.2706,1367.6912],[-84.7556,10.2735,1275.7041],[-84.7567,10.2758,1233.9935],[-84.7548,10.2763,1232.1899],[-84.7561,10.2811,1192.3859],[-84.7591,10.2837,1204.9359],[-84.76,10.292,1079.1154],[-84.758,10.2942,1051.825],[-84.7408,10.3031,930.404],[-84.7327,10.3044,895.3674],[-84.7277,10.3093,868.8786],[-84.7194,10.3075,809.2054],[-84.7182,10.3112,792.6107],[-84.7065,10.322,738.5034],[-84.7003,10.3222,789.1035],[-84.699,10.3209,714.3724],[-84.6977,10.3226,738.7407],[-84.6956,10.3215,682.4073],[-84.6899,10.3227,706.6808],[-84.6856,10.3281,682.0657],[-84.6783,10.3311,582.9468],[-84.6779,10.3335,560.1128],[-84.6684,10.3416,498.8821],[-84.6508,10.3488,450.5103],[-84.6418,10.36,393.2169],[-84.6327,10.3625,393.4466],[-84.6292,10.3656,393.5868],[-84.6256,10.3656,336.8588],[-84.6185,10.3692,335.4556],[-84.6086,10.3688,380.8217],[-84.6025,10.3658,310.9302],[-84.5965,10.3657,284.2172],[-84.5915,10.3672,251.1629],[-84.5856,10.3718,236.3352],[-84.5776,10.3728,219.4714],[-84.5717,10.3765,198.3717],[-84.5695,10.3806,195.013],[-84.5537,10.3941,142.9277],[-84.5534,10.4083,124.3994],[-84.5578,10.4163,106.9881],[-84.5576,10.4272,89.98],[-84.5519,10.4356,86.4658],[-84.5459,10.4354,79.5788],[-84.5453,10.4365,77.4702]]]]}}