{"type":"Feature","properties":{"GID_3":"CRI.6.2.3_1","GID_0":"CRI","country":"CostaRica","GID_1":"CRI.6_1","province":"Puntarenas","NL_NAME_1":"NA","GID_2":"CRI.6.2_1","county":"BuenosAires","NL_NAME_2":"NA","city":"Brunka","VARNAME_3":"NA","NL_NAME_3":"NA","TYPE_3":"Distrito","ENGTYPE_3":"District","CC_3":"9","HASC_3":"NA","name":"Brunka.city"},
"geometry":{"type": "MultiPolygon","coordinates": [[[[-83.3986,9.3372,2883.6736],[-83.4007,9.3325,2770.8047],[-83.4085,9.3259,2195.7305],[-83.4059,9.3162,1839.8557],[-83.4078,9.3132,1765.3744],[-83.4094,9.3017,1577.3071],[-83.4129,9.2992,1473.3998],[-83.4078,9.2969,1357.9518],[-83.4072,9.2857,1214.6256],[-83.4049,9.2813,1123.5178],[-83.4078,9.2765,1042.3602],[-83.4074,9.2606,914.3539],[-83.4169,9.2427,702.1205],[-83.4183,9.2366,626.4784],[-83.4119,9.2159,507.6359],[-83.4181,9.2111,488.7664],[-83.4233,9.196,414.8043],[-83.4244,9.1964,416.0945],[-83.4257,9.194,409.7307],[-83.4233,9.1906,402.2045],[-83.4254,9.187,387.4362],[-83.4241,9.1853,379.8305],[-83.4265,9.1835,375.1122],[-83.4279,9.1773,366.0683],[-83.4224,9.1723,365.2732],[-83.4231,9.1675,367.7053],[-83.4188,9.1633,364.4907],[-83.4213,9.1604,366.8056],[-83.4186,9.1594,354.6524],[-83.4206,9.1563,395.604],[-83.4171,9.1516,399.3718],[-83.4204,9.1488,330.0957],[-83.4172,9.144,287.7687],[-83.4184,9.1412,307.6541],[-83.4167,9.1371,278.1083],[-83.4185,9.1309,242.0682],[-83.4169,9.1286,266.0258],[-83.4096,9.129,236.2957],[-83.4046,9.1249,227.1541],[-83.4002,9.1256,220.3375],[-83.3967,9.1331,219.3],[-83.3931,9.1332,224.1304],[-83.3885,9.1297,208.6209],[-83.3861,9.1263,210.1772],[-83.3866,9.1244,211.9852],[-83.3895,9.1224,204.5099],[-83.3943,9.1226,232.9771],[-83.3926,9.1179,222.0145],[-83.3883,9.1173,224.0086],[-83.3871,9.1158,196.4656],[-83.3911,9.1125,278.2771],[-83.3915,9.1103,303.2544],[-83.386,9.1029,181.5145],[-83.3865,9.1059,192.6952],[-83.3846,9.1065,203.3374],[-83.3845,9.1092,235.2831],[-83.3812,9.1084,237.3194],[-83.3772,9.1148,216.332],[-83.3787,9.1178,216.112],[-83.3783,9.1391,239.9966],[-83.3754,9.1458,242.2606],[-83.3757,9.15,275.8072],[-83.373,9.1515,254.4211],[-83.3716,9.1558,258.2367],[-83.3707,9.1622,296.0378],[-83.3561,9.1729,295.5633],[-83.3392,9.191,350.6824],[-83.3321,9.1944,384.5546],[-83.3298,9.1973,380.7828],[-83.3347,9.2025,440.3958],[-83.3331,9.2043,450.5173],[-83.3327,9.2089,474.9554],[-83.3362,9.209,497.8056],[-83.3407,9.2129,548.1568],[-83.3444,9.2137,593.9155],[-83.3457,9.218,588.0474],[-83.3529,9.2227,695.3962],[-83.3613,9.254,1245.3118],[-83.3601,9.2594,1319.5659],[-83.3533,9.2667,1453.0698],[-83.3529,9.2714,1474.4551],[-83.355,9.2799,1627.4702],[-83.3532,9.2856,1590.5396],[-83.355,9.2899,1655.9513],[-83.3526,9.2928,1610.832],[-83.3528,9.2955,1641.9845],[-83.3493,9.299,1695.5442],[-83.3507,9.305,1701.7579],[-83.3463,9.3086,1744.9706],[-83.347,9.3119,1753.7068],[-83.3421,9.3164,1828.6335],[-83.3396,9.3225,2116.2771],[-83.3394,9.3267,2293.9468],[-83.3444,9.3377,2639.5364],[-83.3427,9.3466,2843.3157],[-83.349,9.3534,2987.2344],[-83.352,9.3505,3004.4485],[-83.3553,9.3523,2980.4551],[-83.3667,9.3461,2738.2881],[-83.3754,9.3478,2844.3062],[-83.3783,9.3464,2873.9646],[-83.3857,9.3464,2898.6494],[-83.3939,9.3424,2852.0791],[-83.3986,9.3372,2883.6736]]]]}}