{"type":"Feature","properties":{"GID_3":"CRI.7.19.1_1","GID_0":"CRI","country":"CostaRica","GID_1":"CRI.7_1","province":"SanJosé","NL_NAME_1":"NA","GID_2":"CRI.7.19_1","county":"Turrubares","NL_NAME_2":"NA","city":"Carara","VARNAME_3":"NA","NL_NAME_3":"NA","TYPE_3":"Distrito","ENGTYPE_3":"District","CC_3":"5","HASC_3":"NA","name":"Carara.city"},
"geometry":{"type": "MultiPolygon","coordinates": [[[[-84.5301,9.5746,6.3577],[-84.5272,9.576,19.639],[-84.521,9.5726,10.7115],[-84.511,9.5725,24.1422],[-84.5076,9.5708,26.9591],[-84.503,9.573,19.8665],[-84.4948,9.57,61.0144],[-84.4899,9.5724,41.2708],[-84.4846,9.5696,38.9423],[-84.4839,9.5752,75.8189],[-84.4806,9.5808,20.7082],[-84.483,9.5819,54.9052],[-84.4844,9.5854,46.307],[-84.4808,9.585,36.3542],[-84.4739,9.5896,22.719],[-84.4773,9.5911,18.861],[-84.476,9.5944,21.1145],[-84.4801,9.5946,28.4485],[-84.4778,9.596,20.8148],[-84.4806,9.6012,25.4314],[-84.4775,9.6004,23.4914],[-84.4757,9.6017,23.5577],[-84.477,9.6045,34.4777],[-84.4792,9.603,23.9051],[-84.4799,9.6051,26.3514],[-84.4818,9.6057,40.8654],[-84.4779,9.6156,32.3501],[-84.4802,9.6207,30.0166],[-84.4848,9.6242,44.9402],[-84.4865,9.6396,77.3898],[-84.4895,9.6414,56.5457],[-84.4884,9.6434,41.6878],[-84.4846,9.6449,104.6461],[-84.4822,9.6494,68.6],[-84.4775,9.6503,175.0211],[-84.4793,9.6523,83.621],[-84.4767,9.6545,79.3767],[-84.4774,9.6602,78.7961],[-84.469,9.6615,128.6873],[-84.4737,9.6646,90.4079],[-84.4758,9.6718,59.3415],[-84.4807,9.6724,69.1841],[-84.4804,9.6767,62.6328],[-84.4838,9.6774,77.9275],[-84.4823,9.6798,63.8512],[-84.4853,9.6815,67.858],[-84.4858,9.6837,67.6902],[-84.4848,9.6851,76.5109],[-84.4813,9.6841,75.5564],[-84.4783,9.6877,79.806],[-84.4737,9.6871,82.3606],[-84.4752,9.6908,90.2819],[-84.472,9.6918,79.4219],[-84.4702,9.6907,87.4473],[-84.4674,9.698,95.3926],[-84.4686,9.7012,111.4236],[-84.4663,9.7021,123.165],[-84.4693,9.706,156.4908],[-84.4679,9.7079,116.7001],[-84.4687,9.7099,113.8716],[-84.4745,9.7139,149.161],[-84.4738,9.7173,156.3607],[-84.4764,9.7169,157.2571],[-84.4807,9.7184,202.7564],[-84.4813,9.72,154.2889],[-84.4832,9.7196,166.4586],[-84.4836,9.7218,178.5925],[-84.4871,9.7226,218.6331],[-84.4916,9.7291,218.8094],[-84.4828,9.7337,233.7771],[-84.486,9.7397,335.2335],[-84.4906,9.7439,414.9278],[-84.4908,9.747,435.1571],[-84.487799999999993,9.7504,473.2063],[-84.4866,9.757,548.705],[-84.4803,9.7658,839.8134],[-84.4806,9.7758,1288.698],[-84.4718,9.7913,1599.5001],[-84.4714,9.7933,1656.1034],[-84.4753,9.7954,1519.5493],[-84.478,9.7959,1345.4751],[-84.4826,9.7934,1049.339],[-84.4871,9.7875,810.7312],[-84.4925,9.7881,676.3602],[-84.497,9.786,588.4515],[-84.4987,9.7866,573.8977],[-84.5074,9.7801,437.765],[-84.5093,9.7808,421.0294],[-84.5104,9.7793,402.1217],[-84.5157,9.7807,333.9249],[-84.5228,9.7771,289.2984],[-84.5304,9.7775,178.775],[-84.5342,9.7732,149.8904],[-84.5388,9.7771,172.1194],[-84.5491,9.7652,458.6871],[-84.552,9.757,633.149],[-84.5543,9.7558,612.4865],[-84.5659,9.7587,483.7428],[-84.5661,9.747,448.3126],[-84.5728,9.7382,429.0248],[-84.5749,9.7391,430.4667],[-84.5749,9.7407,444.1587],[-84.5773,9.7399,451.4787],[-84.5779,9.7419,432.1167],[-84.583,9.7411,431.5844],[-84.5903,9.744,263.7917],[-84.5927,9.7433,205.4151],[-84.592,9.736,254.4673],[-84.5897,9.7324,304.8277],[-84.5894,9.7233,369.7526],[-84.5834,9.711,481.7388],[-84.5847,9.6938,595.2454],[-84.5846,9.6909,597.0493],[-84.5827,9.6894,647.2791],[-84.5855,9.6837,582.9604],[-84.5801,9.6719,703.0172],[-84.5807,9.6655,680.4201],[-84.5723,9.6542,772.2749],[-84.5739,9.652,779.5305],[-84.5719,9.6441,736.5175],[-84.5654,9.6356,559.6918],[-84.5636,9.6312,521.021],[-84.5644,9.6276,492.9547],[-84.5614,9.625,447.0688],[-84.5557,9.6267,360.3883],[-84.5543,9.6223,379.2617],[-84.5513,9.6191,256.4583],[-84.5498,9.61,102.377],[-84.5518,9.6037,83.0529],[-84.5496,9.5932,61.0296],[-84.5437,9.585,29.9415],[-84.5388,9.5861,19.691],[-84.5354,9.5816,15.662],[-84.5345,9.5829,16.6164],[-84.5294,9.5793,10.5771],[-84.5312,9.5769,10.3323],[-84.5301,9.5746,6.3577]]]]}}