{"type":"Feature","properties":{"GID_2":"CRI.7.14_1","GID_0":"CRI","country":"CostaRica","GID_1":"CRI.7_1","province":"SanJosé","NL_NAME_1":"NA","county":"Puriscal","VARNAME_2":"NA","NL_NAME_2":"NA","TYPE_2":"Cantón","ENGTYPE_2":"Canton","CC_2":"4","HASC_2":"CR.SJ.PU","name":"Puriscal.county"},
"geometry":{"type": "MultiPolygon","coordinates": [[[[-84.3036,9.6497,66.1192],[-84.3053,9.6515,69.8361],[-84.3051,9.6577,78.7388],[-84.2997,9.6629,83.6075],[-84.3013,9.6687,101.7507],[-84.2972,9.6707,111.2366],[-84.2969,9.674,90.9276],[-84.3069,9.6837,159.2642],[-84.3094,9.6978,107.8832],[-84.3149,9.7002,140.1694],[-84.3184,9.7044,170.5078],[-84.323,9.7035,154.5998],[-84.3231,9.7076,131.705],[-84.3291,9.7116,133.7075],[-84.3287,9.7155,219.7285],[-84.3327,9.7172,157.6169],[-84.3301,9.7195,148.8327],[-84.3332,9.724,161.1755],[-84.3319,9.728,176.0012],[-84.3391,9.7398,226.5951],[-84.3416,9.7415,167.232],[-84.3408,9.7492,211.6532],[-84.3378,9.7508,196.586],[-84.3401,9.7538,255.1695],[-84.3362,9.7553,219.4888],[-84.3374,9.7579,223.4762],[-84.333,9.7649,218.6133],[-84.3265,9.7661,222.4053],[-84.3271,9.768,223.7527],[-84.3228,9.771,238.6163],[-84.3231,9.7741,253.7726],[-84.3185,9.7783,266.2166],[-84.3115,9.7782,299.0023],[-84.3095,9.7805,383.4796],[-84.3018,9.7774,346.2122],[-84.292,9.7794,392.7001],[-84.2855,9.7777,384.7716],[-84.2837,9.7797,402.2971],[-84.2745,9.7818,411.9323],[-84.2738,9.7878,421.4075],[-84.2706,9.7865,417.2132],[-84.2697,9.7919,501.9927],[-84.2675,9.7932,505.2288],[-84.2677,9.8036,479.0468],[-84.2634,9.8091,496.283],[-84.2659,9.8125,526.2676],[-84.2641,9.8158,547.2567],[-84.2663,9.8177,556.8909],[-84.2626,9.8209,586.9492],[-84.2634,9.8248,601.2996],[-84.2597,9.8258,643.5647],[-84.2585,9.8375,669.8461],[-84.2563,9.8404,679.5746],[-84.2542,9.8404,688.7371],[-84.252,9.8442,725.8947],[-84.2697,9.8442,745.3218],[-84.2703,9.8428,699.1746],[-84.276,9.852,800.3643],[-84.2811,9.8529,865.4708],[-84.2866,9.858,974.2021],[-84.2884,9.8608,996.8293],[-84.2873,9.8636,1023.7964],[-84.2936,9.8638,1000.912],[-84.2924,9.8648,1000.912],[-84.2964,9.8689,943.1923],[-84.3,9.8815,826.6893],[-84.3047,9.884,834.2653],[-84.3072,9.8822,786.4638],[-84.3092,9.8827,780.8486],[-84.317,9.8879,671.1929],[-84.3263,9.8909,538.0553],[-84.3298,9.8969,539.9835],[-84.3295,9.8996,496.9728],[-84.3359,9.8983,506.5905],[-84.3341,9.8941,506.6992],[-84.3359,9.8907,543.3578],[-84.3436,9.8894,608.5157],[-84.3498,9.8849,731.1752],[-84.3546,9.8849,874.8639],[-84.3631,9.8785,1092.4971],[-84.3671,9.8796,935.0905],[-84.3689,9.886,849.3165],[-84.3681,9.8890999999999991,798.937],[-84.3749,9.8967,726.2325],[-84.3753,9.8995,655.2072],[-84.3793,9.8995,661.7584],[-84.3835,9.902,633.3587],[-84.3865,9.9012,606.6193],[-84.3909,9.9044,537.0867],[-84.3965,9.9049,490.6223],[-84.4038,9.9115,409.4719],[-84.4038,9.9064,485.64],[-84.4059,9.9044,519.7899],[-84.4085,9.8953,731.3147],[-84.4171,9.8958,918.5039],[-84.417,9.8841,834.6434],[-84.4144,9.8815,830.9338],[-84.4158,9.8722,658.7847],[-84.4137,9.8685,541.9857],[-84.414,9.8613,444.8668],[-84.4177,9.8558,407.7246],[-84.4166,9.8537,411.3105],[-84.4203,9.8415,323.8846],[-84.4231,9.8397,316.492],[-84.4211,9.8385,323.3126],[-84.4273,9.838,291.0224],[-84.4277,9.8336,337.8115],[-84.4305,9.8302,370.239],[-84.432,9.8199,470.1283],[-84.4372,9.8111,637.7719],[-84.4421,9.8081,704.6104],[-84.4411,9.8054,814.5785],[-84.4427,9.8013,945.5815],[-84.4504,9.7912,1561.5542],[-84.4542,9.793,1573.6971],[-84.4647,9.7917,1483.7953],[-84.4692,9.7943,1615.9602],[-84.4714,9.7933,1656.1034],[-84.4806,9.7758,1288.698],[-84.4803,9.7658,839.8134],[-84.4866,9.757,548.705],[-84.487799999999993,9.7504,473.2063],[-84.4908,9.747,435.1571],[-84.4906,9.7439,414.9278],[-84.4827,9.7343,260.0147],[-84.4858,9.7315,222.1743],[-84.491,9.73,218.8094],[-84.4915,9.7283,218.7484],[-84.4871,9.7226,218.6331],[-84.4836,9.7218,178.5925],[-84.4832,9.7196,166.4586],[-84.4813,9.72,154.2889],[-84.4807,9.7184,202.7564],[-84.4764,9.7169,157.2571],[-84.4738,9.7173,156.3607],[-84.4745,9.7139,149.161],[-84.4687,9.7099,113.8716],[-84.4679,9.7079,116.7001],[-84.4693,9.706,156.4908],[-84.4663,9.7021,123.165],[-84.4686,9.7012,111.4236],[-84.4674,9.698,95.3926],[-84.4702,9.6907,87.4473],[-84.472,9.6918,79.4219],[-84.4752,9.6908,90.2819],[-84.4737,9.6871,82.3606],[-84.4783,9.6877,79.806],[-84.4813,9.6841,75.5564],[-84.4848,9.6851,76.5109],[-84.4858,9.6837,67.6902],[-84.4853,9.6815,67.858],[-84.4823,9.6798,63.8512],[-84.4838,9.6774,77.9275],[-84.4804,9.6767,62.6328],[-84.4807,9.6724,69.1841],[-84.4759,9.672,59.3415],[-84.4737,9.6646,90.4079],[-84.469,9.6619,128.6873],[-84.4744,9.6598,60.0937],[-84.4774,9.6602,78.7961],[-84.4767,9.6545,79.3767],[-84.4793,9.6523,83.621],[-84.4775,9.6503,175.0211],[-84.4822,9.6494,68.6],[-84.4846,9.6449,104.6461],[-84.4894,9.6419,56.5457],[-84.4865,9.6396,77.3898],[-84.4848,9.6242,44.9402],[-84.4802,9.6207,30.0166],[-84.4779,9.6156,32.3501],[-84.4818,9.6057,40.8654],[-84.4799,9.6051,26.3514],[-84.4792,9.603,23.9051],[-84.477,9.6045,34.4777],[-84.4757,9.6017,23.5577],[-84.4775,9.6004,23.4914],[-84.4806,9.6012,25.4314],[-84.4778,9.596,20.8148],[-84.4801,9.5946,28.4485],[-84.476,9.5944,21.1145],[-84.4773,9.5911,18.861],[-84.4739,9.5896,22.719],[-84.4808,9.585,36.3542],[-84.4844,9.5854,46.307],[-84.483,9.5819,54.9052],[-84.4807,9.581,20.7082],[-84.4819,9.5768,23.8175],[-84.4784,9.5734,46.9404],[-84.4747,9.5743,42.0717],[-84.4728,9.5719,35.0136],[-84.4723,9.5743,53.2741],[-84.4696,9.5761,56.8173],[-84.4645,9.5731,30.8708],[-84.4639,9.57,31.901],[-84.4621,9.5723,29.952],[-84.4621,9.5765,60.0715],[-84.4571,9.5821,51.1428],[-84.4534,9.5771,45.9055],[-84.4513,9.578,40.4511],[-84.4495,9.5757,32.879],[-84.4447,9.5777,36.6261],[-84.4452,9.5755,36.1379],[-84.4417,9.5756,30.9696],[-84.442,9.5729,35.9909],[-84.4392,9.5722,42.6184],[-84.4398,9.5689,35.4642],[-84.4342,9.5693,88.5199],[-84.4383,9.5651,39.9689],[-84.4348,9.5648,37.9727],[-84.4366,9.5626,62.0372],[-84.4318,9.5595,39.2924],[-84.4309,9.5566,47.5321],[-84.4294,9.5605,53.0687],[-84.4284,9.5586,41.1853],[-84.4249,9.5587,58.0923],[-84.4281,9.5649,48.965],[-84.4264,9.566,83.7882],[-84.4227,9.5621,47.6808],[-84.4234,9.5693,53.9623],[-84.4174,9.569,69.8719],[-84.418,9.5721,76.2693],[-84.4143,9.5727,56.928],[-84.415,9.5751,56.6446],[-84.4128,9.5746,60.5624],[-84.4146,9.5777,57.6715],[-84.4128,9.5799,67.7267],[-84.4155,9.5798,62.1957],[-84.4143,9.5833,60.3003],[-84.4097,9.5833,65.7696],[-84.4078,9.5813,63.7809],[-84.4052,9.5815,75.1676],[-84.4047,9.5834,68.4575],[-84.4018,9.5828,66.9801],[-84.4024,9.5873,89.0477],[-84.401,9.5896,71.1819],[-84.3985,9.5894,79.6745],[-84.3991,9.5927,113.3501],[-84.3972,9.5968,114.4572],[-84.394,9.5972,103.8703],[-84.3918,9.6002,96.605],[-84.3943,9.6048,95.1769],[-84.3962,9.6053,116.0515],[-84.3981,9.6136,115.5324],[-84.3977,9.6168,119.062],[-84.394,9.6211,130.1186],[-84.3969,9.6249,141.7057],[-84.3964,9.6321,163.2377],[-84.3982,9.6351,139.1641],[-84.3965,9.6367,130.8739],[-84.3877,9.6386,230.8167],[-84.3848,9.6369,245.1371],[-84.3857,9.6355,237.0772],[-84.3843,9.6336,253.8798],[-84.3803,9.6355,257.7839],[-84.3786,9.6341,258.256],[-84.3768,9.6354,258.256],[-84.3758,9.6396,270.0469],[-84.3754,9.6359,266.562],[-84.372,9.6348,279.8544],[-84.3687,9.6374,274.4519],[-84.3692,9.6349,274.7458],[-84.3659,9.6316,268.3275],[-84.3622,9.6317,284.3255],[-84.3599,9.6328,304.9639],[-84.361,9.6361,307.9844],[-84.3594,9.6387,308.426],[-84.357,9.6375,314.409],[-84.3502,9.6397,321.0067],[-84.3457,9.6306,339.2141],[-84.3411,9.6335,343.8181],[-84.3416,9.6358,353.7876],[-84.3368,9.635,305.6382],[-84.3369,9.6377,355.9603],[-84.3344,9.641,320.6898],[-84.3247,9.6365,294.9835],[-84.3122,9.6428,262.951],[-84.3091,9.6416,179.5399],[-84.3042,9.644,185.3834],[-84.305,9.6466,129.4634],[-84.3036,9.6497,66.1192]]]]}}