{"type":"Feature","properties":{"GID_3":"CRI.1.17.1_1","GID_0":"CRI","country":"CostaRica","GID_1":"CRI.1_1","province":"Alajuela","NL_NAME_1":"NA","GID_2":"CRI.1.17_1","county":"RíoCuarto","NL_NAME_2":"NA","city":"RioCuarto","VARNAME_3":"NA","NL_NAME_3":"NA","TYPE_3":"Distrito","ENGTYPE_3":"District","CC_3":"6","HASC_3":"NA","name":"Rio_Cuarto.city"},
"geometry":{"type": "MultiPolygon","coordinates": [[[[-84.1813,10.3725,282.8275],[-84.1795,10.3813,255.8961],[-84.188,10.3851,276.0212],[-84.191,10.3928,256.4513],[-84.198,10.4004,260.3171],[-84.2032,10.4009,241.1566],[-84.2035,10.3928,250.2764],[-84.1993,10.3922,268.8647],[-84.1987,10.3857,267.8684],[-84.2023,10.3845,260.7798],[-84.2154,10.3893,263.9208],[-84.2404,10.3899,325.4189],[-84.2404,10.4077,262.4115],[-84.2573,10.4099,254.0615],[-84.2587,10.4006,263.0487],[-84.2498,10.3764,327.3788],[-84.2522,10.374,340.5781],[-84.249,10.3727,368.1334],[-84.2489,10.3664,363.3775],[-84.2455,10.3606,372.695],[-84.2463,10.3563,387.7924],[-84.2449,10.3546,394.0174],[-84.2429,10.3548,425.2125],[-84.2447,10.3527,405.2759],[-84.2432,10.3502,408.8774],[-84.2482,10.3409,434.9881],[-84.2478,10.3369,462.4975],[-84.2457,10.3333,499.5856],[-84.2391,10.3326,495.6895],[-84.2405,10.3293,538.972],[-84.2441,10.3276,541.7865],[-84.2434,10.3255,544.9885],[-84.2458,10.3254,528.8627],[-84.2456,10.3227,535.7937],[-84.2431,10.3212,538.741],[-84.2459,10.3204,582.4329],[-84.245,10.3174,556.6527],[-84.2475,10.3163,610.4076],[-84.2483,10.3132,626.9214],[-84.2509,10.3123,598.163],[-84.2509,10.308,657.9156],[-84.2571,10.3013,663.5986],[-84.2571,10.2902,712.3585],[-84.2599,10.2877,797.6335],[-84.2648,10.2763,742.6636],[-84.265,10.2724,914.5685],[-84.2624,10.268,1049.5923],[-84.2659,10.2603,1131.5984],[-84.258,10.2494,1269.7969],[-84.242,10.2419,1634.7338],[-84.231,10.247,1665.0795],[-84.2241,10.2471,1612.644],[-84.2153,10.2519,1455.1909],[-84.212,10.259,1262.986],[-84.2103,10.2683,1146.196],[-84.2017,10.2758,979.8071],[-84.2,10.2793,946.9297],[-84.1995,10.2853,886.9905],[-84.2049,10.2871,913.5889],[-84.2023,10.2917,887.9146],[-84.1944,10.2971,790.3694],[-84.1917,10.3021,739.4854],[-84.1971,10.3062,712.8813],[-84.1977,10.311,648.5541],[-84.1944,10.3183,505.4591],[-84.1948,10.3267,447.4641],[-84.1878,10.3373,385.3629],[-84.1848,10.3391,381.4792],[-84.1862,10.3471,348.5755],[-84.1811,10.3536,327.321],[-84.1807,10.3567,320.4839],[-84.1833,10.3631,322.5523],[-84.1827,10.3717,290.2123],[-84.1813,10.3725,282.8275]]]]}}