{"type":"Feature","properties":{"GID_3":"CRI.7.5.9_1","GID_0":"CRI","country":"CostaRica","GID_1":"CRI.7_1","province":"SanJosé","NL_NAME_1":"NA","GID_2":"CRI.7.5_1","county":"Desamparados","NL_NAME_2":"NA","city":"SanCristóbal","VARNAME_3":"NA","NL_NAME_3":"NA","TYPE_3":"Distrito","ENGTYPE_3":"District","CC_3":"8","HASC_3":"NA","name":"San_Cristóbal.city"},
"geometry":{"type": "MultiPolygon","coordinates": [[[[-84.0344,9.7645,1382.7329],[-84.0318,9.7607,1450.7876],[-84.0306,9.7539,1554.1335],[-84.0307,9.7417,1465.8088],[-84.0284,9.7423,1513.4698],[-84.028,9.7407,1465.4423],[-84.018,9.7387,1550.8834],[-84.015,9.7394,1532.5352],[-84.0158,9.7404,1532.5352],[-84.0129,9.7424,1591.9985],[-84.0025,9.7372,1631.3494],[-84.0008,9.7389,1698.0005],[-83.9918,9.7363,1713.0273],[-83.9893,9.7389,1721.1562],[-83.9862,9.7394,1749.6992],[-83.9834,9.7372,1782.4031],[-83.9734,9.7384,1880.5281],[-83.9728,9.736,1909.5229],[-83.9632,9.7361,1962.625],[-83.9564,9.7328,2060.78],[-83.9549,9.7298,2139.9036],[-83.9559,9.7251,2220.4434],[-83.9489,9.7144,2349.3691],[-83.95,9.7318,2234.7905],[-83.9491,9.7356,2168.8723],[-83.9512,9.7351,2184.0293],[-83.9508,9.7396,2136.6499],[-83.9536,9.7407,2062.6848],[-83.9553,9.7384,2107.4639],[-83.9594,9.7429,2029.166],[-83.9609,9.741,2051.8843],[-83.9661,9.7412,2007.7233],[-83.9791,9.7452,1998.2931],[-83.9775,9.7535,1914.5668],[-83.978,9.7577,1897.6714],[-83.9825,9.7601,1917.4204],[-83.9815,9.7696,1838.7988],[-83.9843,9.7717,1846.464],[-83.9877,9.7714,1865.144],[-83.9888,9.777,1867.6299],[-83.9919,9.779,1863.6528],[-83.9918,9.7837,1882.5011],[-83.9946,9.7833,1888.1274],[-83.9992,9.7853,1798.0134],[-84.0021,9.7788,1757.2568],[-84.0187,9.7722,1582.5881],[-84.0195,9.7703,1523.7931],[-84.0249,9.7704,1464.8895],[-84.0289,9.7681,1445.4504],[-84.0296,9.7647,1417.8921],[-84.0344,9.7645,1382.7329]]]]}}