{"type":"Feature","properties":{"GID_2":"CRI.6.5_1","GID_0":"CRI","country":"CostaRica","GID_1":"CRI.6_1","province":"Puntarenas","NL_NAME_1":"NA","county":"Esparza","VARNAME_2":"NA","NL_NAME_2":"NA","TYPE_2":"Cantón","ENGTYPE_2":"Canton","CC_2":"2","HASC_2":"CR.PU.ES","name":"Esparza.county"},
"geometry":{"type": "MultiPolygon","coordinates": [[[[-84.6179,10.0436,187.8416],[-84.6248,10.0479,197.7219],[-84.6282,10.0574,248.9196],[-84.6287,10.064,253.207],[-84.632,10.0686,320.7137],[-84.6315,10.0711,283.8504],[-84.6376,10.0774,358.3862],[-84.6425,10.0794,363.6918],[-84.6452,10.0858,369.7516],[-84.648,10.0871,425.666],[-84.6482,10.0949,431.403],[-84.6538,10.1016,506.6967],[-84.6572,10.1092,563.8717],[-84.66,10.1108,574.5187],[-84.664,10.1216,683.7521],[-84.6655,10.1224,699.1887],[-84.6693,10.1198,771.2277],[-84.6816,10.1275,1252.3103],[-84.686,10.1277,1397.3774],[-84.6865,10.1179,1251.9255],[-84.6842,10.1143,1181.8108],[-84.6832,10.1078,1175.9625],[-84.677,10.1064,995.342],[-84.6789,10.1001,844.2736],[-84.678,10.0981,802.6872],[-84.6807,10.0922,771.7016],[-84.6769,10.0774,500.9822],[-84.6777,10.0739,447.2502],[-84.6744,10.0704,404.4106],[-84.6726,10.063,357.6637],[-84.6681,10.058,321.1264],[-84.6656,10.0578,317.4474],[-84.6673,10.0522,375.6873],[-84.6737,10.0521,265.6821],[-84.683,10.0469,164.3372],[-84.6855,10.0471,165.4253],[-84.6937,10.0403,137.6107],[-84.6925,10.0378,138.9288],[-84.6899,10.0374,142.2634],[-84.6865,10.034,263.3546],[-84.6819,10.0348,323.3831],[-84.6797,10.0335,289.5717],[-84.6727,10.0357,183.7571],[-84.6635,10.0321,136.0676],[-84.6618,10.0288,127.3994],[-84.662,10.0213,105.1741],[-84.6649,10.0183,147.0438],[-84.6669,10.0099,80.4397],[-84.6698,10.0071,73.9282],[-84.6787,10.0084,61.8085],[-84.6824,10.0065,64.4642],[-84.6844,10.002,119.375],[-84.6932,10.0018,48.9607],[-84.696,9.9924,36.59],[-84.7048,9.992,34.0272],[-84.7098,9.9851,40.3574],[-84.7142,9.983,21.6944],[-84.7188,9.9744,13.2547],[-84.7193,9.9689,3.4658],[-84.7279,9.9629,4.5623],[-84.7388,9.9588,0.0],[-84.7387,9.9552,38.1982],[-84.741,9.952,0.0],[-84.7405,9.9492,33.6138],[-84.7358,9.9454,8.2125],[-84.736,9.9411,7.3616],[-84.7185,9.9288,0.0],[-84.7125,9.9176,2.0427],[-84.7153,9.9115,6.1554],[-84.7225,9.9068,25.8757],[-84.7257,9.9002,0.0],[-84.7294,9.9002,33.8628],[-84.7293,9.8948,24.7095],[-84.731,9.8932,5.6761],[-84.7229,9.8873,27.0393],[-84.7219,9.8839,46.0125],[-84.7053,9.8744,12.2324],[-84.6967,9.8637,11.2134],[-84.6953,9.8658,2.0295],[-84.6917,9.8653,9.3342],[-84.6902,9.8704,14.8677],[-84.6845,9.8703,18.7911],[-84.6809,9.8742,29.6057],[-84.6809,9.8761,33.6798],[-84.6788,9.877,29.3833],[-84.6809,9.8776,24.2288],[-84.679,9.88,17.7995],[-84.6823,9.8841,5.125],[-84.683,9.8878,8.5955],[-84.6844,9.8859,7.5],[-84.685,9.8877,6.8165],[-84.6888,9.8864,7.465],[-84.6838,9.894,7.6897],[-84.6857,9.8948,11.1748],[-84.6845,9.8974,5.2762],[-84.687,9.8969,8.1972],[-84.6862,9.8996,5.8048],[-84.6871,9.9011,5.5537],[-84.6883,9.9002,6.0638],[-84.6891,9.904,6.7824],[-84.6871,9.9045,5.2924],[-84.6872,9.907,5.8155],[-84.6826,9.9091,7.7035],[-84.6804,9.9084,7.8972],[-84.6804,9.905,6.0527],[-84.6796,9.907,6.236],[-84.6766,9.9075,9.4253],[-84.6767,9.909,6.8891],[-84.6752,9.9087,9.4253],[-84.6741,9.911,7.3458],[-84.6712,9.9118,19.7584],[-84.6713,9.9147,7.7335],[-84.6656,9.9188,10.6144],[-84.6677,9.9226,8.3489],[-84.6647,9.921,9.5057],[-84.6636,9.9225,10.0907],[-84.6652,9.925,11.0433],[-84.6604,9.9255,18.1381],[-84.658,9.9291,13.7112],[-84.6579,9.931,15.5598],[-84.6614,9.9302,10.7962],[-84.662,9.9333,11.7879],[-84.6531,9.9351,40.2454],[-84.6528,9.9406,19.3974],[-84.6495,9.9444,35.6406],[-84.6406,9.9401,43.9247],[-84.6365,9.945,84.025],[-84.637,9.9472,40.4134],[-84.6327,9.9501,54.7408],[-84.63,9.9491,69.4067],[-84.6151,9.9522,108.1837],[-84.6161,9.9551,88.7693],[-84.6151,9.9571,140.9701],[-84.6112,9.9559,166.4997],[-84.6085,9.9593,118.6955],[-84.6069,9.9587,146.7811],[-84.6048,9.9667,144.7332],[-84.6016,9.9706,166.8212],[-84.599,9.9688,142.7398],[-84.597,9.9732,158.5342],[-84.5962,9.9711,160.1529],[-84.5921,9.9722,195.5752],[-84.5897,9.9794,187.3604],[-84.5845,9.9785,214.814],[-84.5841,9.9805,196.1388],[-84.5815,9.9803,216.6595],[-84.5807,9.9822,218.801],[-84.5775,9.9817,223.7191],[-84.5775,9.9831,210.3175],[-84.5737,9.9835,246.4142],[-84.571,9.9868,212.4305],[-84.5706,9.9832,228.5334],[-84.5682,9.9815,251.983],[-84.5626,9.984,246.0286],[-84.5601,9.9815,243.0468],[-84.5582,9.9853,238.9099],[-84.5565,9.9838,248.5626],[-84.5555,9.986,252.7355],[-84.5533,9.9861,260.8481],[-84.554,9.9939,304.022],[-84.5566,9.9961,294.9696],[-84.5565,10.0044,331.4847],[-84.5595,10.0063,343.8029],[-84.5614,10.0099,349.1182],[-84.5609,10.0128,372.2104],[-84.5641,10.016,394.6144],[-84.5632,10.0292,499.2104],[-84.5659,10.029,501.1389],[-84.5663,10.0215,450.8945],[-84.573,10.0199,358.593],[-84.5927,10.0351,385.6655],[-84.6002,10.0375,476.2622],[-84.6026,10.044,328.883],[-84.6094,10.0461,211.9896],[-84.617,10.0456,205.1248],[-84.6179,10.0436,187.8416]]]]}}