{"type":"Feature","properties":{"GID_3":"CRI.7.5.7_1","GID_0":"CRI","country":"CostaRica","GID_1":"CRI.7_1","province":"SanJosé","NL_NAME_1":"NA","GID_2":"CRI.7.5_1","county":"Desamparados","NL_NAME_2":"NA","city":"Rosario","VARNAME_3":"NA","NL_NAME_3":"NA","TYPE_3":"Distrito","ENGTYPE_3":"District","CC_3":"9","HASC_3":"NA","name":"Rosario.city"},
"geometry":{"type": "MultiPolygon","coordinates": [[[[-84.0683,9.8074,1405.8884],[-84.0671,9.8118,1412.9441],[-84.0695,9.8122,1435.0931],[-84.0711,9.8148,1478.9965],[-84.0695,9.817,1512.0925],[-84.0668,9.8167,1566.0383],[-84.0679,9.8275,1755.9279],[-84.065,9.8309,1677.0471],[-84.068,9.8333,1630.4248],[-84.0715,9.8335,1672.3597],[-84.0722,9.8313,1734.7799],[-84.0786,9.8319,1677.6091],[-84.0792,9.8297,1679.8948],[-84.0826,9.8305,1706.4142],[-84.0823,9.8273,1641.6371],[-84.0772,9.827,1568.1726],[-84.078,9.8244,1538.5964],[-84.0887,9.8261,1644.6755],[-84.0969,9.8243,1707.7501],[-84.1039,9.8262,1833.6956],[-84.1011,9.8228,1825.1809],[-84.0955,9.8229,1739.7162],[-84.091,9.8195,1819.754],[-84.0882,9.8204,1819.9327],[-84.086,9.8176,1853.7122],[-84.0893,9.8048,1402.8087],[-84.0945,9.8044,1451.1028],[-84.1025,9.8076,1593.476],[-84.1018,9.8028,1589.783],[-84.095,9.7962,1530.3439],[-84.0958,9.795,1493.4913],[-84.0945,9.7943,1485.4509],[-84.0965,9.7917,1455.7976],[-84.0953,9.7857,1473.3325],[-84.0992,9.7808,1479.1974],[-84.0973,9.7739,1427.147],[-84.1043,9.7713,1375.9608],[-84.1081,9.7676,1297.7349],[-84.1073,9.7662,1248.2891],[-84.109,9.7669,1248.2891],[-84.1076,9.7627,1053.5519],[-84.1094,9.7627,995.8915],[-84.1095,9.7609,950.6053],[-84.1012,9.7646,1083.3225],[-84.0956,9.7643,1099.698],[-84.0948,9.7664,1108.5544],[-84.0891,9.7686,1123.474],[-84.087,9.7739,1232.7161],[-84.0845,9.7758,1192.4226],[-84.085,9.7839,1233.5862],[-84.084,9.7868,1219.7313],[-84.0817,9.7879,1235.4346],[-84.0823,9.7902,1243.5212],[-84.0768,9.7956,1308.0935],[-84.0753,9.8019,1349.1284],[-84.0683,9.8074,1405.8884]]]]}}