{"type": "Feature","bbox": [-84.3333,10.2563,-84.2391,10.416],"geometry": {"type": "MultiPolygon","coordinates": [[[[-84.2573,10.4099,254.0615],[-84.2569,10.4134,243.1111],[-84.2585,10.416,236.3231],[-84.2988,10.4157,210.2731],[-84.2992,10.4122,209.21],[-84.3048,10.4043,242.4714],[-84.3138,10.3847,347.6667],[-84.3198,10.3774,395.2153],[-84.3214,10.3693,468.08],[-84.3284,10.3576,564.0479],[-84.3307,10.3502,671.5356],[-84.3332,10.3482,691.124],[-84.3333,10.3432,743.4873],[-84.3309,10.3389,794.5562],[-84.3308,10.3353,856.4504],[-84.3265,10.3273,994.274],[-84.329,10.3207,1207.4324],[-84.3313,10.3208,1240.0283],[-84.3321,10.3142,1464.8029],[-84.3308,10.3094,1661.9296],[-84.3326,10.3042,1708.2617],[-84.3286,10.2869,1902.0796],[-84.332,10.2834,1755.9769],[-84.3322,10.2751,1841.163],[-84.3296,10.2713,1941.6765],[-84.3298,10.2688,1977.1343],[-84.3328,10.2666,2090.0967],[-84.3327,10.2637,2120.4121],[-84.329,10.2603,2030.2036],[-84.3256,10.2604,1928.0344],[-84.3218,10.2571,1897.6445],[-84.3174,10.2563,1917.1993],[-84.3128,10.2597,1802.1244],[-84.3063,10.2615,1658.5369],[-84.2943,10.2618,1530.7566],[-84.2917,10.26,1483.0168],[-84.2811,10.2619,1437.8441],[-84.2691,10.2684,1050.765],[-84.2657,10.2729,990.1628],[-84.2599,10.2877,797.6335],[-84.2575,10.2893,691.13],[-84.2571,10.3013,663.5986],[-84.2509,10.308,657.9156],[-84.2509,10.3123,598.163],[-84.2483,10.3132,626.9214],[-84.2475,10.3163,610.4076],[-84.245,10.3174,556.6527],[-84.2459,10.3204,582.4329],[-84.2431,10.3212,538.741],[-84.2456,10.3227,535.7937],[-84.2458,10.3254,528.8627],[-84.2434,10.3255,544.9885],[-84.2441,10.3276,541.7865],[-84.2405,10.3293,538.972],[-84.2391,10.3326,495.6895],[-84.2457,10.3333,499.5856],[-84.2478,10.3369,462.4975],[-84.2482,10.3409,434.9881],[-84.2432,10.3502,408.8774],[-84.2447,10.3527,405.2759],[-84.2429,10.3548,425.2125],[-84.2449,10.3546,394.0174],[-84.2463,10.3563,387.7924],[-84.2455,10.3606,372.695],[-84.2489,10.3664,363.3775],[-84.249,10.3727,368.1334],[-84.2522,10.374,340.5781],[-84.2498,10.3764,327.3788],[-84.2587,10.4006,263.0487],[-84.2573,10.4099,254.0615]]]]}
,"properties": {"GID_3": "CRI.1.11.13_1","GID_0": "CRI","country": "CostaRica","GID_1": "CRI.1_1","province": "Alajuela","NL_NAME_1": "NA","GID_2": "CRI.1.11_1","county": "SanCarlos","NL_NAME_2": "NA","city": "Venecia","VARNAME_3": "NA","NL_NAME_3": "NA","TYPE_3": "Distrito","ENGTYPE_3": "District","CC_3": "5","HASC_3": "NA","name": "Venecia.city","area_km2": 133.4717,"hist_schema_id": "Elevation0-9000","hist_area_km2": {"200": 0.7299,"225": 3.2323,"250": 6.1518,"275": 4.7131,"300": 4.7132,"325": 4.7758,"350": 4.8385,"375": 4.7552,"400": 4.4633,"425": 4.2131,"450": 3.6291,"475": 3.0869,"500": 3.1912,"525": 3.3789,"550": 2.9618,"575": 2.5029,"600": 2.1901,"625": 2.1693,"650": 1.7521,"675": 1.773,"700": 2.1693,"725": 2.2319,"750": 2.3988,"775": 2.4822,"800": 2.5865,"825": 2.4405,"850": 2.6074,"875": 1.9608,"900": 1.8565,"925": 1.7314,"950": 1.6897,"975": 1.7523,"1000": 1.5228,"1025": 1.4394,"1050": 1.4394,"1075": 1.2725,"1100": 1.3142,"1125": 1.4394,"1150": 1.3977,"1175": 1.2725,"1200": 1.2934,"1225": 1.2725,"1250": 1.1682,"1275": 1.2517,"1300": 1.2308,"1325": 1.3143,"1350": 1.0013,"1375": 1.1474,"1400": 1.0013,"1425": 1.0639,"1450": 1.0848,"1475": 0.8553,"1500": 0.9388,"1525": 0.897,"1550": 0.7302,"1575": 0.9179,"1600": 0.8345,"1625": 0.7093,"1650": 0.9179,"1675": 0.8762,"1700": 0.9596,"1725": 0.8762,"1750": 0.6259,"1775": 0.751,"1800": 0.6467,"1825": 0.459,"1850": 0.4381,"1875": 0.3964,"1900": 0.4798,"1925": 0.1878,"1950": 0.0835,"1975": 0.1043,"2000": 0.1669,"2025": 0.1252,"2050": 0.0626,"2075": 0.2086,"2100": 0.1252,"2125": 0.0417}}}