{"type": "Feature","bbox": [-83.9897,9.4316,-83.7579,9.7393],"geometry": {"type": "MultiPolygon","coordinates": [[[[-83.7893,9.6106,3103.0112],[-83.794,9.6109,3012.1057],[-83.800299999999993,9.6141,2930.1121],[-83.8013,9.6119,2912.2444],[-83.8113,9.6153,2930.5266],[-83.8173,9.6149,2979.8682],[-83.826,9.6189,2965.3401],[-83.832,9.6174,2994.106],[-83.8352,9.6226,3005.4668],[-83.8506,9.6253,3143.2024],[-83.8491,9.6311,3013.283],[-83.8466,9.6334,2956.2288],[-83.846,9.649,2764.1147],[-83.85,9.6557,2700.1069],[-83.85,9.664,2668.7883],[-83.8572,9.6719,2611.4121],[-83.8701,9.671,2614.9236],[-83.8738,9.6722,2596.9617],[-83.8746,9.6702,2544.8259],[-83.882,9.6685,2541.5413],[-83.8828,9.6706,2554.2024],[-83.8884,9.6711,2541.2842],[-83.896,9.6798,2495.3909],[-83.8968,9.6855,2500.7207],[-83.9021,9.6894,2528.417],[-83.906,9.6858,2534.0454],[-83.91,9.6867,2509.2729],[-83.9127,9.6847,2495.5161],[-83.9149,9.6853,2499.6284],[-83.9211,9.6829,2524.7676],[-83.9214,9.6888,2562.1394],[-83.9248,9.6916,2601.5129],[-83.926,9.6952,2546.6072],[-83.9345,9.6988,2477.0505],[-83.9426,9.6987,2417.6748],[-83.9455,9.7014,2415.7007],[-83.946,9.7051,2428.8774],[-83.9491,9.7062,2425.8613],[-83.9476,9.7118,2402.5476],[-83.9559,9.7251,2220.4434],[-83.9549,9.7298,2139.9036],[-83.9567,9.7331,2060.78],[-83.9653,9.7367,1955.4008],[-83.9728,9.736,1909.5229],[-83.9734,9.7384,1880.5281],[-83.9834,9.7372,1782.4031],[-83.9865,9.7393,1749.6992],[-83.984,9.7334,1866.9712],[-83.978,9.7292,2028.8822],[-83.975,9.7217,2179.1282],[-83.9709,9.7164,2207.022],[-83.9897,9.6538,1492.3638],[-83.989,9.4645,131.8555],[-83.9874,9.4647,191.7765],[-83.9867,9.4683,128.7939],[-83.9855,9.4684,133.7055],[-83.9838,9.4648,174.2399],[-83.9759,9.4611,143.5768],[-83.9724,9.4526,190.6271],[-83.9654,9.4501,176.4832],[-83.9674,9.4468,278.9385],[-83.965,9.4428,189.3731],[-83.9665,9.4386,191.4388],[-83.9625,9.4316,212.669],[-83.9525,9.4316,229.3371],[-83.947,9.4423,272.5237],[-83.9444,9.4433,316.8995],[-83.9454,9.4496,317.217],[-83.9418,9.4524,359.3676],[-83.9453,9.4556,313.7755],[-83.9437,9.4679,356.748],[-83.945,9.4699,490.2014],[-83.9445,9.4779,397.599],[-83.9396,9.4909,436.7286],[-83.936,9.491,524.9439],[-83.9336,9.4855,467.6616],[-83.925299999999993,9.4847,503.9048],[-83.9175,9.4902,644.5789],[-83.919,9.4945,602.9456],[-83.9179,9.4976,665.7249],[-83.9158,9.4983,633.7705],[-83.911,9.4952,713.2734],[-83.9059,9.4972,793.2565],[-83.9013,9.496,864.5424],[-83.8993,9.4981,839.1416],[-83.8942,9.4992,879.6028],[-83.8913,9.5049,971.3811],[-83.8896,9.5021,952.9652],[-83.8849,9.503,1006.3943],[-83.8837,9.5062,1020.1182],[-83.875,9.5135,1129.0476],[-83.8767,9.5201,1251.4612],[-83.8728,9.5193,1218.6682],[-83.8685,9.5231,1285.0596],[-83.8679,9.5269,1345.2632],[-83.8625,9.5251,1402.396],[-83.8573,9.5302,1449.4896],[-83.852,9.5314,1519.7627],[-83.8488,9.5347,1525.2634],[-83.8458,9.535,1621.3245],[-83.8431,9.5332,1651.1486],[-83.8397,9.5346,1645.0745],[-83.8353,9.5313,1731.6128],[-83.8251,9.531,1875.4969],[-83.8234,9.5353,1969.056],[-83.8211,9.5366,2041.632],[-83.8186,9.5359,2078.9668],[-83.8171,9.5437,2169.3503],[-83.8112,9.5467,2172.3313],[-83.8026,9.5575,2298.2468],[-83.8025,9.5617,2303.9575],[-83.7991,9.5676,2331.531],[-83.8012,9.5728,2388.1194],[-83.8,9.5775,2442.5737],[-83.7921,9.5849,2597.208],[-83.7912,9.588,2633.0288],[-83.7824,9.5928,2780.3726],[-83.7765,9.5982,2875.6428],[-83.7727,9.5983,2931.8469],[-83.7676,9.5938,3113.7188],[-83.7667,9.5872,3270.7578],[-83.7639,9.5836,3364.3472],[-83.7579,9.5919,3376.3169],[-83.7639,9.6026,3224.5901],[-83.775,9.6057,3087.866],[-83.7801,9.6049,3132.8054],[-83.7865,9.6065,3117.9766],[-83.7893,9.6106,3103.0112]]]]}
,"properties": {"GID_2": "CRI.7.6_1","GID_0": "CRI","country": "CostaRica","GID_1": "CRI.7_1","province": "SanJosé","NL_NAME_1": "NA","county": "Dota","VARNAME_2": "NA","NL_NAME_2": "NA","TYPE_2": "Cantón","ENGTYPE_2": "Canton","CC_2": "17","HASC_2": "CR.SJ.DO","name": "Dota.county","area_km2": 407.7105,"hist_schema_id": "Elevation0-9000","hist_area_km2": {"125": 0.1046,"150": 0.251,"175": 0.3555,"200": 0.7738,"225": 0.7947,"250": 0.8784,"275": 0.8366,"300": 0.983,"325": 1.2758,"350": 1.2758,"375": 1.213,"400": 1.1503,"425": 1.1502,"450": 1.213,"475": 0.962,"500": 1.0666,"525": 0.8574,"550": 1.2339,"575": 1.2338,"600": 1.3175,"625": 1.3384,"650": 1.3175,"675": 1.3384,"700": 1.4429,"725": 1.6939,"750": 1.5056,"775": 1.7357,"800": 2.0493,"825": 1.9029,"850": 2.2584,"875": 2.1957,"900": 2.593,"925": 2.1747,"950": 1.882,"975": 2.1956,"1000": 2.3838,"1025": 2.0492,"1050": 1.9238,"1075": 1.9446,"1100": 1.9446,"1125": 1.6519,"1150": 1.9446,"1175": 1.861,"1200": 1.9237,"1225": 2.3418,"1250": 1.7564,"1275": 2.1118,"1300": 2.1745,"1325": 1.9864,"1350": 2.3836,"1375": 2.3418,"1400": 2.3836,"1425": 2.6345,"1450": 2.0908,"1475": 2.5508,"1500": 2.6762,"1525": 2.5716,"1550": 4.0348,"1575": 3.8258,"1600": 3.7631,"1625": 4.3693,"1650": 4.3066,"1675": 4.3484,"1700": 4.0975,"1725": 4.2856,"1750": 4.5155,"1775": 5.101,"1800": 4.9754,"1825": 5.937,"1850": 6.564,"1875": 6.2505,"1900": 6.4386,"1925": 6.4595,"1950": 6.982,"1975": 6.5639,"2000": 6.5849,"2025": 6.4803,"2050": 7.2539,"2075": 7.0447,"2100": 6.6266,"2125": 6.3966,"2150": 6.7938,"2175": 6.5012,"2200": 6.543,"2225": 5.8322,"2250": 6.543,"2275": 6.2713,"2300": 5.9367,"2325": 7.4625,"2350": 6.1247,"2375": 6.1039,"2400": 6.7101,"2425": 6.1666,"2450": 5.6442,"2475": 5.477,"2500": 5.6234,"2525": 4.7036,"2550": 4.1393,"2575": 4.2856,"2600": 4.1602,"2625": 4.7246,"2650": 4.0348,"2675": 4.2648,"2700": 4.0975,"2725": 3.5958,"2750": 3.6584,"2775": 4.0348,"2800": 3.3239,"2825": 3.2612,"2850": 3.4284,"2875": 3.4912,"2900": 3.3866,"2925": 3.4075,"2950": 3.4911,"2975": 3.5329,"3000": 3.1566,"3025": 2.3204,"3050": 2.1741,"3075": 2.1323,"3100": 1.5469,"3125": 0.6899,"3150": 0.3554,"3175": 0.1463,"3200": 0.2091,"3225": 0.1463,"3250": 0.1672,"3275": 0.1672,"3300": 0.0418,"3325": 0.0836,"3350": 0.1045,"3375": 0.0836,"3400": 0.0418}}}