{"type":"Feature","properties":{"GID_3":"CRI.2.8.7_1","GID_0":"CRI","country":"CostaRica","GID_1":"CRI.2_1","province":"Cartago","NL_NAME_1":"NA","GID_2":"CRI.2.8_1","county":"Turrialba","NL_NAME_2":"NA","city":"SantaRosa","VARNAME_3":"NA","NL_NAME_3":"NA","TYPE_3":"Distrito","ENGTYPE_3":"District","CC_3":"9","HASC_3":"NA","name":"Santa_Rosa.city"},
"geometry":{"type": "MultiPolygon","coordinates": [[[[-83.7606,9.9469,1534.924],[-83.756,9.9415,1378.7203],[-83.7524,9.9411,1286.9666],[-83.7523,9.9385,1332.0776],[-83.7448,9.932,1211.7325],[-83.7381,9.9329,1090.4747],[-83.7302,9.9281,1025.2177],[-83.7221,9.9326,944.5817],[-83.7166,9.9307,898.1453],[-83.7051,9.9302,826.4023],[-83.6953,9.9192,754.4803],[-83.6821,9.9238,685.4788],[-83.6823,9.9267,695.4062],[-83.6861,9.9323,803.9452],[-83.6851,9.9361,967.2727],[-83.6866,9.9407,1159.7629],[-83.6835,9.9431,1213.2263],[-83.6798,9.9411,1177.5695],[-83.6766,9.9435,1083.4763],[-83.6765,9.9544,817.2364],[-83.6819,9.9549,901.5901],[-83.6867,9.9593,930.332],[-83.6936,9.9609,1029.5204],[-83.7017,9.9552,1166.3452],[-83.707,9.9561,1181.3307],[-83.7089,9.9582,1211.7371],[-83.7075,9.9555,1181.3307],[-83.7013,9.953,1230.3251],[-83.7027,9.9518,1217.3015],[-83.7114,9.9532,1272.3196],[-83.7144,9.9564,1322.5183],[-83.7193,9.9573,1339.6973],[-83.7137,9.9435,975.3801],[-83.7226,9.9509,1088.1866],[-83.7622,9.9511,1549.1982],[-83.7606,9.9469,1534.924]]]]}}