{"type":"Feature","properties":{"GID_3":"CRI.2.2.4_1","GID_0":"CRI","country":"CostaRica","GID_1":"CRI.2_1","province":"Cartago","NL_NAME_1":"NA","GID_2":"CRI.2.2_1","county":"Cartago","NL_NAME_2":"NA","city":"DulceNombre","VARNAME_3":"NA","NL_NAME_3":"NA","TYPE_3":"Distrito","ENGTYPE_3":"District","CC_3":"9","HASC_3":"NA","name":"Dulce_Nombre.city"},
"geometry":{"type": "MultiPolygon","coordinates": [[[[-83.7716,9.6046,3078.2607],[-83.7653,9.6039,3249.5923],[-83.8678,9.7681,1877.8455],[-83.8717,9.7706,1736.9438],[-83.8709,9.7812,1465.9192],[-83.8746,9.7867,1404.403],[-83.8727,9.7909,1266.0677],[-83.8748,9.7938,1323.1604],[-83.8725,9.798,1232.7217],[-83.8744,9.8008,1149.4407],[-83.8737,9.8063,1075.3462],[-83.8707,9.8087,1062.5482],[-83.8668,9.8076,1068.854],[-83.8647,9.813,1085.9836],[-83.8654,9.8153,1106.1566],[-83.8635,9.8152,1118.3246],[-83.8671,9.8164,1185.5514],[-83.8649,9.8184,1231.6492],[-83.8734,9.8295,1346.7234],[-83.8866,9.8356,1359.1343],[-83.8866,9.8387,1362.249],[-83.8945,9.8477,1353.0343],[-83.8987,9.8491,1358.0708],[-83.9044,9.8556,1389.7897],[-83.9133,9.8589,1408.9388],[-83.914,9.8566,1419.5027],[-83.916,9.8569,1420.5569],[-83.9163,9.8496,1373.0435],[-83.9105,9.8385,1320.855],[-83.9138,9.8348,1321.705],[-83.904,9.8341,1305.8494],[-83.9023,9.8362,1305.7405],[-83.902,9.8338,1301.8621],[-83.8936,9.833,1271.5317],[-83.892,9.8276,1210.9655],[-83.8886,9.8259,1202.7563],[-83.8855,9.8184,1175.9839],[-83.8894,9.8157,1305.6542],[-83.8987,9.8172,1502.254],[-83.8984,9.8054,1304.6351],[-83.7716,9.6046,3078.2607]]]]}}