{"type": "Feature","bbox": [-83.7753,10.0398,-83.6213,10.3032],"geometry": {"type": "MultiPolygon","coordinates": [[[[-83.7252,10.0398,2414.7217],[-83.7282,10.05,2258.5188],[-83.7314,10.0535,2183.2964],[-83.7299,10.062,2142.2358],[-83.7242,10.0658,2024.5128],[-83.7223,10.0704,2102.7061],[-83.7245,10.0785,1707.4187],[-83.7156,10.09,1174.3589],[-83.7055,10.0961,968.2077],[-83.6992,10.1052,851.34],[-83.6913,10.1098,753.8193],[-83.6898,10.115,718.1743],[-83.6825,10.1189,637.8252],[-83.6756,10.1203,570.562],[-83.6739,10.125,534.7044],[-83.674,10.1306,493.5069],[-83.67,10.1335,484.8123],[-83.6689,10.139,442.3011],[-83.6653,10.142,399.0363],[-83.6644,10.1458,357.1079],[-83.6587,10.1508,307.0838],[-83.6584,10.1579,247.5138],[-83.6637,10.1643,197.5951],[-83.6634,10.1676,194.5067],[-83.6649,10.1689,193.7199],[-83.6636,10.17,200.6876],[-83.665,10.1715,195.8248],[-83.6612,10.1775,155.5273],[-83.6612,10.1802,149.6175],[-83.6594,10.1805,140.8784],[-83.6579,10.1874,108.5309],[-83.6525,10.1891,105.2244],[-83.6493,10.194,85.7745],[-83.6451,10.1952,79.4789],[-83.6367,10.204,62.4862],[-83.632,10.2055,56.9904],[-83.6321,10.2221,57.9767],[-83.6227,10.2379,33.0419],[-83.6322,10.2331,41.553],[-83.6335,10.2356,39.6993],[-83.641,10.2332,45.1233],[-83.6433,10.2339,44.6071],[-83.6452,10.2299,50.0288],[-83.6496,10.228,49.856],[-83.6559,10.2289,64.2421],[-83.6559,10.2436,56.836],[-83.6541,10.2436,57.163],[-83.6535,10.2454,54.4796],[-83.6491,10.2599,46.4212],[-83.6495,10.2658,43.951],[-83.647,10.2696,47.1241],[-83.639,10.2728,38.1627],[-83.6309,10.2726,42.5807],[-83.6213,10.2875,34.4036],[-83.6227,10.2891,36.0903],[-83.6222,10.2971,33.4448],[-83.6243,10.2977,35.3801],[-83.6215,10.3002,37.0153],[-83.624,10.3019,40.3071],[-83.6259,10.3008,39.7541],[-83.6337,10.3032,42.0851],[-83.6373,10.299,45.6086],[-83.641,10.2989,48.1609],[-83.6435,10.2967,50.0123],[-83.6505,10.2985,45.7526],[-83.6508,10.2968,42.7066],[-83.6608,10.2943,43.3255],[-83.6605,10.2917,42.5882],[-83.6675,10.2907,48.6153],[-83.6692,10.2872,56.534],[-83.6697,10.2885,56.534],[-83.6721,10.2883,59.9456],[-83.6715,10.2868,56.8131],[-83.6733,10.2874,65.7716],[-83.6743,10.2855,58.5884],[-83.6722,10.2846,55.3608],[-83.675,10.2819,58.5635],[-83.6744,10.2786,57.3917],[-83.6811,10.2781,59.6399],[-83.6802,10.2745,59.105],[-83.6814,10.2721,57.5222],[-83.6861,10.2703,64.8296],[-83.6863,10.2674,66.2049],[-83.6918,10.2663,72.3342],[-83.6931,10.2638,74.1386],[-83.6968,10.2635,79.472],[-83.7001,10.2612,86.1906],[-83.7006,10.2585,89.4289],[-83.7021,10.2596,88.7717],[-83.7047,10.2572,90.8221],[-83.7127,10.255,98.531],[-83.7159,10.2502,107.9814],[-83.7194,10.2497,115.5243],[-83.7215,10.2467,123.6956],[-83.7275,10.2435,136.0573],[-83.7265,10.2419,136.4544],[-83.7284,10.2409,136.4544],[-83.7279,10.2384,145.3877],[-83.7307,10.2318,157.2544],[-83.7297,10.2288,167.0647],[-83.7335,10.2244,176.8075],[-83.7363,10.2147,207.0953],[-83.7477,10.1923,301.33],[-83.7508,10.1795,373.4889],[-83.7527,10.1774,378.9984],[-83.751,10.1704,472.3756],[-83.7524,10.1628,475.496],[-83.7567,10.1563,535.3063],[-83.7555,10.1493,558.0663],[-83.7574,10.1437,608.6627],[-83.7564,10.1381,642.8638],[-83.7627,10.1291,741.7206],[-83.7727,10.1091,909.5865],[-83.7725,10.1006,970.7214],[-83.7685,10.0965,1022.5721],[-83.7721,10.0897,1125.0573],[-83.7718,10.0791,1341.7228],[-83.7749,10.0748,1431.3418],[-83.7753,10.0681,1620.4989],[-83.7739,10.063,1734.833],[-83.7252,10.0398,2414.7217]]]]}
,"properties": {"GID_3": "CRI.5.1.2_1","GID_0": "CRI","country": "CostaRica","GID_1": "CRI.5_1","province": "Limón","NL_NAME_1": "NA","GID_2": "CRI.5.1_1","county": "Guácimo","NL_NAME_2": "NA","city": "Guácimo","VARNAME_3": "NA","NL_NAME_3": "NA","TYPE_3": "Distrito","ENGTYPE_3": "District","CC_3": "1","HASC_3": "NA","name": "Guácimo.city","area_km2": 224.1929,"hist_schema_id": "Elevation0-9000","hist_area_km2": {"25": 2.7955,"50": 26.1622,"75": 21.4074,"100": 12.9992,"125": 10.892,"150": 8.0128,"175": 7.1156,"200": 6.8445,"225": 4.9666,"250": 3.5893,"275": 3.3389,"300": 2.7129,"325": 3.4433,"350": 4.8415,"375": 4.6538,"400": 4.4034,"425": 5.1131,"450": 4.8001,"475": 4.0279,"500": 3.0471,"525": 3.715,"550": 3.715,"575": 3.1932,"600": 3.0263,"625": 3.1098,"650": 3.4855,"675": 2.2959,"700": 1.8367,"725": 1.2523,"750": 1.5863,"775": 1.4193,"800": 1.5446,"825": 1.6072,"850": 1.8994,"875": 1.8368,"900": 2.5047,"925": 1.2732,"950": 1.5446,"975": 1.4194,"1000": 1.5029,"1025": 1.7742,"1050": 2.2126,"1075": 1.5238,"1100": 1.2733,"1125": 1.1272,"1150": 0.9185,"1175": 0.7723,"1200": 0.9602,"1225": 0.7932,"1250": 0.8141,"1275": 1.0855,"1300": 0.9602,"1325": 0.835,"1350": 0.9185,"1375": 0.835,"1400": 0.668,"1425": 0.5427,"1450": 0.7097,"1475": 0.6889,"1500": 0.6889,"1525": 0.7098,"1550": 0.3758,"1575": 0.668,"1600": 0.5219,"1625": 0.5428,"1650": 0.501,"1675": 0.5636,"1700": 0.5428,"1725": 0.5845,"1750": 0.4593,"1775": 0.5219,"1800": 0.4801,"1825": 0.6263,"1850": 0.5428,"1875": 0.7933,"1900": 0.7098,"1925": 0.8142,"1950": 0.7933,"1975": 0.7724,"2000": 0.7724,"2025": 0.668,"2050": 0.5845,"2075": 0.2714,"2100": 0.2296,"2125": 0.2505,"2150": 0.1879,"2175": 0.1879,"2200": 0.1879,"2225": 0.0418,"2250": 0.0209,"2275": 0.0626,"2300": 0.0418,"2325": 0.0209,"2350": 0.0835,"2450": 0.0209}}}