{"type": "Feature","bbox": [-84.1447,10.0099,-84.1288,10.0216],"geometry": {"type": "MultiPolygon","coordinates": [[[[-84.1292,10.0216,1151.8466],[-84.1383,10.0171,1108.7827],[-84.1447,10.0203,1092.038],[-84.1432,10.0106,1087.4828],[-84.1341,10.0099,1104.2839],[-84.1293,10.0152,1136.3776],[-84.1305,10.0179,1154.8066],[-84.1288,10.0182,1157.4712],[-84.1292,10.0216,1151.8466]]]]}
,"properties": {"GID_3": "CRI.4.1.5_1","GID_0": "CRI","country": "CostaRica","GID_1": "CRI.4_1","province": "Heredia","NL_NAME_1": "NA","GID_2": "CRI.4.1_1","county": "Barva","NL_NAME_2": "NA","city": "SanRoque","VARNAME_3": "NA","NL_NAME_3": "NA","TYPE_3": "Distrito","ENGTYPE_3": "District","CC_3": "4","HASC_3": "NA","name": "San_Roque.city","area_km2": 1.398903,"hist_schema_id": "Elevation0-9000","hist_area_km2": {"1075": 0.020879,"1100": 0.626376,"1125": 0.459342,"1150": 0.292306}}}