{"type":"Feature","properties":{"GID_1":"CRI.1_1","GID_0":"CRI","country":"CostaRica","province":"Alajuela","VARNAME_1":"NA","NL_NAME_1":"NA","TYPE_1":"Provincia","ENGTYPE_1":"Province","CC_1":"2","HASC_1":"CR.AL","ISO_1":"CR-A","name":"Alajuela.province"},
"geometry":{"type": "MultiPolygon","coordinates": [[[[-84.174,10.0052,959.8502],[-84.1735,10.0274,1064.5403],[-84.1663,10.0718,1347.5894],[-84.1613,10.0832,1488.6588],[-84.1611,10.7854,19.7528],[-84.1752,10.786,20.5396],[-84.1909,10.7897,20.308],[-84.2005,10.7814,19.5927],[-84.2021,10.7814,21.0437],[-84.2073,10.7875,17.5],[-84.208,10.7929,24.281],[-84.2047,10.7951,18.5097],[-84.2062,10.7975,18.6456],[-84.2132,10.801,19.34],[-84.2231,10.801,18.9203],[-84.2266,10.8046,27.0815],[-84.2293,10.8112,41.0289],[-84.2368,10.8141,17.5],[-84.2377,10.8185,30.1804],[-84.2364,10.8199,17.9599],[-84.2209,10.8249,19.548],[-84.2149,10.8393,18.0437],[-84.2197,10.8555,19.1967],[-84.2192,10.863,20.3987],[-84.2251,10.8729,20.2953],[-84.2286,10.8753,22.1097],[-84.2373,10.8762,35.0492],[-84.2441,10.885,25.4225],[-84.2583,10.8915,18.9769],[-84.2639,10.8909,19.8875],[-84.2827,10.8937,41.4145],[-84.2857,10.8966,18.0],[-84.2917,10.911,19.0],[-84.2999,10.9166,26.9621],[-84.3062,10.9159,23.7755],[-84.3103,10.9218,27.6261],[-84.317,10.9161,25.3385],[-84.3236,10.9188,30.3118],[-84.3319,10.9316,34.986],[-84.3362,10.946,23.0848],[-84.351,10.9512,28.8468],[-84.3474,10.9665,30.9083],[-84.3416,10.9712,24.767],[-84.3415,10.9728,24.0],[-84.3508,10.9882,30.277],[-84.3584,10.9959,36.671],[-84.3764,10.9775,78.8525],[-84.3999,10.9751,49.7556],[-84.4203,10.9552,51.4408],[-84.4506,10.961,37.1566],[-84.4859,11.0008,81.1124],[-84.5644,11.0332,57.8327],[-84.5745,11.0512,40.9],[-84.606,11.0384,57.1465],[-84.6665,11.0726,40.7758],[-84.6804,11.0845,35.0901],[-84.9108,10.9438,41.2092],[-85.2291,11.0633,40.042],[-85.2332,11.0622,41.3765],[-85.2353,11.0655,42.1353],[-85.2393,11.0636,44.9659],[-85.2428,11.0656,40.6033],[-85.2432,11.0622,42.6074],[-85.245,11.0611,44.82],[-85.2481,11.0624,64.7152],[-85.2497,11.0612,47.3035],[-85.2492,11.0571,61.7314],[-85.2517,11.0494,56.7265],[-85.2543,11.0492,54.269],[-85.2567,11.0441,56.8857],[-85.2587,11.0451,56.3395],[-85.2635,11.0424,76.082],[-85.2608,11.039,81.6583],[-85.2613,11.0355,93.887],[-85.2589,11.0339,95.4527],[-85.2582,11.0209,132.0806],[-85.2629,11.0126,119.3013],[-85.265,11.014099999999999,154.8344],[-85.2688,11.0117,133.2143],[-85.2685,11.016,129.7905],[-85.272,11.016,145.4375],[-85.2732,11.014099999999999,144.2101],[-85.2772,11.0148,159.7516],[-85.2762,11.0166,161.0528],[-85.2789,11.0171,151.8237],[-85.2787,11.0191,156.905],[-85.2849,11.0247,150.3015],[-85.2862,11.0227,158.7463],[-85.2881,11.0241,190.1561],[-85.2901,11.0226,184.2342],[-85.2915,11.025,180.3241],[-85.2967,11.0277,182.6451],[-85.2997,11.0314,178.4483],[-85.2976,11.0311,186.9063],[-85.2984,11.0322,205.3127],[-85.305,11.0356,206.1476],[-85.3042,11.0373,205.234],[-85.307,11.0381,215.4666],[-85.3059,11.0396,194.5122],[-85.3093,11.0402,199.5576],[-85.3118,11.043,184.1926],[-85.3216,11.0404,199.5282],[-85.3231,11.0421,240.9964],[-85.3255,11.0419,208.2488],[-85.3286,11.0395,211.9103],[-85.3312,11.0411,229.7694],[-85.3334,11.0362,231.5563],[-85.3358,11.0366,233.1985],[-85.3391,11.0343,231.0924],[-85.3406,11.036,236.5849],[-85.3508,11.0348,271.3399],[-85.3517,11.0326,277.6667],[-85.354,11.0328,275.3221],[-85.3536,11.0307,286.5062],[-85.3557,11.0303,308.0013],[-85.3562,11.0274,327.188],[-85.3546,11.025,326.8659],[-85.3566,11.0243,330.3034],[-85.3571,11.0188,311.0415],[-85.3624,11.0144,334.4419],[-85.3621,11.0104,346.7124],[-85.3638,11.0104,328.1653],[-85.3649,11.0074,342.3636],[-85.3661,11.0094,343.1593],[-85.3689,11.0048,353.9776],[-85.3675,11.0033,363.7368],[-85.3687,11.0007,386.4251],[-85.3664,10.9991,372.124],[-85.3701,10.997,378.2579],[-85.3744,10.998,366.827],[-85.3776,10.9957,400.8461],[-85.3768,10.9948,391.4878],[-85.3784,10.9936,390.0935],[-85.3767,10.9895,396.8612],[-85.3793,10.9886,398.2161],[-85.3806,10.9843,400.617],[-85.3789,10.9812,420.6987],[-85.3802,10.9797,426.1291],[-85.3775,10.9776,431.6233],[-85.3795,10.9772,441.3155],[-85.3813,10.9745,446.3943],[-85.3801,10.9732,442.7252],[-85.3821,10.9711,447.5767],[-85.389,10.9681,467.7684],[-85.3914,10.9651,482.8811],[-85.3967,10.9664,495.2081],[-85.4042,10.9619,533.0636],[-85.4084,10.9632,551.5432],[-85.4121,10.9618,601.7898],[-85.4205,10.9644,644.9935],[-85.4448,10.9433,1171.7771],[-85.4492,10.9351,1596.1426],[-85.4455,10.9283,1539.176],[-85.4477,10.9226,1326.4753],[-85.4474,10.9179,1250.26],[-85.4431,10.9126,1102.7578],[-85.4366,10.9082,997.8392],[-85.4343,10.8986,923.9818],[-85.4271,10.8965,932.7153],[-85.4227,10.8907,866.9504],[-85.4205,10.8902,810.3322],[-85.4139,10.8794,684.8885],[-85.4087,10.8799,696.312],[-85.4051,10.8716,648.1708],[-85.3955,10.8654,713.7535],[-85.3907,10.8594,835.2836],[-85.3777,10.8353,1459.8328],[-85.3745,10.8349,1543.0763],[-85.3706,10.8297,1701.3069],[-85.3649,10.827,1751.8799],[-85.349,10.8272,1860.9587],[-85.3368,10.8184,1741.9644],[-85.3286,10.8162,1739.7095],[-85.3248,10.8109,1722.9838],[-85.3192,10.8112,1854.7695],[-85.3184,10.8084,1873.246],[-85.3056,10.8001,1566.9318],[-85.3018,10.7885,1318.0085],[-85.2959,10.7771,1114.2285],[-85.2907,10.7748,1018.9998],[-85.2909,10.7721,995.9601],[-85.2866,10.7673,894.6704],[-85.2851,10.7609,816.026],[-85.2806,10.7603,827.0056],[-85.2779,10.7511,808.6677],[-85.2735,10.7528,799.8024],[-85.2713,10.7516,791.7227],[-85.269,10.7557,790.7904],[-85.2624,10.7543,760.4616],[-85.253,10.7589,700.7479],[-85.2481,10.7639,706.8821],[-85.2433,10.7637,694.0439],[-85.2353,10.7667,788.3351],[-85.2043,10.7552,568.406],[-85.1897,10.7476,661.7786],[-85.1863,10.748,746.3569],[-85.1818,10.7459,803.5309],[-85.1696,10.7479,1206.4172],[-85.1554,10.7468,1834.9299],[-85.1446,10.7478,1818.5824],[-85.1419,10.7451,1749.9263],[-85.1397,10.7451,1758.3635],[-85.1376,10.7397,1581.001],[-85.1295,10.733,1492.1792],[-85.1283,10.7256,1528.1484],[-85.1294,10.719,1486.7452],[-85.1244,10.7146,1469.1948],[-85.1238,10.7103,1457.2451],[-85.1019,10.7137,1272.3352],[-85.0963,10.7177,1131.413],[-85.0868,10.7128,859.4209],[-85.0716,10.7129,511.0756],[-85.0671,10.708,543.8833],[-85.0608,10.7088,566.4731],[-85.0586,10.7006,602.825],[-85.055,10.6974,629.606],[-85.0438,10.6975,818.8522],[-85.0267,10.6934,1497.1753],[-85.0199,10.6806,1535.391],[-85.0196,10.674,1741.5804],[-85.0126,10.6712,1833.4135],[-85.0101,10.664,1705.1089],[-85.001,10.6562,1326.0597],[-85.0008,10.6477,1217.5984],[-85.003,10.641,1144.5415],[-85.001,10.6356,1023.424],[-85.0018,10.6259,1112.2856],[-84.9882,10.6184,984.0976],[-84.9855,10.605,1148.142],[-84.9748,10.6062,1184.1907],[-84.9687,10.601,1064.5819],[-84.9558,10.5946,1033.9894],[-84.9453,10.5952,938.7307],[-84.9443,10.5914,941.9136],[-84.9412,10.5898,945.4199],[-84.9392,10.5856,979.8667],[-84.9336,10.5857,819.7296],[-84.9295,10.5836,825.4218],[-84.9301,10.5801,774.0996],[-84.9252,10.5736,795.3263],[-84.9222,10.5723,760.5237],[-84.9191,10.5739,710.8466],[-84.9089,10.5688,703.2866],[-84.9032,10.5707,704.4955],[-84.8953,10.5628,752.7038],[-84.8901,10.5599,743.5453],[-84.8831,10.564,774.4993],[-84.8793,10.562,790.9357],[-84.8746,10.5635,784.9774],[-84.8707,10.5627,791.1008],[-84.8641,10.5561,798.3001],[-84.8576,10.5539,814.5807],[-84.8518,10.5462,751.0465],[-84.8449,10.5466,784.0927],[-84.8444,10.5395,772.0696],[-84.846,10.5369,768.3619],[-84.846,10.5324,774.8773],[-84.8387,10.5299,801.6041],[-84.8379,10.5247,791.8099],[-84.8307,10.523,812.0149],[-84.8217,10.526,859.6918],[-84.8206,10.5143,842.5183],[-84.8127,10.5111,832.0205],[-84.8019,10.5023,854.0092],[-84.7961,10.4999,855.5573],[-84.7923,10.4905,816.8711],[-84.7817,10.4963,830.4306],[-84.7789,10.4955,831.1491],[-84.7742,10.4974,805.145],[-84.7741,10.4628,551.7166],[-84.7712,10.4531,540.0],[-84.7662,10.418,563.7311],[-84.7672,10.4123,583.3141],[-84.7718,10.4063,608.0601],[-84.7745,10.3958,662.2812],[-84.7814,10.3847,742.9058],[-84.7792,10.3797,794.5483],[-84.7712,10.3744,835.0398],[-84.7716,10.3697,866.9445],[-84.7695,10.3675,915.6339],[-84.7685,10.3575,975.9213],[-84.7663,10.3552,1001.7781],[-84.7675,10.3515,1130.7046],[-84.7743,10.3502,1181.3214],[-84.7739,10.3478,1228.8982],[-84.7762,10.3466,1356.3674],[-84.7776,10.343,1399.6403],[-84.7773,10.3398,1502.8086],[-84.7788,10.3396,1509.538],[-84.781,10.3319,1606.873],[-84.7866,10.3225,1696.8127],[-84.7941,10.3205,1780.2399],[-84.7903,10.3119,1699.9851],[-84.7866,10.308,1621.0212],[-84.786,10.3014,1605.3621],[-84.7832,10.2984,1555.2336],[-84.782,10.2912,1539.0178],[-84.7707,10.2801,1482.7244],[-84.7669,10.2796,1506.7072],[-84.7662,10.2699,1667.0482],[-84.7639,10.2687,1705.0774],[-84.7654,10.2621,1714.3269],[-84.7551,10.2552,1653.4807],[-84.7483,10.2551,1658.4614],[-84.7449,10.2524,1671.8589],[-84.7379,10.2534,1723.3949],[-84.7326,10.2505,1765.2646],[-84.73,10.2516,1750.6907],[-84.7285,10.255,1739.3477],[-84.7237,10.2562,1770.8799],[-84.7211,10.2616,1753.6302],[-84.7227,10.2684,1783.2162],[-84.7141,10.2671,1731.2617],[-84.7081,10.2635,1711.4702],[-84.7022,10.263,1658.8921],[-84.7006,10.2659,1652.7791],[-84.6977,10.2673,1620.5488],[-84.6947,10.2777,1525.8175],[-84.687,10.2835,1576.0757],[-84.6843,10.2843,1614.459],[-84.6827,10.2823,1613.0177],[-84.6808,10.2837,1620.8993],[-84.6738,10.2792,1636.0317],[-84.6745,10.2715,1576.9556],[-84.6705,10.2677,1500.3685],[-84.6701,10.2607,1426.5669],[-84.6673,10.2559,1403.0509],[-84.664,10.254,1400.2769],[-84.6575,10.2439,1328.0366],[-84.6586,10.2377,1334.9828],[-84.6566,10.2341,1309.582],[-84.6628,10.226,1282.5096],[-84.6608,10.2235,1329.313],[-84.66,10.2173,1220.6163],[-84.6615,10.2152,1215.7974],[-84.6603,10.2119,1340.5629],[-84.6644,10.206,1408.3896],[-84.6615,10.1993,1434.2388],[-84.6643,10.1949,1424.4158],[-84.6683,10.1926,1406.25],[-84.6836,10.1763,1320.7731],[-84.6786,10.1742,1312.6361],[-84.6685,10.1757,1311.2739],[-84.6643,10.1699,1297.4496],[-84.6651,10.1656,1310.2708],[-84.6637,10.1654,1295.572],[-84.6658,10.1642,1303.7632],[-84.6651,10.163,1294.5901],[-84.6702,10.1558,1296.7183],[-84.6653,10.1524,1244.5791],[-84.6653,10.1464,1144.5824],[-84.6735,10.1399,966.894],[-84.6705,10.1299,854.2616],[-84.6712,10.1282,854.1971],[-84.664,10.1216,683.7521],[-84.66,10.1108,574.5187],[-84.6572,10.1092,563.8717],[-84.6538,10.1016,506.6967],[-84.6508,10.0995,509.6495],[-84.6505,10.0967,493.0444],[-84.6481,10.0945,431.403],[-84.648,10.0871,425.666],[-84.6452,10.0858,369.7516],[-84.6438,10.0808,362.3822],[-84.6376,10.0774,358.3862],[-84.6315,10.0711,283.8504],[-84.632,10.0686,320.7137],[-84.6287,10.064,253.207],[-84.6282,10.0574,248.9196],[-84.6246,10.0476,197.7219],[-84.618,10.0434,187.8416],[-84.617,10.0456,205.1248],[-84.6094,10.0461,211.9896],[-84.6026,10.044,328.883],[-84.6002,10.0375,476.2622],[-84.5927,10.0351,385.6655],[-84.5735,10.02,358.593],[-84.5663,10.0215,450.8945],[-84.5659,10.029,501.1389],[-84.5632,10.0292,499.2104],[-84.5641,10.016,394.6144],[-84.5609,10.0128,372.2104],[-84.5614,10.0099,349.1182],[-84.5595,10.0063,343.8029],[-84.5565,10.0044,331.4847],[-84.5566,9.9961,294.9696],[-84.5538,9.9934,292.2248],[-84.5533,9.9861,260.8481],[-84.5555,9.986,252.7355],[-84.5565,9.9838,248.5626],[-84.5582,9.9853,238.9099],[-84.5595,9.9817,251.4252],[-84.5615,9.9819,243.0468],[-84.5626,9.984,246.0286],[-84.5686,9.9816,251.983],[-84.5691,9.9834,231.3234],[-84.5706,9.9832,228.5334],[-84.571,9.9868,212.4305],[-84.5737,9.9835,246.4142],[-84.5775,9.9831,210.3175],[-84.5775,9.9817,223.7191],[-84.5807,9.9822,218.801],[-84.5815,9.9803,216.6595],[-84.5841,9.9805,196.1388],[-84.5845,9.9785,214.814],[-84.5897,9.9794,187.3604],[-84.5921,9.9722,195.5752],[-84.5962,9.9711,160.1529],[-84.597,9.9732,158.5342],[-84.599,9.9688,142.7398],[-84.6016,9.9706,166.8212],[-84.6048,9.9667,144.7332],[-84.6069,9.9587,146.7811],[-84.6085,9.9593,118.6955],[-84.6112,9.9559,166.4997],[-84.6151,9.9571,140.9701],[-84.6161,9.9551,88.7693],[-84.6151,9.9522,108.1837],[-84.63,9.9491,69.4067],[-84.6327,9.9501,54.7408],[-84.637,9.9472,40.4134],[-84.6365,9.945,84.025],[-84.6406,9.9401,43.9247],[-84.6489,9.9446,35.6406],[-84.6528,9.9406,19.3974],[-84.6531,9.9351,40.2454],[-84.662,9.9333,11.7879],[-84.6614,9.9302,10.7962],[-84.6579,9.931,15.5598],[-84.658,9.9291,13.7112],[-84.6604,9.9255,18.1381],[-84.6652,9.925,11.0433],[-84.6636,9.9225,10.0907],[-84.6647,9.921,9.5057],[-84.6677,9.9226,8.3489],[-84.6656,9.9188,10.6144],[-84.6713,9.9147,7.7335],[-84.6712,9.9118,19.7584],[-84.6741,9.911,7.3458],[-84.6752,9.9087,9.4253],[-84.6767,9.909,6.8891],[-84.6766,9.9075,9.4253],[-84.6796,9.907,6.236],[-84.6804,9.905,6.0527],[-84.6804,9.9084,7.8972],[-84.6826,9.9091,7.7035],[-84.6872,9.907,5.8155],[-84.6871,9.9045,5.2924],[-84.6891,9.904,6.7824],[-84.6883,9.9002,6.0638],[-84.6871,9.9011,5.5537],[-84.6862,9.8996,5.8048],[-84.687,9.8969,8.1972],[-84.6845,9.8974,5.2762],[-84.6857,9.8948,11.1748],[-84.6838,9.894,7.6897],[-84.6888,9.8864,7.465],[-84.685,9.8877,6.8165],[-84.6844,9.8859,7.5],[-84.683,9.8878,8.5955],[-84.6823,9.8841,5.125],[-84.6789,9.8794,17.7995],[-84.6809,9.8776,24.2288],[-84.6788,9.877,29.3833],[-84.6809,9.8747,29.6057],[-84.678,9.8752,25.3791],[-84.6771,9.8785,32.1729],[-84.6745,9.8773,32.3031],[-84.6708,9.8788,14.1928],[-84.6696,9.8771,14.0321],[-84.6647,9.8772,12.3291],[-84.6646,9.8756,7.704],[-84.6611,9.875,13.9945],[-84.6595,9.8763,11.1425],[-84.6559,9.8728,13.1252],[-84.6473,9.8701,20.6383],[-84.6476,9.8652,22.2717],[-84.6466,9.8663,16.7217],[-84.6455,9.8649,22.0075],[-84.6429,9.8659,26.503],[-84.6407,9.8647,27.1264],[-84.638,9.8661,31.8264],[-84.6292,9.8622,36.1594],[-84.6184,9.8622,47.3498],[-84.6153,9.8607,45.1598],[-84.6133,9.8623,56.9471],[-84.603,9.862,82.0572],[-84.6027,9.8598,82.9733],[-84.6006,9.8596,98.0583],[-84.5996,9.8575,92.6298],[-84.5969,9.8583,91.1674],[-84.5955,9.8534,111.2862],[-84.5999,9.8492,123.4461],[-84.5965,9.8486,142.5808],[-84.5904,9.8406,174.8282],[-84.5801,9.8411,175.9821],[-84.5746,9.8459,177.4723],[-84.563,9.8419,14.6458],[-84.5586,9.8436,31.4283],[-84.5547,9.8494,18.3977],[-84.5489,9.8476,25.301],[-84.5471,9.8485,52.1682],[-84.5482,9.8629,27.6637],[-84.538,9.8621,29.6043],[-84.5437,9.873,61.1415],[-84.5424,9.8755,40.0056],[-84.5408,9.8762,48.6731],[-84.5372,9.8732,41.5249],[-84.5335,9.8731,43.248],[-84.5349,9.8762,48.3622],[-84.5336,9.878,61.6875],[-84.5283,9.8773,54.3446],[-84.5259,9.8841,66.0673],[-84.5188,9.8864,66.4513],[-84.5133,9.8929,73.8655],[-84.5099,9.8925,77.7149],[-84.5073,9.8884,90.3831],[-84.501,9.9009,78.988],[-84.4986,9.911,124.9636],[-84.4965,9.9106,102.4289],[-84.4962,9.9078,123.4118],[-84.4945,9.9073,97.608],[-84.4827,9.9105,113.1957],[-84.4751,9.9159,127.7697],[-84.4677,9.9166,155.9758],[-84.4661,9.9213,144.9708],[-84.4627,9.9242,159.9762],[-84.461,9.9211,155.0964],[-84.458,9.9221,203.1119],[-84.4553,9.921,164.9829],[-84.4528,9.923,167.0287],[-84.442,9.9224,178.8354],[-84.4402,9.924,192.8948],[-84.4359,9.9209,195.9905],[-84.4241,9.9255,231.6195],[-84.4211,9.9203,258.3635],[-84.4135,9.9238,217.7025],[-84.413,9.9288,255.1847],[-84.4065,9.9271,230.1873],[-84.3995,9.9313,246.7489],[-84.394,9.9305,259.6095],[-84.394,9.9358,315.6206],[-84.3892,9.9362,279.949],[-84.3861,9.9314,273.3152],[-84.3823,9.9333,316.5582],[-84.381,9.9298,276.0779],[-84.373,9.9259,316.8351],[-84.3677,9.9301,301.5892],[-84.3583,9.9224,370.0971],[-84.3547,9.9224,348.9861],[-84.3544,9.9192,336.6701],[-84.3516,9.9197,358.2107],[-84.349,9.9164,403.468],[-84.345,9.9173,405.944],[-84.3436,9.9155,399.7365],[-84.3385,9.915,432.1641],[-84.3346,9.9176,402.1031],[-84.3283,9.9143,412.7468],[-84.3269,9.9166,416.3959],[-84.321,9.9157,447.1237],[-84.3197,9.9203,425.6278],[-84.3146,9.9176,470.9992],[-84.311,9.9196,453.0936],[-84.3102,9.9232,469.7645],[-84.2989,9.9252,525.0505],[-84.2933,9.9304,550.3284],[-84.2887,9.9287,564.4728],[-84.2866,9.9308,593.741],[-84.2839,9.929,566.3411],[-84.2692,9.9333,590.7415],[-84.2663,9.9313,590.9818],[-84.2604,9.9325,650.0134],[-84.2584,9.93,648.5986],[-84.2513,9.9282,611.1757],[-84.2489,9.9316,653.7532],[-84.2468,9.9319,673.6696],[-84.246,9.9348,680.6634],[-84.2391,9.9385,681.1368],[-84.2363,9.938,672.5905],[-84.2338,9.9457,762.631],[-84.2312,9.9484,755.0708],[-84.2269,9.9483,755.7794],[-84.2247,9.9456,782.2913],[-84.2205,9.9478,784.3521],[-84.2176,9.9587,817.63],[-84.2128,9.963,802.5475],[-84.2064,9.9608,804.1832],[-84.2031,9.9618,827.27],[-84.2015,9.965,817.2317],[-84.198,9.9657,833.8779],[-84.1906,9.9731,873.1307],[-84.1835,9.9729,860.4781],[-84.1902,9.9745,894.7628],[-84.1999,9.9681,873.6931],[-84.2,9.9762,882.2415],[-84.1947,9.9775,897.1436],[-84.1983,9.9919,882.5865],[-84.1886,9.9945,895.836],[-84.1852,9.9979,910.0096],[-84.1803,9.9993,922.7151],[-84.1766,10.0032,957.6014],[-84.1765,10.0055,967.9751],[-84.174,10.0052,959.8502]]]]}}