{"type":"Feature","properties":{"ISO3166-1-Alpha-3":"CRI","country":"Costa Rica","fill":"#F0F","id":"1333","name":"Alajuela"},
"geometry":{"type": "Polygon","coordinates": [[[-84.60323,11.03328,57.4527],[-84.62067,11.03576,52.1899],[-84.65873,11.06274,47.5966],[-84.67645,11.07041,31.7109],[-84.70777,11.06305,46.8359],[-84.78177,11.01488,35.8025],[-84.88497,10.94768,33.0228],[-84.9084,10.93936,40.2038],[-84.9314,10.94189,38.4627],[-85.09284,11.00065,40.679],[-85.23648,11.0531,51.7585],[-85.23885,11.05111,53.6084],[-85.24629,11.0494,77.3384],[-85.25234,11.04728,50.3039],[-85.25626,11.04677,48.4996],[-85.25895,11.04594,54.734],[-85.26267,11.04336,76.082],[-85.31047,10.99023,290.9371],[-85.38897,10.93742,493.479],[-85.39098,10.93298,491.1967],[-85.39388,10.92843,494.2394],[-85.40302,10.9245,563.8141],[-85.437,10.92202,1083.5623],[-85.44072,10.91768,1127.5283],[-85.44119,10.91541,1053.1698],[-85.44101,10.91277,1051.6099],[-85.43878,10.90859,1014.5743],[-85.43754,10.90688,971.6561],[-85.3922,10.85494,863.6069],[-85.38083,10.84637,1145.808],[-85.35644,10.83241,1610.5712],[-85.35034,10.83024,1821.1416],[-85.32778,10.82745,1661.1353],[-85.32525,10.82657,1723.8477],[-85.32277,10.82549,1681.1722],[-85.32047,10.82415,1531.7008],[-85.31605,10.82094,1477.5365],[-85.30732,10.80771,1535.3625],[-85.28272,10.75955,831.3883],[-85.2528,10.75852,718.6116],[-85.2267,10.761,584.0005],[-85.20482,10.76627,564.0812],[-85.19252,10.76782,557.6473],[-85.18593,10.76803,575.5452],[-85.17958,10.76751,657.3636],[-85.17374,10.76513,808.6071],[-85.16604,10.76126,1125.8876],[-85.13635,10.74126,1599.1371],[-85.12891,10.73433,1463.3722],[-85.12273,10.72984,1405.2729],[-85.1071,10.72462,1166.468],[-85.05403,10.71211,558.8857],[-85.04284,10.70891,677.6731],[-85.02933,10.70322,1168.3107],[-85.023,10.69935,1202.5612],[-85.01672,10.69273,1189.0806],[-85.00253,10.67046,1472.116],[-84.99111,10.65015,1069.0157],[-84.98654,10.62323,981.703],[-84.98359,10.61625,902.509],[-84.97793,10.60772,1124.8076],[-84.9747,10.60411,1165.2319],[-84.94801,10.58054,894.7881],[-84.93732,10.56876,677.3198],[-84.92339,10.56328,703.5575],[-84.86846,10.54912,733.8392],[-84.8504,10.54003,770.6524],[-84.79327,10.49662,830.6834],[-84.78578,10.48515,749.0717],[-84.76399,10.44215,540.0],[-84.77939,10.38707,777.201],[-84.77547,10.36857,984.7763],[-84.77268,10.36169,1101.3062],[-84.77128,10.35973,1076.2754],[-84.7689,10.35539,1050.6266],[-84.77061,10.34547,1310.1675],[-84.78663,10.31534,1638.3229],[-84.76425,10.2801,1406.4998],[-84.75784,10.27245,1309.3503],[-84.75604,10.2709,1356.2828],[-84.74955,10.26671,1534.8361],[-84.74392,10.26635,1610.9735],[-84.73573,10.26671,1725.6626],[-84.71668,10.27007,1743.9385],[-84.70299,10.274,1393.3113],[-84.69645,10.27787,1498.311],[-84.69415,10.27891,1471.5057],[-84.69154,10.27984,1532.6222],[-84.68392,10.27875,1594.0208],[-84.66607,10.26728,1410.6251],[-84.66051,10.25178,1343.9363],[-84.65648,10.24614,1227.2056],[-84.65046,10.24149,1194.7711],[-84.64888,10.23979,1120.9934],[-84.6485,10.23607,1097.5107],[-84.64963,10.231,1115.7069],[-84.6602,10.21188,1340.5629],[-84.6632,10.20449,1417.3563],[-84.66896,10.18207,1320.6104],[-84.66896,10.1784,1318.3778],[-84.66816,10.17431,1312.2528],[-84.6626,10.16429,1306.6304],[-84.66152,10.15871,1318.9174],[-84.66113,10.15494,1326.6431],[-84.66493,10.12977,1021.9032],[-84.66043,10.1138,667.4773],[-84.64938,10.09122,454.0146],[-84.64346,10.08228,399.6711],[-84.6271,10.06223,321.5159],[-84.61904,10.04921,301.6039],[-84.60269,10.02978,355.2985],[-84.59643,10.02016,417.108],[-84.59581,10.01779,384.9897],[-84.59444,10.01469,374.2713],[-84.59351,10.01324,386.4634],[-84.59139,10.01262,385.1752],[-84.58806,10.01252,396.0699],[-84.58034,10.01463,384.8566],[-84.57246,10.02068,370.8887],[-84.56997,10.02171,410.3328],[-84.56279,10.0183,407.9125],[-84.5501,9.99774,329.5959],[-84.55088,9.99029,312.6411],[-84.55176,9.98812,263.1357],[-84.55507,9.98513,268.3226],[-84.56,9.98254,237.4117],[-84.57571,9.97634,317.2318],[-84.62491,9.94461,183.3645],[-84.63599,9.94125,159.1066],[-84.64369,9.93386,177.4926],[-84.66219,9.90508,46.85],[-84.66924,9.90198,19.3448],[-84.67085,9.90048,19.3448],[-84.67255,9.89826,9.4079],[-84.67304,9.89552,6.7915],[-84.67297,9.88963,4.1828],[-84.67441,9.88436,1.9507],[-84.67108,9.88064,9.3869],[-84.66421,9.87588,7.704],[-84.6433,9.86762,32.6695],[-84.62677,9.86317,56.1397],[-84.61374,9.86245,52.626],[-84.60178,9.86007,82.9733],[-84.59279,9.85315,115.3507],[-84.57106,9.82452,150.1362],[-84.56377,9.82472,103.2582],[-84.56215,9.82658,75.787],[-84.56085,9.83418,28.6692],[-84.5592,9.83795,39.3904],[-84.54073,9.86064,42.2331],[-84.54026,9.86389,39.6217],[-84.54054,9.86648,46.1221],[-84.53763,9.86999,100.9535],[-84.53104,9.87485,128.0436],[-84.51383,9.88374,170.0121],[-84.50218,9.89511,96.4216],[-84.50091,9.89748,115.4658],[-84.49993,9.89893,119.0006],[-84.49184,9.90384,215.1072],[-84.46104,9.91728,252.8306],[-84.41657,9.92095,240.5227],[-84.39216,9.92565,416.0265],[-84.37275,9.92012,481.1197],[-84.35296,9.91697,423.6434],[-84.34914,9.91567,403.468],[-84.34433,9.91454,418.6145],[-84.33234,9.91314,480.8249],[-84.32707,9.91154,497.0278],[-84.30924,9.91402,528.3925],[-84.24245,9.93252,778.9198],[-84.21467,9.94146,833.9909],[-84.19997,9.95722,847.836],[-84.20175,9.96601,860.1455],[-84.20186,9.97138,870.8735],[-84.2016,9.97417,875.6518],[-84.20098,9.97717,882.4436],[-84.19602,9.98508,884.9529],[-84.17762,10.00435,963.1274],[-84.17736,10.00683,973.7444],[-84.16579,10.1584,1889.3337],[-84.16419,10.2957,727.1644],[-84.16269,10.41011,195.3784],[-84.16052,10.57114,53.0861],[-84.15798,10.78425,19.5046],[-84.15773,10.78842,17.5],[-84.16483,10.78945,26.0679],[-84.18041,10.78976,25.9973],[-84.1916,10.78172,26.5557],[-84.19687,10.78852,26.0938],[-84.21889,10.80596,39.4197],[-84.22116,10.80942,65.2233],[-84.22524,10.81368,86.1649],[-84.2271,10.81931,41.3272],[-84.22266,10.82704,21.7685],[-84.21852,10.82983,27.1585],[-84.20465,10.83699,74.173],[-84.20837,10.86097,124.219],[-84.22566,10.87531,18.914],[-84.24472,10.88492,25.4225],[-84.25366,10.89471,81.9735],[-84.26428,10.90182,92.2551],[-84.31074,10.91941,56.3003],[-84.32131,10.92915,72.7574],[-84.3241,10.93618,68.3838],[-84.33741,10.95267,61.2193],[-84.3418,10.9599,55.6176],[-84.34387,10.97228,66.2404],[-84.34366,10.98238,61.3385],[-84.34598,10.9899,92.4702],[-84.35547,10.99463,32.1433],[-84.36397,10.98961,94.8352],[-84.41776,10.95504,59.2726],[-84.42725,10.95112,59.5402],[-84.4382,10.9522,47.9323],[-84.44887,10.95633,39.6764],[-84.45784,10.96135,30.2544],[-84.46639,10.96845,37.2071],[-84.48913,10.99636,100.557],[-84.49331,10.99941,81.3969],[-84.49817,11.00199,62.3343],[-84.50334,11.00403,48.1533],[-84.50874,11.00553,45.5126],[-84.55861,11.02721,56.7671],[-84.58168,11.03447,39.5199],[-84.60323,11.03328,57.4527]]]}}