{"type":"Feature","properties":{"featurecla":"River","scalerank":5,"rivernum":159,"dissolve":"159River","name":"San32","name_alt":null,"note":null,"min_zoom":4.7,"strokeweig":0.2,"name_en":"San Juan","min_label":5.7},
"geometry":{"type": "LineString","coordinates": [[-84.769140624999991,11.117694403119117,40.7081],[-84.758886718749991,11.12494537968162,31.0],[-84.743505859374991,11.12372467655662,32.8228],[-84.729833984374991,11.117938543744117,32.2149],[-84.719335937499991,11.110858465619117,33.449],[-84.713183593749989,11.110858465619117,32.2567],[-84.673095703125,11.126483465619117,33.9287],[-84.60302734375,11.07550690311912,34.4144],[-84.566015624999991,11.08698151249412,50.2292],[-84.55712890625,11.08856842655662,33.5589],[-84.546923828124989,11.081170965619108,35.5074],[-84.538500976562489,11.06989166874412,38.3811],[-84.535009765624991,11.06000397343162,47.5998],[-84.494067382812489,11.04254791874412,44.1909],[-84.470800781249991,11.03644440311912,32.3229],[-84.458056640624989,11.031512762494117,44.3885],[-84.452441406249989,11.02582428593162,38.5086],[-84.449511718749989,11.01715729374412,33.2631],[-84.442309570312489,11.00775787968162,58.63],[-84.433398437499989,10.999530340619117,34.8609],[-84.425146484374991,10.99481842655662,46.0646],[-84.41162109375,11.01825592655662,46.4251],[-84.394628906249991,11.01947662968162,28.4029],[-84.35625,10.99481842655662,30.4707],[-84.35625,10.99481842655662,30.4707],[-84.35625,10.99481842655662,30.4707],[-84.35625,10.99481842655662,30.4707],[-84.35625,10.99481842655662,30.4707],[-84.346777343749991,10.99005768436912,92.4702],[-84.344482421875,10.982538153119108,38.3657],[-84.344653320312489,10.97247955936912,66.2404],[-84.342578124999989,10.96002838749412,55.6176],[-84.338183593749989,10.952899481244117,58.1113],[-84.324951171875,10.93634674686912,68.3838],[-84.322119140624991,10.929315496869108,72.7574],[-84.3115234375,10.91962311405662,64.2248],[-84.265063476562489,10.901971746869108,92.2551],[-84.254443359374989,10.89484284061912,81.9735],[-84.245458984374991,10.88507721561912,42.123],[-84.226416015624991,10.87543366093162,21.494],[-84.209155273437489,10.86115143436912,124.219],[-84.205419921874991,10.837176824994117,64.167],[-84.219335937499991,10.829950262494108,27.1585],[-84.223437499999989,10.82721588749412,53.7059],[-84.227880859374991,10.81952545780662,41.3272],[-84.226000976562489,10.813836981244108,102.1142],[-84.221972656249989,10.809588934369117,65.2233],[-84.2197265625,10.80609772343162,39.4197],[-84.197680664062489,10.788690496869108,26.0938],[-84.1923828125,10.78192780155662,26.5557],[-84.181201171874989,10.78986237186912,25.9973],[-84.165625,10.789569403119117,26.0679],[-84.149755859374991,10.78729889530662,17.0],[-84.137792968749991,10.78937409061912,18.5845],[-84.119238281249991,10.771356512494108,34.4444],[-84.107714843749989,10.767108465619117,18.3804],[-84.09619140625,10.77570221561912,47.2598]]}}