{"type":"Feature","properties":{"ISO3166-1-Alpha-3":"CRI","country":"Costa Rica","fill":"#00F","id":"1329","name":"Limón"},
"geometry":{"type": "Polygon","coordinates": [[[-83.65781,10.92647,0.0],[-83.6637,10.92771,0.4326],[-83.67096,10.92262,11.6816],[-83.66977,10.91753,10.1311],[-83.67024,10.91269,11.1259],[-83.66931,10.86975,3.8544],[-83.66013,10.83417,34.2574],[-83.66303,10.80702,19.2663],[-83.69814,10.78916,13.1973],[-83.76382,10.77368,6.0],[-83.7608,10.77149,6.0],[-83.74935,10.76834,5.5],[-83.74625,10.76715,5.7244],[-83.74385,10.76565,7.4686],[-83.74155,10.76399,10.2554],[-83.73651,10.75914,21.4398],[-83.73274,10.75464,6.0742],[-83.73,10.74984,5.4193],[-83.72943,10.74653,11.2846],[-83.72928,10.74301,15.7415],[-83.73227,10.72296,17.9861],[-83.73189,10.71811,9.7314],[-83.73101,10.71459,3.0],[-83.72793,10.71077,4.2775],[-83.72457,10.70736,10.1448],[-83.72065,10.70415,5.5349],[-83.71199,10.69893,5.2994],[-83.70827,10.69583,11.863],[-83.70579,10.69299,10.7153],[-83.7037,10.68979,3.3618],[-83.70357,10.68808,2.0],[-83.70458,10.68715,2.9083],[-83.70917,10.68865,4.2881],[-83.71277,10.68896,7.7452],[-83.71662,10.68886,4.4019],[-83.72716,10.68622,5.4443],[-83.75633,10.68374,13.3585],[-83.76214,10.68255,19.9162],[-83.77258,10.67909,19.3416],[-83.78953,10.66829,19.7731],[-83.79956,10.65764,12.8215],[-83.80351,10.65465,12.9345],[-83.81312,10.64969,29.3728],[-83.82157,10.64426,34.1433],[-83.82539,10.64106,29.1959],[-83.827,10.63925,24.9186],[-83.82865,10.63336,38.749],[-83.82997,10.62426,41.2257],[-83.83136,10.59377,37.0376],[-83.83069,10.58437,26.4984],[-83.83635,10.54148,35.2395],[-83.8362,10.53558,36.4203],[-83.83524,10.53321,37.0818],[-83.83377,10.53114,38.6083],[-83.83059,10.52742,43.9242],[-83.82919,10.5253,48.9066],[-83.82803,10.52298,40.732],[-83.82762,10.52008,39.3309],[-83.82772,10.51677,39.812],[-83.82865,10.50861,40.805],[-83.8285,10.5052,41.6514],[-83.82788,10.5022,41.5343],[-83.82387,10.49233,42.7085],[-83.82341,10.48959,42.6104],[-83.82343,10.48463,44.5776],[-83.82904,10.46365,46.6122],[-83.83803,10.45011,51.8049],[-83.84206,10.44603,50.9061],[-83.844,10.44448,50.7882],[-83.84625,10.44329,50.3492],[-83.84901,10.44257,51.2279],[-83.85165,10.44226,51.8948],[-83.85392,10.44122,51.6417],[-83.85594,10.43885,51.8966],[-83.86395,10.4236,55.4947],[-83.86679,10.41952,68.1623],[-83.87028,10.41234,58.244],[-83.87108,10.40805,60.3684],[-83.87167,10.4021,61.3952],[-83.86942,10.38753,63.9747],[-83.86813,10.38376,66.8472],[-83.8548,10.35926,67.3641],[-83.85175,10.34841,77.5689],[-83.84986,10.34335,77.4156],[-83.84723,10.33932,76.6368],[-83.84413,10.33549,81.1411],[-83.84291,10.33322,85.3482],[-83.84273,10.32831,85.4404],[-83.84361,10.32123,89.117],[-83.84687,10.30692,97.7144],[-83.84772,10.29477,115.0188],[-83.84723,10.29198,123.0872],[-83.84842,10.2865,116.2272],[-83.85108,10.27927,118.0673],[-83.8634,10.25353,151.8332],[-83.86648,10.24873,161.1607],[-83.91355,10.19896,303.7248],[-83.92255,10.19013,437.4776],[-83.92908,10.18119,514.7051],[-83.94273,10.13623,571.0021],[-83.81746,10.08042,944.5316],[-83.77356,10.05995,1829.547],[-83.71326,10.03174,1939.5774],[-83.61523,9.98657,479.5897],[-83.58905,9.97717,460.359],[-83.4449,9.97603,409.7036],[-83.33899,9.9736,119.8392],[-83.31891,9.96962,165.7353],[-83.32129,9.96575,81.7686],[-83.33364,9.94792,246.3315],[-83.34155,9.93159,254.7548],[-83.34486,9.91392,256.763],[-83.34338,9.8919,320.9713],[-83.33183,9.85645,888.361],[-83.32925,9.83826,941.8249],[-83.33592,9.821,542.6925],[-83.37855,9.76834,618.1304],[-83.40875,9.73212,658.1307],[-83.41663,9.71972,682.2784],[-83.43911,9.66329,949.7086],[-83.49699,9.59456,1704.0903],[-83.51092,9.56644,2344.731],[-83.5143,9.53585,2711.9968],[-83.51213,9.5264,2813.1003],[-83.51007,9.51404,3264.7637],[-83.50402,9.50051,3579.7764],[-83.50216,9.49777,3618.938],[-83.49895,9.49436,3674.5408],[-83.49684,9.49146,3635.759],[-83.49043,9.47828,3702.5085],[-83.48686,9.46759,3497.9617],[-83.45363,9.37731,3041.8125],[-83.44516,9.36573,2905.7839],[-83.44165,9.36232,2872.4072],[-83.4294,9.35369,2604.5786],[-83.40328,9.3461,2873.1426],[-83.40005,9.34413,2875.8071],[-83.3964,9.34103,2854.1462],[-83.39563,9.3384,2848.3267],[-83.39501,9.33514,2581.3054],[-83.39237,9.32739,2267.0669],[-83.39012,9.32646,2080.5303],[-83.38795,9.32667,2023.1775],[-83.38571,9.32801,2093.2898],[-83.38385,9.32946,2183.5698],[-83.38031,9.33307,2255.8159],[-83.37658,9.33483,2360.9417],[-83.371,9.33617,2520.2268],[-83.3523,9.33793,2388.1309],[-83.34806,9.33933,2395.9834],[-83.34641,9.34103,2537.3877],[-83.33473,9.35726,2817.6726],[-83.33214,9.35974,2709.1553],[-83.32845,9.36212,2409.208],[-83.32114,9.36594,2273.3955],[-83.3168,9.36672,2446.5603],[-83.31346,9.36656,2480.4458],[-83.30873,9.36418,2499.1599],[-83.30434,9.36129,2608.6777],[-83.28584,9.34537,2275.2017],[-83.28357,9.34429,2148.8594],[-83.28127,9.34289,2043.2373],[-83.27615,9.34062,2190.7483],[-83.25768,9.33452,1842.0256],[-83.25287,9.33204,1830.8308],[-83.24334,9.32568,2005.5707],[-83.22771,9.31778,2314.6597],[-83.22063,9.31566,2258.4792],[-83.21533,9.31473,2552.8557],[-83.21192,9.31473,2387.7646],[-83.19807,9.31726,2323.1624],[-83.17657,9.31881,2873.8081],[-83.17001,9.31809,2939.719],[-83.16567,9.31685,2916.8005],[-83.1266,9.26677,2399.4985],[-83.11939,9.25995,2053.8145],[-83.11544,9.25711,2154.8716],[-83.07963,9.23696,2829.1414],[-83.07756,9.23541,2866.8015],[-83.07575,9.23375,2851.2192],[-83.07428,9.23179,2820.1479],[-83.07195,9.22745,2871.2881],[-83.06839,9.21763,3055.7725],[-83.05748,9.16389,2585.4385],[-83.05611,9.16016,2450.5994],[-83.05309,9.155,2364.6343],[-83.050299999999993,9.15252,2287.0818],[-83.0473,9.15076,2272.4893],[-83.01286,9.14125,2314.3223],[-83.00661,9.13836,2340.8501],[-83.00247,9.13583,2390.5364],[-82.99715,9.12751,2515.9688],[-82.9909,9.11025,2425.5942],[-82.98581,9.10286,2486.9473],[-82.96883,9.08606,2447.448],[-82.95266,9.081,2584.7603],[-82.9495,9.07893,2600.4797],[-82.94023,9.07123,2530.2366],[-82.93952,9.07064,2530.2366],[-82.94165,9.23442,1954.2786],[-82.9432,9.35431,1159.4873],[-82.94429,9.43715,959.6963],[-82.9417,9.45635,714.3686],[-82.93331,9.47033,765.6346],[-82.91462,9.47686,428.5823],[-82.86129,9.4841,234.9056],[-82.84639,9.49255,340.7659],[-82.84478,9.50069,139.8252],[-82.84938,9.50348,211.2202],[-82.85592,9.50544,174.7457],[-82.86021,9.5112,109.8096],[-82.86713,9.53864,185.8053],[-82.87925,9.55991,54.3956],[-82.87739,9.56918,100.5486],[-82.86605,9.58507,70.1074],[-82.84747,9.60066,73.9659],[-82.82902,9.60272,33.0047],[-82.77109,9.57986,20.3767],[-82.72936,9.5449,18.1912],[-82.71973,9.54133,17.0243],[-82.71169,9.545,15.0464],[-82.70146,9.53355,15.1466],[-82.68867,9.50945,10.9995],[-82.67805,9.49777,13.0583],[-82.66821,9.49317,10.296],[-82.65071,9.48785,9.3789],[-82.63213,9.48467,8.8976],[-82.61885,9.48671,7.5538],[-82.61239,9.4995,3.25],[-82.60821,9.53787,7.3293],[-82.6011,9.54867,1.5752],[-82.58588,9.54624,3.6231],[-82.57061,9.53823,3.752],[-82.56284,9.5387,6.6823],[-82.57359,9.57619,3.4366],[-82.5736,9.5762,3.4366],[-82.57457,9.57681,7.4544],[-82.59142,9.58698,3.5293],[-82.61644,9.62434,0.0],[-82.63589,9.63451,39.2024],[-82.65795,9.6363,0.0],[-82.68139,9.63548,29.9113],[-82.70523,9.63793,12.1246],[-82.77233,9.66104,0.0],[-82.78775,9.67276,1.0442],[-82.79699,9.69123,0.0],[-82.80248,9.73151,0.0],[-82.80826,9.74722,0.0],[-82.83381,9.73949,0.0],[-82.87727,9.7801,0.0],[-82.93489,9.85708,0.0],[-82.94978,9.86758,0.0],[-82.99633,9.93594,0.0],[-83.00935,9.94929,0.0],[-83.01667,9.96312,0.0],[-83.01985,9.97871,0.0],[-83.02058,9.99738,0.0],[-83.02603,10.00503,0.0],[-83.0524,10.00959,16.661],[-83.06151,10.01533,0.0],[-83.08532,10.00214,0.0],[-83.12466,10.04059,0.0],[-83.18838,10.11774,0.0],[-83.20372,10.12934,1.9856],[-83.39452,10.37604,0.0],[-83.46618,10.49453,0.0],[-83.52697,10.63605,0.0],[-83.57543,10.76826,0.0],[-83.58104,10.7558,4.1002],[-83.58528,10.73286,10.2467],[-83.5891,10.7211,15.3936],[-83.59301,10.72932,14.2419],[-83.59472,10.73656,12.2638],[-83.59366,10.74266,12.7949],[-83.5891,10.74775,17.2452],[-83.60216,10.73957,13.1958],[-83.61189,10.73086,11.9045],[-83.62222,10.72386,12.809],[-83.63752,10.7211,1.0],[-83.60863,10.74551,16.6958],[-83.60692,10.77778,2.3798],[-83.62385,10.85761,23.525],[-83.59756,10.79361,19.589],[-83.58288,10.7757,0.0],[-83.58056,10.80732,0.0],[-83.5987,10.85659,0.0],[-83.62426,10.9029,0.0],[-83.64436,10.92593,0.0],[-83.65148,10.92662,0.0],[-83.65781,10.92647,0.0]]]}}