{"type":"Feature","properties":{"GID_1":"CRI.5_1","GID_0":"CRI","country":"CostaRica","province":"Limón","VARNAME_1":"PuertoLimón","NL_NAME_1":"NA","TYPE_1":"Provincia","ENGTYPE_1":"Province","CC_1":"7","HASC_1":"CR.LI","ISO_1":"NA","name":"Limón.province"},
"geometry":{"type": "MultiPolygon","coordinates": [[[[-82.8818,9.5637,43.7269],[-82.8844,9.5638,40.6246],[-82.8852,9.5655,44.1464],[-82.8833,9.5718,43.4832],[-82.878,9.5798,41.2149],[-82.8777,9.5917,34.0],[-82.8727,9.5942,33.5],[-82.8641,9.59,37.6012],[-82.8605,9.5903,46.2899],[-82.8595,9.5915,44.4922],[-82.8635,9.5955,35.6461],[-82.8602,9.6098,36.9715],[-82.8582,9.6129,33.3383],[-82.8469,9.6165,33.5694],[-82.8396,9.6152,45.6444],[-82.8352,9.6119,27.4841],[-82.8272,9.6112,26.039],[-82.825,9.6051,29.1504],[-82.8185,9.6022,30.8189],[-82.816,9.5973,25.1611],[-82.8066,9.5963,21.4397],[-82.8035,9.5966,30.5383],[-82.8009,9.5994,20.4569],[-82.7933,9.5987,62.7422],[-82.7764,9.5851,19.1966],[-82.7693,9.5878,18.8651],[-82.763,9.5937,21.7152],[-82.7607,9.5941,22.3057],[-82.752,9.5903,19.832],[-82.7463,9.593,19.4743],[-82.7428,9.59,19.9833],[-82.7458,9.5871,21.1819],[-82.7474,9.5817,16.1421],[-82.7434,9.5736,12.0],[-82.7434,9.5685,13.626],[-82.7292,9.5641,19.3721],[-82.7263,9.5599,11.8192],[-82.7289,9.5541,19.4048],[-82.72,9.551,17.3234],[-82.7143,9.5455,15.9136],[-82.7099,9.5536,15.5832],[-82.7076,9.5539,16.2047],[-82.7054,9.5522,15.0868],[-82.703,9.5455,16.2563],[-82.6945,9.5426,12.2123],[-82.6921,9.5351,16.4902],[-82.6994,9.5306,9.0],[-82.7003,9.5282,14.4895],[-82.6931,9.5213,9.7332],[-82.6909,9.5119,12.5216],[-82.6814,9.5068,11.8751],[-82.6789,9.5077,7.5],[-82.6752,9.5129,9.9252],[-82.6725,9.5094,10.4435],[-82.6716,9.5018,13.2694],[-82.6681,9.5006,12.095],[-82.6617,9.5025,16.3797],[-82.6614,9.5085,11.5507],[-82.6593,9.5101,14.5668],[-82.648,9.4975,9.7695],[-82.6353,9.494,6.2466],[-82.6332,9.4962,9.2956],[-82.6354,9.5006,8.5045],[-82.6346,9.5023,9.1039],[-82.6178,9.4982,4.815],[-82.611,9.5003,10.3343],[-82.6046,9.5064,4.5907],[-82.6034,9.5116,7.9791],[-82.6045,9.5212,2.0],[-82.5981,9.534,3.3001],[-82.5987,9.5407,1.0],[-82.6039,9.5515,2.602],[-82.6027,9.5568,15.6618],[-82.6005,9.5588,2.7251],[-82.5888,9.5594,0.5],[-82.5792,9.5569,4.3126],[-82.5724,9.5521,0.5],[-82.5657,9.5422,6.5471],[-82.5607,9.5396,2.2575],[-82.5552,9.5416,1.2971],[-82.5523,9.5476,6.5685],[-82.5541,9.552,8.7553],[-82.5636,9.5614,8.5564],[-82.5648,9.5718,0.5439],[-82.602,9.5947,0.0],[-82.6166,9.6119,3.5831],[-82.6205,9.6209,11.4092],[-82.6187,9.6302,0.0],[-82.622,9.6322,20.7183],[-82.622,9.6346,12.0028],[-82.6333,9.6379,13.9601],[-82.6396,9.636,4.2963],[-82.6485,9.6399,4.5285],[-82.6593,9.6322,0.0],[-82.6669,9.6317,18.7937],[-82.6779,9.636,2.0824],[-82.6854,9.6438,0.0],[-82.6907,9.6409,3.2725],[-82.6935,9.6416,0.0],[-82.6926,9.6396,9.5562],[-82.6944,9.6378,6.8165],[-82.6986,9.6377,4.6323],[-82.7059,9.6409,0.0],[-82.7084,9.6402,16.1095],[-82.7161,9.6423,3.0948],[-82.7198,9.6456,0.0],[-82.7246,9.6436,11.3207],[-82.7306,9.6469,15.3162],[-82.7334,9.646,26.3584],[-82.7342,9.6495,0.0],[-82.7424,9.6573,0.0],[-82.7487,9.6602,6.6815],[-82.7551,9.6583,3.1995],[-82.7575,9.6545,2.3696],[-82.7674,9.6563,0.0],[-82.7817,9.6654,4.3866],[-82.7895,9.6739,0.0],[-82.7901,9.6724,1.68],[-82.7899,9.6745,0.0],[-82.8016,9.6933,2.6459],[-82.8143,9.7186,4.668],[-82.8154,9.7271,11.9903],[-82.8135,9.7329,6.5228],[-82.8103,9.7364,0.0],[-82.811,9.7399,4.6993],[-82.809,9.745,8.7842],[-82.8157,9.7497,2.5844],[-82.8185,9.7464,2.6488],[-82.8193,9.7418,9.9338],[-82.8294,9.7342,4.3118],[-82.8377,9.7363,5.2907],[-82.8408,9.7415,1.4489],[-82.8477,9.7412,0.0],[-82.8573,9.7501,2.9163],[-82.8638,9.7538,0.0],[-82.8913,9.7907,0.0],[-82.8934,9.7892,6.2281],[-82.8931,9.7905,3.5816],[-82.895,9.79,6.2281],[-82.8934,9.791,3.5816],[-82.8944,9.7923,0.8271],[-82.8968,9.7912,2.0519],[-82.8958,9.794,0.9747],[-82.8998,9.7965,8.2955],[-82.9043,9.8038,5.7183],[-82.9043,9.8052,5.7183],[-82.9017,9.8029,13.1933],[-82.9024,9.8063,7.0794],[-82.917,9.8236,1.1961],[-82.9198,9.8249,8.469],[-82.9193,9.8263,3.0598],[-82.9333,9.8437,1.2612],[-82.9366,9.8455,9.826],[-82.9364,9.848,3.3783],[-82.9576,9.8749,0.0],[-82.9613,9.8766,8.2842],[-82.9609,9.8788,0.0],[-82.9668,9.887,0.8397],[-82.9818,9.9061,6.1887],[-82.9858,9.9086,4.1072],[-82.9865,9.9125,0.0],[-82.9982,9.928,3.1802],[-83.0006,9.9282,3.0168],[-83.0031,9.9344,1.0574],[-83.0245,9.9627,0.7781],[-83.0304,9.9752,0.0],[-83.031,9.9874,2.7654],[-83.0357,9.9869,3.7912],[-83.0349,9.9877,4.58],[-83.0286,9.9898,1.4083],[-83.0267,9.9872,0.0],[-83.0275,9.9898,1.4083],[-83.0257,9.9907,3.8232],[-83.0239,9.9886,0.0],[-83.0251,9.9872,0.0],[-83.0228,9.9889,0.3796],[-83.0253,9.9909,3.8232],[-83.0238,9.9915,3.0242],[-83.0203,9.9896,0.2304],[-83.0202,9.9879,0.0],[-83.0199,9.9898,0.2304],[-83.0281,9.9957,2.9344],[-83.025,10.001,0.7543],[-83.0274,10.003,0.4572],[-83.0317,10.003,1.2361],[-83.0356,10.0069,3.6262],[-83.0389,10.0068,3.1053],[-83.0423,10.0094,0.0],[-83.0463,10.0093,7.2511],[-83.0459,10.0106,0.0],[-83.0494,10.0116,8.522],[-83.059,10.0084,11.5154],[-83.062,10.0088,1.6169],[-83.064,10.0106,19.1223],[-83.0631,10.0138,2.961],[-83.0655,10.0149,14.4281],[-83.0672,10.0106,7.1763],[-83.0691,10.0127,7.6299],[-83.0736,10.0129,8.5522],[-83.0778,10.0109,0.0],[-83.0796,10.012,0.0],[-83.0775,10.0078,0.0],[-83.0783,10.0009,0.0],[-83.0803,10.0067,0.0],[-83.0799,10.0024,0.0],[-83.0787,10.0006,0.0],[-83.0926,10.0012,2.318],[-83.107,10.0091,0.4791],[-83.1299,10.0357,4.1477],[-83.1853,10.1103,8.0372],[-83.2199,10.1498,0.0],[-83.2687,10.2129,2.3399],[-83.2945,10.2403,4.4788],[-83.3472,10.3054,1.0763],[-83.3619,10.3195,8.5546],[-83.3753,10.336,15.2638],[-83.4084,10.3813,0.0],[-83.441,10.4308,2.2227],[-83.4871,10.5122,0.0],[-83.5203,10.583,0.0],[-83.523,10.5801,3.9312],[-83.5218,10.5873,0.0],[-83.5506,10.657,6.5949],[-83.5688,10.7115,8.9271],[-83.5839,10.7734,1.4966],[-83.5858,10.7839,8.3477],[-83.5848,10.7866,7.4461],[-83.588,10.7866,2.1017],[-83.5892,10.7894,0.9132],[-83.5864,10.7973,0.0],[-83.6023,10.8319,1.7226],[-83.6126,10.8607,0.0],[-83.6262,10.8912,0.0],[-83.642,10.9146,0.0],[-83.6625,10.9323,0.0],[-83.6643,10.9332,0.0],[-83.6684,10.9291,0.6668],[-83.6756,10.9257,9.6586],[-83.675,10.9307,3.2483],[-83.6726,10.9321,0.0],[-83.6744,10.9346,4.9229],[-83.6784,10.9363,4.2372],[-83.6821,10.9355,8.9253],[-83.6875,10.9384,0.0],[-83.6919,10.9374,5.1993],[-83.6942,10.939,0.0],[-83.6973,10.9386,2.9801],[-83.6962,10.9353,0.9581],[-83.6899,10.935,2.6395],[-83.6882,10.9334,0.1501],[-83.6816,10.9194,5.5385],[-83.6731,10.9081,0.9841],[-83.675299999999993,10.9066,1.0228],[-83.6791,10.9095,1.1944],[-83.6765,10.9024,3.6076],[-83.6826,10.8974,2.5526],[-83.6756,10.8916,7.6131],[-83.6705,10.8916,2.5425],[-83.6686,10.889099999999999,7.1351],[-83.667,10.8797,4.5764],[-83.6749,10.852,3.5769],[-83.6704,10.8409,8.3811],[-83.6679,10.8381,14.9832],[-83.668,10.8319,3.599],[-83.6639,10.8278,45.6806],[-83.6604,10.8189,8.8875],[-83.6687,10.7992,4.4903],[-83.6716,10.7969,5.215],[-83.6968,10.7874,9.9453],[-83.7005,10.7877,5.4873],[-83.7077,10.7917,7.3908],[-83.7144,10.7927,5.0478],[-83.7244,10.7855,7.5635],[-83.7455,10.7797,7.3612],[-83.7598,10.7746,7.8938],[-83.7618,10.7722,6.0],[-83.7499,10.7676,5.5],[-83.7404,10.7561,5.0],[-83.7326,10.7388,6.8571],[-83.7331,10.7366,4.0],[-83.7404,10.7304,6.3961],[-83.741,10.7259,3.5],[-83.7394,10.7211,3.5],[-83.7165,10.7034,7.7124],[-83.71,10.6925,3.6958],[-83.7194,10.6918,12.938],[-83.7288,10.6944,24.0241],[-83.7353,10.6924,11.5135],[-83.7421,10.6926,16.9915],[-83.7484,10.6938,10.6544],[-83.7501,10.696,8.8666],[-83.7561,10.6956,9.6949],[-83.759,10.6991,11.2264],[-83.7609,10.6981,10.3636],[-83.7651,10.6994,9.5331],[-83.7709,10.6963,17.8869],[-83.7752,10.6882,10.5385],[-83.7798,10.6842,10.1524],[-83.7807,10.679,17.2038],[-83.7864,10.6712,23.3579],[-83.7857,10.6652,10.2949],[-83.7875,10.6577,26.6674],[-83.7965,10.653,15.2204],[-83.8091,10.6524,17.0092],[-83.8117,10.6486,20.3899],[-83.8157,10.65,24.7401],[-83.8305,10.6448,18.9727],[-83.8356,10.6453,18.1447],[-83.8391,10.6437,18.0933],[-83.8408,10.6404,21.1878],[-83.8403,10.6372,21.4931],[-83.8424,10.6311,21.2805],[-83.8401,10.6208,21.26],[-83.8418,10.6148,24.1417],[-83.845,10.613,24.3705],[-83.8434,10.6064,24.7627],[-83.8456,10.6063,27.0363],[-83.8457,10.6039,25.3799],[-83.842,10.6011,26.1324],[-83.8414,10.5951,28.9728],[-83.8389,10.5943,28.2293],[-83.8363,10.5897,36.1568],[-83.8387,10.5888,39.1955],[-83.8367,10.584,42.2769],[-83.8394,10.5774,41.6213],[-83.8437,10.5729,37.0641],[-83.8404,10.5663,32.8369],[-83.844,10.5636,33.8289],[-83.8457,10.5588,34.5898],[-83.845,10.5559,35.6969],[-83.8473,10.5511,35.7506],[-83.8431,10.5487,35.0751],[-83.8462,10.5463,35.9523],[-83.8454,10.54,36.9661],[-83.8404,10.5392,37.2527],[-83.8378,10.5324,37.0951],[-83.8376,10.5157,41.8504],[-83.8392,10.5115,41.4595],[-83.8311,10.5034,41.7883],[-83.8322,10.4962,45.8023],[-83.8281,10.4944,44.0269],[-83.831,10.4819,44.5719],[-83.8365,10.4787,46.3812],[-83.8386,10.4745,45.8632],[-83.838,10.4721,45.9904],[-83.8319,10.4675,48.0085],[-83.831,10.4622,47.4213],[-83.8393,10.4551,51.3616],[-83.8447,10.4451,50.7882],[-83.856,10.4466,52.0775],[-83.8594,10.4446,53.2413],[-83.8598,10.4377,54.6062],[-83.8665,10.4354,56.038],[-83.874,10.429,56.8103],[-83.8753,10.4164,59.7469],[-83.8805,10.4036,62.7281],[-83.8754,10.3904,61.3822],[-83.8727,10.3896,63.4067],[-83.8691,10.3808,62.3964],[-83.8653,10.3797,69.5667],[-83.865,10.3755,66.1271],[-83.8576,10.3673,64.5884],[-83.8549,10.359,67.3641],[-83.8504,10.3543,73.4617],[-83.8517,10.3487,77.5689],[-83.8489,10.335,79.3262],[-83.85,10.3302,85.3051],[-83.8532,10.3264,82.5244],[-83.8522,10.3207,86.8206],[-83.8542,10.3182,86.4561],[-83.8532,10.3103,91.6793],[-83.8512,10.3076,95.0763],[-83.8527,10.3014,99.6341],[-83.8506,10.2887,113.4131],[-83.8516,10.2858,118.7534],[-83.85,10.2821,121.3032],[-83.8525,10.2752,122.6988],[-83.852,10.2712,128.1173],[-83.8553,10.2656,130.5551],[-83.8547,10.2623,131.2979],[-83.8575,10.255,139.8174],[-83.8638,10.2479,154.5935],[-83.8733,10.2428,169.5339],[-83.8969,10.2188,228.8119],[-83.9027,10.2107,238.1959],[-83.9339,10.1854,337.2241],[-83.9367,10.179,429.6457],[-83.9375,10.1707,374.2995],[-83.9426,10.1627,406.5967],[-83.947,10.1473,473.381],[-83.7224,10.0385,2340.9106],[-83.7143,10.0378,2331.8296],[-83.7091,10.041,2222.0156],[-83.7068,10.0408,2131.4265],[-83.6897,10.0298,1661.5001],[-83.6801,10.0258,1356.8042],[-83.6689,10.0247,1161.5155],[-83.6644,10.0193,1017.5441],[-83.6591,10.0163,929.3668],[-83.6564,10.018,888.905],[-83.6543,10.0158,855.7557],[-83.6494,10.0148,775.8674],[-83.6452,10.0108,710.7134],[-83.6394,10.0101,678.2791],[-83.6376,10.0084,700.9794],[-83.6373,10.0045,623.3113],[-83.6341,10.0057,607.7054],[-83.6305,9.9993,582.6473],[-83.6295,10.0005,496.1339],[-83.6249,9.9991,471.4297],[-83.6179,9.9879,482.0151],[-83.6048,9.982,340.4409],[-83.3119,9.9816,52.7434],[-83.3165,9.979,53.203],[-83.3278,9.9651,71.2055],[-83.3331,9.9647,75.117],[-83.3399,9.9602,100.7841],[-83.341,9.9541,88.1486],[-83.3377,9.9439,126.0694],[-83.3383,9.9421,101.8649],[-83.3453,9.9401,112.6296],[-83.3482,9.9361,119.468],[-83.353,9.9383,132.4196],[-83.3513,9.9318,167.7139],[-83.3487,9.9294,182.4863],[-83.3507,9.9264,204.3656],[-83.3498,9.9216,156.5477],[-83.3467,9.9201,166.5569],[-83.3449,9.9168,202.0484],[-83.3487,9.9148,163.8116],[-83.3489,9.9079,247.1682],[-83.3476,9.9056,275.9532],[-83.3494,9.9035,219.5695],[-83.3439,9.8999,186.2071],[-83.3478,9.898,218.9715],[-83.3438,9.8936,250.6719],[-83.3403,9.894,217.9289],[-83.3424,9.8890999999999991,252.6867],[-83.3348,9.8851,284.975],[-83.3374,9.8841,269.6485],[-83.3341,9.8792,304.8527],[-83.3366,9.8751,328.1845],[-83.3347,9.8719,349.0669],[-83.3394,9.8601,384.008],[-83.3358,9.8475,455.9419],[-83.3321,9.844,450.2598],[-83.3341,9.8383,453.1148],[-83.3387,9.8338,433.4713],[-83.3363,9.8303,457.1037],[-83.3363,9.8231,474.8091],[-83.3404,9.8213,511.2071],[-83.3463,9.8103,514.9507],[-83.3556,9.8022,551.8942],[-83.3566,9.7966,514.1466],[-83.3674,9.7856,534.4299],[-83.3686,9.7808,583.3624],[-83.3781,9.7739,556.7697],[-83.3831,9.7676,606.59],[-83.397,9.7417,635.029],[-83.4047,9.7368,691.1974],[-83.4079,9.73,660.1652],[-83.4104,9.7288,736.9778],[-83.4109,9.7256,674.6644],[-83.4292,9.7067,726.3571],[-83.4293,9.6994,737.065],[-83.4268,9.6915,791.4656],[-83.428,9.6799,885.483],[-83.4331,9.6718,816.8909],[-83.4407,9.6649,855.7419],[-83.4468,9.6533,915.7955],[-83.4496,9.6522,918.8438],[-83.4517,9.6479,967.8444],[-83.4575,9.6474,1006.007],[-83.4634,9.6429,1070.9387],[-83.4681,9.6329,1057.6592],[-83.4736,9.6323,1133.1042],[-83.4821,9.6283,1115.2428],[-83.4914,9.6136,1228.4158],[-83.4939,9.6129,1209.8806],[-83.5027,9.603,1269.157],[-83.5066,9.6017,1306.5077],[-83.5118,9.5971,1307.1112],[-83.5114,9.5941,1469.9213],[-83.5068,9.5895,1559.9727],[-83.5045,9.5837,1676.7437],[-83.5078,9.575,1900.8062],[-83.5133,9.5676,2242.9932],[-83.5144,9.561,2417.6628],[-83.5131,9.5569,2382.1411],[-83.5162,9.5531,2413.2241],[-83.5138,9.5407,2602.8218],[-83.5155,9.5356,2661.1104],[-83.5073,9.5298,2800.7739],[-83.5032,9.5299,2857.4468],[-83.4979,9.5243,3109.2109],[-83.4952,9.5176,3205.7666],[-83.4947,9.5104,3322.9141],[-83.4865,9.4988,3486.8706],[-83.4886,9.495,3503.9116],[-83.4875,9.4917,3496.6694],[-83.4889,9.482,3652.457],[-83.4837,9.4729,3675.1558],[-83.4837,9.4683,3531.2427],[-83.4817,9.4658,3550.175],[-83.4811,9.4577,3665.7141],[-83.4783,9.45,3469.2507],[-83.4808,9.4436,3448.4155],[-83.4797,9.4382,3370.6423],[-83.4824,9.4324,3382.9341],[-83.482,9.4281,3407.2573],[-83.4726,9.4196,3132.0352],[-83.4703,9.4102,3200.9954],[-83.4659,9.4055,3239.4268],[-83.4583,9.3832,2875.0317],[-83.4547,9.3793,3039.5515],[-83.4499,9.3773,3114.1968],[-83.4401,9.3771,3142.6621],[-83.4374,9.3709,3115.603],[-83.4314,9.3722,3117.6396],[-83.4293,9.3673,3107.0334],[-83.4222,9.3663,3004.0991],[-83.4183,9.3631,3003.1462],[-83.4155,9.3574,2910.7375],[-83.4059,9.3531,2895.2544],[-83.4036,9.3485,2848.3943],[-83.4006,9.3478,2886.0408],[-83.4007,9.3425,2882.6934],[-83.3986,9.3372,2883.6736],[-83.3939,9.3424,2852.0791],[-83.3857,9.3464,2898.6494],[-83.3783,9.3464,2873.9646],[-83.3754,9.3478,2844.3062],[-83.3667,9.3461,2738.2881],[-83.3553,9.3523,2980.4551],[-83.3515,9.3508,3021.624],[-83.3445,9.3572,2934.5342],[-83.3435,9.363,2964.2166],[-83.3448,9.3669,2989.3137],[-83.342,9.3707,2909.8491],[-83.3386,9.371,2923.3059],[-83.3347,9.3742,3007.6841],[-83.3325,9.383,3071.0977],[-83.3276,9.3815,2978.7834],[-83.3256,9.3837,2952.52],[-83.3206,9.3842,3023.2292],[-83.3121,9.3826,3138.0564],[-83.3075,9.3769,3169.8997],[-83.3029,9.3746,3253.5603],[-83.2991,9.3685,3063.042],[-83.2904,9.3629,2865.0378],[-83.2874,9.3553,2809.812],[-83.279,9.3557,2682.3594],[-83.2719,9.3523,2619.3503],[-83.2687,9.3477,2553.7327],[-83.2619,9.3454,2306.8022],[-83.257,9.3416,2288.5042],[-83.2409,9.3389,2259.5161],[-83.2358,9.3296,2316.8306],[-83.229,9.3268,2337.0916],[-83.2241,9.3205,2539.1023],[-83.2068,9.3207,2612.4326],[-83.1973,9.3236,2648.6606],[-83.1885,9.3227,2853.7576],[-83.178,9.3268,3039.5366],[-83.1685,9.3193,2973.5278],[-83.1644,9.3077,2794.3628],[-83.1572,9.3031,2825.666],[-83.1574,9.3,2813.0581],[-83.1533,9.2981,2749.2266],[-83.1515,9.2949,2710.0452],[-83.1449,9.2926,2753.5835],[-83.1452,9.2896,2709.8936],[-83.1344,9.282,2868.5815],[-83.1342,9.2762,2870.1426],[-83.1166,9.2749,2632.9465],[-83.1132,9.2717,2542.2441],[-83.1102,9.2654,2474.1086],[-83.1029,9.263,2669.8181],[-83.1024,9.2592,2658.7715],[-83.0983,9.2563,2715.5496],[-83.0917,9.2538,2775.6321],[-83.0843,9.2556,2850.25],[-83.0733,9.2499,2933.4497],[-83.0717,9.2427,3041.1147],[-83.0733,9.2368,2917.6943],[-83.0797,9.2338,2862.4094],[-83.0791,9.2285,2820.4551],[-83.0758,9.224,2913.3003],[-83.0768,9.22,3011.4695],[-83.0702,9.212,2956.0496],[-83.0669,9.2106,2993.4902],[-83.0629,9.2043,2947.7688],[-83.0568,9.2,2951.6846],[-83.0578,9.194,2958.8386],[-83.067,9.1894,2820.8835],[-83.0673,9.183,2726.9438],[-83.065,9.1769,2714.0642],[-83.057,9.1685,2695.0059],[-83.0459,9.1603,2656.4497],[-83.0405,9.1615,2593.0266],[-83.038,9.16,2607.6716],[-83.0332,9.1617,2573.3921],[-83.0195,9.1583,2558.3284],[-83.016,9.1589,2549.698],[-83.0074,9.1559,2634.7886],[-83.0028,9.1559,2653.9094],[-82.9969,9.1586,2692.9514],[-82.9923,9.1553,2676.4873],[-82.9915,9.1528,2669.8574],[-82.996,9.1444,2569.5369],[-82.9941,9.1425,2551.4341],[-82.9927,9.1357,2506.1216],[-82.9966,9.127,2519.2668],[-82.9874,9.1244,2566.4089],[-82.9895,9.1167,2515.6567],[-82.9813,9.113,2517.3193],[-82.9814,9.1064,2542.2371],[-82.9786,9.1033,2540.9043],[-82.9779,9.0959,2552.1555],[-82.9759,9.0943,2545.2605],[-82.9709,9.0966,2535.9111],[-82.9582,9.0899,2649.5986],[-82.9547,9.0915,2673.5527],[-82.9512,9.0908,2682.5955],[-82.9428,9.0771,2700.8569],[-82.939,9.0749,2708.353],[-82.9342,9.0787,2766.2461],[-82.9341,9.4751,620.204],[-82.8411,9.4971,109.7553],[-82.8442,9.4991,99.6472],[-82.8425,9.5043,76.4817],[-82.8478,9.5086,84.1559],[-82.8475,9.5142,123.788],[-82.856,9.5117,68.6897],[-82.8572,9.5128,71.588],[-82.8531,9.5168,72.0707],[-82.8555,9.5198,72.6322],[-82.8648,9.5181,81.0978],[-82.8725,9.5245,62.8929],[-82.8719,9.5334,68.209],[-82.8742,9.538,62.2582],[-82.8675,9.545,71.2993],[-82.8691,9.5506,47.5547],[-82.8685,9.5539,53.555],[-82.8712,9.5554,55.1985],[-82.8775,9.5533,79.0571],[-82.8812,9.5568,49.3752],[-82.8818,9.5637,43.7269]]],
[[[-82.6151,9.6312,0.0],[-82.6171,9.6317,0.2691],[-82.6175,9.6308,0.0],[-82.6157,9.6301,0.0],[-82.6151,9.6312,0.0]]],
[[[-82.8942,9.7931,0.8271],[-82.8929,9.7911,0.0],[-82.8927,9.791,0.0],[-82.8945,9.7951,9.446],[-82.8942,9.7931,0.8271]]],
[[[-82.8982,9.7986,1.1299],[-82.8965,9.7964,2.7604],[-82.9006,9.8044,0.0],[-82.9008,9.8031,3.2298],[-82.8982,9.7986,1.1299]]],
[[[-83.011,9.9935,11.3185],[-83.0108,9.9957,0.0],[-83.0135,9.9949,5.2852],[-83.0117,9.9924,11.3185],[-83.011,9.9935,11.3185]]],
[[[-83.0768,10.018,0.0],[-83.076,10.0174,0.0],[-83.0758,10.0175,0.0],[-83.0763,10.0182,0.0],[-83.0768,10.018,0.0]]]]}}