{"type":"Feature","properties":{"GID_2":"CRI.1.7_1","GID_0":"CRI","country":"CostaRica","GID_1":"CRI.1_1","province":"Alajuela","NL_NAME_1":"NA","county":"Naranjo","VARNAME_2":"NA","NL_NAME_2":"NA","TYPE_2":"Cantón","ENGTYPE_2":"Canton","CC_2":"6","HASC_2":"CR.AL.NA","name":"Naranjo.county"},
"geometry":{"type": "MultiPolygon","coordinates": [[[[-84.3909,10.0388,800.6646],[-84.3858,10.0367,748.5837],[-84.3666,10.0344,678.6442],[-84.3645,10.0306,655.0034],[-84.3656,10.0258,642.8336],[-84.3641,10.0201,612.1096],[-84.3606,10.018,601.9919],[-84.3582,10.0244,684.6779],[-84.3584,10.0352,744.9254],[-84.3565,10.0377,719.0883],[-84.3601,10.0405,731.5746],[-84.3571,10.0442,757.701],[-84.3586,10.0556,812.9156],[-84.3566,10.0585,806.2918],[-84.3592,10.0703,843.0325],[-84.3585,10.0744,877.7336],[-84.3602,10.0776,875.9537],[-84.3592,10.0802,878.6591],[-84.3621,10.087,916.84],[-84.3557,10.0999,1000.8527],[-84.3569,10.1015,1000.7717],[-84.3573,10.1068,1030.2372],[-84.3558,10.1098,1086.4216],[-84.3571,10.1146,1118.4658],[-84.3521,10.1208,1179.3895],[-84.3528,10.1262,1213.3997],[-84.3472,10.1318,1291.8386],[-84.3485,10.1349,1318.7317],[-84.3408,10.148,1480.3643],[-84.3409,10.1574,1686.0486],[-84.3353,10.1574,1623.6986],[-84.3331,10.1623,1715.9427],[-84.3349,10.169,1883.3146],[-84.3338,10.1731,2069.4612],[-84.338,10.173,2133.3435],[-84.3406,10.1758,2154.2063],[-84.3411,10.1894,2098.9939],[-84.3451,10.1935,2139.7202],[-84.3502,10.1878,2160.2422],[-84.3835,10.1796,1674.385],[-84.3878,10.1765,1620.3843],[-84.3933,10.1756,1624.8258],[-84.3954,10.1732,1550.6023],[-84.4017,10.1715,1518.7312],[-84.4024,10.1696,1493.2568],[-84.4089,10.17,1466.5071],[-84.4119,10.1684,1454.5599],[-84.4153,10.1691,1429.2692],[-84.418,10.172,1388.0776],[-84.424,10.169,1360.0049],[-84.4272,10.1714,1335.4857],[-84.4322,10.1682,1283.7384],[-84.4226,10.1414,1342.1432],[-84.4145,10.1297,1236.6603],[-84.4235,10.1285,1191.3552],[-84.4325,10.1249,1130.0936],[-84.4346,10.1225,1123.6786],[-84.434,10.1146,1108.4814],[-84.4395,10.1109,1043.1287],[-84.4439,10.1022,1029.5078],[-84.437,10.0986,1011.3226],[-84.4336,10.086,970.9791],[-84.4304,10.084,967.5651],[-84.4259,10.084,973.9069],[-84.4253,10.0815,951.0889],[-84.4205,10.0798,956.7655],[-84.4127,10.0729,941.9782],[-84.4121,10.0667,920.4724],[-84.4137,10.065,915.3013],[-84.4113,10.063,916.9134],[-84.4111,10.0604,934.2512],[-84.4086,10.0595,919.5484],[-84.4102,10.0566,943.8998],[-84.4078,10.0537,913.472],[-84.4122,10.0456,912.1033],[-84.4126,10.037,924.4078],[-84.4103,10.0376,909.9329],[-84.4041,10.0336,890.795],[-84.4033,10.0352,857.5419],[-84.3909,10.0388,800.6646]]]]}}