{"type":"Feature","properties":{"GID_3":"CRI.7.4.4_1","GID_0":"CRI","country":"CostaRica","GID_1":"CRI.7_1","province":"SanJosé","NL_NAME_1":"NA","GID_2":"CRI.7.4_1","county":"Curridabat","NL_NAME_2":"NA","city":"Tirrases","VARNAME_3":"NA","NL_NAME_3":"NA","TYPE_3":"Distrito","ENGTYPE_3":"District","CC_3":"4","HASC_3":"NA","name":"Tirrases.city"},
"geometry":{"type": "MultiPolygon","coordinates": [[[[-84.021,9.8962,1214.6694],[-84.0244,9.9024,1211.2047],[-84.0259,9.9018,1208.2363],[-84.0265,9.9038,1214.3627],[-84.0283,9.9023,1207.0756],[-84.0318,9.9036,1201.2357],[-84.0319,9.9071,1204.8651],[-84.0416,9.9093,1181.3444],[-84.0451,9.907,1172.296],[-84.0456,9.9042,1171.6295],[-84.0474,9.9042,1171.6295],[-84.0335,9.9005,1315.7471],[-84.0271,9.8936,1305.3473],[-84.021,9.8962,1214.6694]]]]}}