{"type":"Feature","properties":{"GID_3":"CRI.1.16.7_1","GID_0":"CRI","country":"CostaRica","GID_1":"CRI.1_1","province":"Alajuela","NL_NAME_1":"NA","GID_2":"CRI.1.16_1","county":"Zarcero","NL_NAME_2":"NA","city":"Zarcero","VARNAME_3":"NA","NL_NAME_3":"NA","TYPE_3":"Distrito","ENGTYPE_3":"District","CC_3":"1","HASC_3":"NA","name":"Zarcero.city"},
"geometry":{"type": "MultiPolygon","coordinates": [[[[-84.3451,10.1935,2139.7202],[-84.3464,10.1952,2149.2109],[-84.3522,10.195,2067.6436],[-84.3565,10.1967,2107.4319],[-84.3639,10.1956,2105.4893],[-84.3721,10.2024,2141.1145],[-84.374,10.2024,2137.9648],[-84.3762,10.2057,2115.7708],[-84.3824,10.2036,2046.5906],[-84.3842,10.2052,2092.4851],[-84.3957,10.1938,1728.0355],[-84.405,10.1897,1600.8738],[-84.4057,10.1882,1571.8542],[-84.4011,10.1822,1700.4546],[-84.3992,10.1765,1656.5665],[-84.4023,10.1751,1609.0635],[-84.4038,10.172,1520.5129],[-84.3982,10.1719,1544.9653],[-84.3933,10.1756,1624.8258],[-84.3718,10.1831,1751.0286],[-84.3527,10.1869,2070.7854],[-84.3451,10.1935,2139.7202]]]]}}