{"type": "Feature","bbox": [-84.1146,9.8781,-84.0978,9.8989],"geometry": {"type": "MultiPolygon","coordinates": [[[[-84.1044,9.8989,1141.4587],[-84.1146,9.8941,1276.121],[-84.1111,9.8897,1262.8846],[-84.1072,9.8881,1279.3501],[-84.1095,9.8841,1332.5403],[-84.1053,9.8827,1353.0238],[-84.1048,9.8781,1458.9294],[-84.1019,9.8789,1430.4552],[-84.0985,9.8828,1377.6068],[-84.0979,9.8888,1194.2529],[-84.0978,9.8968,1141.1841],[-84.1044,9.8989,1141.4587]]]]}
,"properties": {"GID_3": "CRI.7.2.5_1","GID_0": "CRI","country": "CostaRica","GID_1": "CRI.7_1","province": "SanJosé","NL_NAME_1": "NA","GID_2": "CRI.7.2_1","county": "Alajuelita","NL_NAME_2": "NA","city": "SanJosecito","VARNAME_3": "NA","NL_NAME_3": "NA","TYPE_3": "Distrito","ENGTYPE_3": "District","CC_3": "2","HASC_3": "NA","name": "San_Josecito.city","area_km2": 2.54823,"hist_schema_id": "Elevation0-9000","hist_area_km2": {"1125": 0.020887,"1150": 0.208867,"1175": 0.459511,"1200": 0.313304,"1225": 0.35508,"1250": 0.334194,"1275": 0.250647,"1300": 0.125325,"1325": 0.1671,"1350": 0.062663,"1375": 0.125326,"1400": 0.020888,"1425": 0.041776,"1475": 0.041776,"1500": 0.020888}}}