{"type": "Feature","bbox": [-85.8755,9.9828,-85.4062,10.4885],"geometry": {"type": "MultiPolygon","coordinates": [[[[-85.6017,10.0653,232.0853],[-85.597,10.0654,250.6538],[-85.5943,10.0688,320.0562],[-85.5923,10.0684,336.2397],[-85.592,10.0727,328.7945],[-85.5947,10.074,326.183],[-85.5944,10.0763,336.7772],[-85.5962,10.0756,348.0077],[-85.5961,10.0791,370.8838],[-85.5899,10.0814,445.3221],[-85.5909,10.0844,489.1025],[-85.5889,10.0875,535.7783],[-85.5923,10.0967,655.1353],[-85.5914,10.107,758.0826],[-85.597,10.107,833.3618],[-85.5985,10.1105,865.1659],[-85.5988,10.1149,829.0272],[-85.5957,10.1239,749.4382],[-85.592,10.1273,756.2136],[-85.5845,10.1285,830.0866],[-85.5831,10.1333,792.9265],[-85.5738,10.1399,674.9205],[-85.5664,10.15,696.4672],[-85.5607,10.1535,885.6923],[-85.5586,10.1583,903.5534],[-85.5504,10.1625,749.4309],[-85.5512,10.1641,735.3981],[-85.5473,10.1643,704.1561],[-85.5439,10.1701,649.2303],[-85.5429,10.1757,471.5714],[-85.5407,10.1789,345.1833],[-85.5363,10.1809,280.0113],[-85.5289,10.2014,382.0534],[-85.525,10.226,222.077],[-85.5206,10.2267,240.1389],[-85.5182,10.2302,246.0076],[-85.5152,10.2294,290.7663],[-85.5081,10.2328,478.1946],[-85.5001,10.2337,527.6277],[-85.4987,10.2366,518.9607],[-85.5059,10.2464,415.78],[-85.5057,10.2506,203.5564],[-85.5048,10.2547,127.2919],[-85.5022,10.2575,75.5413],[-85.4994,10.2571,62.9419],[-85.4967,10.2651,44.2808],[-85.4951,10.2661,37.6451],[-85.4978,10.2726,31.4175],[-85.4942,10.2858,19.4834],[-85.4891,10.2962,15.462],[-85.4911,10.3032,16.5925],[-85.4934,10.3043,20.0837],[-85.4955,10.309,22.4182],[-85.4957,10.3161,19.1383],[-85.493,10.32,14.0889],[-85.4963,10.3241,10.0106],[-85.4989,10.324,12.5714],[-85.5009,10.3321,9.0385],[-85.4983,10.3352,9.4772],[-85.4954,10.3328,11.6205],[-85.4897,10.334,10.0868],[-85.4841,10.3383,15.8954],[-85.4808,10.3384,17.7978],[-85.4714,10.3346,15.5394],[-85.4597,10.3344,6.019],[-85.4551,10.3287,4.6291],[-85.4524,10.3295,4.0977],[-85.4508,10.3276,6.357],[-85.4491,10.3278,6.357],[-85.4481,10.3246,3.9101],[-85.4448,10.3255,3.581],[-85.4428,10.3281,3.6847],[-85.4382,10.3282,3.5525],[-85.4388,10.3317,5.0702],[-85.4425,10.3332,5.5082],[-85.4374,10.3372,4.7245],[-85.4356,10.3365,3.5129],[-85.434,10.3319,3.8535],[-85.427,10.3282,3.2954],[-85.4291,10.3341,6.5962],[-85.4267,10.3403,3.9785],[-85.4229,10.3412,10.2408],[-85.4228,10.3436,8.78],[-85.4079,10.3465,3.4917],[-85.4062,10.3587,6.1412],[-85.4105,10.3619,8.3525],[-85.4102,10.3651,9.4294],[-85.4129,10.3675,8.808],[-85.4224,10.3698,11.6742],[-85.4322,10.3676,9.4175],[-85.4497,10.3687,11.4959],[-85.4549,10.3661,12.438],[-85.4662,10.367,9.7283],[-85.4674,10.3664,8.1183],[-85.4665,10.3634,9.5763],[-85.4655,10.3649,8.9388],[-85.4643,10.3638,9.9358],[-85.4685,10.3621,8.2971],[-85.4681,10.3607,9.7703],[-85.4707,10.3584,12.8566],[-85.4736,10.3569,9.185],[-85.4756,10.3588,7.7002],[-85.479,10.3566,9.729],[-85.4803,10.358,9.0691],[-85.4837,10.3569,11.7489],[-85.481,10.3549,8.5364],[-85.4805,10.3531,10.3166],[-85.4817,10.3522,10.3166],[-85.4789,10.3516,13.2013],[-85.4816,10.3471,20.4098],[-85.4839,10.3506,17.4771],[-85.4849,10.3492,16.5891],[-85.486,10.3509,16.0012],[-85.4884,10.3489,22.1909],[-85.4901,10.3501,14.1182],[-85.4924,10.3481,13.3148],[-85.4941,10.349,9.4446],[-85.4944,10.3463,14.9163],[-85.4962,10.3467,11.0861],[-85.4956,10.3454,11.5363],[-85.4984,10.3462,10.6029],[-85.5007,10.3423,17.1497],[-85.503,10.3428,13.609],[-85.5027,10.3444,13.0758],[-85.5093,10.3446,11.7943],[-85.5211,10.3517,18.771],[-85.5286,10.3517,21.0061],[-85.533,10.3495,17.4775],[-85.5351,10.3516,15.2175],[-85.5338,10.3547,14.6872],[-85.5367,10.3526,16.4836],[-85.5421,10.3535,15.971],[-85.542,10.3573,13.8988],[-85.5436,10.3592,14.3677],[-85.5453,10.3553,16.9431],[-85.5498,10.3583,16.0922],[-85.5508,10.3612,15.6749],[-85.5567,10.3581,20.3418],[-85.559,10.3617,16.3662],[-85.5582,10.3646,17.1943],[-85.5608,10.3583,18.5115],[-85.5686,10.3535,20.8022],[-85.5692,10.3512,19.2016],[-85.5717,10.3527,18.7369],[-85.5728,10.3506,19.5809],[-85.5817,10.3494,16.5387],[-85.5891,10.3407,19.2578],[-85.5913,10.3404,14.0668],[-85.593,10.336,15.294],[-85.604,10.3359,14.4419],[-85.603,10.3379,29.7976],[-85.6064,10.3381,17.7588],[-85.6084,10.3358,15.3546],[-85.6185,10.3347,14.976],[-85.6213,10.3308,15.3896],[-85.6243,10.3285,19.5822],[-85.6267,10.3287,18.8886],[-85.6276,10.3257,19.5984],[-85.6299,10.3253,19.3982],[-85.6367,10.3294,15.5204],[-85.6426,10.329,15.7379],[-85.6449,10.3332,16.7635],[-85.6495,10.3344,17.1378],[-85.6506,10.3379,18.3224],[-85.6499,10.3433,18.7751],[-85.653,10.3518,28.9409],[-85.6514,10.3577,78.8162],[-85.6555,10.3593,132.1199],[-85.6578,10.3583,120.6362],[-85.6638,10.3627,118.923],[-85.6577,10.3763,177.1551],[-85.6479,10.3774,168.9212],[-85.64,10.3821,254.0612],[-85.6411,10.3852,279.0211],[-85.6397,10.3921,307.0532],[-85.6436,10.3983,245.1946],[-85.6436,10.4015,234.5469],[-85.6468,10.4017,208.4881],[-85.6491,10.3996,191.3165],[-85.6511,10.4013,220.2115],[-85.6543,10.3979,260.5743],[-85.6582,10.411,233.509],[-85.6566,10.418,265.039],[-85.6593,10.4211,275.9762],[-85.663,10.4201,263.5218],[-85.6663,10.4273,367.721],[-85.6672,10.4343,470.1931],[-85.6699,10.4346,410.2593],[-85.6746,10.4318,509.8993],[-85.6801,10.433,404.5105],[-85.686,10.4321,309.9989],[-85.699,10.4361,238.405],[-85.7053,10.4492,292.9526],[-85.7089,10.4494,307.3096],[-85.715,10.4565,337.4291],[-85.7229,10.4588,335.6647],[-85.7252,10.4613,231.8726],[-85.7246,10.4636,271.2144],[-85.7277,10.4653,297.0061],[-85.7313,10.4726,236.5224],[-85.7318,10.4782,197.4578],[-85.7419,10.4841,213.1097],[-85.7496,10.4858,148.2149],[-85.7581,10.4789,321.5333],[-85.7632,10.4812,233.898],[-85.7687,10.4793,209.4571],[-85.7796,10.4873,165.1921],[-85.7849,10.4885,93.7266],[-85.7917,10.487,49.102],[-85.7983,10.4825,12.7739],[-85.7966,10.4813,0.0],[-85.7914,10.4832,3.5689],[-85.7871,10.4806,0.0],[-85.7877,10.4774,2.5384],[-85.7816,10.477,0.0],[-85.7786,10.4701,0.0],[-85.7793,10.4655,0.0],[-85.7766,10.4624,3.4951],[-85.7773,10.4569,0.0],[-85.7736,10.458,1.3177],[-85.7715,10.4546,1.4308],[-85.7756,10.443,4.6818],[-85.7803,10.4381,1.7904],[-85.786,10.437,4.2361],[-85.7905,10.4383,8.4371],[-85.7885,10.4423,0.0],[-85.8,10.4459,0.0],[-85.7995,10.4431,0.0],[-85.7961,10.4423,25.4311],[-85.7938,10.4397,8.3925],[-85.7931,10.4326,0.0],[-85.7957,10.4295,0.0],[-85.7907,10.4227,0.0],[-85.7944,10.4192,0.0],[-85.794,10.4162,7.688],[-85.7985,10.4075,1.5419],[-85.8076,10.401,0.0],[-85.8158,10.4003,5.8695],[-85.8196,10.4023,0.0],[-85.8194,10.4074,0.0],[-85.8209,10.4102,0.0],[-85.8249,10.4096,10.1203],[-85.8263,10.4114,0.0],[-85.8279,10.3989,7.4628],[-85.8328,10.397,14.2297],[-85.8364,10.3997,1.5035],[-85.835,10.3974,13.9684],[-85.8358,10.3926,0.0],[-85.8406,10.385,6.6462],[-85.8443,10.3836,5.89],[-85.8463,10.3804,1.0526],[-85.8454,10.3791,16.5074],[-85.8476,10.3771,4.7924],[-85.8472,10.3726,20.4034],[-85.8505,10.3707,4.3022],[-85.8544,10.3713,0.0],[-85.8542,10.369,0.0],[-85.8571,10.3667,27.1475],[-85.8593,10.3682,10.8148],[-85.8623,10.3661,7.0434],[-85.8654,10.3667,9.8521],[-85.8682,10.3617,81.5061],[-85.8728,10.359,5.3264],[-85.8755,10.3552,0.0],[-85.8736,10.354,103.5319],[-85.8725,10.3489,37.2667],[-85.8695,10.3491,23.7558],[-85.8661,10.3468,0.0],[-85.8651,10.3485,28.7605],[-85.863,10.3483,1.6117],[-85.8613,10.3442,3.4788],[-85.8573,10.3446,0.0],[-85.8543,10.3386,0.0],[-85.845,10.3299,6.7363],[-85.8401,10.3204,0.0],[-85.8391,10.3106,0.0],[-85.8419,10.3004,1.8973],[-85.848,10.2953,10.8704],[-85.8523,10.2954,2.7254],[-85.8534,10.2925,7.2793],[-85.849,10.2732,0.0],[-85.8529,10.2619,2.1503],[-85.8514,10.2534,3.4937],[-85.8474,10.2422,4.9715],[-85.8419,10.2361,0.0],[-85.8388,10.2285,0.0],[-85.8351,10.2073,12.2894],[-85.836,10.2011,2.9045],[-85.828,10.1923,8.3946],[-85.8225,10.1815,0.6815],[-85.8187,10.1789,13.3861],[-85.8185,10.1735,0.0],[-85.8151,10.1707,0.0],[-85.8095,10.1604,0.0],[-85.8081,10.1551,5.2593],[-85.8088,10.1501,1.3738],[-85.8008,10.1423,0.0],[-85.8008,10.1345,0.0],[-85.7936,10.1182,3.24],[-85.7951,10.1165,0.0],[-85.7939,10.1138,7.4359],[-85.7952,10.1102,0.0],[-85.7886,10.102,0.0],[-85.7887,10.0941,0.0],[-85.7843,10.0913,0.0],[-85.7795,10.0853,0.0],[-85.7777,10.0801,4.3678],[-85.7721,10.0748,0.0],[-85.7732,10.0733,0.0],[-85.7697,10.0719,0.0],[-85.7709,10.0692,0.0],[-85.7698,10.0673,3.7681],[-85.767,10.067,0.8865],[-85.7662,10.0625,1.5982],[-85.7638,10.0615,0.0],[-85.7636,10.0592,3.137],[-85.7529,10.0509,4.8761],[-85.7498,10.0502,1.8754],[-85.748,10.0429,4.1269],[-85.7435,10.0361,0.0],[-85.7434,10.0307,0.0],[-85.7406,10.0315,11.5363],[-85.7376,10.0292,11.4903],[-85.7414,10.0271,0.0],[-85.737799999999993,10.0249,0.0],[-85.7368,10.0266,5.7822],[-85.7312,10.0245,3.382],[-85.7304,10.0214,0.0],[-85.7275,10.0209,1.7667],[-85.7273,10.0176,0.0],[-85.7293,10.0166,0.0],[-85.7247,10.0127,0.0],[-85.7223,10.0134,20.603],[-85.7016,9.993,0.0],[-85.6971,9.9932,5.7111],[-85.6986,9.992,0.0],[-85.7007,9.9925,0.0],[-85.6968,9.9867,0.6342],[-85.6903,9.992,4.7225],[-85.6814,9.987,8.3649],[-85.6796,9.9831,28.8761],[-85.6776,9.9836,35.4352],[-85.6772,9.9867,16.6148],[-85.6713,9.9828,28.3546],[-85.6714,9.9892,21.2079],[-85.6697,9.9922,35.2238],[-85.6736,9.9947,12.7727],[-85.6717,9.9956,27.4769],[-85.6673,9.9939,27.5196],[-85.6631,9.9958,36.1961],[-85.6623,9.9992,30.6796],[-85.6606,9.9993,44.8222],[-85.6609,10.0022,62.0549],[-85.6653,10.001,125.682],[-85.6624,10.006,46.5883],[-85.6591,10.0054,71.5745],[-85.6615,10.008,58.8558],[-85.6619,10.012,43.3042],[-85.6604,10.0095,60.4855],[-85.6511,10.0106,64.171],[-85.6492,10.0095,67.7782],[-85.6472,10.0157,145.5461],[-85.6445,10.0118,136.606],[-85.6431,10.0169,63.0249],[-85.6405,10.0124,69.9611],[-85.6412,10.0156,83.0831],[-85.6397,10.0174,109.8067],[-85.636,10.0156,144.6327],[-85.6386,10.0194,167.7878],[-85.6346,10.0205,105.8241],[-85.6366,10.0264,194.1242],[-85.6339,10.0331,112.0698],[-85.6313,10.0336,128.618],[-85.6303,10.0364,162.8242],[-85.6283,10.0352,125.4573],[-85.6287,10.0373,184.5756],[-85.626,10.0386,136.3694],[-85.6285,10.0396,178.5733],[-85.6268,10.0414,148.4193],[-85.6294,10.0446,153.1965],[-85.6271,10.0458,175.1114],[-85.6274,10.0487,158.1193],[-85.6239,10.0529,174.9301],[-85.6241,10.0555,176.6656],[-85.6191,10.056,187.0392],[-85.6146,10.0525,175.6358],[-85.614,10.0538,214.6847],[-85.6079,10.054,205.8367],[-85.6058,10.0554,206.5425],[-85.6062,10.0588,208.8749],[-85.6082,10.0593,202.2096],[-85.6075,10.0614,213.6119],[-85.6059,10.0635,215.491],[-85.6024,10.0635,230.5271],[-85.6017,10.0653,232.0853]]],
[[[-85.7965,10.4196,0.0],[-85.7953,10.4199,0.0],[-85.7954,10.421,0.0],[-85.7969,10.4202,0.0],[-85.7965,10.4196,0.0]]],
[[[-85.8008,10.4494,5.3159],[-85.8043,10.4503,18.537],[-85.8055,10.4473,0.0],[-85.803,10.4453,0.0],[-85.8008,10.4494,5.3159]]],
[[[-85.8529,10.3007,0.0],[-85.8544,10.3008,0.0],[-85.8552,10.299,0.2285],[-85.852,10.2991,0.0],[-85.8529,10.3007,0.0]]],
[[[-85.8668,10.3675,0.0],[-85.8661,10.3678,2.3749],[-85.8675,10.3684,0.0],[-85.8676,10.3681,0.0],[-85.8668,10.3675,0.0]]],
[[[-85.8491,10.3725,0.0],[-85.8488,10.3723,0.0],[-85.8487,10.3726,0.0],[-85.849,10.3727,0.0],[-85.8491,10.3725,0.0]]],
[[[-85.8452,10.3845,0.0],[-85.8448,10.3845,0.0],[-85.8453,10.3852,0.0],[-85.8456,10.3849,0.0],[-85.8452,10.3845,0.0]]],
[[[-85.84,10.3873,0.0],[-85.8398,10.3872,0.0],[-85.8396,10.3873,0.0],[-85.8399,10.3875,0.0],[-85.84,10.3873,0.0]]],
[[[-85.8596,10.4616,0.0],[-85.8591,10.4616,0.0],[-85.8588,10.4623,0.0],[-85.859,10.4623,0.0],[-85.8596,10.4616,0.0]]],
[[[-85.7813,10.4646,2.8963],[-85.7836,10.4644,1.6073],[-85.7839,10.464,1.6073],[-85.7827,10.4631,0.0],[-85.7813,10.4646,2.8963]]],
[[[-85.7962,10.4778,0.0],[-85.7961,10.4773,0.0],[-85.7952,10.4779,0.0],[-85.7957,10.478,0.0],[-85.7962,10.4778,0.0]]],
[[[-85.7987,10.4787,0.0],[-85.7982,10.4785,0.0],[-85.798,10.4786,0.0],[-85.7986,10.4788,0.0],[-85.7987,10.4787,0.0]]]]}
,"properties": {"GID_2": "CRI.3.10_1","GID_0": "CRI","country": "CostaRica","GID_1": "CRI.3_1","province": "Guanacaste","NL_NAME_1": "NA","county": "SantaCruz","VARNAME_2": "NA","NL_NAME_2": "NA","TYPE_2": "Cantón","ENGTYPE_2": "Canton","CC_2": "3","HASC_2": "CR.GU.SC","name": "Santa_Cruz.county","area_km2": 1325.757,"hist_schema_id": "Elevation0-9000","hist_area_km2": {"0": 73.096,"25": 294.525,"50": 188.094,"75": 134.981,"100": 97.433,"125": 74.883,"150": 60.842,"175": 51.205,"200": 44.132,"225": 37.56,"250": 32.366,"275": 28.36,"300": 24.228,"325": 23.916,"350": 24.772,"375": 20.765,"400": 19.346,"425": 14.755,"450": 12.272,"475": 8.599,"500": 6.303,"525": 6.115,"550": 5.176,"575": 4.383,"600": 4.487,"625": 3.757,"650": 4.216,"675": 4.529,"700": 3.799,"725": 3.214,"750": 2.463,"775": 2.839,"800": 2.15,"825": 1.774,"850": 1.649,"875": 1.315,"900": 0.835,"925": 0.397,"950": 0.167,"975": 0.063}}}