{"type":"Feature","properties":{"GID_3":"CRI.6.2.9_1","GID_0":"CRI","country":"CostaRica","GID_1":"CRI.6_1","province":"Puntarenas","NL_NAME_1":"NA","GID_2":"CRI.6.2_1","county":"BuenosAires","NL_NAME_2":"NA","city":"Volcán","VARNAME_3":"NA","NL_NAME_3":"NA","TYPE_3":"Distrito","ENGTYPE_3":"District","CC_3":"2","HASC_3":"NA","name":"Volcán.city"},
"geometry":{"type": "MultiPolygon","coordinates": [[[[-83.4293,9.3673,3107.0334],[-83.4324,9.3633,3051.041],[-83.4384,9.3595,2919.8081],[-83.4463,9.3497,2825.8704],[-83.4544,9.3435,2176.0417],[-83.4578,9.3332,1761.6602],[-83.4574,9.3304,1664.5776],[-83.468,9.3159,1328.4781],[-83.4764,9.2911,964.8685],[-83.491,9.2673,688.1262],[-83.4967,9.2636,639.0241],[-83.5061,9.2619,591.7708],[-83.51,9.253,526.4],[-83.5096,9.2485,502.2415],[-83.5122,9.2435,486.3514],[-83.511,9.2408,484.1239],[-83.5127,9.2369,465.5559],[-83.5121,9.2331,472.3994],[-83.5134,9.2293,458.7016],[-83.5154,9.2281,494.9586],[-83.5153,9.2243,455.7936],[-83.5235,9.2165,395.8536],[-83.5227,9.2138,425.2052],[-83.5258,9.2107,391.1442],[-83.5228,9.2079,381.9664],[-83.5194,9.2144,387.6186],[-83.517,9.2152,375.58],[-83.5143,9.2115,425.9901],[-83.517,9.2063,411.9434],[-83.5133,9.2003,399.7525],[-83.5036,9.202,355.6808],[-83.4899,9.1925,364.7641],[-83.4882,9.1939,350.075],[-83.49,9.1958,385.566],[-83.488,9.1996,369.1479],[-83.4859,9.1992,341.7033],[-83.4815,9.1948,360.3953],[-83.4834,9.1907,337.8242],[-83.4817,9.1866,355.6497],[-83.4763,9.1844,338.2249],[-83.4737,9.1812,318.5993],[-83.4781,9.1713,304.9514],[-83.4768,9.1676,304.7737],[-83.474,9.1669,298.2941],[-83.4738,9.1635,303.1413],[-83.4705,9.1594,332.8488],[-83.4721,9.155,293.0554],[-83.4711,9.1521,284.7436],[-83.4689,9.1528,325.0932],[-83.4676,9.1564,306.0591],[-83.4633,9.1565,282.6701],[-83.4624,9.1542,347.4479],[-83.4661,9.1478,301.1982],[-83.4633,9.1457,276.2446],[-83.4574,9.1518,276.3627],[-83.4459,9.1506,274.8978],[-83.4469,9.1413,290.6054],[-83.4448,9.1377,286.6431],[-83.4351,9.139,255.7632],[-83.4242,9.127,233.8216],[-83.4169,9.1286,266.0258],[-83.4187,9.1313,242.0682],[-83.4167,9.1371,278.1083],[-83.4184,9.1412,307.6541],[-83.4172,9.144,287.7687],[-83.4204,9.1488,330.0957],[-83.4171,9.1516,399.3718],[-83.4206,9.1563,395.604],[-83.4185,9.1589,354.6524],[-83.4213,9.1604,366.8056],[-83.4188,9.1633,364.4907],[-83.4231,9.1675,367.7053],[-83.4223,9.1721,365.2732],[-83.4279,9.1776,366.0683],[-83.4265,9.1835,375.1122],[-83.4241,9.1853,379.8305],[-83.4254,9.187,387.4362],[-83.4233,9.1906,402.2045],[-83.4257,9.194,409.7307],[-83.4244,9.1964,416.0945],[-83.4233,9.196,414.8043],[-83.4181,9.2111,488.7664],[-83.4119,9.2159,507.6359],[-83.4183,9.2366,626.4784],[-83.4169,9.2427,702.1205],[-83.4074,9.2606,914.3539],[-83.4078,9.2765,1042.3602],[-83.4049,9.2813,1123.5178],[-83.4072,9.2857,1214.6256],[-83.4078,9.2969,1357.9518],[-83.4129,9.2992,1473.3998],[-83.4094,9.3017,1577.3071],[-83.4078,9.3132,1765.3744],[-83.4059,9.3162,1839.8557],[-83.4085,9.3259,2195.7305],[-83.4007,9.3325,2770.8047],[-83.3986,9.3372,2883.6736],[-83.4007,9.3425,2882.6934],[-83.4006,9.3478,2886.0408],[-83.4036,9.3485,2848.3943],[-83.4055,9.3527,2895.2544],[-83.4155,9.3574,2910.7375],[-83.4183,9.3631,3003.1462],[-83.4222,9.3663,3004.0991],[-83.4293,9.3673,3107.0334]]]]}}