{"type": "Feature","bbox": [-84.4351,10.0133,-84.4047,10.0387],"geometry": {"type": "MultiPolygon","coordinates": [[[[-84.4047,10.0338,857.7955],[-84.4137,10.0387,897.6937],[-84.4182,10.0368,945.8356],[-84.4216,10.0378,958.0885],[-84.4282,10.0351,982.9429],[-84.4288,10.0364,970.6649],[-84.4303,10.0347,969.2005],[-84.4318,10.0359,989.0839],[-84.4351,10.0301,1001.6273],[-84.4335,10.0265,1054.715],[-84.4332,10.016,1176.2263],[-84.4293,10.0133,1288.7988],[-84.425,10.0151,1271.9349],[-84.4221,10.0249,1208.1035],[-84.4124,10.0275,1088.6384],[-84.4047,10.0338,857.7955]]]]}
,"properties": {"GID_3": "CRI.1.9.2_1","GID_0": "CRI","country": "CostaRica","GID_1": "CRI.1_1","province": "Alajuela","NL_NAME_1": "NA","GID_2": "CRI.1.9_1","county": "Palmares","NL_NAME_2": "NA","city": "Candelaria","VARNAME_3": "NA","NL_NAME_3": "NA","TYPE_3": "Distrito","ENGTYPE_3": "District","CC_3": "5","HASC_3": "NA","name": "Candelaria.city","area_km2": 4.655854,"hist_schema_id": "Elevation0-9000","hist_area_km2": {"850": 0.020878,"875": 0.020878,"900": 0.083511,"925": 0.167022,"950": 0.146145,"975": 0.438435,"1000": 0.542827,"1025": 0.626342,"1050": 0.647225,"1075": 0.37581,"1100": 0.396691,"1125": 0.2923,"1150": 0.14615,"1175": 0.125272,"1200": 0.229667,"1225": 0.125273,"1250": 0.083516,"1275": 0.062637,"1300": 0.041758,"1325": 0.083516}}}