{"type": "Feature","bbox": [-84.4776,10.2517,-84.358,10.436],"geometry": {"type": "MultiPolygon","coordinates": [[[[-84.4325,10.2704,1004.34],[-84.4305,10.2681,1029.6846],[-84.4279,10.2684,1047.6746],[-84.4274,10.2659,1071.3815],[-84.4211,10.264,1110.5378],[-84.4032,10.2617,1349.6301],[-84.4014,10.2628,1413.0715],[-84.3996,10.2595,1380.8174],[-84.3982,10.2608,1427.4478],[-84.3918,10.2602,1463.6005],[-84.3906,10.2588,1516.4818],[-84.3872,10.2594,1550.0441],[-84.3864,10.2575,1579.2803],[-84.3826,10.257,1666.0251],[-84.3821,10.2539,1670.2983],[-84.3798,10.2517,1740.0795],[-84.3754,10.2534,1749.7312],[-84.3744,10.2518,1882.6689],[-84.3707,10.2524,1812.5787],[-84.3647,10.2563,1882.2482],[-84.3603,10.2554,1969.6459],[-84.358,10.2594,2056.3271],[-84.3614,10.2737,2128.5898],[-84.358,10.2801,2021.2109],[-84.36,10.2822,2010.6492],[-84.3594,10.2861,1937.8971],[-84.3635,10.2948,2079.8069],[-84.3666,10.3158,1481.0367],[-84.3635,10.3281,1187.3165],[-84.3697,10.3384,931.9027],[-84.373,10.3389,878.1315],[-84.3738,10.3425,867.6923],[-84.3773,10.344,777.1143],[-84.3821,10.3519,687.301],[-84.3839,10.3577,592.0876],[-84.3835,10.3633,555.485],[-84.3779,10.3683,523.5955],[-84.3781,10.3721,472.2998],[-84.3899,10.3867,336.5648],[-84.3979,10.3888,290.8267],[-84.399,10.3911,292.1924],[-84.4016,10.3918,278.3032],[-84.4023,10.3954,268.0998],[-84.3987,10.3989,271.9204],[-84.3973,10.4047,297.2175],[-84.3995,10.4049,279.2029],[-84.4007,10.407,276.1174],[-84.3981,10.4117,234.7515],[-84.3995,10.4131,244.8446],[-84.3986,10.418,261.8081],[-84.3999,10.4192,223.0027],[-84.3986,10.4243,239.8942],[-84.4012,10.4255,190.4523],[-84.3993,10.429,175.002],[-84.4024,10.4311,178.358],[-84.4001,10.4328,199.1537],[-84.4044,10.436,148.156],[-84.4776,10.3156,419.6176],[-84.4763,10.3139,439.4031],[-84.4771,10.3124,450.1761],[-84.4745,10.3111,446.2706],[-84.4632,10.295,615.3751],[-84.4621,10.2891,682.502],[-84.4597,10.2856,659.9895],[-84.4573,10.2849,686.406],[-84.4574,10.2824,738.1765],[-84.4491,10.2814,781.8502],[-84.4398,10.2752,899.9146],[-84.4383,10.2719,936.1187],[-84.4325,10.2704,1004.34]]]]}
,"properties": {"GID_3": "CRI.1.11.11_1","GID_0": "CRI","country": "CostaRica","GID_1": "CRI.1_1","province": "Alajuela","NL_NAME_1": "NA","GID_2": "CRI.1.11_1","county": "SanCarlos","NL_NAME_2": "NA","city": "Quesada","VARNAME_3": "NA","NL_NAME_3": "NA","TYPE_3": "Distrito","ENGTYPE_3": "District","CC_3": "1","HASC_3": "NA","name": "Quesada.city","area_km2": 144.322,"hist_schema_id": "Elevation0-9000","hist_area_km2": {"150": 0.0834,"175": 0.3962,"200": 0.3336,"225": 0.2502,"250": 0.563,"275": 1.1678,"300": 2.4607,"325": 3.6077,"350": 3.2115,"375": 1.8144,"400": 1.5642,"425": 2.4611,"450": 4.0044,"475": 5.0056,"500": 5.0473,"525": 6.0694,"550": 6.4866,"575": 5.4855,"600": 4.9225,"625": 4.1091,"650": 3.2748,"675": 3.0663,"700": 2.6282,"725": 2.9412,"750": 2.5657,"775": 3.2541,"800": 3.1498,"825": 2.6074,"850": 2.5449,"875": 3.0664,"900": 2.3781,"925": 2.691,"950": 2.2946,"975": 1.6271,"1000": 1.8357,"1025": 1.5645,"1050": 1.6688,"1075": 1.794,"1100": 1.4811,"1125": 1.7523,"1150": 1.3351,"1175": 1.5437,"1200": 1.3977,"1225": 1.6272,"1250": 1.5646,"1275": 1.502,"1300": 1.356,"1325": 1.1891,"1350": 1.2517,"1375": 1.2308,"1400": 1.1057,"1425": 1.1474,"1450": 1.2308,"1475": 1.0431,"1500": 0.7719,"1525": 1.0222,"1550": 0.8345,"1575": 0.8762,"1600": 0.8345,"1625": 0.6467,"1650": 0.7719,"1675": 0.7719,"1700": 0.7302,"1725": 0.7093,"1750": 0.6467,"1775": 0.6676,"1800": 0.8553,"1825": 1.2309,"1850": 1.3561,"1875": 0.7928,"1900": 0.6676,"1925": 0.751,"1950": 0.5007,"1975": 0.6884,"2000": 0.7302,"2025": 0.2712,"2050": 0.3338,"2075": 0.4172,"2100": 0.2086,"2125": 0.2503,"2150": 0.0626,"2175": 0.0835,"2200": 0.0417,"2225": 0.0209,"2250": 0.0209}}}