{"type": "Feature","bbox": [-84.2738,10.0615,-84.2396,10.1356],"geometry": {"type": "MultiPolygon","coordinates": [[[[-84.2734,10.0641,984.8159],[-84.2738,10.062,1003.5831],[-84.2719,10.0615,1003.5831],[-84.266,10.0662,1053.7975],[-84.2618,10.0671,1053.5679],[-84.2608,10.073,1071.4199],[-84.2582,10.0735,1054.4044],[-84.2546,10.083,1097.0782],[-84.2508,10.0836,1151.2046],[-84.2516,10.0893,1159.2958],[-84.2539,10.091,1152.9147],[-84.2501,10.094,1197.697],[-84.2492,10.1001,1222.1997],[-84.2443,10.1015,1255.1704],[-84.2448,10.1039,1286.176],[-84.2411,10.1096,1340.3022],[-84.2419,10.1167,1401.1521],[-84.2402,10.1183,1432.5356],[-84.2412,10.1228,1478.808],[-84.2399,10.1276,1522.7345],[-84.2415,10.133,1599.8831],[-84.2396,10.1356,1652.4653],[-84.2431,10.1356,1675.1565],[-84.25,10.1297,1497.0453],[-84.2509,10.1228,1424.8501],[-84.2548,10.1209,1356.5215],[-84.2603,10.1135,1274.9988],[-84.2703,10.1045,1191.821],[-84.2718,10.1006,1163.8088],[-84.2711,10.091,1069.7493],[-84.2738,10.084,1037.3821],[-84.2722,10.0831,1038.1333],[-84.273,10.0792,1026.3979],[-84.2705,10.0743,1023.1913],[-84.2734,10.068,1000.094],[-84.2734,10.0641,984.8159]]]]}
,"properties": {"GID_3": "CRI.1.10.5_1","GID_0": "CRI","country": "CostaRica","GID_1": "CRI.1_1","province": "Alajuela","NL_NAME_1": "NA","GID_2": "CRI.1.10_1","county": "Poás","NL_NAME_2": "NA","city": "SanRafael","VARNAME_3": "NA","NL_NAME_3": "NA","TYPE_3": "Distrito","ENGTYPE_3": "District","CC_3": "3","HASC_3": "NA","name": "San_Rafael.city","area_km2": 14.42376,"hist_schema_id": "Elevation0-9000","hist_area_km2": {"975": 0.0835,"1000": 0.35489,"1025": 0.89764,"1050": 1.06463,"1075": 1.18986,"1100": 0.9811,"1125": 0.96022,"1150": 1.00195,"1175": 0.73058,"1200": 1.00193,"1225": 0.81406,"1250": 0.68882,"1275": 0.45921,"1300": 0.58444,"1325": 0.48007,"1350": 0.43833,"1375": 0.56356,"1400": 0.48007,"1425": 0.3757,"1450": 0.25047,"1475": 0.25046,"1500": 0.16698,"1525": 0.18785,"1550": 0.08349,"1575": 0.12523,"1600": 0.10436,"1625": 0.10436}}}