{"type": "Feature","bbox": [-84.8632,10.2464,-84.1611,10.9959],"geometry": {"type": "MultiPolygon","coordinates": [[[[-84.5177,10.2494,459.9016],[-84.4325,10.2704,1004.34],[-84.4305,10.2681,1029.6846],[-84.4279,10.2684,1047.6746],[-84.4274,10.2659,1071.3815],[-84.4211,10.264,1110.5378],[-84.4032,10.2617,1349.6301],[-84.4014,10.2628,1413.0715],[-84.3996,10.2595,1380.8174],[-84.3982,10.2608,1427.4478],[-84.3918,10.2602,1463.6005],[-84.3906,10.2588,1516.4818],[-84.3872,10.2594,1550.0441],[-84.3864,10.2575,1579.2803],[-84.3826,10.257,1666.0251],[-84.3821,10.2539,1670.2983],[-84.3798,10.2517,1740.0795],[-84.3754,10.2534,1749.7312],[-84.3744,10.2518,1882.6689],[-84.3707,10.2524,1812.5787],[-84.3647,10.2563,1882.2482],[-84.3593,10.2559,1956.9822],[-84.3567,10.2474,2207.313],[-84.3537,10.2464,2204.9883],[-84.3505,10.2474,2191.0676],[-84.3412,10.2581,2168.583],[-84.3352,10.2582,2174.457],[-84.3327,10.2637,2120.4121],[-84.329,10.2603,2030.2036],[-84.3256,10.2604,1928.0344],[-84.3218,10.2571,1897.6445],[-84.3174,10.2563,1917.1993],[-84.3128,10.2597,1802.1244],[-84.3063,10.2615,1658.5369],[-84.2943,10.2618,1530.7566],[-84.2917,10.26,1483.0168],[-84.2811,10.2619,1437.8441],[-84.2691,10.2684,1050.765],[-84.2657,10.2729,990.1628],[-84.2599,10.2877,797.6335],[-84.2573,10.2897,712.3585],[-84.2571,10.3013,663.5986],[-84.2509,10.308,657.9156],[-84.2509,10.3123,598.163],[-84.2483,10.3132,626.9214],[-84.2475,10.3163,610.4076],[-84.245,10.3174,556.6527],[-84.2459,10.3204,582.4329],[-84.2431,10.3209,538.741],[-84.2456,10.3227,535.7937],[-84.2458,10.3254,528.8627],[-84.2434,10.3255,544.9885],[-84.2441,10.3276,541.7865],[-84.2405,10.3293,538.972],[-84.2391,10.3319,501.9783],[-84.2403,10.3335,495.6895],[-84.2457,10.3333,499.5856],[-84.2478,10.3369,462.4975],[-84.2482,10.3409,434.9881],[-84.2432,10.3502,408.8774],[-84.2447,10.3527,405.2759],[-84.2429,10.3548,425.2125],[-84.2449,10.3546,394.0174],[-84.2463,10.3563,387.7924],[-84.2455,10.3606,372.695],[-84.2489,10.3664,363.3775],[-84.249,10.3727,368.1334],[-84.2522,10.374,340.5781],[-84.2498,10.3764,327.3788],[-84.2587,10.4006,263.0487],[-84.2569,10.4134,243.1111],[-84.2612,10.4186,233.337],[-84.2571,10.4217,228.1889],[-84.2578,10.4271,214.8668],[-84.2546,10.4316,202.1721],[-84.2536,10.4412,192.0836],[-84.2508,10.4413,183.2239],[-84.2463,10.4476,171.9085],[-84.2454,10.4521,164.4691],[-84.241,10.4526,156.462],[-84.2421,10.4571,149.8055],[-84.2315,10.4869,128.8328],[-84.2318,10.4971,114.5247],[-84.234,10.4992,112.2978],[-84.2329,10.5006,112.9486],[-84.2303,10.4991,110.2895],[-84.2296,10.5044,102.9383],[-84.2273,10.5044,99.8079],[-84.2216,10.5087,99.45],[-84.2213,10.5118,92.3516],[-84.2149,10.5167,86.2196],[-84.2114,10.5219,86.2013],[-84.2101,10.5262,84.1415],[-84.214,10.5268,82.5605],[-84.2145,10.5281,81.0454],[-84.2121,10.5303,82.2912],[-84.2124,10.5355,76.0121],[-84.2098,10.5369,83.4738],[-84.2094,10.5411,72.0351],[-84.2035,10.5487,71.1074],[-84.2037,10.5562,66.2185],[-84.196,10.5582,64.6085],[-84.1915,10.5621,62.6796],[-84.1873,10.5624,60.8406],[-84.1861,10.5658,62.472],[-84.1818,10.5673,57.5794],[-84.1799,10.5721,63.5335],[-84.1743,10.577,55.2454],[-84.1712,10.5773,55.1067],[-84.172,10.5739,52.6388],[-84.1667,10.5724,53.2218],[-84.1612,10.5754,55.0213],[-84.1611,10.7854,19.7528],[-84.1752,10.786,20.5396],[-84.1909,10.7897,20.308],[-84.2005,10.7814,19.5927],[-84.2021,10.7814,21.0437],[-84.2073,10.7875,17.5],[-84.208,10.7929,24.281],[-84.2047,10.7951,18.5097],[-84.2062,10.7975,18.6456],[-84.2132,10.801,19.34],[-84.2231,10.801,18.9203],[-84.2266,10.8046,27.0815],[-84.2293,10.8112,41.0289],[-84.2368,10.8141,17.5],[-84.2377,10.8185,30.1804],[-84.2364,10.8199,17.9599],[-84.2209,10.8249,19.548],[-84.2149,10.8393,18.0437],[-84.2197,10.8555,19.1967],[-84.2192,10.863,20.3987],[-84.2251,10.8729,20.2953],[-84.2286,10.8753,22.1097],[-84.2373,10.8762,35.0492],[-84.2441,10.885,25.4225],[-84.2583,10.8915,18.9769],[-84.2639,10.8909,19.8875],[-84.2827,10.8937,41.4145],[-84.2857,10.8966,18.0],[-84.2917,10.911,19.0],[-84.2999,10.9166,26.9621],[-84.3062,10.9159,23.7755],[-84.3103,10.9218,27.6261],[-84.317,10.9161,25.3385],[-84.3236,10.9188,30.3118],[-84.3319,10.9316,34.986],[-84.3362,10.946,23.0848],[-84.351,10.9512,28.8468],[-84.3474,10.9665,30.9083],[-84.3416,10.9712,24.767],[-84.3415,10.9728,24.0],[-84.3508,10.9882,30.277],[-84.3584,10.9959,36.671],[-84.3764,10.9775,78.8525],[-84.3999,10.9751,49.7556],[-84.4203,10.9552,51.4408],[-84.4506,10.961,37.1566],[-84.4611,10.9646,34.0581],[-84.4596,10.9587,35.5501],[-84.4632,10.96,32.9853],[-84.4662,10.959,32.417],[-84.4658,10.9532,36.5299],[-84.4713,10.9574,30.5745],[-84.4715,10.9523,37.5577],[-84.4736,10.9533,35.0339],[-84.4746,10.9505,37.9015],[-84.4759,10.9521,32.8173],[-84.4779,10.9517,43.3398],[-84.4768,10.9499,48.7965],[-84.4792,10.9473,53.4083],[-84.4731,10.9465,43.5141],[-84.4758,10.9432,35.0469],[-84.4728,10.9431,42.9688],[-84.4722,10.9411,35.3701],[-84.4756,10.9396,36.9248],[-84.473,10.9365,37.5395],[-84.4768,10.931,32.4833],[-84.4829,10.9279,33.4358],[-84.4802,10.9276,33.534],[-84.4788,10.9258,31.8987],[-84.4762,10.9283,34.4154],[-84.4725,10.926,32.4591],[-84.4708,10.9237,37.9393],[-84.4724,10.9214,33.7099],[-84.4691,10.9194,30.9575],[-84.4721,10.9176,34.6901],[-84.4701,10.9142,40.0732],[-84.4716,10.9117,35.3609],[-84.469,10.9103,36.534],[-84.4671,10.912,37.5348],[-84.4684,10.9084,31.8957],[-84.4705,10.908,37.8031],[-84.4704,10.9038,32.6041],[-84.4718,10.9021,37.4528],[-84.4699,10.9014,36.115],[-84.4703,10.8985,36.0436],[-84.4681,10.8981,44.8249],[-84.4716,10.892,45.2311],[-84.4688,10.8916,49.9012],[-84.4685,10.8882,41.6719],[-84.4651,10.8877,48.7322],[-84.4695,10.8854,38.3814],[-84.4685,10.8835,35.4604],[-84.4703,10.8823,42.087],[-84.4661,10.8794,39.5825],[-84.4715,10.8762,40.6338],[-84.4702,10.8726,41.395],[-84.4737,10.8734,40.9324],[-84.4727,10.8725,47.7829],[-84.4742,10.8713,39.0685],[-84.4757,10.8731,46.487],[-84.477,10.8725,46.487],[-84.4811,10.8747,41.0369],[-84.4835,10.8738,35.2239],[-84.4856,10.8763,35.7318],[-84.4863,10.8745,35.3379],[-84.4874,10.8763,35.3006],[-84.4903,10.8754,33.4559],[-84.4927,10.8775,41.0788],[-84.4953,10.8759,34.8144],[-84.4946,10.8744,44.7831],[-84.4925,10.8751,39.3282],[-84.4936,10.8733,35.1859],[-84.4972,10.8732,33.2041],[-84.4968,10.8755,39.0397],[-84.4999,10.8745,49.2342],[-84.4992,10.8726,41.6898],[-84.5021,10.8727,52.2976],[-84.5009,10.875,53.5671],[-84.5024,10.8745,43.7706],[-84.5051,10.8766,51.49],[-84.5045,10.88,54.1495],[-84.5085,10.883,39.4465],[-84.5114,10.8782,54.1262],[-84.513,10.8808,36.4099],[-84.5143,10.8788,48.487],[-84.5171,10.8798,36.987],[-84.5183,10.8762,44.201],[-84.5206,10.8787,55.3057],[-84.5238,10.8784,45.5843],[-84.5229,10.8748,46.1042],[-84.5261,10.8757,47.4906],[-84.5294,10.8714,48.4352],[-84.531,10.8712,48.4352],[-84.5307,10.8736,55.516],[-84.5338,10.8746,40.386],[-84.5354,10.8704,40.4959],[-84.5354,10.8735,35.9891],[-84.5371,10.8742,35.725],[-84.5366,10.872,46.3005],[-84.5386,10.8716,55.8623],[-84.5365,10.8691,40.4959],[-84.5438,10.8674,47.6629],[-84.5427,10.8634,57.3458],[-84.5437,10.8626,56.8836],[-84.5453,10.8649,51.6669],[-84.5464,10.8621,43.078],[-84.5446,10.8607,54.0737],[-84.548,10.86,45.696],[-84.5456,10.8589,55.0096],[-84.5465,10.8564,45.2328],[-84.5444,10.8552,51.9191],[-84.5463,10.8471,43.9193],[-84.5434,10.8476,43.6221],[-84.5442,10.8462,38.372],[-84.5422,10.8457,44.9374],[-84.5418,10.8398,36.7034],[-84.5403,10.8399,39.2675],[-84.5394,10.8365,45.4113],[-84.541,10.8366,45.4113],[-84.5419,10.8346,37.2282],[-84.54,10.8311,50.5229],[-84.5397,10.8325,41.4178],[-84.5379,10.8315,43.8499],[-84.5388,10.8226,44.4594],[-84.5436,10.8193,40.2131],[-84.5422,10.8197,54.8611],[-84.543,10.8179,50.2033],[-84.5415,10.8175,50.2033],[-84.5505,10.8124,44.3812],[-84.546,10.8108,51.09],[-84.544,10.8056,55.4835],[-84.5439,10.8031,49.448],[-84.5474,10.8024,52.2504],[-84.5454,10.8008,41.4277],[-84.5475,10.8005,57.2486],[-84.5452,10.795,46.9254],[-84.5488,10.7944,42.1356],[-84.547,10.7908,46.5904],[-84.5499,10.7895,41.5703],[-84.5492,10.7882,43.7545],[-84.5465,10.7888,42.7504],[-84.5474,10.7831,45.3279],[-84.5442,10.7834,44.8023],[-84.5474,10.7785,43.5067],[-84.5439,10.7741,48.4867],[-84.5455,10.771,43.2957],[-84.5417,10.7717,44.5831],[-84.5434,10.7697,44.7449],[-84.5407,10.769,54.9853],[-84.539,10.7663,51.794],[-84.5378,10.7695,66.1012],[-84.5364,10.7677,57.2623],[-84.5339,10.7682,50.3725],[-84.5337,10.7654,47.0212],[-84.5317,10.7636,64.8839],[-84.5284,10.7651,46.208],[-84.5307,10.7598,45.2444],[-84.5263,10.7513,49.3889],[-84.529,10.7507,45.6659],[-84.5269,10.7498,47.0575],[-84.5266,10.7473,50.9509],[-84.5221,10.7468,49.5305],[-84.5194,10.7489,49.156],[-84.527,10.7387,61.3998],[-84.5238,10.7401,52.0686],[-84.5255,10.7375,51.481],[-84.5234,10.7339,50.0484],[-84.5262,10.7319,51.0154],[-84.5239,10.731,52.6921],[-84.5245,10.7293,53.4822],[-84.523,10.7286,51.9823],[-84.5244,10.7257,55.2158],[-84.5217,10.7239,56.3515],[-84.5232,10.7221,67.2104],[-84.521,10.7215,58.3334],[-84.5224,10.7193,56.5472],[-84.5196,10.7166,59.9466],[-84.5221,10.7115,59.5581],[-84.5205,10.7066,76.8689],[-84.5224,10.701,59.4858],[-84.5189,10.6945,68.7846],[-84.5232,10.6913,84.8068],[-84.5254,10.6855,75.461],[-84.5303,10.6845,95.5057],[-84.5291,10.689,74.7897],[-84.5353,10.6876,89.7539],[-84.5347,10.6913,82.5287],[-84.538,10.6886,73.9827],[-84.5378,10.6865,72.4206],[-84.5431,10.6835,74.5899],[-84.5505,10.6825,82.1755],[-84.552,10.6845,75.7526],[-84.5559,10.6814,79.7366],[-84.5568,10.6835,75.9088],[-84.5606,10.6839,98.6927],[-84.564,10.6807,92.8357],[-84.5665,10.6743,91.783],[-84.5708,10.6723,104.8892],[-84.5686,10.6652,103.3693],[-84.5708,10.6621,101.7176],[-84.5704,10.6598,102.056],[-84.5731,10.6584,107.9335],[-84.5764,10.6594,106.2528],[-84.5776,10.6546,116.2299],[-84.5854,10.6507,123.5711],[-84.5846,10.6476,121.717],[-84.6145,10.6475,128.8978],[-84.6158,10.6322,138.214],[-84.6204,10.6294,137.0459],[-84.6223,10.639,137.5963],[-84.629,10.65,132.4032],[-84.6329,10.6518,126.432],[-84.6426,10.6623,106.5512],[-84.6499,10.6627,99.9313],[-84.649,10.6614,84.5149],[-84.651,10.6613,75.0537],[-84.6493,10.6588,81.2825],[-84.6494,10.653,83.0596],[-84.6467,10.6505,82.1948],[-84.6488,10.6452,88.6111],[-84.6473,10.6385,102.8137],[-84.6605,10.6396,116.2129],[-84.6637,10.6374,103.1391],[-84.6682,10.6371,97.0289],[-84.6697,10.6396,89.8258],[-84.6726,10.6404,88.449],[-84.6737,10.6431,76.6648],[-84.6768,10.643,81.0871],[-84.6818,10.6451,79.591],[-84.6816,10.6466,78.7331],[-84.6832,10.6461,78.7331],[-84.6844,10.6382,87.1555],[-84.6914,10.6288,130.8961],[-84.6903,10.6171,124.9451],[-84.6933,10.6176,136.6993],[-84.6927,10.6198,121.519],[-84.6991,10.6183,101.069],[-84.6997,10.6212,106.3237],[-84.7075,10.6244,85.181],[-84.7095,10.6278,79.6249],[-84.7085,10.6304,75.6904],[-84.7103,10.6307,70.4366],[-84.7115,10.6357,83.2692],[-84.7133,10.6351,71.833],[-84.7131,10.6367,72.879],[-84.7153,10.6367,70.4925],[-84.7161,10.6384,73.7258],[-84.7195,10.6379,75.462],[-84.725,10.6337,128.8544],[-84.7324,10.6396,116.9506],[-84.738,10.6415,92.3194],[-84.7424,10.6409,96.9499],[-84.7472,10.6452,79.7567],[-84.7517,10.6471,63.3569],[-84.7545,10.6464,61.6612],[-84.7555,10.643,65.4612],[-84.7531,10.6383,68.9196],[-84.7632,10.6384,124.1917],[-84.7619,10.6348,77.4412],[-84.7649,10.6314,81.3511],[-84.7607,10.6302,92.1176],[-84.7604,10.6279,89.7717],[-84.7617,10.627,98.9492],[-84.7599,10.6259,95.8845],[-84.7617,10.6257,98.9492],[-84.7654,10.6197,122.4273],[-84.7691,10.6196,146.4482],[-84.773,10.6165,167.7765],[-84.771,10.6112,205.5353],[-84.7741,10.6095,229.1749],[-84.7753,10.6052,269.3638],[-84.7837,10.6034,287.6466],[-84.7846,10.601,289.2693],[-84.7876,10.6002,347.3551],[-84.7898,10.5929,411.6936],[-84.7889,10.5883,474.4723],[-84.7919,10.5844,468.2218],[-84.7966,10.5826,476.4307],[-84.8049,10.5852,471.3732],[-84.8049,10.5898,474.7874],[-84.814,10.5965,389.2153],[-84.8184,10.5969,374.9959],[-84.8208,10.5999,336.187],[-84.8237,10.5975,302.6299],[-84.8188,10.5918,378.5214],[-84.817,10.5792,462.9504],[-84.8186,10.5764,460.9272],[-84.8367,10.5634,648.7053],[-84.843,10.5639,669.2734],[-84.856,10.5587,789.368],[-84.8594,10.5588,782.5184],[-84.8632,10.5558,798.3001],[-84.8576,10.5539,814.5807],[-84.8518,10.5462,751.0465],[-84.8444,10.546,784.0927],[-84.846,10.5324,774.8773],[-84.8387,10.5299,801.6041],[-84.8369,10.524,787.4904],[-84.8307,10.523,812.0149],[-84.8217,10.526,859.6918],[-84.8206,10.5143,842.5183],[-84.8127,10.5111,832.0205],[-84.8019,10.5023,854.0092],[-84.7961,10.4999,855.5573],[-84.7923,10.4905,816.8711],[-84.7817,10.4963,830.4306],[-84.7789,10.4955,831.1491],[-84.7742,10.4974,805.145],[-84.7741,10.4628,551.7166],[-84.7712,10.4531,540.0],[-84.7665,10.4233,548.4814],[-84.7659,10.4287,540.0],[-84.7637,10.4321,540.0],[-84.7599,10.4326,540.0],[-84.7588,10.4307,543.0991],[-84.7524,10.4328,540.0],[-84.7522,10.4351,540.0],[-84.7505,10.4351,540.0],[-84.7481,10.4317,542.0821],[-84.7475,10.434,540.0],[-84.7477,10.4301,552.7806],[-84.7519,10.4221,618.1642],[-84.7516,10.4178,637.1149],[-84.7536,10.4134,669.8727],[-84.7494,10.4075,723.8023],[-84.7474,10.3991,854.4509],[-84.7405,10.3982,885.7352],[-84.7355,10.3948,936.6478],[-84.7318,10.3952,958.8158],[-84.7272,10.3917,1019.0863],[-84.7266,10.3873,1125.0646],[-84.7216,10.3809,1295.8982],[-84.7215,10.3767,1451.9059],[-84.6885,10.443,1087.5],[-84.6681,10.4105,1131.0447],[-84.665,10.4185,958.5203],[-84.6564,10.4293,599.7999],[-84.6527,10.4375,471.7319],[-84.6503,10.4502,343.3911],[-84.6449,10.454,276.2066],[-84.6347,10.4532,236.3767],[-84.6306,10.4566,222.5655],[-84.6288,10.4558,221.1771],[-84.6268,10.4572,195.1667],[-84.6211,10.4539,180.8923],[-84.6178,10.4488,158.6379],[-84.6156,10.4494,154.3902],[-84.6102,10.4471,142.6008],[-84.6053,10.4424,134.1619],[-84.5968,10.4468,116.7565],[-84.5931,10.4433,114.344],[-84.5882,10.4445,110.5819],[-84.5847,10.4421,109.4351],[-84.5822,10.4424,105.4934],[-84.5837,10.4407,105.0695],[-84.5833,10.4394,100.0804],[-84.582,10.4403,100.4826],[-84.5822,10.4384,112.6558],[-84.5768,10.4414,101.471],[-84.5765,10.4401,99.1061],[-84.5702,10.4401,95.3156],[-84.5666,10.4452,95.2389],[-84.5626,10.4455,92.2851],[-84.5644,10.4473,91.043],[-84.564,10.4493,95.5794],[-84.5612,10.4476,88.7141],[-84.5572,10.4489,90.3345],[-84.5569,10.4473,88.1478],[-84.5585,10.4477,92.5034],[-84.5591,10.4455,90.6015],[-84.5554,10.445,85.3886],[-84.5537,10.4425,83.719],[-84.5537,10.4436,83.719],[-84.550299999999993,10.4424,84.3031],[-84.5453,10.4365,77.4702],[-84.5459,10.4354,79.5788],[-84.5519,10.4356,86.4658],[-84.5576,10.4272,89.98],[-84.5578,10.4163,106.9881],[-84.5534,10.4083,124.3994],[-84.5537,10.3941,142.9277],[-84.5695,10.3806,195.013],[-84.5717,10.3765,198.3717],[-84.5789,10.3722,228.2301],[-84.5856,10.3718,236.3352],[-84.5915,10.3672,251.1629],[-84.6025,10.3658,310.9302],[-84.6059,10.3683,306.9737],[-84.6185,10.3692,335.4556],[-84.6256,10.3656,336.8588],[-84.6292,10.3656,393.5868],[-84.6335,10.3604,520.9066],[-84.6312,10.3549,757.8319],[-84.6341,10.3441,1087.5936],[-84.6325,10.3366,1184.4523],[-84.6357,10.3268,1017.3559],[-84.6294,10.316,719.0573],[-84.6233,10.3109,591.9791],[-84.6087,10.3114,510.7359],[-84.6018,10.3091,503.283],[-84.5964,10.3107,468.5776],[-84.5893,10.3169,428.4444],[-84.5879,10.3203,387.8616],[-84.5829,10.3232,383.5934],[-84.581,10.3296,328.3979],[-84.5776,10.3328,304.6105],[-84.5593,10.3434,236.9235],[-84.5482,10.3536,192.6431],[-84.5367,10.3566,169.404],[-84.5317,10.3638,157.8834],[-84.5337,10.367,176.0073],[-84.5309,10.369,161.1787],[-84.5321,10.3729,139.7129],[-84.5284,10.3745,174.4364],[-84.5271,10.3671,150.0584],[-84.5231,10.366,153.5321],[-84.52,10.359,154.9866],[-84.5204,10.3468,167.1869],[-84.5178,10.3403,179.698],[-84.518,10.3338,189.2986],[-84.524,10.3228,221.5321],[-84.5231,10.3197,228.3427],[-84.525,10.3134,242.8936],[-84.5239,10.3094,250.68],[-84.5249,10.2941,421.5869],[-84.5222,10.2882,382.8693],[-84.5217,10.2778,393.3367],[-84.5184,10.2734,402.3391],[-84.5174,10.2679,433.6331],[-84.5174,10.2637,442.9541],[-84.5193,10.2607,426.6448],[-84.5177,10.2494,459.9016]]]]}
,"properties": {"GID_2": "CRI.1.11_1","GID_0": "CRI","country": "CostaRica","GID_1": "CRI.1_1","province": "Alajuela","NL_NAME_1": "NA","county": "SanCarlos","VARNAME_2": "NA","NL_NAME_2": "NA","TYPE_2": "Cantón","ENGTYPE_2": "Canton","CC_2": "10","HASC_2": "CR.AL.SC","name": "San_Carlos.county","area_km2": 3367.893,"hist_schema_id": "Elevation0-9000","hist_area_km2": {"25": 82.997,"50": 387.82,"75": 834.386,"100": 512.038,"125": 262.79,"150": 163.168,"175": 103.884,"200": 96.217,"225": 70.333,"250": 54.431,"275": 47.116,"300": 42.072,"325": 36.904,"350": 33.257,"375": 30.796,"400": 27.669,"425": 27.607,"450": 24.584,"475": 26.293,"500": 24.793,"525": 25.836,"550": 42.079,"575": 27.025,"600": 23.877,"625": 22.063,"650": 19.331,"675": 19.498,"700": 17.851,"725": 18.997,"750": 18.538,"775": 20.686,"800": 18.852,"825": 17.225,"850": 14.14,"875": 10.804,"900": 8.51,"925": 8.322,"950": 7.801,"975": 6.716,"1000": 5.861,"1025": 6.09,"1050": 5.736,"1075": 5.069,"1100": 4.777,"1125": 4.839,"1150": 4.151,"1175": 3.963,"1200": 3.671,"1225": 3.776,"1250": 3.713,"1275": 3.567,"1300": 3.379,"1325": 3.317,"1350": 2.816,"1375": 3.296,"1400": 2.628,"1425": 3.15,"1450": 2.816,"1475": 2.441,"1500": 2.733,"1525": 2.712,"1550": 2.336,"1575": 2.629,"1600": 2.566,"1625": 1.898,"1650": 2.608,"1675": 2.545,"1700": 2.608,"1725": 2.357,"1750": 1.919,"1775": 2.19,"1800": 2.086,"1825": 2.503,"1850": 2.921,"1875": 1.919,"1900": 1.794,"1925": 1.481,"1950": 1.314,"1975": 1.314,"2000": 1.565,"2025": 0.981,"2050": 0.918,"2075": 1.127,"2100": 0.605,"2125": 0.605,"2150": 0.396,"2175": 0.438,"2200": 0.271,"2225": 0.146}}}