{"type":"Feature","properties":{"GID_3":"CRI.1.15.1_1","GID_0":"CRI","country":"CostaRica","GID_1":"CRI.1_1","province":"Alajuela","NL_NAME_1":"NA","GID_2":"CRI.1.15_1","county":"Sarchí","NL_NAME_2":"NA","city":"Rodriguez","VARNAME_3":"<Null>","NL_NAME_3":"NA","TYPE_3":"Distrito","ENGTYPE_3":"District","CC_3":"5","HASC_3":"NA","name":"Rodriguez.city"},
"geometry":{"type": "MultiPolygon","coordinates": [[[[-84.3597,10.0818,878.3188],[-84.3566,10.0834,897.8898],[-84.353,10.089,935.1027],[-84.3494,10.1023,1003.7138],[-84.3422,10.1157,1150.0601],[-84.3482,10.12,1176.1919],[-84.3424,10.1225,1217.4656],[-84.3346,10.1323,1333.5515],[-84.3369,10.1453,1451.4631],[-84.3392,10.1474,1506.0234],[-84.3405,10.1528,1575.5249],[-84.3409,10.1478,1480.3643],[-84.3485,10.1349,1318.7317],[-84.3471,10.1319,1291.8386],[-84.3519,10.1277,1227.4038],[-84.3521,10.1209,1179.3895],[-84.357,10.1148,1118.4658],[-84.3558,10.1098,1086.4216],[-84.3573,10.1068,1030.2372],[-84.3569,10.1015,1000.7717],[-84.3557,10.0999,1000.8527],[-84.3621,10.0871,936.4377],[-84.3597,10.0818,878.3188]]]]}}