{"type":"Feature","properties":{"GID_3":"CRI.7.9.1_1","GID_0":"CRI","country":"CostaRica","GID_1":"CRI.7_1","province":"SanJosé","NL_NAME_1":"NA","GID_2":"CRI.7.9_1","county":"LeónCortésCastro","NL_NAME_2":"NA","city":"LlanoBonito","VARNAME_3":"NA","NL_NAME_3":"NA","TYPE_3":"Distrito","ENGTYPE_3":"District","CC_3":"3","HASC_3":"NA","name":"Llano_Bonito.city"},
"geometry":{"type": "MultiPolygon","coordinates": [[[[-84.1537,9.6619,752.5008],[-84.1497,9.66,813.9749],[-84.1458,9.6616,821.9821],[-84.1428,9.6596,861.1758],[-84.1385,9.6618,836.5338],[-84.136,9.661,854.5386],[-84.135,9.6576,902.7428],[-84.1365,9.6522,905.4706],[-84.1345,9.649,919.8167],[-84.1304,9.6494,950.3222],[-84.1297,9.6474,958.7017],[-84.1316,9.6432,966.3514],[-84.1287,9.6422,955.3397],[-84.1255,9.6368,1028.5529],[-84.1204,9.6385,1038.5906],[-84.117,9.6429,1058.86],[-84.1127,9.6424,1069.636],[-84.1104,9.6462,1109.5717],[-84.1004,9.6418,1205.5],[-84.0944,9.6458,1205.5],[-84.0911,9.6439,1205.5],[-84.087,9.6441,1205.5],[-84.0875,9.6519,1258.5953],[-84.0975,9.6674,1381.9187],[-84.0987,9.6779,1595.5411],[-84.1002,9.6794,1742.4762],[-84.0995,9.6838,1848.4883],[-84.1016,9.6859,1921.8057],[-84.0989,9.6913,1895.168],[-84.0996,9.6951,1988.2604],[-84.0942,9.6972,2003.4873],[-84.0926,9.7002,2033.4691],[-84.0917,9.709,2179.4824],[-84.1056,9.7101,2217.3538],[-84.1112,9.703,1850.0052],[-84.1182,9.7055,1685.8979],[-84.122,9.703,1632.9667],[-84.1265,9.6972,1487.6349],[-84.1366,9.6909,1332.2219],[-84.1421,9.6846,1245.5012],[-84.1424,9.6813,1190.4525],[-84.1502,9.6778,1006.7413],[-84.1534,9.6712,883.5788],[-84.1525,9.6676,838.0226],[-84.154,9.6653,787.1624],[-84.1537,9.6619,752.5008]]]]}}