{"type": "Feature","bbox": [-85.0126,10.6663,-84.8503,10.8281],"geometry": {"type": "MultiPolygon","coordinates": [[[[-84.8643,10.808,46.2255],[-84.8688,10.8056,57.8501],[-84.8752,10.8106,50.8852],[-84.8788,10.8089,54.1136],[-84.8814,10.8122,73.4699],[-84.8879,10.8149,83.1804],[-84.8976,10.8273,67.2716],[-84.9021,10.8281,64.1541],[-84.9032,10.8147,69.7562],[-84.9015,10.8121,62.8791],[-84.9045,10.804,69.008],[-84.9166,10.8031,72.541],[-84.9181,10.7988,101.476],[-84.9154,10.7928,95.5957],[-84.9218,10.7904,90.725],[-84.922,10.7845,107.8436],[-84.9269,10.7769,120.4812],[-84.9506,10.7728,211.2665],[-84.9633,10.7585,432.7289],[-84.9614,10.7569,419.0872],[-84.9604,10.7513,391.8763],[-84.9548,10.7485,414.9682],[-84.9496,10.7365,429.5515],[-84.9512,10.7327,406.6929],[-84.9573,10.7337,406.5208],[-84.9561,10.7307,434.3579],[-84.9574,10.7277,442.1448],[-84.9555,10.7226,483.9811],[-84.9622,10.7194,531.9785],[-84.97,10.72,590.613],[-84.9756,10.7174,668.47],[-84.9808,10.7213,715.4623],[-84.9896,10.7101,716.7377],[-84.9981,10.7059,854.4617],[-85.0049,10.6827,1255.4011],[-85.0126,10.6712,1833.4135],[-85.0102,10.6679,1808.942],[-85.0059,10.6678,1559.173],[-85.0018,10.6715,1473.2594],[-84.9916,10.6663,1268.3003],[-84.9865,10.6692,1186.3203],[-84.9846,10.6719,1171.2095],[-84.987799999999993,10.6896,885.9083],[-84.9765,10.6994,683.2272],[-84.9684,10.7028,598.1019],[-84.9529,10.7021,462.0023],[-84.9392,10.704,282.7372],[-84.934,10.7027,247.3839],[-84.9324,10.704,247.6646],[-84.9238,10.7014,203.6797],[-84.9149,10.7028,173.512],[-84.9093,10.7008,183.3608],[-84.8906,10.7018,136.962],[-84.8897,10.6991,135.4693],[-84.8865,10.7013,126.7875],[-84.8833,10.6975,124.4913],[-84.8742,10.7024,105.6782],[-84.8709,10.7006,105.9553],[-84.8648,10.7024,107.3971],[-84.8631,10.705,80.7229],[-84.8673,10.7108,92.1315],[-84.8758,10.7098,109.3935],[-84.8829,10.7136,111.227],[-84.8887,10.7313,111.5041],[-84.8848,10.7426,96.0118],[-84.8863,10.7469,94.2801],[-84.8824,10.747,92.1557],[-84.8793,10.7452,96.4515],[-84.8652,10.7511,79.6601],[-84.8641,10.7614,80.7737],[-84.8503,10.7603,84.9116],[-84.8553,10.7679,75.9198],[-84.8564,10.7807,61.7333],[-84.8655,10.7898,52.2383],[-84.8677,10.7955,51.2304],[-84.8711,10.7967,53.818],[-84.8664,10.7998,55.1608],[-84.8643,10.808,46.2255]]]]}
,"properties": {"GID_3": "CRI.1.5.3_1","GID_0": "CRI","country": "CostaRica","GID_1": "CRI.1_1","province": "Alajuela","NL_NAME_1": "NA","GID_2": "CRI.1.5_1","county": "Guatuso","NL_NAME_2": "NA","city": "Katira","VARNAME_3": "NA","NL_NAME_3": "NA","TYPE_3": "Distrito","ENGTYPE_3": "District","CC_3": "4","HASC_3": "NA","name": "Katira.city","area_km2": 114.65053,"hist_schema_id": "Elevation0-9000","hist_area_km2": {"50": 6.47725,"75": 16.5788,"100": 17.80893,"125": 18.74746,"150": 7.64508,"175": 5.33278,"200": 4.83279,"225": 4.6662,"250": 3.35386,"275": 2.97885,"300": 2.52056,"325": 1.6665,"350": 1.31236,"375": 1.52069,"400": 1.33318,"425": 1.08325,"450": 0.62497,"475": 0.72914,"500": 0.60415,"525": 0.39582,"550": 0.47915,"575": 0.83331,"600": 1.02081,"625": 0.64583,"650": 0.56249,"675": 1.0208,"700": 0.43749,"725": 0.45833,"750": 0.375,"775": 0.72918,"800": 0.45834,"825": 0.56251,"850": 0.54168,"875": 0.35418,"900": 0.29168,"925": 0.39585,"950": 0.39585,"975": 0.20834,"1000": 0.33335,"1025": 0.12501,"1050": 0.20835,"1075": 0.22918,"1100": 0.37503,"1125": 0.29169,"1150": 0.18752,"1175": 0.33336,"1200": 0.22919,"1225": 0.18752,"1250": 0.22919,"1275": 0.14585,"1300": 0.16668,"1325": 0.22919,"1350": 0.10418,"1375": 0.16668,"1400": 0.04167,"1425": 0.06251,"1450": 0.16668,"1475": 0.14585,"1500": 0.04167,"1525": 0.10418,"1550": 0.06251,"1575": 0.04167,"1600": 0.06251,"1625": 0.04167,"1650": 0.08334,"1675": 0.04167,"1700": 0.02084,"1725": 0.04167,"1750": 0.06251,"1800": 0.02084,"1825": 0.04167,"1850": 0.04167}}}