{"type": "Feature","bbox": [-84.36,10.0374,-84.241,10.18],"geometry": {"type": "MultiPolygon","coordinates": [[[[-84.334,10.077,896.275],[-84.3389,10.0724,873.5363],[-84.339,10.0692,873.9036],[-84.3422,10.0686,867.1523],[-84.3443,10.0625,821.3164],[-84.3498,10.0631,810.3202],[-84.3515,10.0619,811.2223],[-84.3572,10.0499,755.7234],[-84.3571,10.0442,757.701],[-84.36,10.0409,731.5746],[-84.3596,10.039,731.8936],[-84.3519,10.0374,762.4261],[-84.3501,10.046,799.2816],[-84.3462,10.0489,802.9243],[-84.3485,10.0533,842.6645],[-84.3476,10.0544,834.3324],[-84.3454,10.0565,831.5146],[-84.3416,10.0566,855.1348],[-84.3413,10.0588,866.7274],[-84.3367,10.0624,860.948],[-84.3351,10.062,878.4335],[-84.3347,10.0651,871.9207],[-84.333,10.0655,879.5239],[-84.3324,10.0691,906.6559],[-84.3299,10.0718,910.1537],[-84.3203,10.0769,963.9358],[-84.3193,10.0789,947.759],[-84.3101,10.0804,995.717],[-84.3077,10.0857,992.4355],[-84.2927,10.1009,1111.7729],[-84.2887,10.11,1194.3677],[-84.2781,10.1197,1257.3235],[-84.2765,10.1274,1322.5233],[-84.269,10.134,1407.4795],[-84.2639,10.1359,1463.7766],[-84.259,10.143,1590.66],[-84.2476,10.1522,1870.1497],[-84.2418,10.1652,2336.1958],[-84.2443,10.1694,2450.2798],[-84.241,10.1765,2591.5574],[-84.2429,10.18,2596.0103],[-84.2564,10.177,2196.96],[-84.2743,10.1622,1787.8391],[-84.2759,10.1544,1658.0142],[-84.2824,10.1426,1499.2555],[-84.2821,10.139099999999999,1448.176],[-84.2854,10.1372,1406.5612],[-84.2864,10.1332,1361.5565],[-84.291,10.1278,1297.5823],[-84.2914,10.1228,1264.3748],[-84.2959,10.1201,1224.0107],[-84.2956,10.1181,1205.8569],[-84.2993,10.1149,1172.078],[-84.3025,10.1076,1139.9307],[-84.3043,10.1069,1099.8696],[-84.3022,10.1038,1098.0061],[-84.3046,10.0994,1053.6962],[-84.3092,10.0966,1026.5591],[-84.3188,10.084,967.9938],[-84.3235,10.0827,947.7477],[-84.3294,10.0767,915.6785],[-84.334,10.077,896.275]]]]}
,"properties": {"GID_3": "CRI.1.4.6_1","GID_0": "CRI","country": "CostaRica","GID_1": "CRI.1_1","province": "Alajuela","NL_NAME_1": "NA","GID_2": "CRI.1.4_1","county": "Grecia","NL_NAME_2": "NA","city": "SanRoque","VARNAME_3": "NA","NL_NAME_3": "NA","TYPE_3": "Distrito","ENGTYPE_3": "District","CC_3": "4","HASC_3": "NA","name": "San_Roque.city","area_km2": 26.86241,"hist_schema_id": "Elevation0-9000","hist_area_km2": {"725": 0.06263,"750": 0.10439,"775": 0.31316,"800": 0.50105,"825": 0.66806,"850": 0.68892,"875": 0.75154,"900": 0.58452,"925": 0.48013,"950": 0.5845,"975": 0.83499,"1000": 0.52186,"1025": 0.5636,"1050": 0.43835,"1075": 0.58447,"1100": 0.58446,"1125": 0.41747,"1150": 0.33397,"1175": 0.4592,"1200": 0.50095,"1225": 0.54269,"1250": 0.48006,"1275": 0.58442,"1300": 0.27134,"1325": 0.50093,"1350": 0.52179,"1375": 0.35482,"1400": 0.4383,"1425": 0.50091,"1450": 0.41742,"1475": 0.48003,"1500": 0.43829,"1525": 0.33393,"1550": 0.45916,"1575": 0.37567,"1600": 0.25045,"1625": 0.41741,"1650": 0.31306,"1675": 0.43828,"1700": 0.45915,"1725": 0.48002,"1750": 0.39653,"1775": 0.37566,"1800": 0.4174,"1825": 0.33392,"1850": 0.33392,"1875": 0.29218,"1900": 0.35479,"1925": 0.37565,"1950": 0.22957,"1975": 0.35478,"2000": 0.14609,"2025": 0.43826,"2050": 0.20869,"2075": 0.2713,"2100": 0.18782,"2125": 0.31304,"2150": 0.22956,"2175": 0.20869,"2200": 0.25043,"2225": 0.20869,"2250": 0.16695,"2275": 0.04174,"2300": 0.08348,"2325": 0.16695,"2350": 0.14608,"2375": 0.12521,"2400": 0.18782,"2425": 0.14608,"2450": 0.2713,"2475": 0.12521,"2500": 0.14608,"2525": 0.08348,"2550": 0.04174,"2575": 0.10434,"2600": 0.06261}}}