{"type": "Feature","bbox": [-84.3586,10.0481,-84.3298,10.1008],"geometry": {"type": "MultiPolygon","coordinates": [[[[-84.3298,10.0852,941.8951],[-84.336,10.0916,962.6571],[-84.3334,10.0937,1000.0311],[-84.334,10.0973,1011.0337],[-84.332,10.1008,1035.8651],[-84.3372,10.1008,1046.5317],[-84.3427,10.095,983.0611],[-84.3418,10.0923,975.525],[-84.3463,10.085,932.5165],[-84.3441,10.0829,918.603],[-84.3471,10.0822,916.0412],[-84.3515,10.0745,880.9629],[-84.3559,10.0727,864.858],[-84.3552,10.0693,853.6985],[-84.3574,10.0649,827.2785],[-84.3566,10.0582,806.2918],[-84.3586,10.0556,812.9156],[-84.3576,10.0481,766.3811],[-84.3515,10.0619,811.2223],[-84.3498,10.0631,810.3202],[-84.3443,10.0625,821.3164],[-84.3422,10.0686,867.1523],[-84.3389,10.0694,873.9036],[-84.339,10.0722,873.5363],[-84.3303,10.0818,912.2006],[-84.3298,10.0852,941.8951]]]]}
,"properties": {"GID_3": "CRI.1.15.4_1","GID_0": "CRI","country": "CostaRica","GID_1": "CRI.1_1","province": "Alajuela","NL_NAME_1": "NA","GID_2": "CRI.1.15_1","county": "Sarchí","NL_NAME_2": "NA","city": "SarchiSur","VARNAME_3": "NA","NL_NAME_3": "NA","TYPE_3": "Distrito","ENGTYPE_3": "District","CC_3": "2","HASC_3": "NA","name": "Sarchi_Sur.city","area_km2": 6.40866,"hist_schema_id": "Elevation0-9000","hist_area_km2": {"750": 0.062631,"775": 0.06263,"800": 0.22964,"825": 0.167009,"850": 0.605401,"875": 0.605394,"900": 1.148145,"925": 0.960256,"950": 0.897615,"975": 0.9811,"1000": 0.396607,"1025": 0.229612,"1050": 0.062621}}}