{"type": "Feature","bbox": [-83.8935,8.5043,-83.4765,8.7925],"geometry": {"type": "MultiPolygon","coordinates": [[[[-83.7398,8.6055,0.0],[-83.7395,8.6058,0.0],[-83.7402,8.6063,0.0],[-83.7403,8.6059,0.0],[-83.7398,8.6055,0.0]]],
[[[-83.7401,8.6138,0.2336],[-83.7397,8.6135,0.1504],[-83.7388,8.615,0.0],[-83.74,8.6153,0.2336],[-83.7401,8.6138,0.2336]]],
[[[-83.4862,8.6763,10.8696],[-83.4993,8.6739,9.1087],[-83.5042,8.6671,12.4752],[-83.508,8.6721,83.6597],[-83.5323,8.6845,122.4773],[-83.5404,8.697,243.6226],[-83.5404,8.7101,542.7922],[-83.5454,8.7145,514.2578],[-83.5517,8.7276,574.5152],[-83.5566,8.7319,550.1987],[-83.5598,8.7419,619.8931],[-83.5754,8.7519,388.3553],[-83.586,8.7619,223.2925],[-83.5966,8.7687,86.6645],[-83.5941,8.7781,66.3259],[-83.6022,8.7825,11.3379],[-83.6115,8.7925,6.8731],[-83.6254,8.7793,0.0],[-83.6249,8.7738,0.0],[-83.6319,8.7715,21.101],[-83.6366,8.7745,0.9154],[-83.6475,8.7678,0.0],[-83.6435,8.7569,13.8475],[-83.6411,8.7375,0.0],[-83.6387,8.736,1.7473],[-83.6455,8.7345,43.7282],[-83.6494,8.7314,1.8021],[-83.6491,8.7122,0.0],[-83.6539,8.6979,17.0913],[-83.6658,8.6906,0.0],[-83.6708,8.6908,0.0],[-83.6754,8.6963,26.7544],[-83.6854,8.6932,39.2877],[-83.6913,8.6944,11.9567],[-83.6998,8.6886,45.9803],[-83.7034,8.6894,7.8007],[-83.7103,8.6852,1.9859],[-83.7115,8.678,29.9216],[-83.7159,8.6743,65.4781],[-83.7146,8.6702,13.2086],[-83.7163,8.6662,0.0],[-83.7143,8.6635,1.6825],[-83.7131,8.6563,6.5652],[-83.7144,8.6493,0.0],[-83.7197,8.6471,0.0],[-83.7223,8.6435,57.1692],[-83.7318,8.6426,0.0],[-83.7324,8.6384,21.5205],[-83.7298,8.6359,67.9572],[-83.7298,8.6304,20.1531],[-83.7317,8.6276,7.3874],[-83.7344,8.6275,0.0],[-83.7356,8.6225,1.6517],[-83.7396,8.6235,0.0],[-83.7352,8.6214,0.0],[-83.7365,8.6201,1.259],[-83.7354,8.6181,0.0],[-83.7356,8.606,0.0],[-83.7338,8.6027,35.2861],[-83.7347,8.5989,34.0967],[-83.7318,8.5918,14.3427],[-83.7232,8.5834,8.8701],[-83.7199,8.5828,0.0],[-83.7194,8.5856,36.8303],[-83.7169,8.5861,25.4807],[-83.7146,8.5825,2.7518],[-83.7093,8.5833,0.0],[-83.7017,8.5784,0.0],[-83.7031,8.5779,0.0],[-83.6615,8.5371,3.2391],[-83.653,8.5256,0.0],[-83.6513,8.5266,0.5103],[-83.6441,8.5245,18.6904],[-83.6431,8.522,13.0681],[-83.6446,8.5207,16.8639],[-83.6416,8.5221,18.3009],[-83.6392,8.5171,19.8208],[-83.6352,8.5172,14.2321],[-83.637,8.5145,13.1701],[-83.6339,8.5152,17.9902],[-83.6343,8.5136,20.6644],[-83.6293,8.5123,17.8092],[-83.6234,8.5045,26.4313],[-83.6209,8.5043,24.5724],[-83.61,8.5086,15.1647],[-83.6079,8.5113,16.1784],[-83.6192,8.5149,15.6444],[-83.6202,8.5181,22.8631],[-83.6183,8.5191,5.3401],[-83.6212,8.5191,9.5704],[-83.6226,8.5234,8.8517],[-83.6241,8.5238,18.029],[-83.6243,8.5222,9.0038],[-83.6292,8.5255,16.265],[-83.631,8.5251,27.3226],[-83.633,8.5289,11.871],[-83.6316,8.5309,17.8543],[-83.634,8.5353,18.9438],[-83.6302,8.5354,23.9352],[-83.63,8.5374,25.5578],[-83.6239,8.5347,15.1298],[-83.6238,8.5382,13.2115],[-83.6177,8.5402,4.5293],[-83.613,8.5485,5.0389],[-83.6062,8.5518,4.4859],[-83.6029,8.5569,4.1282],[-83.5961,8.5608,15.2801],[-83.6021,8.5687,24.2715],[-83.608,8.5729,25.6607],[-83.6173,8.575,19.3677],[-83.6193,8.5768,19.4724],[-83.6238,8.5754,23.7962],[-83.6269,8.5769,21.6037],[-83.6283,8.5819,25.4006],[-83.6322,8.5822,26.1759],[-83.6332,8.5874,37.4278],[-83.6436,8.5936,34.8916],[-83.644,8.5956,53.079],[-83.6419,8.597,61.8397],[-83.6399,8.6023,80.5902],[-83.6359,8.6012,75.531],[-83.6329,8.6065,83.4127],[-83.6299,8.6072,100.4383],[-83.6309,8.6098,108.3457],[-83.6279,8.6115,96.7203],[-83.6298,8.6135,156.5181],[-83.6284,8.6193,90.1989],[-83.6303,8.6204,140.755],[-83.6306,8.6233,130.594],[-83.6285,8.6257,105.4259],[-83.6287,8.6282,89.0256],[-83.6271,8.6295,84.8529],[-83.6213,8.6287,101.1339],[-83.619,8.6238,150.2503],[-83.6162,8.6266,140.359],[-83.6123,8.6252,177.6327],[-83.6101,8.6269,149.3679],[-83.6058,8.6238,165.5399],[-83.6053,8.621,195.9786],[-83.6011,8.6172,166.3828],[-83.6013,8.6134,187.7602],[-83.5949,8.6113,207.1141],[-83.591,8.6116,189.7009],[-83.5893,8.6137,202.537],[-83.5859,8.6117,212.4896],[-83.579,8.6186,291.338],[-83.5805,8.6252,370.7296],[-83.5851,8.6315,481.1558],[-83.5852,8.633,537.8994],[-83.5838,8.6328,494.1266],[-83.5733,8.6247,397.0558],[-83.5702,8.6141,393.1922],[-83.5683,8.6132,381.368],[-83.57,8.6096,382.9236],[-83.5726,8.6095,336.0217],[-83.5688,8.6056,237.2462],[-83.5685,8.6033,244.0685],[-83.5587,8.6009,192.5088],[-83.5567,8.5963,166.7699],[-83.5522,8.5945,149.6121],[-83.5523,8.5929,160.3933],[-83.5408,8.5932,139.3317],[-83.5401,8.5899,141.1241],[-83.5325,8.5901,136.6018],[-83.5288,8.5851,121.3943],[-83.5245,8.587,104.0609],[-83.5236,8.5857,104.0609],[-83.5195,8.5952,115.2301],[-83.515,8.5945,95.4507],[-83.5146,8.5968,123.1829],[-83.5125,8.5972,90.8781],[-83.5116,8.5955,70.5799],[-83.5087,8.5979,104.1931],[-83.5062,8.5977,93.4896],[-83.5,8.6049,63.0079],[-83.497,8.6042,41.6432],[-83.4952,8.6084,37.7393],[-83.4979,8.6109,38.3235],[-83.494,8.6138,34.4809],[-83.4951,8.6166,37.5273],[-83.4863,8.6185,31.0759],[-83.4776,8.627,28.1872],[-83.4799,8.6299,39.6816],[-83.4765,8.6328,26.8902],[-83.4772,8.6375,21.7063],[-83.4792,8.6402,22.1165],[-83.4831,8.6398,18.0919],[-83.4842,8.6412,30.3175],[-83.4847,8.6458,17.77],[-83.4827,8.6522,16.6835],[-83.4838,8.6565,14.3791],[-83.4814,8.6608,13.6532],[-83.4831,8.6654,9.3276],[-83.4809,8.6673,6.544],[-83.4822,8.6699,7.3586],[-83.4851,8.6714,5.3507],[-83.4846,8.6746,4.1858],[-83.4862,8.6763,10.8696]]],
[[[-83.7418,8.6172,0.0],[-83.7415,8.6175,0.0],[-83.742,8.6178,0.0],[-83.7421,8.6175,0.0],[-83.7418,8.6172,0.0]]],
[[[-83.7412,8.6177,0.0],[-83.7411,8.6175,0.0],[-83.7408,8.6176,0.0],[-83.741,8.6181,0.0],[-83.7412,8.6177,0.0]]],
[[[-83.8673,8.716,0.0],[-83.8692,8.7167,0.0],[-83.8724,8.7148,13.7405],[-83.8753,8.7158,0.0],[-83.8804,8.7137,0.0],[-83.8832,8.7151,0.0],[-83.8935,8.7108,0.0],[-83.8905,8.7092,3.8126],[-83.8893,8.7061,92.1822],[-83.8744,8.7018,0.0],[-83.8727,8.7046,88.2244],[-83.8702,8.7028,30.8727],[-83.8681,8.7052,9.3201],[-83.8682,8.7112,0.0],[-83.8661,8.7147,0.0],[-83.8673,8.716,0.0]]]]}
,"properties": {"GID_3": "CRI.6.9.2_1","GID_0": "CRI","country": "CostaRica","GID_1": "CRI.6_1","province": "Puntarenas","NL_NAME_1": "NA","GID_2": "CRI.6.9_1","county": "Osa","NL_NAME_2": "NA","city": "BahíaDrake","VARNAME_3": "NA","NL_NAME_3": "NA","TYPE_3": "Distrito","ENGTYPE_3": "District","CC_3": "3","HASC_3": "NA","name": "Bahía_Drake.city","area_km2": 408.3618,"hist_schema_id": "Elevation0-9000","hist_area_km2": {"0": 20.7285,"25": 78.9259,"50": 26.7876,"75": 26.8711,"100": 28.8422,"125": 34.6698,"150": 32.3644,"175": 29.3661,"200": 23.2658,"225": 15.259,"250": 11.2765,"275": 11.2556,"300": 9.9142,"325": 9.6417,"350": 9.1387,"375": 8.2374,"400": 6.5187,"425": 5.7221,"450": 4.3178,"475": 3.6681,"500": 3.668,"525": 2.4733,"550": 1.8444,"575": 2.012,"600": 1.2784,"625": 0.2724,"650": 0.0419}}}