{"type": "Feature","bbox": [-84.3913,9.8353,-84.3376,9.8796],"geometry": {"type": "MultiPolygon","coordinates": [[[[-84.3671,9.8796,935.0905],[-84.3674,9.8756,965.9913],[-84.3724,9.8687,1124.8868],[-84.387,9.8612,804.4065],[-84.3888,9.8472,578.1737],[-84.3913,9.8461,521.9695],[-84.3809,9.8402,633.1201],[-84.3677,9.8373,788.1171],[-84.3661,9.8384,801.1707],[-84.3597,9.8353,847.9007],[-84.3519,9.8362,866.3534],[-84.3481,9.8389,902.7734],[-84.3432,9.8389,912.1817],[-84.3403,9.8408,930.6371],[-84.3407,9.8428,943.2959],[-84.3377,9.8443,948.0198],[-84.3376,9.8525,1046.507],[-84.3465,9.8714,966.9462],[-84.351,9.8723,958.3403],[-84.3525,9.8751,921.6002],[-84.3671,9.8796,935.0905]]]]}
,"properties": {"GID_3": "CRI.7.14.1_1","GID_0": "CRI","country": "CostaRica","GID_1": "CRI.7_1","province": "SanJosé","NL_NAME_1": "NA","GID_2": "CRI.7.14_1","county": "Puriscal","NL_NAME_2": "NA","city": "Barbacoas","VARNAME_3": "NA","NL_NAME_3": "NA","TYPE_3": "Distrito","ENGTYPE_3": "District","CC_3": "3","HASC_3": "NA","name": "Barbacoas.city","area_km2": 18.98844,"hist_schema_id": "Elevation0-9000","hist_area_km2": {"525": 0.02089,"550": 0.08356,"575": 0.14623,"600": 0.12534,"625": 0.16712,"650": 0.14623,"675": 0.08356,"700": 0.10445,"725": 0.2089,"750": 0.2089,"775": 0.14623,"800": 0.39691,"825": 0.58492,"850": 0.50136,"875": 0.68937,"900": 0.83559,"925": 0.87738,"950": 1.14893,"975": 1.3578,"1000": 1.79648,"1025": 1.50402,"1050": 1.48313,"1075": 1.58757,"1100": 1.16979,"1125": 1.37868,"1150": 0.73111,"1175": 0.54311,"1200": 0.68933,"1225": 0.27156}}}