{"type":"Feature","properties":{"GID_3":"CRI.3.3.2_1","GID_0":"CRI","country":"CostaRica","GID_1":"CRI.3_1","province":"Guanacaste","NL_NAME_1":"NA","GID_2":"CRI.3.3_1","county":"Cañas","NL_NAME_2":"NA","city":"Cañas","VARNAME_3":"NA","NL_NAME_3":"NA","TYPE_3":"Distrito","ENGTYPE_3":"District","CC_3":"1","HASC_3":"NA","name":"Cañas.city"},
"geometry":{"type": "MultiPolygon","coordinates": [[[[-85.1801,10.3805,10.1178],[-85.179,10.3783,9.6239],[-85.1733,10.3905,9.9583],[-85.1734,10.3945,10.8579],[-85.1661,10.4054,14.7739],[-85.1579,10.4129,20.2749],[-85.1526,10.4145,20.5173],[-85.145,10.4114,21.152],[-85.1431,10.4074,23.9772],[-85.1397,10.4071,26.2591],[-85.1365,10.4107,28.1755],[-85.1297,10.4109,30.98],[-85.1183,10.4198,49.0192],[-85.1073,10.4184,55.1708],[-85.1106,10.4129,55.2536],[-85.1065,10.4083,53.2646],[-85.1068,10.406,51.1913],[-85.1126,10.3969,40.9458],[-85.1122,10.394,38.2359],[-85.1139,10.3932,37.5573],[-85.112799999999993,10.3907,40.0262],[-85.1149,10.3887,37.1171],[-85.1147,10.3859,30.889],[-85.1126,10.3834,33.2034],[-85.1157,10.3759,28.1808],[-85.1176,10.3743,26.6469],[-85.119,10.3762,26.8635],[-85.1293,10.3752,22.2099],[-85.1264,10.3621,18.1731],[-85.1334,10.356,15.7793],[-85.1336,10.3539,15.8122],[-85.1309,10.3529,16.8211],[-85.128,10.3568,16.6018],[-85.1209,10.3605,22.3887],[-85.1173,10.3657,25.2765],[-85.1136,10.3677,25.0654],[-85.1081,10.3663,27.8827],[-85.1055,10.3699,28.0131],[-85.0981,10.3709,31.4634],[-85.0958,10.3735,31.5778],[-85.0904,10.3753,40.9755],[-85.0904,10.379,45.5042],[-85.0859,10.379,46.6157],[-85.0802,10.384,55.0483],[-85.065,10.3815,92.4263],[-85.0582,10.385,122.5051],[-85.0551,10.3881,156.3267],[-85.0538,10.3947,192.014],[-85.0523,10.3949,213.6427],[-85.0501,10.392,247.5956],[-85.047,10.3978,270.8547],[-85.0443,10.3971,260.2606],[-85.0379,10.4006,273.188],[-85.0334,10.3937,335.0914],[-85.0297,10.3935,293.7141],[-85.0264,10.3957,355.509],[-85.0224,10.3948,423.9149],[-85.0281,10.4295,441.2541],[-85.0279,10.5002,338.8369],[-85.0432,10.5092,344.8396],[-85.0431,10.5377,367.0122],[-85.0464,10.535,344.3531],[-85.0466,10.5316,352.6262],[-85.0498,10.5295,320.1641],[-85.051,10.5314,315.2969],[-85.0529,10.5294,301.4992],[-85.0547,10.5299,287.6333],[-85.0585,10.5266,272.6747],[-85.065,10.5257,247.4935],[-85.0651,10.5237,253.6859],[-85.0676,10.5223,235.4315],[-85.0706,10.5218,230.6065],[-85.0719,10.5241,220.5662],[-85.0744,10.5239,212.7176],[-85.0765,10.5209,199.2727],[-85.0781,10.5215,199.2727],[-85.0788,10.5196,194.5356],[-85.083,10.5182,186.5571],[-85.0831,10.5163,191.7203],[-85.0852,10.5171,223.3533],[-85.0878,10.5123,172.9229],[-85.0987,10.5116,147.8694],[-85.1033,10.5133,124.8551],[-85.106,10.5111,122.4855],[-85.1103,10.5114,116.7324],[-85.1145,10.5044,106.3838],[-85.1227,10.5068,175.8893],[-85.1349,10.5199,120.7841],[-85.1352,10.5114,104.6483],[-85.1402,10.5063,138.319],[-85.1385,10.5029,82.826],[-85.14,10.5005,71.5338],[-85.1403,10.4928,80.4031],[-85.1505,10.4864,52.7798],[-85.1539,10.4822,54.3225],[-85.1561,10.4837,50.046],[-85.1638,10.4779,42.2956],[-85.1623,10.4677,38.7711],[-85.1638,10.4642,33.9343],[-85.1635,10.4548,34.3338],[-85.1572,10.4434,30.7061],[-85.1584,10.437,28.2781],[-85.157,10.4321,27.9563],[-85.1588,10.4294,27.0656],[-85.1599,10.4189,18.5045],[-85.163,10.4152,18.3713],[-85.1635,10.412,20.4794],[-85.1695,10.4108,23.5838],[-85.1714,10.4062,15.3374],[-85.1749,10.4073,20.7378],[-85.1764,10.4043,15.7005],[-85.1735,10.4,20.935],[-85.1782,10.3976,14.3054],[-85.1817,10.3994,18.2945],[-85.1843,10.3976,11.0414],[-85.181,10.3963,13.524],[-85.1807,10.3922,12.1511],[-85.1848,10.3911,13.9834],[-85.184,10.3938,17.2342],[-85.1853,10.3943,17.2342],[-85.1858,10.3897,14.3947],[-85.1841,10.3879,12.7761],[-85.179,10.3877,11.7983],[-85.1784,10.3845,13.0953],[-85.1834,10.3831,16.2731],[-85.1831,10.3816,18.3396],[-85.1801,10.3805,10.1178]]]]}}