{"type": "Feature","bbox": [-85.4172,10.0358,-85.1893,10.2051],"geometry": {"type": "MultiPolygon","coordinates": [[[[-85.2024,10.1092,0.0],[-85.2019,10.1095,0.0],[-85.2018,10.1098,0.0],[-85.2025,10.1096,0.0],[-85.2024,10.1092,0.0]]],
[[[-85.3885,10.0684,148.5163],[-85.3894,10.0677,145.9635],[-85.3806,10.0617,191.112],[-85.3687,10.0466,207.2543],[-85.3397,10.0434,471.5967],[-85.3397,10.0389,388.3942],[-85.3356,10.0399,347.8853],[-85.3302,10.0358,263.0989],[-85.3233,10.0366,176.7169],[-85.3226,10.0416,153.0554],[-85.316,10.0435,121.938],[-85.3158,10.0481,104.294],[-85.3223,10.0512,106.6643],[-85.3201,10.0578,69.3166],[-85.3228,10.0674,72.552],[-85.3262,10.0665,67.8121],[-85.3261,10.0687,63.4458],[-85.3171,10.0736,34.4224],[-85.314,10.0706,38.4888],[-85.3125,10.0727,65.551],[-85.311,10.0719,35.6114],[-85.3088,10.0669,62.7778],[-85.3005,10.068,53.1012],[-85.3005,10.0633,32.225],[-85.2938,10.0604,35.6631],[-85.2925,10.0609,26.7603],[-85.294,10.0627,31.5172],[-85.2928,10.0632,31.5172],[-85.2864,10.0592,27.3265],[-85.285,10.0651,26.7977],[-85.2782,10.0651,22.824],[-85.2774,10.0594,21.002],[-85.273,10.0631,21.516],[-85.2692,10.057,23.8509],[-85.2662,10.0595,27.4714],[-85.2607,10.0591,15.3004],[-85.2581,10.0622,13.2895],[-85.2552,10.061,12.9334],[-85.2521,10.0646,11.5749],[-85.2532,10.0691,15.8232],[-85.2476,10.0722,18.8973],[-85.2468,10.0771,13.5345],[-85.2454,10.0728,12.5894],[-85.2428,10.0744,13.4279],[-85.2427,10.0763,10.7499],[-85.2405,10.0747,11.5173],[-85.2361,10.076,15.2444],[-85.2345,10.0753,11.7355],[-85.2357,10.0722,11.7939],[-85.2307,10.0723,12.8829],[-85.2315,10.0687,15.2552],[-85.2294,10.0672,13.7052],[-85.23,10.0645,15.9016],[-85.222,10.0595,8.4826],[-85.2174,10.0582,11.8004],[-85.2164,10.0601,8.4882],[-85.2148,10.0585,9.6661],[-85.2163,10.0578,11.8004],[-85.215,10.0564,13.2449],[-85.2169,10.0543,10.0372],[-85.2141,10.0529,18.7513],[-85.21,10.0557,24.7844],[-85.2053,10.053,15.7915],[-85.202,10.0555,20.2841],[-85.1906,10.0551,17.0533],[-85.1893,10.0568,17.9525],[-85.1921,10.0622,4.2274],[-85.1906,10.0651,0.0],[-85.1951,10.0829,1.0615],[-85.1992,10.0849,1.2424],[-85.2034,10.084,0.0],[-85.2131,10.0857,0.0],[-85.2191,10.0908,1.2394],[-85.23,10.0948,2.2103],[-85.2359,10.1071,0.0],[-85.2398,10.1059,1.4003],[-85.2375,10.1141,1.2714],[-85.24,10.1198,2.3795],[-85.2381,10.1224,0.0],[-85.2391,10.1268,7.0721],[-85.237,10.1277,0.0],[-85.2418,10.1342,0.0],[-85.2528,10.135,4.4681],[-85.2656,10.1388,1.4306],[-85.28,10.1384,3.4405],[-85.2829,10.1293,10.7301],[-85.2867,10.1298,12.9768],[-85.2882,10.1328,13.8581],[-85.2915,10.1341,11.2415],[-85.2988,10.1339,8.4244],[-85.3004,10.1363,8.5352],[-85.2993,10.1383,12.0005],[-85.3009,10.139099999999999,8.0213],[-85.3037,10.1381,9.727],[-85.3093,10.1398,13.8727],[-85.3084,10.1418,10.9713],[-85.3151,10.1479,20.7536],[-85.3142,10.1515,15.8249],[-85.3065,10.1573,33.6586],[-85.3141,10.17,198.6686],[-85.3134,10.1736,293.5644],[-85.315,10.1801,329.1518],[-85.3132,10.1832,309.8186],[-85.3145,10.1878,335.1605],[-85.3211,10.1939,212.4216],[-85.3255,10.1941,286.599],[-85.3365,10.2051,363.4378],[-85.3446,10.2018,366.617],[-85.3481,10.1971,408.3811],[-85.3518,10.1981,479.6733],[-85.3562,10.1942,517.7419],[-85.3585,10.1881,484.9979],[-85.3543,10.1852,476.438],[-85.3542,10.1819,370.0746],[-85.3569,10.1758,426.5327],[-85.3599,10.1742,417.4818],[-85.3616,10.1686,392.3315],[-85.3591,10.1659,410.0776],[-85.3555,10.1654,410.1241],[-85.3593,10.1628,420.03],[-85.3625,10.1631,429.719],[-85.3706,10.1496,192.9922],[-85.3725,10.1505,162.0531],[-85.3771,10.1469,196.3647],[-85.3854,10.1475,232.5332],[-85.3849,10.1423,268.9751],[-85.3863,10.1413,254.8742],[-85.3923,10.1421,239.5328],[-85.3959,10.1478,290.5129],[-85.4011,10.1464,281.1368],[-85.4036,10.1487,286.6927],[-85.4062,10.1462,264.4053],[-85.4038,10.1439,253.2121],[-85.4056,10.141,315.9828],[-85.4133,10.1442,276.1839],[-85.4079,10.1343,142.1142],[-85.4104,10.1285,94.258],[-85.4082,10.1228,92.5735],[-85.4122,10.1218,98.9128],[-85.415,10.1113,124.1336],[-85.4132,10.1061,234.3409],[-85.4172,10.1044,282.9456],[-85.414,10.1034,260.9622],[-85.4108,10.1047,227.9211],[-85.4083,10.101,157.7646],[-85.3995,10.1024,126.7544],[-85.4025,10.0973,147.7884],[-85.3974,10.0926,130.196],[-85.3922,10.0927,234.4804],[-85.3852,10.0861,230.1398],[-85.3888,10.0833,251.3947],[-85.3923,10.0833,318.2851],[-85.3878,10.0782,264.0002],[-85.3857,10.079,248.7505],[-85.3827,10.0774,206.8979],[-85.3817,10.074,147.2435],[-85.3787,10.0718,123.783],[-85.3885,10.0684,148.5163]]]]}
,"properties": {"GID_3": "CRI.3.9.2_1","GID_0": "CRI","country": "CostaRica","GID_1": "CRI.3_1","province": "Guanacaste","NL_NAME_1": "NA","GID_2": "CRI.3.9_1","county": "Nicoya","NL_NAME_2": "NA","city": "Mansión","VARNAME_3": "NA","NL_NAME_3": "NA","TYPE_3": "Distrito","ENGTYPE_3": "District","CC_3": "2","HASC_3": "NA","name": "Mansión.city","area_km2": 213.3857,"hist_schema_id": "Elevation0-9000","hist_area_km2": {"0": 40.578,"25": 45.5021,"50": 15.9883,"75": 14.4651,"100": 19.8925,"125": 13.0669,"150": 10.1445,"175": 7.5771,"200": 7.6397,"225": 6.9299,"250": 6.1575,"275": 4.8633,"300": 3.6945,"325": 3.0265,"350": 3.11,"375": 2.2125,"400": 1.7742,"425": 1.5864,"450": 1.5029,"475": 0.9393,"500": 0.9184,"525": 0.6262,"550": 0.4175,"575": 0.3757,"600": 0.3131,"625": 0.0626,"650": 0.0209}}}