{"type":"Feature","properties":{"GID_2":"CRI.2.2_1","GID_0":"CRI","country":"CostaRica","GID_1":"CRI.2_1","province":"Cartago","NL_NAME_1":"NA","county":"Cartago","VARNAME_2":"NA","NL_NAME_2":"NA","TYPE_2":"Cantón","ENGTYPE_2":"Canton","CC_2":"1","HASC_2":"CR.CA.CA","name":"Cartago.county"},
"geometry":{"type": "MultiPolygon","coordinates": [[[[-83.775,9.6057,3087.866],[-83.7653,9.6039,3249.5923],[-83.8678,9.7681,1877.8455],[-83.8717,9.7706,1736.9438],[-83.8709,9.7812,1465.9192],[-83.8746,9.7867,1404.403],[-83.8727,9.7909,1266.0677],[-83.8748,9.7938,1323.1604],[-83.8725,9.798,1232.7217],[-83.8744,9.8008,1149.4407],[-83.8737,9.8063,1075.3462],[-83.8707,9.8087,1062.5482],[-83.8668,9.8076,1068.854],[-83.8647,9.813,1085.9836],[-83.8654,9.8153,1106.1566],[-83.8635,9.8152,1118.3246],[-83.8671,9.8164,1185.5514],[-83.8649,9.8184,1231.6492],[-83.873,9.8291,1346.7234],[-83.8866,9.8356,1359.1343],[-83.8866,9.8387,1362.249],[-83.894,9.8472,1353.0343],[-83.8987,9.8491,1358.0708],[-83.9044,9.8556,1389.7897],[-83.9092,9.8579,1396.3042],[-83.9075,9.8662,1433.4766],[-83.9112,9.8685,1443.351],[-83.9052,9.8733,1475.5466],[-83.9074,9.8844,1585.3055],[-83.8954,9.8937,1757.3157],[-83.8936,9.8967,1811.2019],[-83.8922,9.9062,1961.984],[-83.8893,9.9115,2058.9626],[-83.888,9.9222,2231.6199],[-83.8837,9.9307,2334.3438],[-83.8851,9.9312,2330.2681],[-83.8831,9.9406,2430.5256],[-83.8778,9.9439,2536.0378],[-83.8757,9.949,2625.5771],[-83.8724,9.9509,2685.0593],[-83.8728,9.9617,2836.5693],[-83.8679,9.9712,3168.0222],[-83.8727,9.9696,3152.5918],[-83.8855,9.9707,2995.2161],[-83.8912,9.9678,3003.9414],[-83.8991,9.9686,2920.9453],[-83.9041,9.9661,2781.0305],[-83.906,9.9613,2673.4204],[-83.9106,9.9607,2595.5591],[-83.9153,9.9546,2369.0508],[-83.9214,9.9518,2293.5186],[-83.9314,9.9518,2168.0354],[-83.937,9.9553,2162.9644],[-83.9383,9.9583,2069.6519],[-83.9479,9.9532,1955.4132],[-83.9523,9.9538,1925.446],[-83.9565,9.9496,1811.6035],[-83.9552,9.9443,1844.6482],[-83.9542,9.9403,1887.1671],[-83.9505,9.9418,1960.2195],[-83.9483,9.9381,1951.6453],[-83.9515,9.9319,1843.9607],[-83.9578,9.9291,1814.7321],[-83.9583,9.92,1684.1261],[-83.9531,9.9161,1608.4705],[-83.9547,9.915,1594.7384],[-83.9548,9.9023,1522.7439],[-83.9593,9.9005,1531.7584],[-83.96,9.8965,1587.6035],[-83.9627,9.8984,1518.5433],[-83.962,9.8909,1660.8994],[-83.97,9.889,1758.1014],[-83.9721,9.8844,1780.2299],[-83.976,9.882,1836.038],[-83.9797,9.884,1819.1025],[-83.9847,9.8839,1848.6031],[-83.9942,9.8802,1599.7692],[-83.9986,9.8761,1592.9744],[-83.9993,9.8679,1599.9539],[-84.0125,9.8589,1709.5764],[-84.0168,9.8542,1707.7906],[-84.0186,9.8479,1790.5769],[-84.0165,9.8443,1797.8176],[-84.0255,9.8391,1842.8718],[-84.0302,9.8238,1893.6249],[-84.0344,9.8233,1796.7935],[-84.0416,9.8192,1717.6907],[-84.0462,9.8135,1621.0599],[-84.0653,9.8088,1435.1614],[-84.0753,9.8019,1349.1284],[-84.0768,9.7956,1308.0935],[-84.0823,9.7902,1243.5212],[-84.082,9.7875,1235.4346],[-84.084,9.7868,1219.7313],[-84.0845,9.7758,1192.4226],[-84.0866,9.7746,1232.7161],[-84.0885,9.7696,1137.5831],[-84.0817,9.7655,1181.1636],[-84.0788,9.7662,1175.0898],[-84.0714,9.7638,1245.066],[-84.0666,9.7656,1272.7004],[-84.0634,9.764,1234.1295],[-84.058,9.7674,1297.851],[-84.0553,9.7661,1271.9026],[-84.0493,9.7673,1368.1843],[-84.0467,9.7659,1332.1548],[-84.0411,9.7678,1383.0049],[-84.0371,9.7649,1378.0042],[-84.0296,9.7647,1417.8921],[-84.0287,9.7683,1445.4504],[-84.0215,9.7705,1532.2524],[-84.0215,9.7788,1721.0253],[-84.0242,9.778,1698.0011],[-84.0246,9.7796,1746.6821],[-84.0298,9.7782,1676.8086],[-84.0283,9.7805,1661.3164],[-84.0299,9.7876,1555.201],[-84.0284,9.7884,1575.6365],[-84.0297,9.7903,1533.7974],[-84.0211,9.7999,1697.2954],[-84.0143,9.8046,1932.5747],[-84.0116,9.8034,1937.0778],[-84.0195,9.8167,1985.7549],[-84.0264,9.8205,1935.6252],[-84.0233,9.8257,1834.0781],[-84.0157,9.8253,1708.0205],[-84.0139,9.8287,1592.2606],[-84.0116,9.8281,1583.5222],[-84.0112,9.8329,1671.9296],[-84.0153,9.8365,1776.988],[-84.0105,9.8395,1723.1997],[-83.9993,9.8416,1526.5105],[-83.9981,9.8384,1429.8674],[-83.9999,9.8365,1443.9226],[-83.9984,9.8361,1443.9226],[-83.9883,9.8422,1409.422],[-83.9843,9.842,1397.7488],[-83.9853,9.8434,1398.5645],[-83.9835,9.8441,1397.6533],[-83.9753,9.8427,1386.5685],[-83.9673,9.8438,1382.4075],[-83.964,9.8467,1380.437],[-83.9582,9.8466,1381.6375],[-83.9566,9.8504,1385.3907],[-83.9488,9.848,1384.8783],[-83.9427,9.8527,1389.4426],[-83.9379,9.8539,1395.7687],[-83.9294,9.8522,1392.7896],[-83.9311,9.848,1381.3821],[-83.9289,9.848,1382.194],[-83.9306,9.8447,1370.4927],[-83.9254,9.8431,1358.3365],[-83.9238,9.8396,1340.058],[-83.9298,9.8393,1359.1921],[-83.9337,9.8415,1368.2844],[-83.9386,9.8396,1371.4756],[-83.9395,9.8357,1388.6661],[-83.9422,9.836,1393.8071],[-83.9431,9.8313,1383.0585],[-83.9465,9.8277,1383.2664],[-83.9455,9.8242,1384.6479],[-83.9474,9.8132,1480.4004],[-83.9449,9.8106,1480.6921],[-83.9426,9.7995,1788.2771],[-83.9393,9.7985,1757.0642],[-83.9366,9.7899,1554.4895],[-83.7865,9.6065,3117.9766],[-83.7801,9.6049,3132.8054],[-83.775,9.6057,3087.866]]]]}}