{"type": "Feature","bbox": [-84.3331,10.4157,-84.1611,10.7897],"geometry": {"type": "MultiPolygon","coordinates": [[[[-84.1612,10.5754,55.0213],[-84.1611,10.7854,19.7528],[-84.1752,10.786,20.5396],[-84.1909,10.7897,20.308],[-84.1969,10.785,17.5],[-84.1968,10.7772,18.0],[-84.1941,10.7627,19.8567],[-84.1869,10.7559,30.7887],[-84.1858,10.7523,19.75],[-84.1934,10.7356,22.6789],[-84.2021,10.7284,21.9369],[-84.2032,10.7245,22.1618],[-84.2021,10.7152,22.6933],[-84.2073,10.713,22.9388],[-84.2054,10.7077,24.8252],[-84.1945,10.7034,27.1185],[-84.1925,10.7011,27.8485],[-84.198,10.6826,24.5717],[-84.2011,10.6792,23.5],[-84.2037,10.6792,25.6154],[-84.2123,10.6855,27.9956],[-84.2142,10.6791,25.9208],[-84.2172,10.6778,25.0],[-84.2252,10.6811,25.0],[-84.2366,10.6753,39.6941],[-84.2462,10.6761,26.0],[-84.2414,10.6682,27.1949],[-84.2423,10.6634,34.5412],[-84.2456,10.661,38.3481],[-84.2568,10.6594,27.5],[-84.2665,10.6516,35.8621],[-84.2713,10.6513,41.4664],[-84.272,10.648,39.2824],[-84.279,10.6406,43.0691],[-84.2766,10.6401,39.9927],[-84.2739,10.6365,40.4097],[-84.2781,10.6291,55.5292],[-84.2772,10.6255,39.3442],[-84.2852,10.623,40.1293],[-84.2835,10.6205,43.7864],[-84.2842,10.6193,39.0876],[-84.2895,10.622,39.2421],[-84.2911,10.6149,53.4627],[-84.294,10.6148,45.371],[-84.2946,10.6175,43.7273],[-84.2975,10.6187,42.2382],[-84.3017,10.6143,48.042],[-84.3013,10.6108,43.8919],[-84.3064,10.6115,49.9845],[-84.308,10.6084,69.8011],[-84.3116,10.6099,52.6273],[-84.3098,10.6066,45.5786],[-84.3124,10.6045,42.8975],[-84.312,10.6005,61.5005],[-84.3141,10.5969,54.6201],[-84.3182,10.5999,50.3901],[-84.3202,10.5968,66.0035],[-84.3216,10.597,67.4763],[-84.3238,10.601,49.4665],[-84.3277,10.6001,47.7117],[-84.3276,10.5965,50.425],[-84.3294,10.5951,52.1919],[-84.3331,10.5963,52.8993],[-84.3317,10.5917,49.4849],[-84.3325,10.5812,61.944],[-84.3298,10.5797,50.4709],[-84.3308,10.5701,68.3036],[-84.3285,10.5684,54.1072],[-84.3283,10.563,62.9548],[-84.3253,10.5625,63.9267],[-84.3281,10.5588,65.5773],[-84.3254,10.555,64.3868],[-84.33,10.5507,73.4899],[-84.3263,10.549,69.1441],[-84.3254,10.5439,63.1796],[-84.3263,10.541,62.6779],[-84.3296,10.5392,72.9716],[-84.3294,10.5364,74.7821],[-84.3272,10.5364,73.3414],[-84.3279,10.5328,67.8865],[-84.3267,10.5296,72.4049],[-84.3215,10.5284,82.9098],[-84.3199,10.5258,72.4302],[-84.3176,10.5182,70.6792],[-84.3184,10.5137,73.1995],[-84.3153,10.5129,73.1436],[-84.3162,10.5097,75.4259],[-84.3184,10.5084,82.6373],[-84.3212,10.4976,81.8658],[-84.325,10.4908,89.1135],[-84.3229,10.4839,92.9815],[-84.3181,10.4805,96.694],[-84.32,10.475,101.241],[-84.3186,10.4703,106.8989],[-84.3148,10.4679,108.7696],[-84.3142,10.4617,127.1118],[-84.3081,10.4582,122.6467],[-84.3073,10.4535,128.007],[-84.3013,10.4457,142.0468],[-84.2997,10.4314,159.1066],[-84.298,10.4283,167.0543],[-84.3006,10.4231,176.0693],[-84.2988,10.4157,210.2731],[-84.2585,10.416,236.3231],[-84.2612,10.4186,233.337],[-84.2571,10.4217,228.1889],[-84.2578,10.4271,214.8668],[-84.2546,10.4316,202.1721],[-84.2536,10.4412,192.0836],[-84.2508,10.4413,183.2239],[-84.2463,10.4476,171.9085],[-84.2454,10.4521,164.4691],[-84.241,10.4526,156.462],[-84.2421,10.4571,149.8055],[-84.2315,10.4869,128.8328],[-84.2318,10.4971,114.5247],[-84.234,10.4992,112.2978],[-84.2329,10.5006,112.9486],[-84.2303,10.4991,110.2895],[-84.2296,10.5044,102.9383],[-84.2273,10.5044,99.8079],[-84.2216,10.5087,99.45],[-84.2213,10.5118,92.3516],[-84.2149,10.5167,86.2196],[-84.2114,10.5219,86.2013],[-84.2101,10.5262,84.1415],[-84.214,10.5268,82.5605],[-84.2145,10.5281,81.0454],[-84.2121,10.5303,82.2912],[-84.2124,10.5355,76.0121],[-84.2098,10.5369,83.4738],[-84.2094,10.5411,72.0351],[-84.2035,10.5487,71.1074],[-84.204,10.5558,70.3461],[-84.196,10.5582,64.6085],[-84.1915,10.5621,62.6796],[-84.1873,10.5624,60.8406],[-84.1861,10.5658,62.472],[-84.1818,10.5673,57.5794],[-84.1799,10.5721,63.5335],[-84.1743,10.577,55.2454],[-84.1712,10.5773,55.1067],[-84.172,10.5739,52.6388],[-84.1667,10.5724,53.2218],[-84.1612,10.5754,55.0213]]]]}
,"properties": {"GID_3": "CRI.1.11.9_1","GID_0": "CRI","country": "CostaRica","GID_1": "CRI.1_1","province": "Alajuela","NL_NAME_1": "NA","GID_2": "CRI.1.11_1","county": "SanCarlos","NL_NAME_2": "NA","city": "Pital","VARNAME_3": "NA","NL_NAME_3": "NA","TYPE_3": "Distrito","ENGTYPE_3": "District","CC_3": "6","HASC_3": "NA","name": "Pital.city","area_km2": 382.3582,"hist_schema_id": "Elevation0-9000","hist_area_km2": {"25": 25.1042,"50": 78.5339,"75": 97.0806,"100": 62.553,"125": 39.8548,"150": 30.0581,"175": 22.1373,"200": 14.3834,"225": 6.7543,"250": 3.0222,"275": 1.6257,"300": 0.6878,"325": 0.3335,"350": 0.1876,"375": 0.0417}}}