{"type": "Feature","bbox": [-85.7975,9.9828,-85.6002,10.1412],"geometry": {"type": "MultiPolygon","coordinates": [[[[-85.6002,10.066,236.7167],[-85.6013,10.0697,282.2849],[-85.6044,10.0711,248.6094],[-85.6049,10.0739,262.4507],[-85.6101,10.0782,289.0358],[-85.6104,10.084,318.1243],[-85.6124,10.0877,359.3406],[-85.6096,10.092,367.6646],[-85.616,10.1015,553.2709],[-85.6178,10.1027,593.0511],[-85.6345,10.1026,531.6762],[-85.6379,10.1003,421.8196],[-85.6397,10.1012,386.0438],[-85.6412,10.1073,439.8164],[-85.6444,10.1107,531.0977],[-85.6396,10.1173,631.935],[-85.6384,10.1234,657.1974],[-85.6325,10.1299,834.2797],[-85.6309,10.1399,850.9304],[-85.6361,10.1377,566.1863],[-85.6449,10.14,376.5418],[-85.6501,10.1387,329.0386],[-85.6552,10.1355,311.1625],[-85.6583,10.1273,252.2562],[-85.6695,10.1232,191.1489],[-85.6768,10.1258,189.9424],[-85.6832,10.125,148.4707],[-85.697,10.1331,124.7794],[-85.7031,10.1328,102.7684],[-85.7047,10.1346,105.1982],[-85.7155,10.134,86.3111],[-85.7179,10.1392,83.5174],[-85.7221,10.1412,62.3287],[-85.7246,10.1388,69.5042],[-85.7282,10.139099999999999,57.1225],[-85.7297,10.1358,47.806],[-85.7334,10.1388,100.6986],[-85.734,10.1357,48.6591],[-85.7389,10.1363,41.8567],[-85.7363,10.1317,39.6829],[-85.7375,10.1284,38.887],[-85.7503,10.1235,208.1719],[-85.756,10.1235,132.6533],[-85.7598,10.1209,113.2695],[-85.7636,10.122,106.2663],[-85.7656,10.1245,101.6993],[-85.7729,10.1257,101.4472],[-85.7744,10.1286,95.1052],[-85.7786,10.127,47.0353],[-85.7806,10.1293,51.0954],[-85.785,10.1286,52.7325],[-85.7898,10.1307,30.3589],[-85.7938,10.1279,18.6916],[-85.7975,10.1275,1.0444],[-85.7936,10.1182,3.24],[-85.7951,10.1165,0.0],[-85.7939,10.1138,7.4359],[-85.7952,10.1102,0.0],[-85.7886,10.102,0.0],[-85.7887,10.0941,0.0],[-85.7843,10.0913,0.0],[-85.7795,10.0853,0.0],[-85.7777,10.0801,4.3678],[-85.7721,10.0748,0.0],[-85.7732,10.0733,0.0],[-85.7697,10.0719,0.0],[-85.7709,10.0692,0.0],[-85.7698,10.0673,3.7681],[-85.767,10.067,0.8865],[-85.7662,10.0625,1.5982],[-85.7638,10.0615,0.0],[-85.7636,10.0592,3.137],[-85.7529,10.0509,4.8761],[-85.7498,10.0502,1.8754],[-85.748,10.0429,4.1269],[-85.7435,10.0361,0.0],[-85.7434,10.0307,0.0],[-85.7406,10.0315,11.5363],[-85.7376,10.0292,11.4903],[-85.7415,10.0272,0.0],[-85.737799999999993,10.0249,0.0],[-85.7368,10.0266,5.7822],[-85.7312,10.0245,3.382],[-85.7304,10.0214,0.0],[-85.7275,10.0209,1.7667],[-85.7273,10.0176,0.0],[-85.7293,10.0166,0.0],[-85.7247,10.0127,0.0],[-85.7223,10.0134,20.603],[-85.7016,9.993,0.0],[-85.6971,9.9932,5.7111],[-85.6986,9.992,0.0],[-85.7007,9.9925,0.0],[-85.6968,9.9867,0.6342],[-85.6903,9.992,4.7225],[-85.6814,9.987,8.3649],[-85.6803,9.9833,28.8761],[-85.6777,9.9834,35.4352],[-85.6772,9.9867,16.6148],[-85.6713,9.9828,28.3546],[-85.6714,9.9892,21.2079],[-85.6697,9.9922,35.2238],[-85.6736,9.9947,12.7727],[-85.6717,9.9956,27.4769],[-85.6673,9.9939,27.5196],[-85.6631,9.9958,36.1961],[-85.6623,9.9992,30.6796],[-85.6606,9.9993,44.8222],[-85.6609,10.0022,62.0549],[-85.6653,10.001,125.682],[-85.6624,10.006,46.5883],[-85.6591,10.0054,71.5745],[-85.6623,10.0117,43.3042],[-85.6608,10.0115,43.3042],[-85.6604,10.0095,60.4855],[-85.6511,10.0106,64.171],[-85.6492,10.0095,67.7782],[-85.6472,10.0157,145.5461],[-85.6445,10.0118,136.606],[-85.6431,10.0169,63.0249],[-85.6405,10.0124,69.9611],[-85.6412,10.0156,83.0831],[-85.6397,10.0174,109.8067],[-85.6362,10.0155,90.9709],[-85.6386,10.0194,167.7878],[-85.6346,10.0205,105.8241],[-85.6366,10.0264,194.1242],[-85.6339,10.0331,112.0698],[-85.6313,10.0336,128.618],[-85.6303,10.0364,162.8242],[-85.6283,10.0352,125.4573],[-85.6287,10.0373,184.5756],[-85.626,10.0386,136.3694],[-85.6285,10.0396,178.5733],[-85.6268,10.0414,148.4193],[-85.6294,10.0446,153.1965],[-85.6271,10.0458,175.1114],[-85.6274,10.0487,158.1193],[-85.6239,10.0529,174.9301],[-85.6242,10.0554,194.0667],[-85.6191,10.056,187.0392],[-85.6146,10.0525,175.6358],[-85.614,10.0538,214.6847],[-85.6079,10.054,205.8367],[-85.6058,10.0554,206.5425],[-85.6062,10.0588,208.8749],[-85.6082,10.0593,202.2096],[-85.6075,10.0614,213.6119],[-85.6002,10.066,236.7167]]]]}
,"properties": {"GID_3": "CRI.3.10.4_1","GID_0": "CRI","country": "CostaRica","GID_1": "CRI.3_1","province": "Guanacaste","NL_NAME_1": "NA","GID_2": "CRI.3.10_1","county": "SantaCruz","NL_NAME_2": "NA","city": "Cuajiniquil","VARNAME_3": "NA","NL_NAME_3": "NA","TYPE_3": "Distrito","ENGTYPE_3": "District","CC_3": "6","HASC_3": "NA","name": "Cuajiniquil.city","area_km2": 219.7348,"hist_schema_id": "Elevation0-9000","hist_area_km2": {"0": 6.5555,"25": 21.8783,"50": 21.2097,"75": 18.6837,"100": 16.429,"125": 15.8655,"150": 12.9847,"175": 12.6297,"200": 11.043,"225": 9.9994,"250": 9.4775,"275": 8.6842,"300": 6.5967,"325": 7.0559,"350": 7.1184,"375": 5.2605,"400": 5.2186,"425": 3.9661,"450": 3.9034,"475": 2.1709,"500": 1.7116,"525": 1.816,"550": 1.482,"575": 1.0645,"600": 1.2315,"625": 1.148,"650": 1.0019,"675": 1.0854,"700": 0.7723,"725": 0.5218,"750": 0.4592,"775": 0.334,"800": 0.1252,"825": 0.0835,"850": 0.0835,"875": 0.0835}}}