{"type": "Feature","bbox": [-84.1736,10.014099999999999,-84.1614,10.0441],"geometry": {"type": "MultiPolygon","coordinates": [[[[-84.1736,10.014099999999999,1018.2571],[-84.173,10.0182,1034.0255],[-84.1678,10.022,1042.9657],[-84.1618,10.0301,1081.4639],[-84.1639,10.0381,1119.5381],[-84.1614,10.0391,1145.1263],[-84.1624,10.042,1157.2788],[-84.1652,10.0417,1156.9025],[-84.1683,10.0441,1207.7008],[-84.1708,10.0441,1188.2576],[-84.1735,10.0274,1064.5403],[-84.1736,10.014099999999999,1018.2571]]]]}
,"properties": {"GID_3": "CRI.4.8.4_1","GID_0": "CRI","country": "CostaRica","GID_1": "CRI.4_1","province": "Heredia","NL_NAME_1": "NA","GID_2": "CRI.4.8_1","county": "SantaBárbara","NL_NAME_2": "NA","city": "SanPedro","VARNAME_3": "NA","NL_NAME_3": "NA","TYPE_3": "Distrito","ENGTYPE_3": "District","CC_3": "2","HASC_3": "NA","name": "San_Pedro.city","area_km2": 2.421851,"hist_schema_id": "Elevation0-9000","hist_area_km2": {"1025": 0.062636,"1050": 0.354936,"1075": 0.542835,"1100": 0.835117,"1125": 0.334042,"1150": 0.208775,"1175": 0.062632,"1200": 0.020877}}}