{"type":"Feature","properties":{"GID_2":"CRI.7.10_1","GID_0":"CRI","country":"CostaRica","GID_1":"CRI.7_1","province":"SanJosé","NL_NAME_1":"NA","county":"MontesdeOca","VARNAME_2":"NA","NL_NAME_2":"NA","TYPE_2":"Cantón","ENGTYPE_2":"Canton","CC_2":"15","HASC_2":"CR.SJ.MO","name":"Montesde_Oca.county"},
"geometry":{"type": "MultiPolygon","coordinates": [[[[-84.0436,9.9297,1216.4116],[-84.0318,9.9302,1244.5925],[-84.0184,9.939,1306.4083],[-84.0125,9.9377,1338.4591],[-84.0078,9.9383,1349.5139],[-84.0084,9.9398,1356.6577],[-84.0053,9.9409,1386.3687],[-83.9693,9.9437,1693.2079],[-83.9635,9.9503,1785.9412],[-83.9565,9.9496,1811.6035],[-83.9582,9.956,1869.3647],[-83.9672,9.952,1767.8572],[-83.9726,9.9519,1669.9572],[-83.9799,9.9543,1577.3639],[-83.9846,9.9525,1539.333],[-83.9879,9.9536,1503.2595],[-83.9912,9.9513,1484.2668],[-83.9926,9.9577,1506.3383],[-84.01,9.947,1334.3866],[-84.0145,9.9458,1338.9132],[-84.0239,9.9459,1301.4757],[-84.0271,9.9482,1286.3785],[-84.031,9.9471,1277.6047],[-84.0336,9.9499,1253.6294],[-84.0374,9.9493,1244.0903],[-84.0401,9.9519,1228.8115],[-84.0425,9.9496,1213.8756],[-84.0457,9.951,1208.9442],[-84.0464,9.9478,1205.3026],[-84.0493,9.9448,1209.1174],[-84.0489,9.9432,1204.6021],[-84.0545,9.9425,1194.5095],[-84.0549,9.941,1189.9421],[-84.0565,9.942,1186.5256],[-84.0578,9.94,1187.0577],[-84.0606,9.9405,1186.7296],[-84.0615,9.932,1186.1592],[-84.0659,9.9276,1157.9993],[-84.0556,9.9269,1174.9706],[-84.0515,9.9253,1178.5146],[-84.0512,9.9224,1181.5801],[-84.0459,9.9256,1200.5793],[-84.0436,9.9297,1216.4116]]]]}}