{"type":"Feature","properties":{"GID_3":"CRI.6.11.8_1","GID_0":"CRI","country":"CostaRica","GID_1":"CRI.6_1","province":"Puntarenas","NL_NAME_1":"NA","GID_2":"CRI.6.11_1","county":"Puntarenas","NL_NAME_2":"NA","city":"ElRoble","VARNAME_3":"NA","NL_NAME_3":"NA","TYPE_3":"Distrito","ENGTYPE_3":"District","CC_3":"15","HASC_3":"NA","name":"El_Roble.city"},
"geometry":{"type": "MultiPolygon","coordinates": [[[[-84.7352,9.9607,6.0261],[-84.7366,9.9716,6.2706],[-84.7319,9.9725,6.7178],[-84.732,9.9812,10.1654],[-84.7289,9.9807,14.6195],[-84.7263,9.9871,18.6188],[-84.7289,9.987,12.2149],[-84.7206,9.9916,19.8741],[-84.7224,9.9943,26.1018],[-84.732,9.9958,12.846],[-84.7345,9.9925,13.0547],[-84.7386,9.9942,5.3967],[-84.7457,9.9907,3.5574],[-84.7541,9.9922,2.8506],[-84.7565,9.9943,2.2225],[-84.7673,9.9911,12.846],[-84.7664,9.9888,8.9543],[-84.758,9.9893,10.6933],[-84.7563,9.9844,5.0007],[-84.7573,9.9801,6.0627],[-84.752,9.9798,7.4869],[-84.7522,9.973,0.0],[-84.7391,9.9677,4.6578],[-84.7388,9.9588,0.0],[-84.7352,9.9607,6.0261]]]]}}