{"type":"Feature","properties":{"GID_3":"CRI.7.11.4_1","GID_0":"CRI","country":"CostaRica","GID_1":"CRI.7_1","province":"SanJosé","NL_NAME_1":"NA","GID_2":"CRI.7.11_1","county":"Mora","NL_NAME_2":"NA","city":"Picagres","VARNAME_3":"NA","NL_NAME_3":"NA","TYPE_3":"Distrito","ENGTYPE_3":"District","CC_3":"5","HASC_3":"NA","name":"Picagres.city"},
"geometry":{"type": "MultiPolygon","coordinates": [[[[-84.3677,9.9301,301.5892],[-84.373,9.9259,316.8351],[-84.381,9.9298,276.0779],[-84.3823,9.9333,316.5582],[-84.3861,9.9314,273.3152],[-84.3884,9.936,304.6854],[-84.3936,9.936,315.6206],[-84.394,9.9305,259.6095],[-84.3995,9.9313,246.7489],[-84.4065,9.9271,230.1873],[-84.413,9.9288,255.1847],[-84.4126,9.9251,217.7025],[-84.4143,9.9233,219.3027],[-84.4083,9.9208,296.5757],[-84.4058,9.9128,361.4713],[-84.404,9.9127,365.7629],[-84.3968,9.9051,490.6223],[-84.3909,9.9044,537.0867],[-84.3865,9.9012,606.6193],[-84.3835,9.902,633.3587],[-84.3793,9.8995,661.7584],[-84.3753,9.8995,655.2072],[-84.3749,9.8967,726.2325],[-84.3681,9.8890999999999991,798.937],[-84.3689,9.886,849.3165],[-84.3671,9.8796,935.0905],[-84.3623,9.8785,1062.3772],[-84.3546,9.8849,874.8639],[-84.3495,9.885,731.1752],[-84.3433,9.8895,608.5157],[-84.3382,9.8894,560.1299],[-84.3349,9.8915,539.2195],[-84.3341,9.8941,506.6992],[-84.3369,9.9018,478.7476],[-84.3398,9.9037,501.8433],[-84.338,9.906,457.3755],[-84.3386,9.9095,453.0751],[-84.3409,9.9106,430.2131],[-84.3419,9.9138,424.7546],[-84.3458,9.9138,418.6145],[-84.3463,9.9166,364.4155],[-84.349,9.9164,403.468],[-84.3516,9.9197,358.2107],[-84.3544,9.9192,336.6701],[-84.3547,9.9224,348.9861],[-84.3583,9.9224,370.0971],[-84.3677,9.9301,301.5892]]]]}}