{"type":"Feature","properties":{"GID_3":"CRI.1.13.10_1","GID_0":"CRI","country":"CostaRica","GID_1":"CRI.1_1","province":"Alajuela","NL_NAME_1":"NA","GID_2":"CRI.1.13_1","county":"SanRamón","NL_NAME_2":"NA","city":"SanRafael","VARNAME_3":"NA","NL_NAME_3":"NA","TYPE_3":"Distrito","ENGTYPE_3":"District","CC_3":"6","HASC_3":"NA","name":"San_Rafael.city"},
"geometry":{"type": "MultiPolygon","coordinates": [[[[-84.4547,10.0074,1328.7029],[-84.4551,10.009,1382.3976],[-84.4637,10.011,1396.1577],[-84.465,10.0144,1418.2007],[-84.47,10.016,1383.4479],[-84.4688,10.0176,1353.0833],[-84.4687,10.029,1465.6659],[-84.4641,10.0354,1410.7258],[-84.4639,10.0399,1415.2766],[-84.46,10.0431,1395.9534],[-84.4594,10.0531,1247.929],[-84.453,10.0605,1160.5055],[-84.4542,10.066,1063.1816],[-84.4601,10.0713,1025.7614],[-84.4606,10.0789,1007.4664],[-84.4633,10.0839,1023.3622],[-84.4649,10.0818,1057.3389],[-84.4738,10.0828,1069.5116],[-84.4809,10.0754,1069.2151],[-84.476,10.0693,1029.9082],[-84.4838,10.057,1075.9535],[-84.4833,10.0529,1086.0906],[-84.4762,10.0421,1257.5857],[-84.4777,10.0341,1411.5588],[-84.483,10.0311,1375.0564],[-84.4881,10.0316,1217.476],[-84.4955,10.0218,1084.9425],[-84.491,10.0178,1168.5179],[-84.4923,10.0139,1153.5457],[-84.4978,10.0149,1187.3354],[-84.4952,10.0097,1014.6838],[-84.4967,10.0054,878.7029],[-84.4944,9.9927,692.346],[-84.4978,9.9837,590.5865],[-84.4945,9.9796,520.3403],[-84.4648,9.9893,973.059],[-84.4585,9.9931,1093.8866],[-84.4557,9.9977,1150.3635],[-84.452,9.9978,1281.3362],[-84.4541,10.0031,1305.9143],[-84.4558,10.0039,1305.6779],[-84.4547,10.0074,1328.7029]]]]}}