{"type":"Feature","properties":{"GID_2":"CRI.6.2_1","GID_0":"CRI","country":"CostaRica","GID_1":"CRI.6_1","province":"Puntarenas","NL_NAME_1":"NA","county":"BuenosAires","VARNAME_2":"NA","NL_NAME_2":"NA","TYPE_2":"Cantón","ENGTYPE_2":"Canton","CC_2":"3","HASC_2":"CR.PU.BA","name":"Buenos_Aires.county"},
"geometry":{"type": "MultiPolygon","coordinates": [[[[-83.3486,9.3542,2974.1797],[-83.352,9.3505,3004.4485],[-83.3553,9.3523,2980.4551],[-83.3667,9.3461,2738.2881],[-83.3754,9.3478,2844.3062],[-83.3783,9.3464,2873.9646],[-83.3857,9.3464,2898.6494],[-83.3939,9.3424,2852.0791],[-83.3986,9.3372,2883.6736],[-83.4007,9.3425,2882.6934],[-83.4006,9.3478,2886.0408],[-83.4036,9.3485,2848.3943],[-83.4055,9.3527,2895.2544],[-83.4155,9.3574,2910.7375],[-83.4183,9.3631,3003.1462],[-83.4222,9.3663,3004.0991],[-83.4293,9.3673,3107.0334],[-83.4324,9.3633,3051.041],[-83.4384,9.3595,2919.8081],[-83.4463,9.3497,2825.8704],[-83.4544,9.3435,2176.0417],[-83.4578,9.3332,1761.6602],[-83.4574,9.3304,1664.5776],[-83.4685,9.3148,1299.6927],[-83.4764,9.2911,964.8685],[-83.4841,9.2776,801.0861],[-83.4912,9.2671,688.1262],[-83.4967,9.2636,639.0241],[-83.5061,9.2619,591.7708],[-83.51,9.253,526.4],[-83.5096,9.2485,502.2415],[-83.5122,9.2435,486.3514],[-83.511,9.2408,484.1239],[-83.5127,9.2369,465.5559],[-83.5121,9.2331,472.3994],[-83.5134,9.2293,458.7016],[-83.5154,9.2281,494.9586],[-83.5153,9.2243,455.7936],[-83.5235,9.2165,395.8536],[-83.5227,9.2138,425.2052],[-83.5258,9.2107,391.1442],[-83.5228,9.2079,381.9664],[-83.5194,9.2144,387.6186],[-83.517,9.2152,375.58],[-83.5143,9.2115,425.9901],[-83.517,9.2063,411.9434],[-83.5133,9.2003,399.7525],[-83.5036,9.202,355.6808],[-83.4899,9.1925,364.7641],[-83.4882,9.1941,350.075],[-83.4897,9.1963,345.3218],[-83.4866,9.1998,341.7033],[-83.4815,9.1948,360.3953],[-83.4834,9.1907,337.8242],[-83.4817,9.1866,355.6497],[-83.4739,9.1818,318.5993],[-83.4781,9.1713,304.9514],[-83.4768,9.1676,304.7737],[-83.474,9.1669,298.2941],[-83.4738,9.1635,303.1413],[-83.4705,9.1594,332.8488],[-83.4721,9.155,293.0554],[-83.4711,9.1521,284.7436],[-83.4739,9.1491,299.4706],[-83.4762,9.1514,300.6053],[-83.4805,9.1517,323.5845],[-83.4795,9.1488,383.7841],[-83.4831,9.1437,365.5006],[-83.4815,9.138,458.5597],[-83.4826,9.1327,559.3615],[-83.4739,9.1259,792.0508],[-83.4734,9.1192,833.2758],[-83.4792,9.114,918.4052],[-83.4817,9.1149,868.9272],[-83.486,9.1087,799.4675],[-83.489,9.1076,790.1364],[-83.4905,9.1025,652.3328],[-83.4989,9.1003,558.2002],[-83.5046,9.0932,458.9899],[-83.5104,9.0916,439.527],[-83.5108,9.0897,467.1324],[-83.5029,9.0843,379.3962],[-83.5052,9.0807,392.7668],[-83.5074,9.0807,423.4373],[-83.5067,9.0778,413.5937],[-83.5137,9.0749,398.1493],[-83.5167,9.0769,420.8607],[-83.5211,9.077,460.4283],[-83.5284,9.0819,484.0186],[-83.5333,9.079,691.2534],[-83.5419,9.0786,840.2908],[-83.5488,9.0822,936.5425],[-83.5539,9.0745,750.8722],[-83.5519,9.0703,768.9849],[-83.562,9.0655,907.3829],[-83.5634,9.0576,894.9521],[-83.5592,9.0536,922.5142],[-83.5551,9.0546,967.6757],[-83.5484,9.0507,940.266],[-83.5386,9.0481,818.3334],[-83.5316,9.0505,880.8818],[-83.5254,9.0457,914.6459],[-83.5159,9.0442,836.3261],[-83.5076,9.0345,833.6797],[-83.4981,9.0331,909.0631],[-83.494,9.027,862.1486],[-83.497,9.0212,855.7487],[-83.4926,9.0196,861.5951],[-83.4876,9.0156,907.7551],[-83.4876,9.0141,923.0272],[-83.4791,9.0117,863.7787],[-83.4743,9.0079,866.5291],[-83.4754,8.9999,785.3283],[-83.4717,8.9996,764.2035],[-83.4698,8.9969,781.4048],[-83.4476,8.994,1004.037],[-83.4426,8.9906,1014.1053],[-83.4374,8.9899,1046.8861],[-83.4327,8.9919,1010.7648],[-83.4262,8.9874,641.7894],[-83.4249,8.9807,451.5496],[-83.4168,8.9767,145.7921],[-83.4143,8.9773,184.2309],[-83.4132,8.981,307.9438],[-83.413,8.9876,495.7391],[-83.4151,8.9903,505.3609],[-83.4118,8.9955,632.2909],[-83.4054,8.996,721.0706],[-83.4008,8.9944,805.8732],[-83.3992,8.9925,829.8981],[-83.3993,8.9886,964.6034],[-83.397,8.988,983.7737],[-83.396,8.9859,982.8671],[-83.39,8.9872,939.5471],[-83.3855,8.9851,953.5739],[-83.3842,8.9829,933.0565],[-83.3795,8.9833,970.7762],[-83.3739,8.9806,933.5204],[-83.3685,8.9749,772.0183],[-83.3681,8.9644,381.2932],[-83.3707,8.9546,28.0],[-83.3566,8.9445,66.8321],[-83.3485,8.944,56.8796],[-83.3418,8.9406,41.9672],[-83.3307,8.9469,63.6985],[-83.3182,8.9448,497.0479],[-83.3125,8.9428,533.1801],[-83.2993,8.9339,620.1182],[-83.2924,8.9265,762.7585],[-83.2823,8.929,674.1783],[-83.2794,8.9319,787.0861],[-83.2766,8.9284,715.2755],[-83.2715,8.9262,610.3038],[-83.2715,8.9235,516.6696],[-83.2673,8.9197,319.0118],[-83.2593,8.9172,539.2631],[-83.2528,8.9178,732.2189],[-83.2476,8.9135,758.7633],[-83.2489,8.9043,821.7093],[-83.2368,8.891,1047.0105],[-83.2355,8.8842,986.4656],[-83.2285,8.883,556.5452],[-83.2172,8.8745,1066.1643],[-83.2157,8.8749,1046.718],[-83.2094,8.866,1139.821],[-83.197,8.8566,1320.4302],[-83.1948,8.8492,1450.3744],[-83.1862,8.8434,1541.8477],[-83.1763,8.8203,1511.9767],[-83.1701,8.8166,1577.7339],[-83.1661,8.8117,1581.0704],[-83.163,8.8143,1622.7148],[-83.1595,8.8122,1613.42],[-83.1595,8.8086,1553.8247],[-83.1579,8.8071,1539.5161],[-83.1599,8.8027,1588.2015],[-83.1526,8.8007,1592.5769],[-83.1513,8.7986,1524.0385],[-83.142,8.7944,1571.2985],[-83.1386,8.7942,1618.854],[-83.1306,8.7855,1565.835],[-83.1202,8.7832,1476.5267],[-83.1148,8.7799,1472.019],[-83.1039,8.7811,1597.3354],[-83.0961,8.7752,1589.4498],[-83.0907,8.7769,1621.5911],[-83.0844,8.7753,1405.9662],[-83.0753,8.7775,1567.1104],[-83.0729,8.7766,1513.1431],[-83.0659,8.783,1403.8647],[-83.065,8.7907,1309.8641],[-83.0677,8.7903,1304.7834],[-83.0792,8.8003,944.3935],[-83.0795,8.8089,885.0665],[-83.0752,8.8144,772.0776],[-83.0738,8.8232,737.7713],[-83.0793,8.8291,638.2458],[-83.0807,8.8336,614.8972],[-83.0793,8.8367,592.2494],[-83.087,8.8372,650.2071],[-83.089,8.8343,571.3431],[-83.0909,8.8357,569.7266],[-83.0909,8.838,565.9804],[-83.0969,8.8406,577.5051],[-83.0976,8.8469,541.3909],[-83.1065,8.8583,541.1344],[-83.1009,8.8727,498.2159],[-83.102,8.8747,476.293],[-83.1043,8.8742,473.8372],[-83.1057,8.8762,474.9885],[-83.1011,8.877,483.6934],[-83.1001,8.8751,488.1953],[-83.0951,8.8745,527.1832],[-83.0935,8.8751,582.6859],[-83.0934,8.8773,624.5576],[-83.0898,8.8768,646.8628],[-83.0853,8.8806,718.1599],[-83.0783,8.8792,741.658],[-83.0744,8.8804,812.4578],[-83.0736,8.8847,864.8842],[-83.0792,8.8844,812.8602],[-83.0776,8.8948,782.0974],[-83.0818,8.8994,739.4384],[-83.085,8.8999,757.1453],[-83.084,8.9062,672.6237],[-83.0816,8.9097,555.7047],[-83.0675,8.913,409.7537],[-83.0645,8.9187,397.8919],[-83.0583,8.9213,372.7571],[-83.059,8.9252,364.2299],[-83.0565,8.9265,350.4893],[-83.0609,8.9307,352.8043],[-83.0567,8.9355,359.7461],[-83.0601,8.9358,331.1971],[-83.062,8.9384,329.9698],[-83.0615,8.9451,338.3943],[-83.0665,8.9443,319.0029],[-83.0694,8.9478,322.2256],[-83.0771,8.9522,304.997],[-83.0854,8.9538,298.7798],[-83.0864,8.9553,298.7798],[-83.0828,8.9562,312.4935],[-83.0749,8.9634,343.3566],[-83.0659,8.9645,370.1577],[-83.0633,8.9664,371.6818],[-83.0515,8.9661,408.8611],[-83.0467,8.9615,463.0292],[-83.039,8.965,483.7227],[-83.0341,8.9644,514.2783],[-83.0266,8.9673,597.8362],[-83.0235,8.9664,609.1807],[-83.0225,8.9727,632.2817],[-83.0203,8.9737,705.2469],[-83.0206,8.9763,694.1642],[-83.009,8.998,855.8285],[-83.0063,9.0006,906.5447],[-82.9981,8.9998,940.5883],[-82.9935,9.0064,1027.6628],[-82.9856,9.0126,1127.4175],[-82.9825,9.0133,1158.6312],[-82.9766,9.0191,1233.4178],[-82.9753,9.023,1347.6765],[-82.9773,9.034,1427.5609],[-82.9746,9.0374,1461.6346],[-82.9714,9.0472,1645.4773],[-82.9747,9.0526,1697.3123],[-82.9721,9.0553,1754.0806],[-82.9722,9.0615,1902.4293],[-82.9703,9.0661,1999.9028],[-82.9731,9.0768,2124.5249],[-82.9687,9.092,2424.2517],[-82.9711,9.0941,2498.0747],[-82.971,9.0966,2535.9111],[-82.9759,9.0943,2545.2605],[-82.9779,9.0959,2552.1555],[-82.9786,9.1033,2540.9043],[-82.9814,9.1064,2542.2371],[-82.9813,9.113,2517.3193],[-82.9895,9.1167,2515.6567],[-82.9874,9.1244,2566.4089],[-82.9966,9.127,2519.2668],[-82.9927,9.1357,2506.1216],[-82.9941,9.1425,2551.4341],[-82.996,9.1444,2569.5369],[-82.9916,9.1546,2687.2788],[-82.9969,9.1586,2692.9514],[-83.0028,9.1559,2653.9094],[-83.0074,9.1559,2634.7886],[-83.016,9.1589,2549.698],[-83.0195,9.1583,2558.3284],[-83.0332,9.1617,2573.3921],[-83.0447,9.16,2634.981],[-83.057,9.1685,2695.0059],[-83.065,9.1769,2714.0642],[-83.0674,9.184,2731.9438],[-83.0666,9.19,2820.8835],[-83.057,9.195,2969.9529],[-83.0569,9.2005,2959.5012],[-83.0629,9.2043,2947.7688],[-83.0669,9.2106,2993.4902],[-83.0754,9.2175,3098.9619],[-83.0768,9.22,3011.4695],[-83.0762,9.2253,2913.3003],[-83.0792,9.2291,2839.6426],[-83.0797,9.234,2862.4094],[-83.0735,9.2366,2917.6943],[-83.0719,9.2415,3004.7444],[-83.0733,9.2499,2933.4497],[-83.0843,9.2556,2850.25],[-83.0917,9.2538,2775.6321],[-83.0983,9.2563,2715.5496],[-83.1024,9.2592,2658.7715],[-83.1029,9.263,2669.8181],[-83.1102,9.2654,2474.1086],[-83.1132,9.2717,2542.2441],[-83.1166,9.2749,2632.9465],[-83.1342,9.2762,2870.1426],[-83.1344,9.282,2868.5815],[-83.1452,9.2896,2709.8936],[-83.1449,9.2926,2753.5835],[-83.1515,9.2949,2710.0452],[-83.1533,9.2981,2749.2266],[-83.1574,9.3,2813.0581],[-83.1572,9.3031,2825.666],[-83.1644,9.3077,2794.3628],[-83.1685,9.3193,2973.5278],[-83.178,9.3268,3039.5366],[-83.1885,9.3227,2853.7576],[-83.1973,9.3236,2648.6606],[-83.2068,9.3207,2612.4326],[-83.2241,9.3205,2539.1023],[-83.229,9.3268,2337.0916],[-83.2358,9.3296,2316.8306],[-83.2374,9.3343,2308.134],[-83.2416,9.3393,2259.5161],[-83.257,9.3416,2288.5042],[-83.2619,9.3454,2306.8022],[-83.2687,9.3477,2553.7327],[-83.2719,9.3523,2619.3503],[-83.279,9.3557,2682.3594],[-83.2874,9.3553,2809.812],[-83.2909,9.3634,2865.0378],[-83.2991,9.3685,3063.042],[-83.3029,9.3746,3253.5603],[-83.3075,9.3769,3169.8997],[-83.3121,9.3826,3138.0564],[-83.3163,9.3837,3068.4788],[-83.325,9.3838,2921.7578],[-83.3276,9.3815,2978.7834],[-83.3323,9.3833,3071.0977],[-83.3347,9.3742,3007.6841],[-83.3386,9.371,2923.3059],[-83.342,9.3707,2909.8491],[-83.3448,9.3669,2989.3137],[-83.3439,9.3583,2934.5342],[-83.3486,9.3542,2974.1797]]]]}}