{"type": "Feature","bbox": [-84.0786,9.9496,-84.0617,9.9626],"geometry": {"type": "MultiPolygon","coordinates": [[[[-84.066,9.9547,1176.4133],[-84.0619,9.9597,1176.051],[-84.0617,9.9626,1187.7039],[-84.0727,9.9622,1172.7898],[-84.0725,9.9593,1165.8544],[-84.0785,9.9543,1144.8478],[-84.0786,9.951,1140.4025],[-84.0749,9.9496,1139.0455],[-84.0734,9.9522,1147.0095],[-84.066,9.9547,1176.4133]]]]}
,"properties": {"GID_3": "CRI.7.18.1_1","GID_0": "CRI","country": "CostaRica","GID_1": "CRI.7_1","province": "SanJosé","NL_NAME_1": "NA","GID_2": "CRI.7.18_1","county": "Tibás","NL_NAME_2": "NA","city": "AnselmoLlorente","VARNAME_3": "NA","NL_NAME_3": "NA","TYPE_3": "Distrito","ENGTYPE_3": "District","CC_3": "3","HASC_3": "NA","name": "Anselmo_Llorente.city","area_km2": 1.357386,"hist_schema_id": "Elevation0-9000","hist_area_km2": {"1125": 0.06265,"1150": 0.417661,"1175": 0.877076}}}