{"type": "Feature","bbox": [-84.0408,9.9576,-83.9986,9.9702],"geometry": {"type": "MultiPolygon","coordinates": [[[[-84.0396,9.9576,1236.3887],[-84.0339,9.9618,1255.7983],[-84.032,9.9596,1252.882],[-84.0225,9.9613,1312.0559],[-84.0202,9.9592,1315.0696],[-84.0157,9.9602,1344.0737],[-84.0103,9.965,1372.7793],[-84.0055,9.9658,1411.3513],[-84.0057,9.9674,1408.3673],[-83.9989,9.9671,1440.4937],[-83.9986,9.9685,1440.4937],[-84.0121,9.9702,1365.2759],[-84.0197,9.9665,1320.5044],[-84.0282,9.9664,1294.7711],[-84.0357,9.9633,1257.447],[-84.0381,9.9605,1243.8435],[-84.0389,9.9615,1243.8435],[-84.0408,9.9597,1234.0011],[-84.0396,9.9576,1236.3887]]]]}
,"properties": {"GID_3": "CRI.7.8.3_1","GID_0": "CRI","country": "CostaRica","GID_1": "CRI.7_1","province": "SanJosé","NL_NAME_1": "NA","GID_2": "CRI.7.8_1","county": "Goicoechea","NL_NAME_2": "NA","city": "Ipís","VARNAME_3": "NA","NL_NAME_3": "NA","TYPE_3": "Distrito","ENGTYPE_3": "District","CC_3": "5","HASC_3": "NA","name": "Ipís.city","area_km2": 2.35971,"hist_schema_id": "Elevation0-9000","hist_area_km2": {"1225": 0.041765,"1250": 0.187943,"1275": 0.33412,"1300": 0.459413,"1325": 0.355001,"1350": 0.459411,"1375": 0.271469,"1400": 0.125293,"1425": 0.083529,"1450": 0.041764}}}