{"type": "Feature","bbox": [-82.9847,8.6905,-82.9035,8.7841],"geometry": {"type": "MultiPolygon","coordinates": [[[[-82.9035,8.7338,1123.3772],[-82.9048,8.7365,1124.3048],[-82.909,8.7359,1124.8015],[-82.9131,8.7409,1156.8671],[-82.9161,8.7417,1163.9792],[-82.92,8.7517,1165.9044],[-82.9157,8.7518,1132.1422],[-82.9088,8.7574,1118.2634],[-82.909,8.7589,1118.983],[-82.9148,8.7596,1152.6013],[-82.9156,8.7638,1112.7454],[-82.9189,8.765,1153.9065],[-82.9131,8.7682,1118.2406],[-82.9195,8.7735,1130.9149],[-82.9183,8.7788,1117.5304],[-82.923,8.7779,1109.4424],[-82.927,8.7739,1104.3638],[-82.9346,8.775,1085.915],[-82.9357,8.7779,1050.7292],[-82.9383,8.7743,1066.0571],[-82.9418,8.7738,1080.6788],[-82.944,8.7753,1064.604],[-82.9431,8.7835,1118.4944],[-82.9529,8.7827,1171.3401],[-82.9536,8.7841,1189.3903],[-82.9569,8.7841,1205.6282],[-82.9602,8.7811,1189.8964],[-82.9644,8.7821,1178.5048],[-82.9685,8.7775,1245.2611],[-82.9739,8.7764,1338.1379],[-82.9739,8.7692,1281.5997],[-82.9692,8.7646,1230.0409],[-82.9693,8.763,1260.4722],[-82.9779,8.7636,1271.4149],[-82.9832,8.757,1412.5298],[-82.982,8.7498,1437.1833],[-82.9847,8.7394,1455.074],[-82.9824,8.7374,1422.6667],[-82.9831,8.7334,1326.58],[-82.9798,8.7284,1268.105],[-82.9801,8.7253,1251.7555],[-82.9611,8.6974,891.1857],[-82.9491,8.6905,415.4362],[-82.9452,8.692,566.0322],[-82.9365,8.7006,902.8237],[-82.9289,8.702,765.922],[-82.9244,8.7005,584.2526],[-82.92,8.7021,566.3917],[-82.9167,8.6959,411.4851],[-82.9107,8.6966,396.6865],[-82.9117,8.7016,508.5223],[-82.9081,8.7133,884.4735],[-82.9117,8.7248,1048.0309],[-82.9048,8.729,1096.8563],[-82.9057,8.7311,1108.9795],[-82.9035,8.7338,1123.3772]]]]}
,"properties": {"GID_3": "CRI.6.4.1_1","GID_0": "CRI","country": "CostaRica","GID_1": "CRI.6_1","province": "Puntarenas","NL_NAME_1": "NA","GID_2": "CRI.6.4_1","county": "CotoBrus","NL_NAME_2": "NA","city": "Aguabuena","VARNAME_3": "NA","NL_NAME_3": "NA","TYPE_3": "Distrito","ENGTYPE_3": "District","CC_3": "3","HASC_3": "NA","name": "Aguabuena.city","area_km2": 63.62278,"hist_schema_id": "Elevation0-9000","hist_area_km2": {"375": 0.04192,"425": 0.06288,"450": 0.08383,"475": 0.12575,"500": 0.12575,"525": 0.16767,"550": 0.06287,"575": 0.29342,"600": 0.2515,"625": 0.16766,"650": 0.44012,"675": 0.31437,"700": 0.31437,"725": 0.44012,"750": 0.3982,"775": 0.50299,"800": 0.62874,"825": 0.60778,"850": 0.5449,"875": 0.83831,"900": 0.5449,"925": 0.79639,"950": 0.94309,"975": 0.73351,"1000": 0.9431,"1025": 1.11075,"1050": 3.62548,"1075": 7.29275,"1100": 9.70267,"1125": 9.42998,"1150": 7.2086,"1175": 3.05949,"1200": 2.15839,"1225": 2.347,"1250": 1.59262,"1275": 1.886,"1300": 1.13162,"1325": 0.94301,"1350": 0.54485,"1375": 0.62867,"1400": 0.25147,"1425": 0.29338,"1450": 0.04191}}}