{"type": "Feature","bbox": [-83.9578,9.8956,-83.8795,9.9705],"geometry": {"type": "MultiPolygon","coordinates": [[[[-83.9147,9.8956,1686.0549],[-83.9104,9.9071,1872.8098],[-83.904,9.9099,1872.0884],[-83.9047,9.9115,1893.0591],[-83.9003,9.9178,2009.1283],[-83.9021,9.9201,2049.7068],[-83.9015,9.9229,2089.7537],[-83.8967,9.9332,2171.0632],[-83.8905,9.9381,2308.1338],[-83.8907,9.9423,2379.811],[-83.8879,9.946,2476.7959],[-83.8856,9.9538,2633.1274],[-83.8795,9.9592,2743.9639],[-83.8831,9.9705,2969.1091],[-83.8912,9.9678,3003.9414],[-83.8991,9.9686,2920.9453],[-83.9041,9.9661,2781.0305],[-83.906,9.9613,2673.4204],[-83.9106,9.9607,2595.5591],[-83.9153,9.9546,2369.0508],[-83.9207,9.952,2293.5186],[-83.9314,9.9518,2168.0354],[-83.937,9.9553,2162.9644],[-83.9383,9.9583,2069.6519],[-83.9479,9.9532,1955.4132],[-83.9523,9.9538,1925.446],[-83.9565,9.9496,1811.6035],[-83.9542,9.9403,1887.1671],[-83.9505,9.9418,1960.2195],[-83.9483,9.9381,1951.6453],[-83.9515,9.9319,1843.9607],[-83.9578,9.9291,1814.7321],[-83.9578,9.9218,1695.4589],[-83.9495,9.9166,1650.4811],[-83.9506,9.9183,1686.8835],[-83.948,9.9236,1810.8281],[-83.9454,9.9234,1827.1342],[-83.9427,9.9277,1889.6134],[-83.9395,9.9279,1954.6219],[-83.9334,9.9265,1964.2406],[-83.9342,9.9198,1882.1539],[-83.9291,9.9232,1945.9121],[-83.9165,9.9232,2040.7001],[-83.9129,9.9062,1879.7987],[-83.9162,9.897,1711.5947],[-83.9147,9.8956,1686.0549]]]]}
,"properties": {"GID_3": "CRI.2.2.6_1","GID_0": "CRI","country": "CostaRica","GID_1": "CRI.2_1","province": "Cartago","NL_NAME_1": "NA","GID_2": "CRI.2.2_1","county": "Cartago","NL_NAME_2": "NA","city": "LlanoGrande","VARNAME_3": "NA","NL_NAME_3": "NA","TYPE_3": "Distrito","ENGTYPE_3": "District","CC_3": "10","HASC_3": "NA","name": "Llano_Grande.city","area_km2": 30.17725,"hist_schema_id": "Elevation0-9000","hist_area_km2": {"1650": 0.04177,"1675": 0.04177,"1700": 0.08354,"1725": 0.16708,"1750": 0.1462,"1775": 0.29239,"1800": 0.4177,"1825": 0.48035,"1850": 0.37593,"1875": 0.45947,"1900": 0.52212,"1925": 0.543,"1950": 1.23218,"1975": 1.2113,"2000": 1.19042,"2025": 1.14865,"2050": 1.2113,"2075": 1.14864,"2100": 1.39925,"2125": 1.12774,"2150": 1.14863,"2175": 1.44099,"2200": 0.91889,"2225": 0.85624,"2250": 1.02331,"2275": 0.83535,"2300": 0.898,"2325": 0.52209,"2350": 0.52209,"2375": 0.64739,"2400": 0.54297,"2425": 0.64739,"2450": 0.43855,"2475": 0.33413,"2500": 0.27148,"2525": 0.33413,"2550": 0.39678,"2575": 0.33413,"2600": 0.31325,"2625": 0.33413,"2650": 0.43854,"2675": 0.27148,"2700": 0.35501,"2725": 0.35501,"2750": 0.33412,"2775": 0.41765,"2800": 0.25059,"2825": 0.31324,"2850": 0.20882,"2875": 0.18794,"2900": 0.12529,"2925": 0.25059,"2950": 0.20882,"2975": 0.31323,"3000": 0.02088,"3025": 0.10441,"3050": 0.02088}}}