{"type": "Feature","bbox": [-84.31,10.0031,-84.2244,10.0537],"geometry": {"type": "MultiPolygon","coordinates": [[[[-84.2635,10.0152,805.6672],[-84.2586,10.0165,825.6992],[-84.2577,10.0209,831.3374],[-84.2525,10.0209,840.5349],[-84.2506,10.0228,847.2847],[-84.2466,10.0213,860.2614],[-84.2425,10.0224,873.6608],[-84.2351,10.0281,899.881],[-84.2266,10.0321,948.879],[-84.2283,10.0334,948.879],[-84.2248,10.036,970.425],[-84.2265,10.0388,968.9536],[-84.2244,10.0411,999.7859],[-84.2266,10.0408,993.674],[-84.2274,10.0446,1017.9365],[-84.2303,10.0469,1005.6112],[-84.229,10.0482,978.0909],[-84.2296,10.0508,999.439],[-84.2325,10.0537,1015.1318],[-84.2373,10.0501,990.2767],[-84.2399,10.0502,976.9376],[-84.2479,10.0428,936.3643],[-84.2528,10.0416,919.895],[-84.2541,10.0386,907.9814],[-84.2573,10.0385,896.286],[-84.2601,10.0319,834.7102],[-84.265,10.0299,822.4528],[-84.2666,10.0257,806.345],[-84.2679,10.0264,806.8309],[-84.2754,10.0228,791.1219],[-84.2804,10.0233,765.1266],[-84.2864,10.0183,746.9636],[-84.2927,10.0173,730.9635],[-84.2961,10.0144,710.3136],[-84.2998,10.015,699.8454],[-84.3079,10.0074,667.7245],[-84.31,10.0031,644.0821],[-84.3019,10.0037,708.802],[-84.294,10.0075,730.8514],[-84.2911,10.0126,727.4788],[-84.2867,10.0149,738.323],[-84.2811,10.014099999999999,741.844],[-84.2736,10.0154,777.1826],[-84.271,10.0125,773.563],[-84.2675,10.0123,784.1425],[-84.2635,10.0152,805.6672]]]]}
,"properties": {"GID_3": "CRI.1.1.13_1","GID_0": "CRI","country": "CostaRica","GID_1": "CRI.1_1","province": "Alajuela","NL_NAME_1": "NA","GID_2": "CRI.1.1_1","county": "Alajuela","NL_NAME_2": "NA","city": "Tambor","VARNAME_3": "NA","NL_NAME_3": "NA","TYPE_3": "Distrito","ENGTYPE_3": "District","CC_3": "12","HASC_3": "NA","name": "Tambor.city","area_km2": 14.05109,"hist_schema_id": "Elevation0-9000","hist_area_km2": {"625": 0.02088,"650": 0.08352,"675": 0.14616,"700": 0.29231,"725": 0.62638,"750": 0.62638,"775": 0.75165,"800": 0.62637,"825": 1.06482,"850": 0.8769,"875": 1.58676,"900": 1.8164,"925": 1.89988,"950": 1.81635,"975": 0.98124,"1000": 0.60544,"1025": 0.22965}}}