{"type": "Feature","bbox": [-84.006,9.9113,-83.977,9.9361],"geometry": {"type": "MultiPolygon","coordinates": [[[[-83.977,9.9345,1572.4254],[-83.9832,9.9352,1501.557],[-83.9971,9.9309,1369.6635],[-84.0018,9.931,1359.7307],[-83.9987,9.9361,1385.9938],[-84.006,9.9332,1362.5748],[-84.0052,9.9254,1344.2422],[-83.9968,9.9217,1369.9875],[-83.9978,9.9139,1364.5471],[-83.9962,9.9115,1326.7665],[-83.9929,9.9113,1339.0182],[-83.9919,9.9144,1389.5507],[-83.9899,9.9143,1389.5507],[-83.9919,9.9177,1384.9092],[-83.9839,9.9285,1479.3787],[-83.9792,9.9284,1495.324],[-83.977,9.9345,1572.4254]]]]}
,"properties": {"GID_3": "CRI.2.5.1_1","GID_0": "CRI","country": "CostaRica","GID_1": "CRI.2_1","province": "Cartago","NL_NAME_1": "NA","GID_2": "CRI.2.5_1","county": "LaUnión","NL_NAME_2": "NA","city": "Concepción","VARNAME_3": "NA","NL_NAME_3": "NA","TYPE_3": "Distrito","ENGTYPE_3": "District","CC_3": "5","HASC_3": "NA","name": "Concepción.city","area_km2": 3.884576,"hist_schema_id": "Elevation0-9000","hist_area_km2": {"1325": 0.020886,"1350": 1.044241,"1375": 1.232216,"1400": 0.522122,"1425": 0.208846,"1450": 0.229731,"1475": 0.146192,"1500": 0.250613,"1525": 0.146191,"1550": 0.083538}}}