{"type":"Feature","properties":{"GID_2":"CRI.1.3_1","GID_0":"CRI","country":"CostaRica","GID_1":"CRI.1_1","province":"Alajuela","NL_NAME_1":"NA","county":"Atenas","VARNAME_2":"NA","NL_NAME_2":"NA","TYPE_2":"Cantón","ENGTYPE_2":"Canton","CC_2":"5","HASC_2":"CR.AL.AT","name":"Atenas.county"},
"geometry":{"type": "MultiPolygon","coordinates": [[[[-84.4001,9.9311,246.7489],[-84.394,9.9305,259.6095],[-84.394,9.9358,315.6206],[-84.3892,9.9362,279.949],[-84.3861,9.9314,273.3152],[-84.3823,9.9333,316.5582],[-84.381,9.9298,276.0779],[-84.3727,9.9259,316.8351],[-84.367,9.9323,346.1765],[-84.3626,9.9323,326.3376],[-84.3582,9.935,356.9269],[-84.3531,9.9415,385.6075],[-84.3526,9.9445,367.675],[-84.3566,9.9461,421.2742],[-84.3524,9.9489,394.0537],[-84.3559,9.954,399.5697],[-84.3533,9.9551,440.0807],[-84.3533,9.9579,419.6919],[-84.3486,9.9636,468.88],[-84.3486,9.9668,424.4262],[-84.3506,9.9682,436.8692],[-84.3492,9.9696,416.7608],[-84.3521,9.9713,426.3825],[-84.3446,9.978,465.2764],[-84.3421,9.9835,477.7271],[-84.3439,9.9859,496.5301],[-84.3408,9.9871,479.0413],[-84.3412,9.991,539.161],[-84.3453,9.9969,561.0215],[-84.3506,9.9959,538.0275],[-84.3535,9.998,572.1531],[-84.3575,10.0071,628.3805],[-84.3573,10.0121,606.1965],[-84.3622,10.0159,594.3394],[-84.3606,10.018,601.9919],[-84.3641,10.0201,612.1096],[-84.3656,10.0258,642.8336],[-84.3646,10.0309,655.0034],[-84.3674,10.0347,678.6442],[-84.3858,10.0367,748.5837],[-84.3921,10.0391,841.9823],[-84.4033,10.0352,857.5419],[-84.4124,10.0275,1088.6384],[-84.4221,10.0249,1208.1035],[-84.425,10.0151,1271.9349],[-84.4383,10.0105,1314.8904],[-84.451,10.0093,1270.9998],[-84.4553,10.0065,1318.2646],[-84.4558,10.0039,1305.6779],[-84.4541,10.0031,1305.9143],[-84.452,9.9978,1281.3362],[-84.4535,9.9959,1256.5018],[-84.4522,9.9932,1223.1581],[-84.4554,9.9883,1123.8904],[-84.4533,9.979,968.978],[-84.4544,9.9731,776.8932],[-84.4527,9.9686,762.4679],[-84.4568,9.9605,533.6653],[-84.4623,9.9587,460.3696],[-84.4685,9.9517,418.4794],[-84.4671,9.9458,406.5665],[-84.4688,9.9384,269.7428],[-84.4626,9.9287,187.4202],[-84.4616,9.9215,217.3374],[-84.4553,9.921,164.9829],[-84.4528,9.923,167.0287],[-84.4433,9.9222,192.9243],[-84.4402,9.924,192.8948],[-84.438,9.9214,194.1576],[-84.4353,9.921,195.9905],[-84.4241,9.9255,231.6195],[-84.4211,9.9203,258.3635],[-84.4135,9.9238,217.7025],[-84.413,9.9288,255.1847],[-84.4061,9.9271,230.1873],[-84.4001,9.9311,246.7489]]]]}}