{"type":"Feature","properties":{"GID_3":"CRI.6.3.2_1","GID_0":"CRI","country":"CostaRica","GID_1":"CRI.6_1","province":"Puntarenas","NL_NAME_1":"NA","GID_2":"CRI.6.3_1","county":"Corredores","NL_NAME_2":"NA","city":"Corredor","VARNAME_3":"NA","NL_NAME_3":"NA","TYPE_3":"Distrito","ENGTYPE_3":"District","CC_3":"1","HASC_3":"NA","name":"Corredor.city"},
"geometry":{"type": "MultiPolygon","coordinates": [[[[-82.8305,8.6365,897.0344],[-82.8349,8.6389,855.203],[-82.8344,8.6418,849.6771],[-82.8363,8.6465,836.6581],[-82.8432,8.6556,843.986],[-82.8549,8.6637,732.4053],[-82.859,8.6725,654.7578],[-82.8587,8.6762,772.2891],[-82.8644,8.679,848.1141],[-82.8626,8.688,865.6415],[-82.8656,8.6902,876.5529],[-82.8677,8.6971,865.2558],[-82.8704,8.6989,891.3657],[-82.8806,8.6973,890.2349],[-82.8811,8.6999,883.9617],[-82.8869,8.7048,910.4711],[-82.887,8.7067,912.2679],[-82.897,8.7156,964.0042],[-82.9006,8.7228,1065.3276],[-82.901,8.7308,1092.3254],[-82.9035,8.7338,1123.3772],[-82.9057,8.7311,1108.9795],[-82.9048,8.729,1096.8563],[-82.9117,8.7248,1048.0309],[-82.9081,8.7133,884.4735],[-82.9117,8.7016,508.5223],[-82.9107,8.6966,396.6865],[-82.9167,8.6959,411.4851],[-82.92,8.7021,566.3917],[-82.9244,8.7005,584.2526],[-82.9289,8.702,765.922],[-82.9365,8.7006,902.8237],[-82.9452,8.692,566.0322],[-82.9491,8.6905,415.4362],[-82.9611,8.6974,891.1857],[-82.9801,8.7253,1251.7555],[-82.9845,8.7202,997.7858],[-82.9896,8.7192,740.9462],[-82.9913,8.7166,631.5995],[-82.9929,8.709,463.2622],[-82.9892,8.7026,405.9728],[-82.9934,8.6976,299.0498],[-82.9967,8.6872,116.3728],[-83.0092,8.6786,83.914],[-83.0093,8.6734,50.2864],[-83.0056,8.6692,37.6348],[-83.0074,8.6684,40.6949],[-83.0064,8.6671,40.6949],[-83.0088,8.6601,29.9164],[-83.0067,8.6571,18.6035],[-83.0072,8.6547,27.6829],[-83.0043,8.6538,27.8292],[-83.0048,8.6525,19.3432],[-83.0035,8.6528,28.7797],[-83.0014,8.6488,22.9288],[-83.0014,8.5833,6.7689],[-83.0249,8.5627,3.5676],[-83.0266,8.5589,4.348],[-83.0314,8.561,10.4312],[-83.0342,8.5597,3.6375],[-83.0357,8.5624,10.1356],[-83.043,8.5532,2.6984],[-83.0428,8.5467,1.9779],[-83.0469,8.5483,3.1088],[-83.0542,8.5398,3.4048],[-83.0528,8.5318,1.0],[-83.0515,8.5318,7.139],[-83.0512,8.5352,6.1691],[-83.0499,8.5358,3.7276],[-83.0502,8.5326,4.7213],[-83.0469,8.532,11.516],[-83.0462,8.5292,9.5929],[-83.0389,8.5318,7.9396],[-83.0354,8.5284,6.8652],[-83.0355,8.5257,8.4336],[-83.0323,8.5266,10.9045],[-83.0319,8.5237,9.6586],[-83.0285,8.5258,12.9717],[-83.0252,8.5252,15.4526],[-83.0285,8.5217,16.7308],[-83.0255,8.5221,15.1822],[-83.025,8.5202,18.7612],[-83.0229,8.5204,13.544],[-83.0213,8.5183,14.1636],[-83.0213,8.5207,18.2604],[-83.0189,8.5192,27.6133],[-83.0159,8.52,11.8239],[-83.0169,8.5123,18.4007],[-83.0149,8.5125,13.3191],[-83.0129,8.5098,21.4716],[-83.0147,8.5084,22.5965],[-83.0123,8.5063,14.9779],[-83.0113,8.5076,17.8456],[-83.009,8.5071,14.4607],[-83.0104,8.5062,14.9779],[-83.0098,8.5032,12.677],[-83.008,8.5027,14.7423],[-83.0081,8.4986,24.0081],[-83.0045,8.4959,20.497],[-83.007,8.4934,17.9761],[-83.0067,8.4919,19.4609],[-83.005,8.4935,23.7576],[-83.0058,8.4906,16.2415],[-83.0045,8.4915,16.2415],[-83.0029,8.488,19.7858],[-83.0005,8.4869,16.9476],[-83.0039,8.4866,18.8153],[-83.0031,8.483,24.0507],[-82.9918,8.4926,13.4493],[-82.9901,8.4987,17.9987],[-82.993,8.5028,17.8285],[-82.9954,8.5112,12.6365],[-82.9932,8.5217,7.2659],[-82.9966,8.5281,6.0404],[-82.9946,8.5321,3.8512],[-82.9993,8.5377,3.9204],[-82.9981,8.5408,5.1436],[-82.9901,8.5467,6.2268],[-82.9824,8.5436,9.2732],[-82.9769,8.5462,5.2896],[-82.9694,8.5457,6.7576],[-82.9636,8.5431,5.8254],[-82.9563,8.5449,8.3014],[-82.9462,8.5411,11.5375],[-82.9453,8.5419,11.5375],[-82.9505,8.5472,9.4887],[-82.9519,8.5519,14.323],[-82.9508,8.5554,5.6476],[-82.9466,8.5586,14.5876],[-82.9444,8.5692,12.1291],[-82.9401,8.5754,23.1745],[-82.9338,8.5779,31.9536],[-82.931,8.5767,34.2254],[-82.9264,8.5777,35.9099],[-82.9245,8.5762,33.672],[-82.9203,8.5775,31.7485],[-82.9137,8.5724,40.9062],[-82.9031,8.572,44.3153],[-82.9011,8.5792,49.9121],[-82.8936,8.5798,50.524],[-82.8864,8.584,60.5025],[-82.8845,8.5878,61.3097],[-82.9009,8.6001,38.7575],[-82.9026,8.605,32.9555],[-82.8945,8.6023,44.1754],[-82.8911,8.6031,46.4709],[-82.8875,8.6015,53.2544],[-82.8842,8.5977,53.311],[-82.8743,8.5985,62.1447],[-82.8729,8.5954,76.0095],[-82.8703,8.5975,73.2348],[-82.8675,8.5966,80.0983],[-82.8649,8.603,108.3379],[-82.8585,8.6092,227.4014],[-82.8573,8.6191,317.1755],[-82.8556,8.6221,365.0074],[-82.8492,8.6265,437.3446],[-82.8403,8.6268,544.4325],[-82.8366,8.6332,736.0758],[-82.8305,8.6365,897.0344]]]]}}