{"type":"Feature","properties":{"GID_3":"CRI.2.4.1_1","GID_0":"CRI","country":"CostaRica","GID_1":"CRI.2_1","province":"Cartago","NL_NAME_1":"NA","GID_2":"CRI.2.4_1","county":"Jiménez","NL_NAME_2":"NA","city":"JuanViñas","VARNAME_3":"NA","NL_NAME_3":"NA","TYPE_3":"Distrito","ENGTYPE_3":"District","CC_3":"1","HASC_3":"NA","name":"Juan_Viñas.city"},
"geometry":{"type": "MultiPolygon","coordinates": [[[[-83.7801,9.9077,1468.2078],[-83.7781,9.8954,1220.8243],[-83.7747,9.892,1059.9622],[-83.774,9.8859,1026.788],[-83.7664,9.8758,784.0847],[-83.7578,9.8769,762.2053],[-83.7514,9.8696,731.3182],[-83.7316,9.8636,693.4666],[-83.7254,9.861,684.2269],[-83.7213,9.8573,670.39],[-83.7118,9.8553,734.3326],[-83.7078,9.8568,645.6248],[-83.7152,9.8664,752.8764],[-83.7165,9.8717,815.4249],[-83.7178,9.8712,815.4249],[-83.7226,9.8802,918.7258],[-83.7221,9.9326,944.5817],[-83.7293,9.9281,1025.2177],[-83.7381,9.9329,1090.4747],[-83.7448,9.932,1211.7325],[-83.7523,9.9385,1332.0776],[-83.7524,9.9411,1286.9666],[-83.756,9.9415,1378.7203],[-83.7595,9.9442,1556.0645],[-83.7601,9.9466,1534.924],[-83.7656,9.9488,1615.9443],[-83.7737,9.9431,1684.6097],[-83.7781,9.9427,1745.2734],[-83.7754,9.9406,1722.6606],[-83.7745,9.9343,1717.0276],[-83.7669,9.9214,1561.7936],[-83.7675,9.919,1537.6416],[-83.7693,9.9195,1508.0779],[-83.7704,9.918,1511.2921],[-83.7698,9.911,1494.6866],[-83.7727,9.9107,1507.395],[-83.7727,9.9089,1499.0118],[-83.7752,9.9077,1499.855],[-83.7741,9.8986,1364.4059],[-83.7755,9.899,1403.7407],[-83.7801,9.9077,1468.2078]]]]}}