{"type": "Feature","bbox": [-83.6559,10.2055,-83.4703,10.3073],"geometry": {"type": "MultiPolygon","coordinates": [[[[-83.6305,10.2737,42.5807],[-83.6318,10.2723,42.5807],[-83.639,10.2728,38.1627],[-83.647,10.2696,47.1241],[-83.6495,10.2658,43.951],[-83.6491,10.2599,46.4212],[-83.6535,10.2454,54.4796],[-83.6541,10.2436,57.163],[-83.6559,10.2436,56.836],[-83.6559,10.2289,64.2421],[-83.6496,10.228,49.856],[-83.6452,10.2299,50.0288],[-83.6433,10.2339,44.6071],[-83.641,10.2332,45.1233],[-83.6335,10.2356,39.6993],[-83.6322,10.2331,41.553],[-83.6227,10.2379,33.0419],[-83.6321,10.2221,57.9767],[-83.632,10.2055,56.9904],[-83.6291,10.2109,43.9315],[-83.6178,10.2156,36.3161],[-83.616,10.2178,35.168],[-83.6162,10.2207,33.2642],[-83.6134,10.2229,32.8251],[-83.6149,10.226,30.2269],[-83.6124,10.2277,31.9326],[-83.6096,10.2263,24.8522],[-83.6078,10.2274,25.3399],[-83.606,10.2253,30.7665],[-83.6033,10.2277,29.9485],[-83.5947,10.2237,36.259],[-83.5922,10.2291,29.8662],[-83.5854,10.2305,23.4331],[-83.5859,10.2327,22.9322],[-83.5837,10.2367,23.7016],[-83.5808,10.234,20.8874],[-83.5783,10.2366,26.9139],[-83.5779,10.2394,23.5456],[-83.5815,10.2424,24.0589],[-83.5772,10.2449,20.6805],[-83.5714,10.2438,24.4258],[-83.5679,10.248,23.845],[-83.5638,10.2452,23.6666],[-83.5612,10.2478,23.4963],[-83.5576,10.2428,26.3757],[-83.5588,10.2398,23.7346],[-83.5577,10.2386,37.8659],[-83.5562,10.244,22.0622],[-83.5544,10.2447,27.7018],[-83.5507,10.2379,29.3966],[-83.5522,10.2359,35.035],[-83.5508,10.2333,35.0687],[-83.553,10.2303,36.3458],[-83.5479,10.2334,26.637],[-83.5486,10.228,17.7454],[-83.5462,10.226,20.0098],[-83.543,10.2289,19.09],[-83.5407,10.2278,18.7238],[-83.5354,10.229,16.755],[-83.5308,10.2352,15.1101],[-83.5276,10.2296,19.5556],[-83.5214,10.2324,17.5324],[-83.5181,10.2318,15.5866],[-83.5158,10.2377,15.5774],[-83.5134,10.2349,15.0163],[-83.5079,10.2373,14.174],[-83.5087,10.2328,12.2894],[-83.504,10.2326,13.3499],[-83.5028,10.2375,11.9042],[-83.4995,10.241,12.9897],[-83.4994,10.2451,14.4756],[-83.4939,10.2424,12.6755],[-83.4911,10.2464,11.9992],[-83.489,10.2431,13.3668],[-83.4905,10.2511,11.0911],[-83.4847,10.2513,9.5951],[-83.4864,10.2568,10.5302],[-83.4829,10.2584,9.9382],[-83.4825,10.2615,9.7786],[-83.4809,10.2618,10.8004],[-83.4852,10.2638,10.7025],[-83.4819,10.2654,11.2963],[-83.4829,10.2711,9.1467],[-83.4812,10.2719,8.3208],[-83.4795,10.2707,8.1147],[-83.4792,10.2722,7.9179],[-83.4839,10.2762,10.5402],[-83.4848,10.2739,13.7302],[-83.4867,10.2738,8.8552],[-83.4879,10.2815,15.4029],[-83.4824,10.2844,10.2434],[-83.4806,10.281,10.2171],[-83.4785,10.2862,10.2813],[-83.4754,10.2839,7.7733],[-83.4703,10.2886,9.6333],[-83.4743,10.2895,8.1092],[-83.4733,10.2913,9.3465],[-83.4747,10.2924,19.4035],[-83.4767,10.2923,12.5121],[-83.476,10.2908,8.8151],[-83.4788,10.292,8.4095],[-83.4788,10.2896,9.3897],[-83.4822,10.2921,9.1215],[-83.4843,10.2918,9.2389],[-83.4846,10.2936,8.6818],[-83.4904,10.2949,9.1929],[-83.4909,10.2989,11.6538],[-83.4927,10.2996,11.3609],[-83.4938,10.2995,11.3609],[-83.4922,10.2978,9.9653],[-83.4929,10.296,11.8371],[-83.4958,10.296,10.2797],[-83.4947,10.2988,11.5451],[-83.4957,10.2997,11.5451],[-83.4974,10.2988,12.3425],[-83.4972,10.2962,11.077],[-83.499,10.2965,11.8662],[-83.4993,10.2994,12.4171],[-83.5027,10.2997,12.7927],[-83.5037,10.3037,12.0938],[-83.5055,10.3025,13.1249],[-83.5098,10.3033,12.0356],[-83.5116,10.2975,19.1826],[-83.5129,10.3017,19.0413],[-83.5119,10.3042,16.6119],[-83.5145,10.3057,13.6603],[-83.5167,10.3039,11.7691],[-83.5176,10.3073,14.9907],[-83.5208,10.3043,16.3023],[-83.5177,10.3017,14.5497],[-83.5208,10.3012,15.257],[-83.5226,10.3029,14.9656],[-83.5277,10.2976,15.6585],[-83.5244,10.298,17.0994],[-83.5244,10.2963,16.7915],[-83.5292,10.2945,16.9839],[-83.5305,10.2969,15.5727],[-83.5345,10.2965,23.1868],[-83.5344,10.2997,17.5434],[-83.5375,10.299,16.1936],[-83.5392,10.2957,17.0789],[-83.5406,10.2982,18.8029],[-83.5442,10.2966,18.6602],[-83.5442,10.2985,20.5173],[-83.5485,10.2996,21.946],[-83.5562,10.2974,20.936],[-83.5594,10.3007,23.3735],[-83.5692,10.2997,21.5814],[-83.5698,10.298,19.0215],[-83.5656,10.2976,21.2759],[-83.5679,10.296,19.4549],[-83.5652,10.2941,20.2976],[-83.5675,10.2942,21.2007],[-83.5685,10.2921,18.42],[-83.5694,10.2938,22.3402],[-83.572,10.2903,21.9385],[-83.5744,10.2899,20.8621],[-83.5763,10.2916,28.4512],[-83.5741,10.2917,21.0132],[-83.5741,10.2938,22.7855],[-83.5787,10.294,22.3048],[-83.5768,10.2914,28.4512],[-83.5785,10.289,28.536],[-83.5836,10.29,25.0825],[-83.582,10.2918,22.4629],[-83.584,10.2925,21.4984],[-83.5857,10.2866,33.0392],[-83.592,10.2801,25.3654],[-83.5995,10.2672,31.4385],[-83.6047,10.2681,28.4461],[-83.6088,10.2738,30.3151],[-83.6133,10.2735,35.2306],[-83.6141,10.2778,35.7747],[-83.6179,10.2802,33.9899],[-83.6212,10.2764,33.5635],[-83.6259,10.2755,35.3278],[-83.6265,10.2732,37.969],[-83.6305,10.2737,42.5807]]]]}
,"properties": {"GID_3": "CRI.5.1.5_1","GID_0": "CRI","country": "CostaRica","GID_1": "CRI.5_1","province": "Limón","NL_NAME_1": "NA","GID_2": "CRI.5.1_1","county": "Guácimo","NL_NAME_2": "NA","city": "RíoJiménez","VARNAME_3": "NA","NL_NAME_3": "NA","TYPE_3": "Distrito","ENGTYPE_3": "District","CC_3": "4","HASC_3": "NA","name": "Río_Jiménez.city","area_km2": 114.07934,"hist_schema_id": "Elevation0-9000","hist_area_km2": {"0": 17.12803,"25": 78.90387,"50": 17.56753,"75": 0.4799}}}