{"type": "Feature","bbox": [-84.3998,9.9259,-84.3421,9.9867],"geometry": {"type": "MultiPolygon","coordinates": [[[[-84.3438,9.9855,483.0386],[-84.3506,9.9867,706.5388],[-84.3664,9.9762,700.6124],[-84.3751,9.9612,777.1382],[-84.3784,9.9607,777.9841],[-84.3788,9.963,815.7829],[-84.3821,9.965,817.2],[-84.3886,9.9638,812.1873],[-84.3954,9.9674,808.2181],[-84.3965,9.9654,755.3274],[-84.3955,9.9591,687.8433],[-84.3976,9.9554,655.0567],[-84.3945,9.949,529.8527],[-84.3984,9.9458,491.8477],[-84.3977,9.9412,421.9946],[-84.3998,9.9312,246.7489],[-84.394,9.9305,259.6095],[-84.394,9.9358,315.6206],[-84.3892,9.9362,279.949],[-84.3861,9.9314,273.3152],[-84.3823,9.9333,316.5582],[-84.381,9.9298,276.0779],[-84.3727,9.9259,316.8351],[-84.367,9.9323,346.1765],[-84.3626,9.9323,326.3376],[-84.358,9.9352,356.9269],[-84.3525,9.9441,367.675],[-84.3566,9.9461,421.2742],[-84.3524,9.9489,394.0537],[-84.3559,9.954,399.5697],[-84.3533,9.9551,440.0807],[-84.3533,9.9579,419.6919],[-84.3486,9.9636,468.88],[-84.3486,9.9668,424.4262],[-84.3506,9.9682,436.8692],[-84.3492,9.9696,416.7608],[-84.3521,9.9713,426.3825],[-84.3446,9.978,465.2764],[-84.3421,9.9835,477.7271],[-84.3438,9.9855,483.0386]]]]}
,"properties": {"GID_3": "CRI.1.3.2_1","GID_0": "CRI","country": "CostaRica","GID_1": "CRI.1_1","province": "Alajuela","NL_NAME_1": "NA","GID_2": "CRI.1.3_1","county": "Atenas","NL_NAME_2": "NA","city": "Concepción","VARNAME_3": "NA","NL_NAME_3": "NA","TYPE_3": "Distrito","ENGTYPE_3": "District","CC_3": "5","HASC_3": "NA","name": "Concepción.city","area_km2": 21.96899,"hist_schema_id": "Elevation0-9000","hist_area_km2": {"225": 0.02088,"250": 0.14619,"275": 0.2715,"300": 0.18796,"325": 0.50123,"350": 0.41769,"375": 0.35503,"400": 0.87712,"425": 1.73335,"450": 2.13013,"475": 1.81686,"500": 2.40156,"525": 2.29711,"550": 1.5662,"575": 1.25296,"600": 1.12765,"625": 0.91882,"650": 1.065,"675": 0.60559,"700": 0.64735,"725": 0.54294,"750": 0.4803,"775": 0.355,"800": 0.10441,"825": 0.14618}}}