{"type":"Feature","properties":{"GID_3":"CRI.1.16.4_1","GID_0":"CRI","country":"CostaRica","GID_1":"CRI.1_1","province":"Alajuela","NL_NAME_1":"NA","GID_2":"CRI.1.16_1","county":"Zarcero","NL_NAME_2":"NA","city":"Palmira","VARNAME_3":"NA","NL_NAME_3":"NA","TYPE_3":"Distrito","ENGTYPE_3":"District","CC_3":"5","HASC_3":"NA","name":"Palmira.city"},
"geometry":{"type": "MultiPolygon","coordinates": [[[[-84.338,10.173,2133.3435],[-84.3338,10.1731,2069.4612],[-84.3277,10.1695,2042.8936],[-84.3266,10.1766,1942.9403],[-84.3207,10.1917,1724.7305],[-84.3217,10.1969,1648.9045],[-84.315,10.2048,1531.4141],[-84.3246,10.2096,1694.2915],[-84.3298,10.2179,2085.9407],[-84.3304,10.2237,2191.0776],[-84.3336,10.2298,2194.0217],[-84.3401,10.2325,2209.9365],[-84.3412,10.235,2227.2095],[-84.3451,10.2369,2202.5156],[-84.3479,10.2423,2188.5847],[-84.3491,10.2423,2224.2075],[-84.3509,10.2376,2203.2148],[-84.3526,10.2376,2225.5945],[-84.3555,10.2465,2260.376],[-84.3597,10.2372,2132.751],[-84.3729,10.2336,1988.5422],[-84.3787,10.2271,1901.9895],[-84.3787,10.2191,1951.8771],[-84.3812,10.2159,2005.4567],[-84.3852,10.215,1929.1042],[-84.3861,10.2061,2086.8201],[-84.3828,10.2036,2046.5906],[-84.3762,10.2057,2115.7708],[-84.374,10.2024,2137.9648],[-84.3721,10.2024,2141.1145],[-84.3639,10.1956,2105.4893],[-84.3565,10.1967,2107.4319],[-84.3451,10.1947,2136.3447],[-84.3411,10.1894,2098.9939],[-84.341,10.1767,2154.2063],[-84.338,10.173,2133.3435]]]]}}