{"type":"Feature","properties":{"GID_3":"CRI.2.6.2_1","GID_0":"CRI","country":"CostaRica","GID_1":"CRI.2_1","province":"Cartago","NL_NAME_1":"NA","GID_2":"CRI.2.6_1","county":"Oreamuno","NL_NAME_2":"NA","city":"Cot","VARNAME_3":"NA","NL_NAME_3":"NA","TYPE_3":"Distrito","ENGTYPE_3":"District","CC_3":"2","HASC_3":"NA","name":"Cot.city"},
"geometry":{"type": "MultiPolygon","coordinates": [[[[-83.8474,9.9066,1946.7445],[-83.8543,9.9059,2013.2189],[-83.855,9.9092,2072.0115],[-83.8511,9.9117,2105.9678],[-83.8508,9.9143,2159.2844],[-83.8549,9.9139,2181.0793],[-83.8559,9.9155,2200.4446],[-83.8655,9.9148,2202.9265],[-83.8678,9.9094,2088.041],[-83.8673,9.9062,2004.8027],[-83.8694,9.904,1946.7615],[-83.8724,9.9039,1947.356],[-83.8699,9.9058,1987.1165],[-83.8753,9.9077,2020.7946],[-83.8812,9.9078,2045.063],[-83.8831,9.9104,2068.4924],[-83.8828,9.9016,1922.1105],[-83.8859,9.8937,1787.7313],[-83.8843,9.8853,1707.824],[-83.8852,9.8832,1667.9805],[-83.8808,9.8819,1682.0272],[-83.8795,9.8749,1580.1191],[-83.8848,9.8692,1490.356],[-83.8875,9.8688,1480.6663],[-83.8876,9.8635,1426.7491],[-83.8755,9.862,1433.5181],[-83.8734,9.8645,1544.6533],[-83.8661,9.8653,1540.4966],[-83.863,9.8673,1571.7191],[-83.8579,9.8754,1585.2448],[-83.861,9.8816,1625.1807],[-83.8608,9.8876,1703.0795],[-83.8577,9.8926,1773.3297],[-83.8523,9.8961,1816.1843],[-83.8517,9.9004,1855.6859],[-83.8474,9.9066,1946.7445]]]]}}