{"type":"Feature","properties":{"GID_2":"CRI.6.4_1","GID_0":"CRI","country":"CostaRica","GID_1":"CRI.6_1","province":"Puntarenas","NL_NAME_1":"NA","county":"CotoBrus","VARNAME_2":"NA","NL_NAME_2":"NA","TYPE_2":"Cantón","ENGTYPE_2":"Canton","CC_2":"8","HASC_2":"CR.PU.CB","name":"Coto_Brus.county"},
"geometry":{"type": "MultiPolygon","coordinates": [[[[-82.9057,8.7306,1108.9795],[-82.9035,8.7338,1123.3772],[-82.9044,8.7361,1124.3048],[-82.9064,8.7372,1116.5831],[-82.909,8.7359,1124.8015],[-82.9131,8.7409,1156.8671],[-82.9161,8.7417,1163.9792],[-82.92,8.7517,1165.9044],[-82.9157,8.7518,1132.1422],[-82.912,8.754,1147.0151],[-82.909,8.7589,1118.983],[-82.9148,8.7596,1152.6013],[-82.9156,8.7638,1112.7454],[-82.9188,8.7658,1146.0854],[-82.9135,8.7672,1118.2406],[-82.914,8.77,1151.884],[-82.9092,8.7741,1111.8123],[-82.906,8.7748,1118.1754],[-82.9004,8.773,1087.3723],[-82.8988,8.7746,1091.949],[-82.8948,8.7714,1075.2103],[-82.8921,8.7724,1070.5764],[-82.8902,8.7788,1029.3884],[-82.8949,8.7832,1022.078],[-82.8904,8.7859,999.8944],[-82.8883,8.7931,955.574],[-82.8656,8.8048,983.5416],[-82.8627,8.8129,978.0364],[-82.8626,8.8185,986.094],[-82.8706,8.816,941.2824],[-82.8713,8.8184,945.8517],[-82.8778,8.82,1017.0197],[-82.8764,8.8229,1002.2936],[-82.8807,8.8226,989.9832],[-82.8836,8.8269,987.6738],[-82.8829,8.832,987.3571],[-82.8692,8.8436,1015.1235],[-82.8674,8.8469,1043.0488],[-82.8633,8.8485,1025.1154],[-82.8622,8.8523,1043.376],[-82.8566,8.8527,1043.9291],[-82.8548,8.8561,1084.1437],[-82.8503,8.8538,1073.8918],[-82.8278,8.8576,1117.6625],[-82.815,8.8634,1179.9846],[-82.8093,8.8724,1227.1652],[-82.799,8.8773,1224.6433],[-82.7888,8.8777,1271.1367],[-82.7843,8.8756,1294.5573],[-82.7803,8.8758,1319.8036],[-82.7737,8.8786,1360.7051],[-82.7698,8.8823,1334.0553],[-82.7608,8.8851,1464.3187],[-82.7591,8.8889,1564.6052],[-82.7539,8.8921,1642.4546],[-82.7473,8.8992,1947.7122],[-82.7489,8.9022,2016.9094],[-82.7487,8.9065,2103.8494],[-82.7252,8.9171,2350.291],[-82.7205,8.9207,2421.8389],[-82.7122,8.9225,2406.3442],[-82.7143,8.9318,2350.5854],[-82.7138,8.9364,2245.4487],[-82.7175,8.95,2266.3291],[-82.727,8.9551,2105.0708],[-82.7272,8.9573,2186.9126],[-82.7302,8.9602,2172.6724],[-82.7356,8.9617,2160.415],[-82.7423,8.9669,2254.2417],[-82.7365,8.9764,2334.1379],[-82.7414,8.9852,2340.4941],[-82.7444,8.9857,2365.5784],[-82.7485,8.9908,2439.6733],[-82.7546,8.9945,2511.5903],[-82.7708,8.9997,2589.9111],[-82.7741,9.0037,2548.1226],[-82.7777,9.0031,2539.4231],[-82.7823,9.0054,2567.6199],[-82.7852,9.0036,2578.3062],[-82.7996,9.0034,2658.0107],[-82.8053,9.0096,2756.4229],[-82.8035,9.0142,2783.4316],[-82.815,9.0196,2951.6228],[-82.8138,9.0234,2935.6858],[-82.8184,9.0305,3122.2483],[-82.8233,9.0304,3100.354],[-82.8239,9.0334,3032.5564],[-82.83,9.0356,2915.8452],[-82.8356,9.0338,2912.0657],[-82.8401,9.0399,2822.9521],[-82.8446,9.0404,2818.2468],[-82.8443,9.0429,2815.5452],[-82.8465,9.042,2804.7942],[-82.8507,9.0464,2889.5259],[-82.855,9.046,2959.6528],[-82.8577,9.0507,2957.5986],[-82.8569,9.0533,2945.3445],[-82.8588,9.0537,2896.3315],[-82.8586,9.0564,2917.564],[-82.8632,9.056,2839.9695],[-82.8639,9.0578,2828.5693],[-82.8682,9.0544,2857.1326],[-82.8705,9.0556,2846.5879],[-82.8707,9.0574,2835.5842],[-82.8742,9.0575,2829.5947],[-82.878,9.0607,2902.0803],[-82.8795,9.07,3063.4565],[-82.8823,9.0707,3006.1489],[-82.8871,9.0798,3037.3782],[-82.8879,9.0832,3104.2688],[-82.8868,9.0873,3208.4089],[-82.8928,9.089,3240.4541],[-82.9061,9.0821,3109.907],[-82.9143,9.0828,3034.3579],[-82.9276,9.0744,2905.3352],[-82.9311,9.0789,2774.5461],[-82.9355,9.0785,2740.3657],[-82.939,9.0749,2708.353],[-82.9428,9.0771,2700.8569],[-82.9512,9.0908,2682.5955],[-82.9547,9.0915,2673.5527],[-82.9582,9.0899,2649.5986],[-82.971,9.0966,2535.9111],[-82.9711,9.0941,2498.0747],[-82.9686,9.0912,2424.2517],[-82.9718,9.0837,2270.5544],[-82.9731,9.0756,2124.5249],[-82.9703,9.0661,1999.9028],[-82.9722,9.0615,1902.4293],[-82.9721,9.0553,1754.0806],[-82.9747,9.0526,1697.3123],[-82.9714,9.0472,1645.4773],[-82.9746,9.0374,1461.6346],[-82.9773,9.034,1427.5609],[-82.9753,9.023,1347.6765],[-82.9768,9.0187,1294.0786],[-82.9789,9.0181,1258.4932],[-82.9825,9.0133,1158.6312],[-82.9856,9.0126,1127.4175],[-82.9935,9.0064,1027.6628],[-82.9981,8.9998,940.5883],[-83.0063,9.0006,906.5447],[-83.009,8.998,855.8285],[-83.0206,8.9763,694.1642],[-83.0203,8.9737,705.2469],[-83.0225,8.9727,632.2817],[-83.0235,8.9664,609.1807],[-83.0266,8.9673,597.8362],[-83.0341,8.9644,514.2783],[-83.039,8.965,483.7227],[-83.0467,8.9615,463.0292],[-83.0515,8.9661,408.8611],[-83.0633,8.9664,371.6818],[-83.0659,8.9645,370.1577],[-83.0749,8.9634,343.3566],[-83.0828,8.9562,312.4935],[-83.0864,8.9553,298.7798],[-83.0854,8.9538,298.7798],[-83.0771,8.9522,304.997],[-83.0694,8.9478,322.2256],[-83.0665,8.9443,319.0029],[-83.0615,8.9451,338.3943],[-83.062,8.9384,329.9698],[-83.0601,8.9358,331.1971],[-83.0567,8.9355,359.7461],[-83.0609,8.9307,352.8043],[-83.0565,8.9265,350.4893],[-83.059,8.9252,364.2299],[-83.0583,8.9213,372.7571],[-83.0645,8.9187,397.8919],[-83.0675,8.913,409.7537],[-83.0816,8.9097,555.7047],[-83.084,8.9062,672.6237],[-83.085,8.8999,757.1453],[-83.0818,8.8994,739.4384],[-83.0776,8.8948,782.0974],[-83.0792,8.8844,812.8602],[-83.0736,8.8847,864.8842],[-83.0744,8.8804,812.4578],[-83.0783,8.8792,741.658],[-83.0853,8.8806,718.1599],[-83.0898,8.8768,646.8628],[-83.0934,8.8773,624.5576],[-83.0935,8.8751,582.6859],[-83.0951,8.8745,527.1832],[-83.1001,8.8751,488.1953],[-83.1011,8.877,483.6934],[-83.1057,8.8762,474.9885],[-83.1043,8.8742,473.8372],[-83.102,8.8747,476.293],[-83.1009,8.8727,498.2159],[-83.1065,8.8583,541.1344],[-83.0976,8.8469,541.3909],[-83.0969,8.8406,577.5051],[-83.0909,8.838,565.9804],[-83.0909,8.8357,569.7266],[-83.0887,8.8342,571.3431],[-83.087,8.8372,650.2071],[-83.0793,8.8367,592.2494],[-83.0807,8.8336,614.8972],[-83.0793,8.8291,638.2458],[-83.0738,8.8232,737.7713],[-83.0752,8.8144,772.0776],[-83.0795,8.8089,885.0665],[-83.0792,8.8003,944.3935],[-83.0677,8.7903,1304.7834],[-83.065,8.7907,1309.8641],[-83.0667,8.7818,1399.9263],[-83.074,8.7764,1513.1431],[-83.0727,8.7762,1513.1431],[-83.0651,8.7793,1457.5027],[-83.0572,8.7801,1516.3973],[-83.0482,8.7775,1550.2693],[-83.0465,8.7745,1496.5266],[-83.0413,8.7789,1472.986],[-83.0399,8.7829,1535.825],[-83.0351,8.7836,1482.1044],[-83.0326,8.7882,1568.9889],[-83.0297,8.7882,1518.6921],[-83.0195,8.7852,1373.5195],[-83.0177,8.7833,1312.7078],[-82.9938,8.7866,1413.6384],[-82.9866,8.783,1442.7365],[-82.9806,8.7827,1414.9104],[-82.9739,8.7764,1338.1379],[-82.9739,8.7692,1281.5997],[-82.9692,8.7646,1230.0409],[-82.9693,8.763,1260.4722],[-82.9779,8.7636,1271.4149],[-82.983,8.7575,1406.504],[-82.982,8.7498,1437.1833],[-82.9847,8.7394,1455.074],[-82.9824,8.7374,1422.6667],[-82.9831,8.7334,1326.58],[-82.9798,8.7284,1268.105],[-82.9801,8.7253,1251.7555],[-82.968,8.706,1081.3854],[-82.9593,8.6957,870.7153],[-82.9491,8.6905,415.4362],[-82.9452,8.692,566.0322],[-82.9365,8.7006,902.8237],[-82.9289,8.702,765.922],[-82.9244,8.7005,584.2526],[-82.92,8.7021,566.3917],[-82.9167,8.6959,411.4851],[-82.9107,8.6966,396.6865],[-82.9117,8.7016,508.5223],[-82.9081,8.7133,884.4735],[-82.9118,8.7243,1048.0309],[-82.9048,8.729,1096.8563],[-82.9057,8.7306,1108.9795]]]]}}