{"type":"Feature","properties":{"GID_3":"CRI.6.8.3_1","GID_0":"CRI","country":"CostaRica","GID_1":"CRI.6_1","province":"Puntarenas","NL_NAME_1":"NA","GID_2":"CRI.6.8_1","county":"MontesdeOro","NL_NAME_2":"NA","city":"SanIsidro","VARNAME_3":"NA","NL_NAME_3":"NA","TYPE_3":"Distrito","ENGTYPE_3":"District","CC_3":"3","HASC_3":"NA","name":"San_Isidro.city"},
"geometry":{"type": "MultiPolygon","coordinates": [[[[-84.6806,10.0908,720.6483],[-84.6861,10.0879,661.5948],[-84.6902,10.0887,578.2158],[-84.6904,10.0903,580.1537],[-84.6941,10.0896,581.4248],[-84.6946,10.0912,610.5731],[-84.7029,10.0916,516.7563],[-84.7089,10.0865,411.8532],[-84.7106,10.0867,398.6138],[-84.7107,10.0883,391.1928],[-84.7142,10.0874,347.8663],[-84.7175,10.0848,302.9893],[-84.7186,10.0796,256.9764],[-84.7233,10.074,191.8383],[-84.7241,10.0675,148.6338],[-84.7712,10.07,55.1431],[-84.7739,10.0683,64.8251],[-84.7722,10.0631,49.4533],[-84.7684,10.0608,42.9438],[-84.7701,10.0588,43.5398],[-84.7708,10.0524,28.2653],[-84.7688,10.0496,25.4837],[-84.7722,10.0449,17.2063],[-84.7626,10.0273,10.7431],[-84.7455,10.0232,38.0271],[-84.7445,10.0201,10.7733],[-84.7456,10.0177,6.8838],[-84.7397,10.0177,13.5812],[-84.7377,10.0154,14.2156],[-84.7373,10.0088,11.9531],[-84.7327,10.0094,33.1016],[-84.7324,10.013,16.0358],[-84.7266,10.0139,14.8373],[-84.7257,10.0164,17.758],[-84.7215,10.0189,48.4928],[-84.7195,10.0228,85.1653],[-84.7144,10.0269,209.5438],[-84.7061,10.0207,404.7689],[-84.704,10.0233,377.9385],[-84.7049,10.0266,323.9075],[-84.7024,10.0301,203.1762],[-84.7032,10.0349,139.1629],[-84.7062,10.0375,81.9666],[-84.7054,10.0383,88.497],[-84.7018,10.041,94.3612],[-84.6992,10.0388,105.7361],[-84.6962,10.0394,128.7481],[-84.6956,10.0419,118.5989],[-84.6937,10.0403,137.6107],[-84.6855,10.0471,165.4253],[-84.683,10.0469,164.3372],[-84.6737,10.0521,265.6821],[-84.6673,10.0522,375.6873],[-84.6662,10.0539,393.8036],[-84.6655,10.0584,317.4474],[-84.6681,10.058,321.1264],[-84.6726,10.063,357.6637],[-84.6744,10.0704,404.4106],[-84.6776,10.0737,466.2182],[-84.6769,10.0774,500.9822],[-84.6806,10.0908,720.6483]]]]}}