{"type": "Feature","bbox": [-84.4577,9.9203,-84.3945,9.9693],"geometry": {"type": "MultiPolygon","coordinates": [[[[-84.3954,9.9674,808.2181],[-84.4012,9.9693,838.4412],[-84.4054,9.9685,908.2213],[-84.4079,9.9649,974.9298],[-84.4119,9.967,1061.8347],[-84.4201,9.9659,1015.3594],[-84.4214,9.9674,1020.8227],[-84.4283,9.9648,1011.4597],[-84.4339,9.9656,976.6699],[-84.4364,9.9622,971.4382],[-84.4378,9.9631,949.345],[-84.4397,9.9607,928.8204],[-84.4431,9.9603,854.6658],[-84.446,9.9575,815.6105],[-84.4508,9.9474,746.2952],[-84.4511,9.9323,383.3208],[-84.4547,9.9293,321.7832],[-84.4577,9.922,183.9506],[-84.4553,9.921,164.9829],[-84.4528,9.923,167.0287],[-84.4433,9.9222,192.9243],[-84.4402,9.924,192.8948],[-84.4359,9.9209,195.9905],[-84.4241,9.9255,231.6195],[-84.4211,9.9203,258.3635],[-84.4135,9.9238,217.7025],[-84.413,9.9288,255.1847],[-84.4061,9.9271,230.1873],[-84.3998,9.9312,246.7489],[-84.3977,9.9412,421.9946],[-84.3984,9.9458,491.8477],[-84.3945,9.949,529.8527],[-84.3976,9.9554,655.0567],[-84.3955,9.9591,687.8433],[-84.3965,9.9654,755.3274],[-84.3954,9.9674,808.2181]]]]}
,"properties": {"GID_3": "CRI.1.3.3_1","GID_0": "CRI","country": "CostaRica","GID_1": "CRI.1_1","province": "Alajuela","NL_NAME_1": "NA","GID_2": "CRI.1.3_1","county": "Atenas","NL_NAME_2": "NA","city": "Escobal","VARNAME_3": "NA","NL_NAME_3": "NA","TYPE_3": "Distrito","ENGTYPE_3": "District","CC_3": "8","HASC_3": "NA","name": "Escobal.city","area_km2": 26.50136,"hist_schema_id": "Elevation0-9000","hist_area_km2": {"150": 0.04177,"175": 0.16708,"200": 0.2715,"225": 0.58478,"250": 0.54301,"275": 0.56389,"300": 0.83539,"325": 0.71008,"350": 0.93981,"375": 2.4226,"400": 1.25305,"425": 1.21128,"450": 0.98154,"475": 1.06507,"500": 0.71005,"525": 1.25302,"550": 0.68916,"575": 0.81446,"600": 0.89799,"625": 0.85622,"650": 1.02328,"675": 0.87709,"700": 0.79356,"725": 0.77267,"750": 0.50119,"775": 0.71002,"800": 0.71001,"825": 0.79354,"850": 0.68913,"875": 0.58471,"900": 0.41765,"925": 0.54295,"950": 0.31324,"975": 0.52206,"1000": 0.18794,"1025": 0.14618,"1050": 0.10441}}}