{"type": "Feature","bbox": [-84.1072,9.9548,-84.0941,9.9634],"geometry": {"type": "MultiPolygon","coordinates": [[[[-84.1072,9.9603,1039.8481],[-84.1047,9.9571,1081.5725],[-84.1003,9.9578,1090.7207],[-84.0974,9.9548,1095.6089],[-84.0956,9.9553,1106.342],[-84.0941,9.9594,1109.8304],[-84.0968,9.961,1104.4492],[-84.0976,9.9634,1082.9211],[-84.1067,9.9634,1031.3315],[-84.1072,9.9603,1039.8481]]]]}
,"properties": {"GID_3": "CRI.7.18.4_1","GID_0": "CRI","country": "CostaRica","GID_1": "CRI.7_1","province": "SanJosé","NL_NAME_1": "NA","GID_2": "CRI.7.18_1","county": "Tibás","NL_NAME_2": "NA","city": "LeónXIII","VARNAME_3": "NA","NL_NAME_3": "NA","TYPE_3": "Distrito","ENGTYPE_3": "District","CC_3": "4","HASC_3": "NA","name": "León_X_I_I_I.city","area_km2": 0.9397196,"hist_schema_id": "Elevation0-9000","hist_area_km2": {"1025": 0.0208824,"1050": 0.1670605,"1075": 0.2088257,"1100": 0.4803023,"1125": 0.0626486}}}