{"type": "Feature","bbox": [-83.1518,8.0396,-82.8861,8.5553],"geometry": {"type": "MultiPolygon","coordinates": [[[[-83.0528,8.5318,1.0],[-83.0557,8.5296,2.2237],[-83.0611,8.5326,1.8585],[-83.0721,8.5339,1.9245],[-83.0748,8.536,1.2761],[-83.0762,8.5404,3.5012],[-83.0831,8.5424,1.3473],[-83.0931,8.5516,0.5],[-83.0982,8.551,0.5],[-83.1102,8.5553,0.0],[-83.1148,8.5545,0.0],[-83.1212,8.5474,0.0],[-83.1265,8.5446,0.0],[-83.1383,8.5466,0.0],[-83.1381,8.5405,6.0167],[-83.14,8.5412,6.0167],[-83.1424,8.5365,8.1135],[-83.1464,8.5456,2.2794],[-83.1518,8.5479,0.916],[-83.1451,8.5365,6.9168],[-83.1383,8.5188,0.0],[-83.1073,8.4828,5.8893],[-83.0971,8.4655,7.884],[-83.0917,8.4509,17.3061],[-83.0923,8.4478,13.6499],[-83.1023,8.4389,6.6852],[-83.1047,8.4333,5.355],[-83.1058,8.4243,2.5191],[-83.1106,8.4149,18.7851],[-83.1192,8.4074,1.6527],[-83.1316,8.4034,0.0],[-83.1338,8.3983,14.2688],[-83.1381,8.3957,0.0],[-83.1423,8.3855,0.0],[-83.1453,8.3824,2.4714],[-83.1445,8.3725,2.7637],[-83.1465,8.3672,0.0],[-83.1372,8.3556,22.0244],[-83.1273,8.3483,25.555],[-83.1216,8.3402,0.0],[-83.1087,8.331,120.1217],[-83.0468,8.2959,0.0],[-83.0251,8.2776,0.0],[-82.9919,8.2584,0.0],[-82.9739,8.2389,0.0],[-82.9711,8.2327,0.0],[-82.9626,8.223,8.1155],[-82.9613,8.2178,0.0],[-82.9569,8.2145,0.0],[-82.9519,8.2061,1.5594],[-82.9492,8.2051,3.2214],[-82.9504,8.205,3.2214],[-82.9377,8.1858,0.0],[-82.9272,8.1644,16.5486],[-82.9226,8.1466,0.0],[-82.9172,8.1399,15.4364],[-82.9139,8.1305,0.0],[-82.9039,8.1153,0.0],[-82.9002,8.1,7.7671],[-82.9015,8.0837,0.0],[-82.9061,8.0766,4.7264],[-82.9137,8.0775,0.0],[-82.9123,8.0733,0.0],[-82.9128,8.0715,9.5735],[-82.9151,8.0712,1.6454],[-82.9138,8.0635,1.6711],[-82.9162,8.0587,0.0],[-82.9071,8.0432,9.5847],[-82.9007,8.0396,14.8755],[-82.8961,8.0479,46.492],[-82.8906,8.0516,154.2032],[-82.8916,8.0541,163.1534],[-82.8944,8.0538,150.9895],[-82.8966,8.0602,149.7068],[-82.892,8.0741,61.5953],[-82.8878,8.0789,63.3475],[-82.8888,8.0934,72.8969],[-82.8927,8.1041,89.4726],[-82.8872,8.1051,117.4747],[-82.8861,8.1086,183.9245],[-82.8883,8.1088,186.3197],[-82.89,8.1109,170.9206],[-82.8892,8.114,218.8376],[-82.8931,8.1153,87.74],[-82.9009,8.129,144.4102],[-82.9012,8.1329,167.3139],[-82.9042,8.1364,135.0457],[-82.9031,8.1388,230.2953],[-82.9076,8.1418,101.747],[-82.9086,8.1447,152.6929],[-82.9101,8.1574,115.5192],[-82.9095,8.1626,198.1183],[-82.9078,8.164,169.6086],[-82.9099,8.1684,85.647],[-82.903,8.1753,175.5511],[-82.9127,8.1778,102.0035],[-82.9108,8.1948,126.7648],[-82.9119,8.1975,135.9903],[-82.9152,8.1971,142.623],[-82.9177,8.1939,168.6349],[-82.9214,8.2016,185.4579],[-82.925,8.2029,201.9603],[-82.9273,8.2089,190.9199],[-82.931,8.211,194.2825],[-82.9352,8.2094,205.8597],[-82.9364,8.2104,131.3689],[-82.9366,8.2151,132.0717],[-82.9329,8.2202,175.3443],[-82.9337,8.2254,118.2229],[-82.9315,8.2281,102.722],[-82.9318,8.2361,83.4502],[-82.9285,8.2416,82.4483],[-82.9301,8.2452,92.6768],[-82.9387,8.2516,143.1363],[-82.9382,8.2624,192.0327],[-82.9422,8.2722,242.7838],[-82.9482,8.2698,258.0056],[-82.9485,8.2678,247.3682],[-82.9523,8.2678,219.2275],[-82.9563,8.2799,317.7726],[-82.9605,8.2805,266.5878],[-82.963,8.2782,218.0895],[-82.9681,8.2791,314.009],[-82.9757,8.2891,463.604],[-82.9808,8.2859,365.127],[-82.9861,8.2727,504.1408],[-82.9907,8.2713,499.0193],[-82.9998,8.2888,575.7319],[-83.0043,8.2891,617.9932],[-83.0032,8.2956,656.0513],[-83.014,8.3027,619.694],[-83.0242,8.3046,652.5013],[-83.0254,8.3081,605.5317],[-83.0227,8.3116,635.1311],[-83.0271,8.3141,587.9625],[-83.0272,8.3164,584.8198],[-83.0326,8.3133,528.6893],[-83.0375,8.3185,442.1262],[-83.0455,8.3155,374.7139],[-83.0463,8.3216,449.2226],[-83.0516,8.3308,486.5054],[-83.0519,8.3345,499.4122],[-83.0464,8.3379,495.6687],[-83.0523,8.3486,515.45],[-83.0504,8.3559,379.1952],[-83.0512,8.3602,333.2209],[-83.0359,8.3734,217.4266],[-83.0342,8.3773,199.0843],[-83.0373,8.3795,220.1008],[-83.0418,8.3791,262.3887],[-83.049,8.3757,282.3813],[-83.0541,8.3696,345.0353],[-83.0572,8.3714,401.5702],[-83.0546,8.3757,359.8383],[-83.0455,8.3828,388.2247],[-83.0469,8.3852,368.6002],[-83.0427,8.3912,249.2687],[-83.0409,8.3987,245.3989],[-83.0307,8.4148,238.1489],[-83.0224,8.418,161.5104],[-83.0213,8.4242,111.4061],[-83.0133,8.4262,86.6119],[-83.0128,8.4283,79.7538],[-83.0076,8.4326,46.4636],[-83.0095,8.4356,42.5165],[-83.0087,8.4386,42.8431],[-83.0059,8.4385,43.2134],[-83.0044,8.4421,48.5833],[-83.0015,8.4415,39.2156],[-83.0008,8.4445,39.2545],[-82.9993,8.4417,40.0856],[-82.9953,8.4427,32.1001],[-82.9964,8.445,33.9391],[-82.9939,8.4452,35.2935],[-82.9972,8.4501,36.9637],[-82.9942,8.4524,33.7623],[-82.9961,8.4574,32.916],[-82.9922,8.4581,34.095],[-82.9921,8.4607,34.2635],[-82.9895,8.4605,27.2419],[-82.9886,8.4624,23.3415],[-82.9926,8.4658,24.24],[-82.9944,8.4644,25.5487],[-82.998,8.4663,23.0642],[-82.9975,8.469,24.1297],[-82.9995,8.4708,28.169],[-82.9988,8.4736,21.3351],[-82.9997,8.4729,21.3351],[-83.0016,8.4755,19.0246],[-83.0003,8.4777,19.7882],[-83.0022,8.4794,21.8706],[-83.0011,8.4809,24.0592],[-83.0042,8.4823,24.0507],[-83.0031,8.483,24.0507],[-83.0039,8.4866,18.8153],[-83.0005,8.4869,16.9476],[-83.0029,8.488,19.7858],[-83.0045,8.4915,16.2415],[-83.0058,8.4906,16.2415],[-83.005,8.4935,23.7576],[-83.0067,8.4919,19.4609],[-83.007,8.4934,17.9761],[-83.0045,8.4959,20.497],[-83.0081,8.4986,24.0081],[-83.008,8.5027,14.7423],[-83.0098,8.5032,12.677],[-83.0104,8.5062,14.9779],[-83.009,8.5071,14.4607],[-83.0113,8.5076,17.8456],[-83.0123,8.5063,14.9779],[-83.0147,8.5084,22.5965],[-83.0129,8.5098,21.4716],[-83.0149,8.5125,13.3191],[-83.0169,8.5123,18.4007],[-83.0158,8.5199,11.8239],[-83.0189,8.5192,27.6133],[-83.0213,8.5207,18.2604],[-83.0213,8.5183,14.1636],[-83.0229,8.5204,13.544],[-83.025,8.5202,18.7612],[-83.0255,8.5221,15.1822],[-83.0285,8.5217,16.7308],[-83.0252,8.5252,15.4526],[-83.0285,8.5258,12.9717],[-83.0319,8.5237,9.6586],[-83.0323,8.5266,10.9045],[-83.0355,8.5257,8.4336],[-83.0354,8.5284,6.8652],[-83.0389,8.5318,7.9396],[-83.0462,8.5292,9.5929],[-83.0469,8.532,11.516],[-83.0502,8.5326,4.7213],[-83.0499,8.5358,3.7276],[-83.0512,8.5352,6.1691],[-83.0515,8.5318,7.139],[-83.0528,8.5318,1.0]]]]}
,"properties": {"GID_3": "CRI.6.7.3_1","GID_0": "CRI","country": "CostaRica","GID_1": "CRI.6_1","province": "Puntarenas","NL_NAME_1": "NA","GID_2": "CRI.6.7_1","county": "Golfito","NL_NAME_2": "NA","city": "Pavón","VARNAME_3": "NA","NL_NAME_3": "NA","TYPE_3": "Distrito","ENGTYPE_3": "District","CC_3": "4","HASC_3": "NA","name": "Pavón.city","area_km2": 355.1408,"hist_schema_id": "Elevation0-9000","hist_area_km2": {"0": 34.6454,"25": 84.7706,"50": 38.8057,"75": 29.1805,"100": 22.8447,"125": 19.2576,"150": 17.4536,"175": 14.7891,"200": 11.915,"225": 11.7053,"250": 10.0901,"275": 8.2862,"300": 6.4821,"325": 5.7689,"350": 4.6781,"375": 4.8879,"400": 5.1606,"425": 5.3285,"450": 5.7271,"475": 5.5593,"500": 3.2097,"525": 1.5944,"550": 0.8811,"575": 0.4825,"600": 0.4825,"625": 0.5035,"650": 0.4406,"675": 0.1049,"700": 0.0839,"725": 0.021}}}