{"type": "Feature","bbox": [-84.3234,9.7668,-84.1827,9.8181],"geometry": {"type": "MultiPolygon","coordinates": [[[[-84.1855,9.7785,579.1791],[-84.1827,9.7831,677.7377],[-84.1835,9.7858,767.1896],[-84.1845,9.7839,760.6339],[-84.1879,9.7839,952.2965],[-84.1894,9.7868,950.8052],[-84.1927,9.7882,1095.2395],[-84.1914,9.7893,1174.6622],[-84.1942,9.7917,1253.0847],[-84.1915,9.7941,1307.0298],[-84.1943,9.7949,1310.7466],[-84.1918,9.797,1255.9933],[-84.1895,9.8056,1015.506],[-84.1901,9.8139,800.9279],[-84.2015,9.8181,744.7449],[-84.2059,9.8145,760.6414],[-84.2197,9.8117,670.8906],[-84.2236,9.8129,644.6605],[-84.2249,9.8104,651.2903],[-84.2286,9.8108,620.7647],[-84.2327,9.8086,621.6321],[-84.2372,9.8084,622.7366],[-84.2406,9.8109,588.5873],[-84.2439,9.8093,565.9822],[-84.253,9.8117,523.9597],[-84.2613,9.8102,498.489],[-84.2675,9.8042,484.7497],[-84.2675,9.7932,505.2288],[-84.2697,9.7919,501.9927],[-84.2706,9.7865,417.2132],[-84.2738,9.7878,421.4075],[-84.2745,9.7818,411.9323],[-84.2837,9.7797,402.2971],[-84.2855,9.7777,384.7716],[-84.292,9.7794,392.7001],[-84.3018,9.7774,346.2122],[-84.3095,9.7805,383.4796],[-84.3115,9.7782,299.0023],[-84.3185,9.7783,266.2166],[-84.3234,9.773,277.7288],[-84.3229,9.7708,238.6163],[-84.3192,9.7687,241.5191],[-84.3169,9.7702,249.9777],[-84.3105,9.7693,271.1795],[-84.3081,9.7717,270.3024],[-84.3061,9.77,288.9002],[-84.2987,9.77,291.0829],[-84.2844,9.7734,315.5303],[-84.281,9.772,335.2293],[-84.2743,9.7728,356.2617],[-84.2718,9.7713,341.9312],[-84.2655,9.7722,436.0097],[-84.2635,9.7695,355.567],[-84.26,9.7709,412.3499],[-84.2513,9.7674,385.584],[-84.2409,9.7668,434.6328],[-84.2313,9.7689,429.8525],[-84.2313,9.7723,446.1586],[-84.2274,9.7749,455.8947],[-84.225,9.7729,504.3677],[-84.2223,9.774,527.9136],[-84.2188,9.7704,550.4282],[-84.2141,9.7707,502.2118],[-84.2101,9.7717,524.0561],[-84.2059,9.7771,549.2528],[-84.1996,9.7756,559.7626],[-84.1951,9.7783,554.9635],[-84.1855,9.7785,579.1791]]]]}
,"properties": {"GID_3": "CRI.7.1.2_1","GID_0": "CRI","country": "CostaRica","GID_1": "CRI.7_1","province": "SanJosé","NL_NAME_1": "NA","GID_2": "CRI.7.1_1","county": "Acosta","NL_NAME_2": "NA","city": "Guaitil","VARNAME_3": "NA","NL_NAME_3": "NA","TYPE_3": "Distrito","ENGTYPE_3": "District","CC_3": "2","HASC_3": "NA","name": "Guaitil.city","area_km2": 43.9181,"hist_schema_id": "Elevation0-9000","hist_area_km2": {"225": 0.02089,"250": 0.16716,"275": 0.10447,"300": 0.20894,"325": 0.52236,"350": 0.48057,"375": 0.60594,"400": 0.81488,"425": 0.83578,"450": 1.14919,"475": 1.12828,"500": 1.25364,"525": 1.04468,"550": 1.58793,"575": 1.2954,"600": 1.75506,"625": 1.9431,"650": 1.96396,"675": 2.15202,"700": 2.25648,"725": 1.79683,"750": 1.85952,"775": 1.79682,"800": 1.90128,"825": 1.60878,"850": 1.52521,"875": 1.62966,"900": 1.50431,"925": 1.12823,"950": 1.27448,"975": 1.08644,"1000": 1.14912,"1025": 1.02377,"1050": 0.6059,"1075": 0.75215,"1100": 0.50143,"1125": 0.35518,"1150": 0.25071,"1175": 0.27161,"1200": 0.18804,"1225": 0.12536,"1250": 0.16715,"1275": 0.04179,"1300": 0.04179,"1325": 0.04179}}}