{"type":"Feature","properties":{"GID_3":"CRI.6.11.2_1","GID_0":"CRI","country":"CostaRica","GID_1":"CRI.6_1","province":"Puntarenas","NL_NAME_1":"NA","GID_2":"CRI.6.11_1","county":"Puntarenas","NL_NAME_2":"NA","city":"Arancibia","VARNAME_3":"NA","NL_NAME_3":"NA","TYPE_3":"Distrito","ENGTYPE_3":"District","CC_3":"16","HASC_3":"NA","name":"Arancibia.city"},
"geometry":{"type": "MultiPolygon","coordinates": [[[[-84.7481,10.255,1658.4614],[-84.7481,10.1757,419.4407],[-84.7419,10.1836,473.5386],[-84.7387,10.1841,484.4474],[-84.7375,10.1873,543.351],[-84.7326,10.188,564.1151],[-84.7289,10.191,536.8541],[-84.7273,10.196,571.3251],[-84.7166,10.2077,641.8905],[-84.7141,10.2067,650.6186],[-84.7142,10.2084,615.2016],[-84.7111,10.2108,656.3099],[-84.7057,10.2144,806.5276],[-84.7022,10.2149,849.3451],[-84.6979,10.2195,809.5665],[-84.6925,10.2192,816.4872],[-84.6885,10.2214,834.4122],[-84.6877,10.2241,862.8621],[-84.6842,10.2253,851.2721],[-84.6826,10.2272,873.004],[-84.6819,10.237,977.675],[-84.6785,10.2398,1012.1804],[-84.6851,10.2563,1208.0356],[-84.6893,10.2601,1245.9697],[-84.6903,10.2642,1369.7004],[-84.6886,10.2649,1352.6606],[-84.6884,10.2715,1439.3364],[-84.6917,10.2743,1537.1945],[-84.6944,10.2709,1595.036],[-84.6971,10.2707,1658.4167],[-84.6977,10.2673,1620.5488],[-84.7006,10.2659,1652.7791],[-84.7022,10.263,1658.8921],[-84.7081,10.2635,1711.4702],[-84.7141,10.2671,1731.2617],[-84.7227,10.2684,1783.2162],[-84.7211,10.2616,1753.6302],[-84.7237,10.2562,1770.8799],[-84.7285,10.255,1739.3477],[-84.7317,10.2504,1766.9492],[-84.7386,10.2535,1723.3949],[-84.7456,10.2525,1672.5964],[-84.7481,10.255,1658.4614]]]]}}