{"type":"Feature","properties":{"GID_2":"CRI.3.7_1","GID_0":"CRI","country":"CostaRica","GID_1":"CRI.3_1","province":"Guanacaste","NL_NAME_1":"NA","county":"Liberia","VARNAME_2":"NA","NL_NAME_2":"NA","TYPE_2":"Cantón","ENGTYPE_2":"Canton","CC_2":"1","HASC_2":"CR.GU.LI","name":"Liberia.county"},
"geometry":{"type": "MultiPolygon","coordinates": [[[[-85.7034,10.6084,0.0],[-85.7032,10.6083,0.0],[-85.703,10.6086,0.0],[-85.7032,10.6086,0.0],[-85.7034,10.6084,0.0]]],
[[[-85.7019,10.6105,0.0],[-85.7018,10.6105,0.0],[-85.7018,10.6107,0.0],[-85.7019,10.6107,0.0],[-85.7019,10.6105,0.0]]],
[[[-85.6918,10.6407,77.7863],[-85.6963,10.6414,29.7655],[-85.6982,10.6394,0.0],[-85.6954,10.639099999999999,43.1834],[-85.6918,10.6407,77.7863]]],
[[[-85.6857,10.6448,26.5577],[-85.6892,10.6456,0.0],[-85.6916,10.6427,11.0043],[-85.6889,10.6404,0.0],[-85.6869,10.6407,15.7097],[-85.6857,10.6448,26.5577]]],
[[[-85.3233,10.8107,1722.9838],[-85.3286,10.8162,1739.7095],[-85.3368,10.8184,1741.9644],[-85.349,10.8272,1860.9587],[-85.3657,10.8272,1740.4171],[-85.3712,10.8302,1653.1139],[-85.3745,10.8349,1543.0763],[-85.3777,10.8353,1459.8328],[-85.3814,10.8441,1161.2815],[-85.3945,10.8644,718.6066],[-85.4051,10.8716,648.1708],[-85.4087,10.8799,696.312],[-85.4139,10.8794,684.8885],[-85.4205,10.8902,810.3322],[-85.4227,10.8907,866.9504],[-85.4271,10.8965,932.7153],[-85.4343,10.8986,923.9818],[-85.4366,10.9082,997.8392],[-85.4471,10.9169,1311.2067],[-85.4477,10.9226,1326.4753],[-85.4455,10.9283,1539.176],[-85.4474,10.9329,1619.4159],[-85.4489,10.9342,1596.1426],[-85.4579,10.9336,1445.8171],[-85.4596,10.9352,1384.7178],[-85.4576,10.9614,1154.965],[-85.4593,10.9621,1142.2406],[-85.4631,10.9603,1081.4912],[-85.4654,10.9641,1009.1576],[-85.469,10.9652,944.0681],[-85.4924,10.9582,593.353],[-85.502,10.9516,505.4073],[-85.5092,10.9505,439.7732],[-85.5155,10.9457,392.2152],[-85.5203,10.9449,389.7682],[-85.5259,10.9402,333.2236],[-85.5254,10.9324,304.114],[-85.5281,10.9311,294.9637],[-85.5302,10.9275,284.3816],[-85.5254,10.925,270.4302],[-85.5274,10.9224,271.1852],[-85.5265,10.9203,276.3988],[-85.5338,10.916,265.0398],[-85.5343,10.9135,245.0327],[-85.5385,10.911,252.4708],[-85.5449,10.9035,234.4505],[-85.547,10.9049,209.0513],[-85.5509,10.9039,210.8888],[-85.559,10.8981,173.6588],[-85.5596,10.8946,164.187],[-85.5572,10.8948,167.1151],[-85.5559,10.8926,162.0999],[-85.5537,10.8923,182.615],[-85.5534,10.8895,150.82],[-85.5497,10.8868,157.0354],[-85.5489,10.8772,139.4321],[-85.5459,10.8722,136.1448],[-85.5525,10.8664,137.5171],[-85.5513,10.862,138.3682],[-85.5604,10.8596,121.2227],[-85.5637,10.8564,122.7858],[-85.5688,10.8595,170.1743],[-85.5785,10.8526,197.7713],[-85.5842,10.851,207.1991],[-85.5901,10.8541,236.3017],[-85.5969,10.8544,254.9819],[-85.6092,10.8478,304.2367],[-85.6152,10.835,289.7132],[-85.6248,10.8388,297.4478],[-85.6256,10.8351,294.5607],[-85.6333,10.8327,290.8645],[-85.6384,10.8259,290.7112],[-85.6442,10.8221,286.9081],[-85.6433,10.812,246.4099],[-85.6409,10.8079,221.9396],[-85.6414,10.7983,89.7483],[-85.6522,10.8024,35.522],[-85.6582,10.803,26.0869],[-85.6646,10.8028,23.5602],[-85.6692,10.7991,12.9592],[-85.6793,10.8084,18.8553],[-85.6824,10.8038,19.8851],[-85.68,10.8003,2.4744],[-85.6766,10.8013,8.4829],[-85.679,10.7998,6.3549],[-85.6764,10.7954,1.4068],[-85.6728,10.7944,27.7056],[-85.6734,10.7919,5.9536],[-85.6741,10.7929,7.3008],[-85.6733,10.7944,3.2675],[-85.676,10.7943,1.4068],[-85.6785,10.7962,0.0],[-85.6743,10.7883,0.0],[-85.6645,10.7761,0.0],[-85.6591,10.7745,3.727],[-85.6596,10.7717,8.2903],[-85.6609,10.7742,6.4414],[-85.6626,10.7736,7.0194],[-85.658,10.7655,5.7052],[-85.657,10.759,0.0],[-85.6621,10.7476,86.6949],[-85.663,10.7375,0.0],[-85.6605,10.7325,107.4994],[-85.6618,10.7205,72.0447],[-85.6557,10.7009,0.0],[-85.6569,10.6949,0.0],[-85.6539,10.6862,41.9503],[-85.6529,10.677,4.3845],[-85.6554,10.6675,0.0],[-85.6582,10.664,9.1174],[-85.6762,10.6616,0.0],[-85.6754,10.6596,0.0],[-85.6708,10.6592,22.1755],[-85.6701,10.6564,53.6239],[-85.6744,10.6511,17.8248],[-85.6793,10.6522,0.0],[-85.6802,10.6489,35.2678],[-85.685,10.644,3.7378],[-85.6797,10.6418,0.0],[-85.6744,10.6427,8.2899],[-85.6715,10.6456,15.2248],[-85.6704,10.6423,14.5432],[-85.6758,10.6358,0.0],[-85.6803,10.6336,30.3872],[-85.6837,10.6354,0.0],[-85.6855,10.6306,0.0],[-85.6887,10.6317,0.0],[-85.6882,10.6294,14.1535],[-85.691,10.6271,0.0],[-85.6912,10.6243,0.0],[-85.6864,10.6239,25.7227],[-85.6851,10.621,14.574],[-85.6872,10.616,66.7167],[-85.6892,10.6154,7.9429],[-85.6881,10.6132,0.3095],[-85.6965,10.6122,0.0],[-85.6993,10.6104,0.0],[-85.6919,10.6055,0.0],[-85.6883,10.6104,0.0],[-85.6795,10.6113,6.2169],[-85.6765,10.6199,0.0],[-85.6738,10.6232,39.0315],[-85.6749,10.6278,0.0],[-85.6738,10.6313,10.7942],[-85.6658,10.6342,15.5102],[-85.654,10.6429,8.6131],[-85.6487,10.6426,11.1992],[-85.6334,10.6347,27.2061],[-85.6273,10.6237,31.9712],[-85.6265,10.6255,12.8879],[-85.6283,10.6315,11.167],[-85.6216,10.6319,19.2623],[-85.6188,10.6369,23.5856],[-85.6088,10.6369,144.5714],[-85.6139,10.6263,123.4084],[-85.6131,10.6201,84.3947],[-85.6107,10.6168,58.5815],[-85.5809,10.6151,31.1063],[-85.59,10.6036,36.6208],[-85.5884,10.5958,34.8951],[-85.5906,10.5892,40.2297],[-85.5864,10.5813,26.127],[-85.5906,10.5755,26.6917],[-85.5905,10.5666,32.4738],[-85.5932,10.5647,38.0916],[-85.5936,10.5625,30.3671],[-85.5891,10.5604,24.1916],[-85.5804,10.5404,17.4547],[-85.5766,10.5367,30.2024],[-85.5819,10.5304,24.1807],[-85.5826,10.5264,24.4971],[-85.5733,10.5236,18.6244],[-85.57,10.5198,14.5752],[-85.5687,10.5145,22.4935],[-85.571,10.5088,17.3539],[-85.5696,10.5029,14.6631],[-85.5706,10.4992,17.9278],[-85.5689,10.4936,22.7254],[-85.5627,10.4852,16.0644],[-85.5591,10.4773,13.8523],[-85.5585,10.4658,14.8679],[-85.5464,10.4439,18.2085],[-85.5372,10.4419,13.6294],[-85.5326,10.4358,13.945],[-85.5272,10.432,16.8358],[-85.529,10.4241,12.3245],[-85.528,10.4223,13.2785],[-85.5225,10.4218,15.8897],[-85.5143,10.4244,13.7004],[-85.4968,10.4208,14.3775],[-85.488,10.4232,15.741],[-85.4853,10.4187,13.4852],[-85.4793,10.4192,14.5092],[-85.4712,10.4255,15.8182],[-85.4718,10.4294,22.5102],[-85.4762,10.435,14.7108],[-85.4717,10.4432,14.8574],[-85.4732,10.4513,9.9054],[-85.4717,10.4535,12.8032],[-85.4657,10.4568,12.6366],[-85.4536,10.4551,12.3204],[-85.4513,10.4492,11.1688],[-85.4459,10.4461,11.9643],[-85.4446,10.4433,9.3714],[-85.4393,10.4442,7.7188],[-85.4335,10.4402,7.3651],[-85.4319,10.4428,7.0705],[-85.4336,10.4447,7.0177],[-85.4324,10.4489,8.0518],[-85.4182,10.4602,13.2125],[-85.4233,10.4757,22.8654],[-85.4176,10.4765,18.2508],[-85.4101,10.4845,22.2699],[-85.4096,10.4902,34.9189],[-85.4078,10.492,30.8651],[-85.408,10.5011,36.5107],[-85.4039,10.5076,41.4378],[-85.4101,10.5157,65.6949],[-85.4068,10.524,52.8721],[-85.4057,10.5254,52.8721],[-85.4035,10.5243,60.4691],[-85.3987,10.5324,81.7332],[-85.3999,10.5374,114.0625],[-85.3985,10.5416,98.3218],[-85.4003,10.5434,101.0973],[-85.3944,10.5548,101.2344],[-85.3961,10.5599,105.7194],[-85.393,10.5631,108.3157],[-85.3894,10.5637,113.2986],[-85.3876,10.5664,109.1026],[-85.3886,10.5702,109.7891],[-85.3816,10.5764,116.369],[-85.3813,10.5814,116.3988],[-85.3798,10.5815,121.1137],[-85.379,10.584,119.9035],[-85.3808,10.5862,127.0011],[-85.3797,10.5903,121.8266],[-85.369,10.5982,128.4284],[-85.3653,10.5993,138.1658],[-85.362799999999993,10.607,144.4145],[-85.3589,10.6067,155.5492],[-85.3532,10.6122,153.4653],[-85.3462,10.6234,178.701],[-85.3481,10.6247,222.1159],[-85.3479,10.6293,233.1233],[-85.3449,10.6317,227.1165],[-85.3423,10.6393,225.0622],[-85.3438,10.6412,236.5554],[-85.3449,10.6551,272.3166],[-85.3485,10.6612,312.9266],[-85.3509,10.6727,323.6955],[-85.3444,10.6857,379.5245],[-85.3446,10.6891,378.6531],[-85.3414,10.6912,395.0135],[-85.3404,10.6942,423.5127],[-85.3339,10.6982,417.0309],[-85.3326,10.7022,434.2072],[-85.3341,10.7041,447.5009],[-85.3321,10.7101,472.2391],[-85.3218,10.7177,511.7465],[-85.3131,10.7298,591.4299],[-85.3132,10.732,634.2563],[-85.3101,10.7346,595.9804],[-85.3113,10.7396,621.5178],[-85.3085,10.7521,755.2107],[-85.2954,10.7574,808.4973],[-85.292,10.7609,814.624],[-85.2947,10.7643,846.544],[-85.2923,10.7735,995.9601],[-85.2959,10.7771,1114.2285],[-85.3018,10.7885,1318.0085],[-85.3056,10.8001,1566.9318],[-85.3184,10.8084,1873.246],[-85.3192,10.8112,1854.7695],[-85.3233,10.8107,1722.9838]]],
[[[-85.6834,10.7916,0.0],[-85.6828,10.7921,0.0],[-85.6829,10.7927,0.0],[-85.6835,10.7925,0.0],[-85.6834,10.7916,0.0]]]]}}