{"type":"Feature","properties":{"GID_3":"CRI.1.5.1_1","GID_0":"CRI","country":"CostaRica","GID_1":"CRI.1_1","province":"Alajuela","NL_NAME_1":"NA","GID_2":"CRI.1.5_1","county":"Guatuso","NL_NAME_2":"NA","city":"Buenavista","VARNAME_3":"NA","NL_NAME_3":"NA","TYPE_3":"Distrito","ENGTYPE_3":"District","CC_3":"2","HASC_3":"NA","name":"Buenavista.city"},
"geometry":{"type": "MultiPolygon","coordinates": [[[[-84.8631,10.705,80.7229],[-84.8604,10.7085,97.0515],[-84.8543,10.7081,80.007],[-84.8517,10.7066,78.0543],[-84.8507,10.7035,73.8849],[-84.8464,10.701,56.54],[-84.8357,10.7022,47.8456],[-84.8338,10.7001,47.0123],[-84.832,10.701,46.814],[-84.8278,10.7069,46.5001],[-84.8292,10.7079,51.3964],[-84.8259,10.7086,47.3161],[-84.8225,10.707,48.7922],[-84.8198,10.7099,53.7637],[-84.8188,10.715,49.6507],[-84.8157,10.7142,51.2777],[-84.8169,10.7161,51.4277],[-84.8129,10.7167,52.1167],[-84.8119,10.723,47.1655],[-84.8058,10.7255,45.9919],[-84.8,10.7318,47.3855],[-84.7986,10.738,44.8553],[-84.7964,10.7403,45.2454],[-84.7942,10.7395,43.6369],[-84.7917,10.7442,47.8999],[-84.7883,10.7444,47.0881],[-84.7842,10.7476,48.3119],[-84.7816,10.7466,50.1097],[-84.7816,10.7483,46.3953],[-84.7788,10.7497,45.3349],[-84.78,10.7519,45.9307],[-84.7777,10.7508,43.3003],[-84.7761,10.7539,43.4492],[-84.7737,10.7516,43.6195],[-84.7723,10.7548,44.4473],[-84.7679,10.7539,44.4573],[-84.7673,10.7555,43.5741],[-84.7696,10.7567,45.4881],[-84.7681,10.7595,43.0718],[-84.7644,10.7583,49.4541],[-84.7658,10.76,43.4094],[-84.7648,10.7613,49.2825],[-84.7589,10.7611,43.9446],[-84.7553,10.7634,44.9382],[-84.7554,10.766,43.1929],[-84.7538,10.766,51.5403],[-84.7553,10.7678,48.3186],[-84.7537,10.7694,51.9129],[-84.7538,10.7724,43.3669],[-84.7512,10.7739,43.6314],[-84.7481,10.7718,45.1311],[-84.7471,10.7741,42.3383],[-84.7439,10.7742,44.0679],[-84.7407,10.7767,42.4631],[-84.7425,10.7788,42.7545],[-84.7418,10.7838,44.6016],[-84.7435,10.7825,44.0188],[-84.7446,10.7834,44.0188],[-84.7478,10.7939,44.0545],[-84.7495,10.7952,40.7207],[-84.7499,10.7994,42.1456],[-84.7484,10.8006,42.8847],[-84.7506,10.8056,40.9438],[-84.7507,10.8113,40.7414],[-84.7532,10.8152,42.3612],[-84.7549,10.8134,49.4748],[-84.7564,10.8162,48.6849],[-84.7583,10.8164,49.665],[-84.7556,10.8197,48.7169],[-84.7575,10.8214,46.9724],[-84.7587,10.8197,48.4377],[-84.7602,10.8201,50.4216],[-84.7595,10.8227,44.7356],[-84.7611,10.8268,46.2643],[-84.7638,10.8265,45.2044],[-84.7648,10.8293,42.9881],[-84.7702,10.8306,40.472],[-84.7729,10.8364,48.7804],[-84.7751,10.8338,46.0921],[-84.7806,10.8322,50.7533],[-84.7809,10.8365,51.5217],[-84.7839,10.8366,50.7311],[-84.784,10.8397,52.4151],[-84.7872,10.8376,43.7065],[-84.7867,10.8425,47.871],[-84.7889,10.8453,46.3179],[-84.79,10.8418,40.301],[-84.7941,10.8476,36.6795],[-84.8024,10.8468,45.6073],[-84.8021,10.849,43.4167],[-84.7994,10.85,41.8205],[-84.8004,10.8515,41.2175],[-84.8026,10.8503,43.4167],[-84.8077,10.8523,39.2293],[-84.8149,10.8506,37.5389],[-84.8292,10.8415,38.1341],[-84.8342,10.8364,39.4622],[-84.8351,10.8319,40.0572],[-84.8324,10.8296,45.6369],[-84.8325,10.8235,42.7712],[-84.8383,10.8217,51.3295],[-84.8407,10.8187,42.9639],[-84.8431,10.8188,46.6323],[-84.8508,10.8107,48.5409],[-84.854,10.8103,50.8887],[-84.8562,10.8082,49.5628],[-84.8598,10.8091,50.3097],[-84.8643,10.808,46.2255],[-84.8664,10.7998,55.1608],[-84.8711,10.7967,53.818],[-84.8677,10.7955,51.2304],[-84.8655,10.7898,52.2383],[-84.8564,10.7807,61.7333],[-84.8553,10.7679,75.9198],[-84.8503,10.7603,84.9116],[-84.8641,10.7614,80.7737],[-84.8652,10.7511,79.6601],[-84.8793,10.7452,96.4515],[-84.8824,10.747,92.1557],[-84.8863,10.7469,94.2801],[-84.8848,10.7426,96.0118],[-84.8887,10.7313,111.5041],[-84.8829,10.7136,111.227],[-84.8758,10.7098,109.3935],[-84.8679,10.7111,92.1315],[-84.8631,10.705,80.7229]]]]}}