{"type": "Feature","bbox": [-83.8427,9.8923,-83.7931,9.9822],"geometry": {"type": "MultiPolygon","coordinates": [[[[-83.8288,9.9789,3233.0107],[-83.8321,9.9801,3269.7913],[-83.8348,9.9788,3247.0234],[-83.838,9.9709,3116.5918],[-83.8377,9.9673,3078.0081],[-83.8418,9.9625,2932.6709],[-83.8427,9.9578,2862.4319],[-83.8405,9.9526,2776.7031],[-83.8368,9.9524,2730.6023],[-83.8293,9.9458,2423.5144],[-83.834,9.9365,2435.418],[-83.8355,9.9357,2435.418],[-83.8371,9.9371,2467.1782],[-83.8353,9.9317,2283.1492],[-83.8305,9.9265,2102.5962],[-83.8309,9.9175,2025.8555],[-83.8295,9.913,1951.5927],[-83.8322,9.9062,1838.4971],[-83.8314,9.9023,1773.3436],[-83.834,9.8987,1756.5684],[-83.8294,9.8989,1745.5391],[-83.825,9.9034,1708.4149],[-83.8226,9.8934,1618.8712],[-83.82,9.8923,1600.7727],[-83.8174,9.8943,1586.7739],[-83.8169,9.8981,1571.6062],[-83.8126,9.9007,1583.3738],[-83.8137,9.902,1634.6017],[-83.8117,9.9026,1608.1149],[-83.8119,9.9055,1640.885],[-83.8103,9.9052,1591.907],[-83.8072,9.9078,1610.3248],[-83.807,9.91,1632.7667],[-83.802,9.912,1630.9642],[-83.7993,9.9179,1647.0413],[-83.7931,9.9208,1599.9087],[-83.7945,9.9222,1619.7124],[-83.7941,9.9273,1747.8179],[-83.7985,9.9314,1841.3983],[-83.7994,9.9361,1975.349],[-83.8028,9.9393,2115.7151],[-83.806,9.9464,2335.1333],[-83.8062,9.9508,2486.1897],[-83.8016,9.9508,2238.1606],[-83.8064,9.9544,2398.9863],[-83.811,9.9635,2671.054],[-83.8079,9.9725,3021.6443],[-83.8087,9.9764,3079.4805],[-83.8189,9.9822,3024.4373],[-83.8288,9.9789,3233.0107]]]]}
,"properties": {"GID_3": "CRI.2.1.3_1","GID_0": "CRI","country": "CostaRica","GID_1": "CRI.2_1","province": "Cartago","NL_NAME_1": "NA","GID_2": "CRI.2.1_1","county": "Alvarado","NL_NAME_2": "NA","city": "Pacayas","VARNAME_3": "NA","NL_NAME_3": "NA","TYPE_3": "Distrito","ENGTYPE_3": "District","CC_3": "1","HASC_3": "NA","name": "Pacayas.city","area_km2": 29.80143,"hist_schema_id": "Elevation0-9000","hist_area_km2": {"1600": 0.27153,"1625": 0.56393,"1650": 0.5848,"1675": 0.85632,"1700": 0.79365,"1725": 0.73099,"1750": 0.68923,"1775": 0.85631,"1800": 0.64745,"1825": 0.77276,"1850": 0.83541,"1875": 0.68921,"1900": 0.68921,"1925": 0.8354,"1950": 0.37593,"1975": 0.64743,"2000": 0.37593,"2025": 0.41769,"2050": 0.43858,"2075": 0.6683,"2100": 0.39681,"2125": 0.41769,"2150": 0.37592,"2175": 0.29238,"2200": 0.43857,"2225": 0.37591,"2250": 0.41768,"2275": 0.54298,"2300": 0.60563,"2325": 0.50121,"2350": 0.43856,"2375": 0.43856,"2400": 0.41767,"2425": 0.35502,"2450": 0.2506,"2475": 0.43855,"2500": 0.27148,"2525": 0.29236,"2550": 0.3759,"2575": 0.31324,"2600": 0.25059,"2625": 0.29236,"2650": 0.27148,"2675": 0.31324,"2700": 0.25059,"2725": 0.35501,"2750": 0.45942,"2775": 0.355,"2800": 0.41765,"2825": 0.45941,"2850": 0.29235,"2875": 0.52206,"2900": 0.33412,"2925": 0.41764,"2950": 0.41764,"2975": 0.37588,"3000": 0.35499,"3025": 0.43852,"3050": 0.39676,"3075": 0.50116,"3100": 0.41764,"3125": 0.2297,"3150": 0.25058,"3175": 0.16705,"3200": 0.18793,"3225": 0.14617,"3250": 0.14617,"3275": 0.08353}}}