{"type": "Feature","bbox": [-84.9881,10.3841,-84.8866,10.4419],"geometry": {"type": "MultiPolygon","coordinates": [[[[-84.9175,10.3878,665.1206],[-84.9053,10.3883,856.7503],[-84.9041,10.3859,878.7769],[-84.8987,10.3841,953.5099],[-84.8978,10.3922,956.4009],[-84.8939,10.3922,1002.4625],[-84.8866,10.4053,1203.8066],[-84.8992,10.4157,963.561],[-84.905,10.4177,997.0812],[-84.9018,10.4249,967.5174],[-84.9013,10.4309,964.0364],[-84.9021,10.4359,986.1883],[-84.9053,10.4396,978.6652],[-84.919,10.4409,957.865],[-84.9225,10.439,904.7048],[-84.9308,10.4399,796.0325],[-84.9389,10.4357,692.0723],[-84.9488,10.4365,637.1042],[-84.9585,10.4409,573.3392],[-84.9755,10.4372,459.7383],[-84.9809,10.4384,421.3982],[-84.9824,10.4405,411.1133],[-84.9869,10.4392,373.6311],[-84.9877,10.4419,377.6178],[-84.9881,10.4355,407.6396],[-84.9847,10.4335,464.6062],[-84.9792,10.4342,537.6197],[-84.9752,10.433,529.9226],[-84.9711,10.4352,560.5307],[-84.9698,10.4328,607.393],[-84.9606,10.4275,638.1587],[-84.9604,10.4139,363.6365],[-84.9571,10.4116,368.9182],[-84.954,10.4121,383.9804],[-84.9532,10.4089,426.3139],[-84.9473,10.4035,411.6017],[-84.9385,10.3984,473.6146],[-84.9349,10.3936,474.0844],[-84.9341,10.389,511.9952],[-84.9305,10.3919,520.1115],[-84.925,10.3894,560.4079],[-84.9231,10.3916,584.5504],[-84.9175,10.3878,665.1206]]]]}
,"properties": {"GID_3": "CRI.3.11.4_1","GID_0": "CRI","country": "CostaRica","GID_1": "CRI.3_1","province": "Guanacaste","NL_NAME_1": "NA","GID_2": "CRI.3.11_1","county": "Tilarán","NL_NAME_2": "NA","city": "QuebradaGrande","VARNAME_3": "NA","NL_NAME_3": "NA","TYPE_3": "Distrito","ENGTYPE_3": "District","CC_3": "2","HASC_3": "NA","name": "Quebrada_Grande.city","area_km2": 35.88768,"hist_schema_id": "Elevation0-9000","hist_area_km2": {"350": 0.06256,"375": 0.20852,"400": 0.52132,"425": 0.54217,"450": 0.66729,"475": 0.68814,"500": 0.72984,"525": 1.1469,"550": 0.89667,"575": 0.93838,"600": 1.33457,"625": 0.91752,"650": 1.2303,"675": 1.54309,"700": 1.39712,"725": 1.20945,"750": 1.12605,"775": 1.14691,"800": 1.33458,"825": 1.6891,"850": 1.45971,"875": 1.93933,"900": 1.89765,"925": 2.71088,"950": 3.79518,"975": 2.98194,"1000": 1.20947,"1025": 0.14597,"1050": 0.18768,"1075": 0.10427,"1100": 0.04171,"1125": 0.02085,"1150": 0.06256}}}