{"type":"Feature","properties":{"GID_3":"CRI.6.9.6_1","GID_0":"CRI","country":"CostaRica","GID_1":"CRI.6_1","province":"Puntarenas","NL_NAME_1":"NA","GID_2":"CRI.6.9_1","county":"Osa","NL_NAME_2":"NA","city":"Sierpe","VARNAME_3":"NA","NL_NAME_3":"NA","TYPE_3":"Distrito","ENGTYPE_3":"District","CC_3":"3","HASC_3":"NA","name":"Sierpe.city"},
"geometry":{"type": "MultiPolygon","coordinates": [[[[-83.3364,8.7198,1.0362],[-83.3351,8.7211,0.7964],[-83.3364,8.7219,3.5221],[-83.3367,8.7203,1.0362],[-83.3364,8.7198,1.0362]]],
[[[-83.3345,8.7211,0.7964],[-83.3343,8.7211,0.7964],[-83.3344,8.7214,0.7964],[-83.3346,8.7213,0.7964],[-83.3345,8.7211,0.7964]]],
[[[-83.335,8.7216,0.7964],[-83.3347,8.7216,0.7964],[-83.3348,8.7219,0.7964],[-83.335,8.7218,0.7964],[-83.335,8.7216,0.7964]]],
[[[-83.3898,8.7272,0.0],[-83.3896,8.7273,0.0],[-83.3896,8.7274,0.0],[-83.3897,8.7274,0.0],[-83.3898,8.7272,0.0]]],
[[[-83.3902,8.7292,0.0],[-83.3896,8.7289,0.0],[-83.3893,8.7295,0.0],[-83.39,8.7297,0.0],[-83.3902,8.7292,0.0]]],
[[[-83.3296,8.7208,11.4404],[-83.3235,8.7238,19.2148],[-83.3212,8.7316,23.5529],[-83.3266,8.7353,4.4263],[-83.3264,8.7386,9.2295],[-83.3294,8.7418,45.3548],[-83.3303,8.7462,74.3546],[-83.3322,8.7481,91.8153],[-83.335,8.7482,114.3203],[-83.3359,8.7532,143.8283],[-83.3413,8.7577,210.9889],[-83.3423,8.7536,259.2172],[-83.3439,8.7622,162.5564],[-83.3414,8.7654,137.0685],[-83.3503,8.7708,23.1211],[-83.3556,8.7832,2.9319],[-83.3505,8.7961,4.1228],[-83.3477,8.7969,1.9787],[-83.3507,8.8042,9.2529],[-83.3459,8.8088,8.31],[-83.3475,8.8141,10.1522],[-83.3504,8.8162,11.7986],[-83.3502,8.8201,13.5393],[-83.349,8.8205,6.1774],[-83.3479,8.8185,14.2491],[-83.3461,8.82,7.9962],[-83.3433,8.8173,2.7307],[-83.341,8.8177,2.5716],[-83.337,8.8156,3.4472],[-83.3292,8.8264,16.1702],[-83.3313,8.8294,16.4183],[-83.3281,8.8351,15.1881],[-83.3498,8.8641,22.3601],[-83.367,8.8716,11.7023],[-83.3939,8.8909,7.2256],[-83.4034,8.8928,23.5906],[-83.4075,8.8992,18.6752],[-83.4175,8.903,12.0791],[-83.4222,8.9081,7.8686],[-83.4292,8.911,8.4836],[-83.4468,8.9077,14.272],[-83.4607,8.916,16.0497],[-83.4622,8.9155,13.8074],[-83.4805,8.8854,13.7877],[-83.4952,8.8949,14.216],[-83.4993,8.903,17.8675],[-83.5487,8.9343,8.8739],[-83.5518,8.9329,10.5453],[-83.5514,8.9397,11.2572],[-83.5608,8.939,6.2609],[-83.5646,8.9363,8.6646],[-83.5657,8.9379,5.679],[-83.5692,8.9367,4.4189],[-83.5699,8.9392,8.5814],[-83.5713,8.9389,5.6231],[-83.5697,8.9409,11.5722],[-83.5707,8.9423,7.6179],[-83.5782,8.9453,3.7148],[-83.5754,8.9477,9.4616],[-83.5788,8.9473,5.1371],[-83.579,8.9516,9.3561],[-83.5832,8.9475,14.2915],[-83.585,8.9503,10.0712],[-83.5868,8.9492,12.0655],[-83.5877,8.9515,13.1807],[-83.5938,8.9552,8.5635],[-83.5943,8.9518,6.4026],[-83.5985,8.9521,8.2541],[-83.6018,8.9465,6.9067],[-83.6052,8.9444,16.2136],[-83.6112,8.9512,26.984],[-83.6124,8.9566,1.416],[-83.6152,8.9551,22.7438],[-83.6126,8.9387,0.0],[-83.6177,8.9314,0.0],[-83.6216,8.9293,0.0],[-83.6222,8.9178,2.949],[-83.6075,8.9222,1.0129],[-83.6086,8.9197,0.0],[-83.6067,8.9204,0.0],[-83.6077,8.9193,0.0],[-83.6041,8.9154,0.0],[-83.6072,8.9137,0.0],[-83.6095,8.9154,0.0],[-83.6106,8.9145,0.0],[-83.6066,8.9096,0.0],[-83.6077,8.9089,0.0],[-83.6056,8.9027,0.0],[-83.6045,8.9033,0.0],[-83.6044,8.9012,0.0],[-83.5939,8.8949,0.0],[-83.5921,8.8903,0.0],[-83.5947,8.8871,0.0],[-83.6001,8.8887,0.0],[-83.6114,8.8933,0.0],[-83.6151,8.8978,0.0],[-83.6186,8.8936,0.0],[-83.6179,8.8747,0.0],[-83.6157,8.8717,0.0],[-83.6132,8.8727,0.0],[-83.6042,8.8709,2.061],[-83.6009,8.8677,4.6647],[-83.5892,8.862,3.1253],[-83.5892,8.86,1.2401],[-83.5857,8.8577,2.5005],[-83.5864,8.8545,3.455],[-83.5804,8.8471,0.0],[-83.5821,8.8445,0.0],[-83.5871,8.8432,7.1707],[-83.59,8.8454,3.5724],[-83.5973,8.8457,0.0],[-83.6018,8.8344,0.0],[-83.6042,8.8339,0.0],[-83.6055,8.8356,0.0],[-83.6092,8.8268,4.6491],[-83.6125,8.8278,12.6894],[-83.6178,8.8257,8.2868],[-83.6196,8.8207,6.594],[-83.625,8.8205,0.0],[-83.6257,8.8228,1.9556],[-83.6334,8.8165,42.6239],[-83.6358,8.8175,3.7759],[-83.6365,8.8139,10.5844],[-83.639,8.8135,0.0],[-83.6405,8.8112,0.0],[-83.642,8.8053,106.3507],[-83.646,8.8019,112.856],[-83.646,8.7989,125.4029],[-83.6524,8.7938,32.2954],[-83.6509,8.7924,13.2609],[-83.6466,8.7936,4.1662],[-83.6379,8.7784,0.0],[-83.63,8.7812,22.5614],[-83.6254,8.7793,0.0],[-83.6115,8.7925,6.8731],[-83.6022,8.7825,11.3379],[-83.5941,8.7781,66.3259],[-83.5966,8.7687,86.6645],[-83.586,8.7619,223.2925],[-83.5754,8.7519,388.3553],[-83.5598,8.7419,619.8931],[-83.5566,8.7319,550.1987],[-83.5517,8.7276,574.5152],[-83.5454,8.7145,514.2578],[-83.5404,8.7101,542.7922],[-83.5404,8.697,243.6226],[-83.5323,8.6845,122.4773],[-83.508,8.6721,83.6597],[-83.5042,8.6671,12.4752],[-83.4993,8.6739,9.1087],[-83.4862,8.6764,10.8696],[-83.4838,8.6786,4.3619],[-83.4815,8.6813,4.8339],[-83.482,8.684,4.0477],[-83.479,8.6855,4.9539],[-83.4819,8.6876,8.5874],[-83.4811,8.69,2.2403],[-83.4728,8.6896,6.7373],[-83.4722,8.6878,5.7502],[-83.4681,8.6929,2.7607],[-83.4702,8.6981,1.248],[-83.4726,8.6972,23.6847],[-83.4711,8.6999,0.0],[-83.4724,8.7015,4.0163],[-83.476,8.6988,0.0],[-83.4745,8.6965,13.901],[-83.4761,8.6978,1.2177],[-83.4771,8.6969,1.7346],[-83.4751,8.6931,21.9751],[-83.4762,8.6951,15.441],[-83.4822,8.6932,45.3976],[-83.4843,8.6974,32.4889],[-83.485,8.7107,13.0684],[-83.4795,8.7207,6.506],[-83.4693,8.7197,6.7552],[-83.4687,8.723,6.6595],[-83.4654,8.7263,27.4946],[-83.4597,8.725,0.0],[-83.4555,8.7217,0.0],[-83.4448,8.725,23.1146],[-83.4385,8.7218,0.0],[-83.4386,8.7176,0.0],[-83.4331,8.7134,4.298],[-83.4277,8.7153,0.0],[-83.4248,8.7188,56.7183],[-83.4181,8.7195,37.2914],[-83.4166,8.7252,6.7117],[-83.4071,8.7315,0.0],[-83.4072,8.7335,0.0],[-83.4035,8.7367,10.2739],[-83.4008,8.7364,47.2285],[-83.3979,8.7331,0.0],[-83.3951,8.7362,13.4531],[-83.3935,8.7312,0.0],[-83.3911,8.7307,24.5167],[-83.3917,8.7329,25.9402],[-83.387,8.7348,11.3843],[-83.3833,8.7402,58.3175],[-83.38,8.74,0.0],[-83.3833,8.7448,19.7707],[-83.3818,8.7466,8.9777],[-83.3746,8.744,25.881],[-83.3731,8.7351,0.0],[-83.3706,8.7376,33.6555],[-83.3675,8.7382,22.958],[-83.362799999999993,8.7373,33.5671],[-83.3545,8.7324,15.7645],[-83.3538,8.736,15.215],[-83.3474,8.7363,12.6528],[-83.341,8.7286,0.0],[-83.331,8.7249,27.6569],[-83.3355,8.725,3.6411],[-83.3337,8.7193,0.0],[-83.3296,8.7208,11.4404]]],
[[[-83.5871,8.8458,0.0],[-83.5865,8.8453,0.0],[-83.5859,8.8458,0.0],[-83.5873,8.8465,0.0],[-83.5871,8.8458,0.0]]],
[[[-83.604,8.8448,0.0],[-83.6029,8.8433,0.0],[-83.6011,8.8461,0.0],[-83.6026,8.849,0.0],[-83.6042,8.8473,0.0],[-83.604,8.8448,0.0]]],
[[[-83.5922,8.8507,0.0],[-83.5975,8.8517,0.7215],[-83.5967,8.8498,4.6497],[-83.5917,8.8484,0.0],[-83.5908,8.8506,0.0],[-83.5922,8.8507,0.0]]]]}}