{"type": "Feature","bbox": [-83.7926,10.3215,-83.581,10.5481],"geometry": {"type": "MultiPolygon","coordinates": [[[[-83.6287,10.5431,13.2053],[-83.6299,10.538,11.4016],[-83.6285,10.5325,14.4132],[-83.6261,10.5302,14.3213],[-83.6305,10.5243,13.6901],[-83.6305,10.5201,19.481],[-83.6361,10.5163,18.5287],[-83.6406,10.5166,17.4542],[-83.6413,10.513,26.4951],[-83.6533,10.514,25.248],[-83.6538,10.5101,23.1214],[-83.6518,10.5098,18.8818],[-83.654,10.5084,20.1486],[-83.6564,10.503,28.8133],[-83.6622,10.5027,25.7001],[-83.6642,10.499,23.011],[-83.6632,10.4958,31.9906],[-83.6679,10.4963,27.943],[-83.6704,10.499,28.6793],[-83.6761,10.4932,25.5759],[-83.6761,10.4918,22.8403],[-83.6742,10.4919,26.7954],[-83.6766,10.4887,25.4323],[-83.6748,10.4869,22.2147],[-83.6759,10.4841,26.7843],[-83.6785,10.485,26.679],[-83.6777,10.482,24.5631],[-83.6809,10.4821,25.6198],[-83.6796,10.4814,24.4622],[-83.6822,10.4786,23.7448],[-83.6819,10.4764,28.1793],[-83.6877,10.4729,26.3762],[-83.6916,10.4734,32.3539],[-83.6925,10.4707,32.7813],[-83.6913,10.4697,27.284],[-83.694,10.4695,32.0693],[-83.6936,10.4671,28.4865],[-83.6968,10.4654,32.4451],[-83.6976,10.4626,28.3768],[-83.6947,10.4609,29.4703],[-83.6967,10.4597,29.2519],[-83.6945,10.4588,31.0415],[-83.6967,10.4572,30.916],[-83.695,10.4561,30.5769],[-83.6975,10.4558,34.3683],[-83.6976,10.4523,31.6173],[-83.7028,10.4507,35.7605],[-83.7048,10.4459,34.8034],[-83.7064,10.4467,30.7952],[-83.7064,10.4452,31.9196],[-83.715,10.443,33.2261],[-83.7145,10.4409,37.3915],[-83.7176,10.4415,36.7639],[-83.7204,10.4355,36.6807],[-83.7221,10.4351,38.1129],[-83.7227,10.4365,39.2755],[-83.7239,10.4348,40.9411],[-83.7271,10.4368,42.3085],[-83.7256,10.435,43.2901],[-83.7273,10.4345,41.7178],[-83.7252,10.4319,56.5035],[-83.7287,10.4318,51.368],[-83.7283,10.4288,52.676],[-83.7318,10.4276,51.4049],[-83.7313,10.4244,43.9113],[-83.7334,10.4214,47.8456],[-83.7319,10.4205,45.2314],[-83.7339,10.4204,45.6393],[-83.7343,10.4162,47.104],[-83.7367,10.416,47.5988],[-83.7368,10.4141,47.7487],[-83.7408,10.4144,52.4909],[-83.7408,10.4116,45.5845],[-83.744,10.4148,48.5439],[-83.7458,10.4125,46.7639],[-83.7486,10.4126,51.5022],[-83.7528,10.4099,52.2789],[-83.7516,10.4093,52.2789],[-83.754,10.4052,52.7773],[-83.7531,10.4042,54.1279],[-83.755,10.4055,50.4347],[-83.7578,10.4012,53.2802],[-83.7597,10.4023,55.5799],[-83.7595,10.4002,54.0825],[-83.7612,10.3994,54.0825],[-83.7598,10.3985,54.464],[-83.7605,10.3945,54.9377],[-83.7635,10.3945,55.6915],[-83.7643,10.3907,56.7141],[-83.7687,10.3858,57.7502],[-83.7701,10.3745,65.2078],[-83.7767,10.3616,76.994],[-83.7782,10.3557,72.2508],[-83.7773,10.3491,77.8668],[-83.7796,10.342,81.0155],[-83.791,10.335,94.1165],[-83.7926,10.3317,84.3981],[-83.7586,10.3319,68.6524],[-83.7565,10.3308,74.9207],[-83.7591,10.3305,68.6524],[-83.7592,10.3287,82.2529],[-83.7617,10.3292,82.7377],[-83.7611,10.3258,73.6973],[-83.7593,10.3254,83.5254],[-83.7617,10.3215,78.3378],[-83.7462,10.3216,77.254],[-83.7431,10.3262,72.0009],[-83.7388,10.3276,68.7809],[-83.7374,10.33,65.7151],[-83.7328,10.3307,72.3663],[-83.7313,10.3326,66.6169],[-83.7281,10.3324,61.7174],[-83.7261,10.3346,59.8927],[-83.7237,10.3333,58.3898],[-83.7194,10.3367,54.4457],[-83.7183,10.3343,56.4278],[-83.7167,10.3345,55.686],[-83.7148,10.3388,58.2158],[-83.713,10.3372,63.3491],[-83.7094,10.3393,61.3965],[-83.7049,10.339,59.8146],[-83.7038,10.3419,57.8787],[-83.7015,10.3411,56.4587],[-83.6971,10.3479,50.2859],[-83.6975,10.3508,50.4338],[-83.6959,10.3514,50.4338],[-83.6958,10.3586,46.567],[-83.6887,10.3635,46.085],[-83.6888,10.3678,47.5342],[-83.6907,10.3687,47.4075],[-83.686,10.3732,44.8389],[-83.6862,10.3754,43.6183],[-83.6815,10.3784,44.7396],[-83.6803,10.3816,42.5574],[-83.6743,10.3822,45.5699],[-83.6746,10.3852,42.8488],[-83.6711,10.3852,42.8046],[-83.6709,10.3866,42.9509],[-83.6746,10.3894,41.7114],[-83.6708,10.3913,39.4861],[-83.6709,10.4002,37.2458],[-83.669,10.4033,37.969],[-83.669,10.4079,35.8282],[-83.665,10.4112,36.7949],[-83.6656,10.4158,36.96],[-83.6617,10.4149,35.5664],[-83.6654,10.419,36.2874],[-83.6641,10.422,34.715],[-83.6686,10.4285,34.6888],[-83.667,10.4326,33.3439],[-83.6578,10.4347,35.5624],[-83.6574,10.4394,33.5763],[-83.6558,10.4394,33.8116],[-83.6552,10.437,31.7533],[-83.6523,10.4379,30.199],[-83.6485,10.4441,27.1292],[-83.6449,10.4443,30.7379],[-83.6457,10.4457,30.1343],[-83.6439,10.4476,30.3455],[-83.6395,10.446,28.3737],[-83.6384,10.4436,27.4961],[-83.6369,10.4442,27.4011],[-83.6352,10.4416,29.5237],[-83.6319,10.4417,27.4139],[-83.6297,10.4489,26.5343],[-83.6328,10.4537,24.5619],[-83.6302,10.4557,27.0458],[-83.6316,10.4572,25.3057],[-83.6277,10.4596,25.0382],[-83.6232,10.457,23.5749],[-83.6192,10.4567,20.9559],[-83.6184,10.4597,24.239],[-83.6165,10.4591,22.7316],[-83.6138,10.4625,21.2155],[-83.614,10.4597,23.9869],[-83.6042,10.4598,18.7406],[-83.6025,10.4575,20.6163],[-83.5944,10.4571,18.6172],[-83.5877,10.4615,17.5367],[-83.5863,10.4604,15.5587],[-83.581,10.4614,16.178],[-83.5869,10.5481,6.4896],[-83.5923,10.5448,6.799],[-83.5972,10.5456,8.1063],[-83.6069,10.5424,9.2044],[-83.6146,10.5439,11.2042],[-83.6186,10.5404,9.9017],[-83.6232,10.5416,13.0268],[-83.6255,10.5444,12.1206],[-83.6287,10.5431,13.2053]]]]}
,"properties": {"GID_3": "CRI.5.4.1_1","GID_0": "CRI","country": "CostaRica","GID_1": "CRI.5_1","province": "Limón","NL_NAME_1": "NA","GID_2": "CRI.5.4_1","county": "Pococí","NL_NAME_2": "NA","city": "Cariari","VARNAME_3": "NA","NL_NAME_3": "NA","TYPE_3": "Distrito","ENGTYPE_3": "District","CC_3": "5","HASC_3": "NA","name": "Cariari.city","area_km2": 201.7202,"hist_schema_id": "Elevation0-9000","hist_area_km2": {"0": 14.3421,"25": 85.2097,"50": 76.3888,"75": 25.425,"100": 0.3546}}}