{"type":"Feature","properties":{"GID_3":"CRI.7.15.9_1","GID_0":"CRI","country":"CostaRica","GID_1":"CRI.7_1","province":"SanJosé","NL_NAME_1":"NA","GID_2":"CRI.7.15_1","county":"SanJosé","NL_NAME_2":"NA","city":"SanSebastián","VARNAME_3":"NA","NL_NAME_3":"NA","TYPE_3":"Distrito","ENGTYPE_3":"District","CC_3":"11","HASC_3":"NA","name":"San_Sebastián.city"},
"geometry":{"type": "MultiPolygon","coordinates": [[[[-84.0943,9.9022,1102.3538],[-84.0904,9.8999,1123.2],[-84.0846,9.9036,1121.6482],[-84.0832,9.9027,1123.0917],[-84.0831,9.904,1129.5568],[-84.0808,9.9043,1128.488],[-84.0791,9.9031,1127.5817],[-84.0779,9.9061,1127.6194],[-84.0748,9.9067,1137.1876],[-84.0739,9.9084,1142.3107],[-84.0711,9.9084,1140.7007],[-84.072,9.906,1145.9756],[-84.0684,9.9065,1145.8031],[-84.0693,9.9158,1139.3318],[-84.0749,9.9161,1132.114],[-84.0761,9.9198,1130.8151],[-84.0809,9.9215,1126.786],[-84.0849,9.9171,1129.7629],[-84.0879,9.921,1137.6127],[-84.0899,9.9142,1132.361],[-84.0914,9.9135,1134.676],[-84.0913,9.91,1126.5699],[-84.0963,9.9062,1104.8182],[-84.0943,9.9022,1102.3538]]]]}}