{"type": "Feature","bbox": [-85.6684,10.3253,-85.4622,10.4856],"geometry": {"type": "MultiPolygon","coordinates": [[[[-85.5705,10.4751,20.6298],[-85.5726,10.4787,20.1629],[-85.5758,10.4786,20.1546],[-85.5808,10.4856,24.6486],[-85.6015,10.4812,34.9076],[-85.6008,10.4755,28.6914],[-85.6032,10.4752,38.0923],[-85.6037,10.4695,57.4159],[-85.6074,10.4674,78.9239],[-85.6108,10.4676,107.8758],[-85.6154,10.4615,111.3893],[-85.6258,10.4567,157.796],[-85.6284,10.4524,268.7879],[-85.6317,10.4518,263.1765],[-85.6329,10.4481,266.0914],[-85.6347,10.4493,257.813],[-85.6379,10.4483,287.4435],[-85.6459,10.4554,185.9756],[-85.6498,10.4547,240.4529],[-85.6542,10.4504,232.8331],[-85.6635,10.4473,361.1266],[-85.6684,10.4342,470.1931],[-85.6665,10.4332,447.1844],[-85.6663,10.4273,367.721],[-85.663,10.4201,263.5218],[-85.6593,10.4211,275.9762],[-85.6566,10.418,265.039],[-85.6582,10.412,233.509],[-85.657,10.4041,211.4402],[-85.654,10.3975,260.5743],[-85.6511,10.4013,220.2115],[-85.6491,10.3996,191.3165],[-85.6468,10.4017,208.4881],[-85.6436,10.4015,234.5469],[-85.6436,10.3983,245.1946],[-85.6394,10.39,278.7423],[-85.6411,10.3852,279.0211],[-85.64,10.3821,254.0612],[-85.6479,10.3774,168.9212],[-85.6577,10.3763,177.1551],[-85.6638,10.3627,118.923],[-85.6578,10.3583,120.6362],[-85.6555,10.3593,132.1199],[-85.6514,10.3577,78.8162],[-85.653,10.3518,28.9409],[-85.6499,10.3433,18.7751],[-85.6506,10.3379,18.3224],[-85.6495,10.3344,17.1378],[-85.6449,10.3332,16.7635],[-85.6426,10.329,15.7379],[-85.6367,10.3294,15.5204],[-85.6299,10.3253,19.3982],[-85.6276,10.3257,19.5984],[-85.6267,10.3287,18.8886],[-85.6243,10.3285,19.5822],[-85.6213,10.3308,15.3896],[-85.6185,10.3347,14.976],[-85.6084,10.3358,15.3546],[-85.6064,10.3381,17.7588],[-85.603,10.3379,29.7976],[-85.604,10.3359,14.4419],[-85.593,10.336,15.294],[-85.5913,10.3404,14.0668],[-85.5891,10.3407,19.2578],[-85.5817,10.3494,16.5387],[-85.5728,10.3506,19.5809],[-85.5717,10.3527,18.7369],[-85.5692,10.3512,19.2016],[-85.5686,10.3535,20.8022],[-85.5608,10.3583,18.5115],[-85.5586,10.3646,17.1943],[-85.559,10.3617,16.3662],[-85.5567,10.3581,20.3418],[-85.5508,10.3612,15.6749],[-85.5498,10.3583,16.0922],[-85.5453,10.3553,16.9431],[-85.5436,10.3592,14.3677],[-85.542,10.3573,13.8988],[-85.5421,10.3535,15.971],[-85.5367,10.3526,16.4836],[-85.5338,10.3547,14.6872],[-85.5351,10.3516,15.2175],[-85.533,10.3495,17.4775],[-85.5286,10.3517,21.0061],[-85.5211,10.3517,18.771],[-85.5093,10.3446,11.7943],[-85.5027,10.3444,13.0758],[-85.503,10.3428,13.609],[-85.5005,10.3423,17.1497],[-85.4984,10.3462,10.6029],[-85.4956,10.3454,11.5363],[-85.4962,10.3467,11.0861],[-85.4944,10.3463,14.9163],[-85.4941,10.349,9.4446],[-85.4924,10.3481,13.3148],[-85.4901,10.3501,14.1182],[-85.4884,10.3489,22.1909],[-85.486,10.3509,16.0012],[-85.4849,10.3492,16.5891],[-85.4839,10.3506,17.4771],[-85.4816,10.3471,20.4098],[-85.4789,10.3516,13.2013],[-85.4817,10.3522,10.3166],[-85.4806,10.3535,10.3166],[-85.4833,10.3573,9.467],[-85.4803,10.358,9.0691],[-85.479,10.3566,9.729],[-85.4756,10.3588,7.7002],[-85.4733,10.357,11.1723],[-85.4681,10.3607,9.7703],[-85.4685,10.3621,8.2971],[-85.4643,10.3638,9.9358],[-85.4655,10.3649,8.9388],[-85.4665,10.3634,9.5763],[-85.4674,10.3664,8.1183],[-85.4622,10.3674,11.5116],[-85.4651,10.3733,6.0027],[-85.4692,10.3738,7.0246],[-85.4724,10.3762,13.8302],[-85.4789,10.3712,10.4189],[-85.4769,10.3675,6.7881],[-85.4797,10.363,7.3391],[-85.4845,10.365,8.0625],[-85.4869,10.3701,8.1132],[-85.4896,10.3699,6.2681],[-85.4928,10.3722,6.593],[-85.4953,10.3722,6.4239],[-85.4969,10.3676,9.1851],[-85.504,10.3685,10.3802],[-85.5064,10.3639,8.2134],[-85.5097,10.3628,9.4999],[-85.5144,10.3682,7.5935],[-85.5188,10.366,10.0058],[-85.5221,10.3684,11.4215],[-85.5272,10.381,12.9721],[-85.5267,10.3852,9.6134],[-85.5314,10.3978,20.8509],[-85.5391,10.4079,12.1419],[-85.5433,10.4097,19.5242],[-85.545,10.4124,12.9864],[-85.5444,10.4155,13.3522],[-85.5472,10.4194,13.6891],[-85.5481,10.4242,18.0487],[-85.5461,10.4287,18.2541],[-85.5485,10.4303,16.9067],[-85.5557,10.4309,18.4311],[-85.5623,10.4359,18.2832],[-85.5634,10.4396,15.3034],[-85.5688,10.4417,14.8558],[-85.5709,10.4447,16.4607],[-85.5687,10.4477,17.7092],[-85.569,10.45,17.9665],[-85.5762,10.4565,15.0706],[-85.5764,10.4588,15.1173],[-85.5705,10.4607,23.1583],[-85.5733,10.4697,22.6618],[-85.5707,10.4719,22.1811],[-85.5705,10.4751,20.6298]]]]}
,"properties": {"GID_3": "CRI.3.4.1_1","GID_0": "CRI","country": "CostaRica","GID_1": "CRI.3_1","province": "Guanacaste","NL_NAME_1": "NA","GID_2": "CRI.3.4_1","county": "Carrillo","NL_NAME_2": "NA","city": "Belén","VARNAME_3": "NA","NL_NAME_3": "NA","TYPE_3": "Distrito","ENGTYPE_3": "District","CC_3": "4","HASC_3": "NA","name": "Belén.city","area_km2": 182.0976,"hist_schema_id": "Elevation0-9000","hist_area_km2": {"0": 20.1885,"25": 71.1743,"50": 25.2131,"75": 17.205,"100": 11.9077,"125": 7.6533,"150": 6.673,"175": 5.3175,"200": 4.2331,"225": 4.0245,"250": 3.0236,"275": 1.9392,"300": 1.0426,"325": 0.7924,"350": 0.3753,"375": 0.4379,"400": 0.3128,"425": 0.3336,"450": 0.2294,"475": 0.0209}}}