{"type": "Feature","bbox": [-84.2241,9.807,-84.1351,9.8616],"geometry": {"type": "MultiPolygon","coordinates": [[[[-84.1903,9.8142,800.9279],[-84.174,9.807,929.6112],[-84.1713,9.8109,980.2047],[-84.1722,9.8134,1013.0515],[-84.1625,9.8234,1263.5737],[-84.1591,9.8241,1277.1053],[-84.1477,9.8184,1669.3655],[-84.141,9.8227,1623.0585],[-84.1411,9.8277,1686.824],[-84.136,9.8322,1821.3168],[-84.1378,9.8398,2060.116],[-84.1371,9.8458,2308.3765],[-84.1351,9.8477,2375.7122],[-84.1389,9.8486,2348.4324],[-84.1459,9.8597,2338.8789],[-84.1476,9.8573,2349.1155],[-84.1505,9.8572,2178.8862],[-84.1563,9.8609,1961.8978],[-84.1627,9.8616,1822.1407],[-84.1722,9.857,1571.4091],[-84.1798,9.8494,1373.3987],[-84.1928,9.8396,1190.6842],[-84.1975,9.839,1157.5519],[-84.1994,9.8407,1168.8118],[-84.2114,9.8412,1023.327],[-84.2142,9.8442,990.1028],[-84.215,9.8479,963.1455],[-84.2156,9.8414,1028.6538],[-84.2141,9.839,1064.2122],[-84.2177,9.8394,984.0919],[-84.2207,9.8418,941.6057],[-84.2197,9.8381,965.8632],[-84.2241,9.8297,877.5044],[-84.2214,9.8205,736.821],[-84.2214,9.8147,672.8375],[-84.2232,9.8129,644.6605],[-84.2197,9.8117,670.8906],[-84.2093,9.8136,756.4005],[-84.2055,9.8146,760.6414],[-84.2015,9.8181,744.7449],[-84.1903,9.8142,800.9279]]]]}
,"properties": {"GID_3": "CRI.7.1.3_1","GID_0": "CRI","country": "CostaRica","GID_1": "CRI.7_1","province": "SanJosé","NL_NAME_1": "NA","GID_2": "CRI.7.1_1","county": "Acosta","NL_NAME_2": "NA","city": "Palmichal","VARNAME_3": "NA","NL_NAME_3": "NA","TYPE_3": "Distrito","ENGTYPE_3": "District","CC_3": "3","HASC_3": "NA","name": "Palmichal.city","area_km2": 34.34433,"hist_schema_id": "Elevation0-9000","hist_area_km2": {"650": 0.06268,"675": 0.22981,"700": 0.20892,"725": 0.35516,"750": 0.29248,"775": 0.41783,"800": 0.45962,"825": 0.4805,"850": 0.68942,"875": 0.52229,"900": 0.64764,"925": 0.79388,"950": 0.81477,"975": 0.91922,"1000": 0.87743,"1025": 0.87743,"1050": 0.81475,"1075": 0.62672,"1100": 0.89831,"1125": 0.66851,"1150": 0.60584,"1175": 0.43871,"1200": 0.62673,"1225": 0.37604,"1250": 0.52227,"1275": 0.48049,"1300": 0.58495,"1325": 0.71029,"1350": 0.52227,"1375": 0.54316,"1400": 0.68939,"1425": 0.56405,"1450": 0.41781,"1475": 0.71028,"1500": 0.45959,"1525": 0.54315,"1550": 0.62672,"1575": 0.54315,"1600": 0.56405,"1625": 0.56404,"1650": 0.58493,"1675": 0.54315,"1700": 0.45959,"1725": 0.45959,"1750": 0.68938,"1775": 0.58494,"1800": 0.75205,"1825": 0.50136,"1850": 0.56403,"1875": 0.43869,"1900": 0.48047,"1925": 0.52225,"1950": 0.56403,"1975": 0.48047,"2000": 0.54314,"2025": 0.48047,"2050": 0.56403,"2075": 0.33424,"2100": 0.2089,"2125": 0.2089,"2150": 0.35512,"2175": 0.27157,"2200": 0.2089,"2225": 0.08356,"2250": 0.18801,"2275": 0.14623,"2300": 0.14623,"2325": 0.08356,"2350": 0.04178,"2375": 0.10445}}}