{"type":"Feature","properties":{"GID_3":"CRI.1.11.6_1","GID_0":"CRI","country":"CostaRica","GID_1":"CRI.1_1","province":"Alajuela","NL_NAME_1":"NA","GID_2":"CRI.1.11_1","county":"SanCarlos","NL_NAME_2":"NA","city":"LaPalmera","VARNAME_3":"NA","NL_NAME_3":"NA","TYPE_3":"Distrito","ENGTYPE_3":"District","CC_3":"9","HASC_3":"NA","name":"La_Palmera.city"},
"geometry":{"type": "MultiPolygon","coordinates": [[[[-84.4006,10.473,81.8262],[-84.401,10.471,85.3512],[-84.4072,10.4742,80.2925],[-84.4116,10.4731,78.6354],[-84.4134,10.4765,79.1429],[-84.4154,10.4741,82.0284],[-84.4166,10.4774,76.6452],[-84.4229,10.4813,79.5604],[-84.4227,10.4832,81.1194],[-84.4316,10.4821,75.7251],[-84.4352,10.4794,76.3674],[-84.4395,10.4815,75.3771],[-84.4409,10.4852,69.8779],[-84.4456,10.4829,78.5958],[-84.4506,10.4854,71.5668],[-84.4542,10.4821,69.9045],[-84.454,10.4753,65.25],[-84.452,10.4729,64.2405],[-84.4561,10.4692,65.6356],[-84.4552,10.4637,68.9959],[-84.4582,10.4595,71.6657],[-84.4506,10.4573,68.4403],[-84.4509,10.4549,71.045],[-84.4474,10.4537,73.4168],[-84.4457,10.4502,77.0432],[-84.4465,10.4481,81.5318],[-84.4394,10.447,82.9521],[-84.4359,10.4444,92.1002],[-84.4343,10.4318,117.4072],[-84.4308,10.428,108.4546],[-84.4256,10.4286,114.2117],[-84.4214,10.4329,127.4617],[-84.4158,10.4342,130.4437],[-84.4143,10.4364,133.5555],[-84.4057,10.4366,147.9294],[-84.4001,10.4328,199.1537],[-84.4024,10.4311,178.358],[-84.3993,10.429,175.002],[-84.4012,10.4255,190.4523],[-84.3986,10.4243,239.8942],[-84.3999,10.4192,223.0027],[-84.3986,10.418,261.8081],[-84.3995,10.4131,244.8446],[-84.3981,10.4117,234.7515],[-84.4007,10.407,276.1174],[-84.3973,10.4033,295.9501],[-84.3987,10.3989,271.9204],[-84.4023,10.3954,268.0998],[-84.4016,10.3918,278.3032],[-84.399,10.3911,292.1924],[-84.3979,10.3888,290.8267],[-84.3899,10.3867,336.5648],[-84.3771,10.3702,507.8384],[-84.3835,10.3633,555.485],[-84.3838,10.3572,592.0876],[-84.3773,10.344,777.1143],[-84.3738,10.3425,867.6923],[-84.373,10.3389,878.1315],[-84.3697,10.3384,931.9027],[-84.3635,10.3281,1187.3165],[-84.3665,10.3172,1430.749],[-84.3663,10.3124,1600.7378],[-84.3635,10.2948,2079.8069],[-84.3594,10.2861,1937.8971],[-84.36,10.2822,2010.6492],[-84.358,10.2801,2021.2109],[-84.3614,10.2737,2128.5898],[-84.3582,10.264,2106.0818],[-84.3593,10.2559,1956.9822],[-84.3567,10.2474,2207.313],[-84.3537,10.2464,2204.9883],[-84.3513,10.247,2200.3098],[-84.3529,10.2634,1904.2371],[-84.3492,10.2657,1846.73],[-84.3453,10.2859,1416.616],[-84.3405,10.2937,1286.6642],[-84.339,10.301,1273.6641],[-84.3403,10.3136,1059.0973],[-84.3438,10.3213,938.2279],[-84.3441,10.3328,824.5903],[-84.3461,10.3351,821.0182],[-84.3449,10.3366,818.2946],[-84.3469,10.3404,787.952],[-84.3459,10.346,708.0346],[-84.349,10.3485,738.3021],[-84.3489,10.3551,631.817],[-84.3539,10.3631,562.4464],[-84.3519,10.3684,536.3284],[-84.3523,10.3851,401.2238],[-84.3465,10.3966,318.5234],[-84.3458,10.4054,286.6516],[-84.3512,10.4199,206.567],[-84.3616,10.423,163.7455],[-84.3643,10.4268,155.3673],[-84.3655,10.4324,142.098],[-84.3703,10.4343,129.7812],[-84.3708,10.4489,109.6442],[-84.3774,10.4633,99.7727],[-84.3806,10.4655,94.6689],[-84.3871,10.4652,94.116],[-84.3881,10.4684,92.6348],[-84.3906,10.4667,90.563],[-84.3925,10.4696,87.4484],[-84.3939,10.4646,88.0225],[-84.3954,10.4659,87.2959],[-84.3999,10.4642,84.6011],[-84.4014,10.468,83.1318],[-84.4004,10.4692,81.6605],[-84.4006,10.473,81.8262]]]]}}