{"type":"Feature","properties":{"GID_3":"CRI.3.11.6_1","GID_0":"CRI","country":"CostaRica","GID_1":"CRI.3_1","province":"Guanacaste","NL_NAME_1":"NA","GID_2":"CRI.3.11_1","county":"Tilarán","NL_NAME_2":"NA","city":"TierrasMorenas","VARNAME_3":"NA","NL_NAME_3":"NA","TYPE_3":"Distrito","ENGTYPE_3":"District","CC_3":"6","HASC_3":"NA","name":"Tierras_Morenas.city"},
"geometry":{"type": "MultiPolygon","coordinates": [[[[-85.0005,10.6523,1307.2231],[-85.0086,10.6414,1043.3574],[-85.0081,10.6345,925.0132],[-85.0102,10.6301,884.9067],[-85.0209,10.63,767.954],[-85.0276,10.6247,693.8481],[-85.0327,10.6252,659.1123],[-85.0424,10.6225,578.3232],[-85.0454,10.6183,569.2933],[-85.0436,10.6152,572.5989],[-85.0458,10.6101,571.6041],[-85.0436,10.6056,581.5519],[-85.0432,10.5228,329.4696],[-85.0388,10.5241,355.8442],[-85.037,10.5283,356.0056],[-85.0309,10.5311,375.5979],[-85.0306,10.5356,384.5627],[-85.0322,10.5376,399.5496],[-85.0283,10.5432,425.8413],[-85.023,10.5458,478.0411],[-85.0217,10.5445,471.7639],[-85.0193,10.5457,490.236],[-85.0147,10.5531,528.8768],[-85.0076,10.5538,621.4586],[-85.0056,10.5565,649.1423],[-85.0054,10.5628,705.8348],[-84.9983,10.5603,672.308],[-84.9951,10.5565,659.7866],[-84.9817,10.5475,565.8619],[-84.9783,10.5407,540.0],[-84.9749,10.5433,540.0],[-84.9781,10.5455,540.0],[-84.978,10.5472,543.3141],[-84.9737,10.5451,540.0],[-84.9728,10.5413,540.0],[-84.9677,10.54,540.0],[-84.9691,10.5424,540.0],[-84.9659,10.5436,540.0],[-84.9685,10.545,540.0],[-84.965,10.5452,540.0],[-84.972,10.5476,550.4891],[-84.9715,10.5489,551.7466],[-84.9691,10.5487,540.0],[-84.9727,10.5525,547.1113],[-84.9685,10.5524,540.0],[-84.9682,10.5571,582.7488],[-84.9663,10.5549,540.0],[-84.9634,10.5555,579.4519],[-84.9576,10.5498,540.0],[-84.9559,10.5511,570.9277],[-84.9526,10.5496,540.0],[-84.9493,10.552,545.9245],[-84.9464,10.5486,545.1256],[-84.9453,10.5493,567.1272],[-84.9462,10.5514,564.605],[-84.9435,10.5533,572.1434],[-84.9428,10.5489,550.0536],[-84.9398,10.547,561.4767],[-84.9405,10.545,544.3773],[-84.9389,10.5449,544.3773],[-84.9387,10.5431,540.0],[-84.9367,10.547,592.6464],[-84.9306,10.5495,554.5515],[-84.9357,10.5499,556.9848],[-84.9315,10.5509,542.4028],[-84.9303,10.5539,560.3556],[-84.932,10.5564,540.0],[-84.9353,10.5574,562.7517],[-84.9381,10.5685,642.1884],[-84.9439,10.5791,797.215],[-84.9437,10.5817,835.0277],[-84.9488,10.5855,890.4096],[-84.9516,10.585,885.15],[-84.9644,10.5976,1157.312],[-84.9637,10.5987,1157.312],[-84.9748,10.6062,1184.1907],[-84.9855,10.605,1148.142],[-84.9882,10.6184,984.0976],[-84.9921,10.6217,1021.3281],[-84.9982,10.623,1084.4243],[-84.9985,10.6252,1090.8274],[-85.0016,10.6254,1111.8359],[-85.0024,10.6304,1048.7043],[-85.001,10.6356,1023.424],[-85.003,10.6423,1163.662],[-85.0005,10.6523,1307.2231]]]]}}