{"type":"Feature","properties":{"GID_3":"CRI.4.3.1_1","GID_0":"CRI","country":"CostaRica","GID_1":"CRI.4_1","province":"Heredia","NL_NAME_1":"NA","GID_2":"CRI.4.3_1","county":"Flores","NL_NAME_2":"NA","city":"Barrantes","VARNAME_3":"NA","NL_NAME_3":"NA","TYPE_3":"Distrito","ENGTYPE_3":"District","CC_3":"2","HASC_3":"NA","name":"Barrantes.city"},
"geometry":{"type": "MultiPolygon","coordinates": [[[[-84.145,10.0207,1093.3434],[-84.1474,10.0215,1074.5939],[-84.1539,10.0193,1061.1016],[-84.1641,10.0125,1022.6445],[-84.1524,10.0065,1056.4395],[-84.1458,10.0089,1080.3552],[-84.1432,10.0106,1087.4828],[-84.1428,10.0139,1094.6265],[-84.145,10.0207,1093.3434]]]]}}