{"type":"Feature","properties":{"GID_3":"CRI.3.2.4_1","GID_0":"CRI","country":"CostaRica","GID_1":"CRI.3_1","province":"Guanacaste","NL_NAME_1":"NA","GID_2":"CRI.3.2_1","county":"Bagaces","NL_NAME_2":"NA","city":"RioNaranjo","VARNAME_3":"NA","NL_NAME_3":"NA","TYPE_3":"Distrito","ENGTYPE_3":"District","CC_3":"4","HASC_3":"NA","name":"Rio_Naranjo.city"},
"geometry":{"type": "MultiPolygon","coordinates": [[[[-85.1238,10.7103,1457.2451],[-85.1223,10.6919,1044.625],[-85.1244,10.685,928.3934],[-85.1223,10.6773,1021.6276],[-85.128,10.6751,963.4034],[-85.1307,10.6762,910.461],[-85.1329,10.666,744.8293],[-85.1328,10.6534,548.0107],[-85.1297,10.6476,487.4575],[-85.1356,10.6318,338.6751],[-85.1341,10.6209,288.6954],[-85.1348,10.6118,231.8567],[-85.1364,10.6111,231.9854],[-85.1352,10.6076,219.0708],[-85.1328,10.6063,214.8089],[-85.1329,10.6095,216.5919],[-85.1305,10.6122,235.7775],[-85.1282,10.6212,259.7351],[-85.1189,10.6269,334.1274],[-85.1143,10.6363,326.9521],[-85.1013,10.6487,355.7622],[-85.1,10.6535,365.4861],[-85.0944,10.6553,405.3301],[-85.0867,10.6636,419.9069],[-85.0822,10.6749,456.4171],[-85.0817,10.68,466.783],[-85.0726,10.6955,487.5687],[-85.0613,10.709,566.4731],[-85.0671,10.708,543.8833],[-85.0716,10.7129,511.0756],[-85.0868,10.7128,859.4209],[-85.0963,10.7177,1131.413],[-85.1019,10.7137,1272.3352],[-85.1238,10.7103,1457.2451]]]]}}