{"type":"Feature","properties":{"GID_3":"CRI.5.5.4_1","GID_0":"CRI","country":"CostaRica","GID_1":"CRI.5_1","province":"Limón","NL_NAME_1":"NA","GID_2":"CRI.5.5_1","county":"Siquirres","NL_NAME_2":"NA","city":"LaAlegria","VARNAME_3":"NA","NL_NAME_3":"NA","TYPE_3":"Distrito","ENGTYPE_3":"District","CC_3":"6","HASC_3":"NA","name":"La_Alegria.city"},
"geometry":{"type": "MultiPolygon","coordinates": [[[[-83.6225,10.0814,600.0065],[-83.6202,10.0832,589.7884],[-83.6134,10.0814,544.9829],[-83.6113,10.0746,600.4552],[-83.5989,10.077,474.3487],[-83.5877,10.083,404.8058],[-83.5853,10.0909,333.636],[-83.5705,10.1074,204.6374],[-83.5652,10.1089,189.1251],[-83.5543,10.1226,132.3617],[-83.5676,10.1403,131.4826],[-83.587,10.1506,133.3974],[-83.6008,10.1621,98.5995],[-83.612,10.1469,187.5186],[-83.608,10.1447,173.8485],[-83.6098,10.1398,195.1411],[-83.6034,10.1377,201.7295],[-83.6065,10.1335,246.7427],[-83.6073,10.128,244.1039],[-83.6101,10.1285,245.5117],[-83.6107,10.1178,295.868],[-83.6131,10.1155,302.2966],[-83.615,10.1094,354.9786],[-83.6154,10.0984,446.7194],[-83.6225,10.0814,600.0065]]]]}}