{"type": "Feature","bbox": [-84.2508,10.4333,-84.1609,10.5775],"geometry": {"type": "MultiPolygon","coordinates": [[[[-84.1609,10.4387,158.8388],[-84.1612,10.5754,55.0213],[-84.1667,10.5724,53.2218],[-84.172,10.5739,52.6388],[-84.1719,10.5775,55.1067],[-84.1795,10.5724,63.5335],[-84.1818,10.5673,57.5794],[-84.1861,10.5658,62.472],[-84.1873,10.5624,60.8406],[-84.1915,10.5621,62.6796],[-84.196,10.5582,64.6085],[-84.204,10.5558,70.3461],[-84.2035,10.5487,71.1074],[-84.2094,10.5411,72.0351],[-84.2098,10.5369,83.4738],[-84.2124,10.5355,76.0121],[-84.2121,10.5303,82.2912],[-84.2145,10.5281,81.0454],[-84.214,10.5268,82.5605],[-84.2101,10.5262,84.1415],[-84.2114,10.5219,86.2013],[-84.2149,10.5167,86.2196],[-84.2213,10.5118,92.3516],[-84.2216,10.5087,99.45],[-84.2273,10.5044,99.8079],[-84.2296,10.5044,102.9383],[-84.2303,10.4991,110.2895],[-84.2329,10.5006,112.9486],[-84.2339,10.4994,112.2978],[-84.2318,10.4971,114.5247],[-84.2315,10.4869,128.8328],[-84.2421,10.4571,149.8055],[-84.241,10.4526,156.462],[-84.2454,10.4521,164.4691],[-84.2463,10.4476,171.9085],[-84.2508,10.4413,183.2239],[-84.2248,10.4385,188.7635],[-84.2194,10.4353,194.5652],[-84.2087,10.437,194.2974],[-84.2038,10.4333,198.3607],[-84.1992,10.4344,178.0884],[-84.1949,10.4381,197.9606],[-84.1847,10.4346,189.9053],[-84.1797,10.4377,185.3257],[-84.1609,10.4387,158.8388]]]]}
,"properties": {"GID_3": "CRI.1.17.2_1","GID_0": "CRI","country": "CostaRica","GID_1": "CRI.1_1","province": "Alajuela","NL_NAME_1": "NA","GID_2": "CRI.1.17_1","county": "RíoCuarto","NL_NAME_2": "NA","city": "SantaIsabel","VARNAME_3": "NA","NL_NAME_3": "NA","TYPE_3": "Distrito","ENGTYPE_3": "District","CC_3": "6","HASC_3": "NA","name": "Santa_Isabel.city","area_km2": 101.19422,"hist_schema_id": "Elevation0-9000","hist_area_km2": {"50": 8.17057,"75": 23.70084,"100": 14.88469,"125": 17.2207,"150": 19.36917,"175": 14.13676,"200": 3.48213,"225": 0.22937}}}