{"type":"Feature","properties":{"GID_3":"CRI.5.1.4_1","GID_0":"CRI","country":"CostaRica","GID_1":"CRI.5_1","province":"Limón","NL_NAME_1":"NA","GID_2":"CRI.5.1_1","county":"Guácimo","NL_NAME_2":"NA","city":"Pocora","VARNAME_3":"NA","NL_NAME_3":"NA","TYPE_3":"Distrito","ENGTYPE_3":"District","CC_3":"3","HASC_3":"NA","name":"Pocora.city"},
"geometry":{"type": "MultiPolygon","coordinates": [[[[-83.7252,10.0398,2414.7217],[-83.7204,10.0387,2338.7578],[-83.7166,10.0399,2264.3364],[-83.7101,10.0448,2027.1776],[-83.7073,10.0506,1822.4917],[-83.697,10.0563,1544.3325],[-83.6899,10.0544,1481.4806],[-83.6872,10.0556,1330.0796],[-83.6795,10.0545,1227.3848],[-83.6609,10.0552,1049.3124],[-83.6402,10.064,928.7139],[-83.6371,10.0684,865.746],[-83.6282,10.0714,770.8394],[-83.6234,10.0749,694.6034],[-83.6225,10.0818,600.0065],[-83.6154,10.0984,446.7194],[-83.615,10.1094,354.9786],[-83.6131,10.1155,302.2966],[-83.6107,10.1178,295.868],[-83.6101,10.1285,245.5117],[-83.6073,10.128,244.1039],[-83.6065,10.1335,246.7427],[-83.6034,10.1377,201.7295],[-83.61,10.1401,195.1411],[-83.608,10.1447,173.8485],[-83.6118,10.1475,181.7102],[-83.6018,10.1612,112.1353],[-83.596,10.1641,93.2936],[-83.5966,10.1666,79.2747],[-83.5895,10.1798,55.6088],[-83.5797,10.1876,37.683],[-83.577,10.2019,43.5882],[-83.5734,10.2017,41.5091],[-83.5722,10.2064,38.6572],[-83.5686,10.2022,29.6988],[-83.5638,10.203,20.6976],[-83.5636,10.2053,22.9511],[-83.561,10.2052,22.188],[-83.5607,10.2094,23.7052],[-83.5623,10.2099,25.7561],[-83.56,10.2142,28.345],[-83.5542,10.2148,23.5528],[-83.5518,10.2181,27.6455],[-83.5536,10.2193,21.6674],[-83.552,10.2203,21.6674],[-83.552,10.223,20.291],[-83.5473,10.2233,19.3163],[-83.5457,10.2249,23.6203],[-83.5486,10.228,17.7454],[-83.5479,10.2334,26.637],[-83.553,10.2303,36.3458],[-83.5508,10.2333,35.0687],[-83.5522,10.2359,35.035],[-83.5507,10.2379,29.3966],[-83.5544,10.2447,27.7018],[-83.5562,10.244,22.0622],[-83.5577,10.2386,37.8659],[-83.5588,10.2398,23.7346],[-83.5576,10.2428,26.3757],[-83.5616,10.2479,23.4963],[-83.5638,10.2452,23.6666],[-83.5679,10.248,23.845],[-83.5714,10.2438,24.4258],[-83.5772,10.2449,20.6805],[-83.5815,10.2424,24.0589],[-83.5775,10.2378,24.2678],[-83.5813,10.2342,20.8874],[-83.5818,10.229,21.8937],[-83.586,10.2266,31.4328],[-83.5869,10.2209,36.8251],[-83.5895,10.2183,41.5126],[-83.5866,10.2156,41.2867],[-83.5874,10.2126,35.9231],[-83.5844,10.2076,36.2379],[-83.5856,10.2071,40.6668],[-83.5851,10.2038,39.3964],[-83.5885,10.1996,52.6207],[-83.5906,10.1992,53.3986],[-83.5913,10.19,60.0037],[-83.5985,10.1852,71.4648],[-83.6,10.1795,76.1963],[-83.6048,10.1771,90.7985],[-83.6098,10.1694,109.2613],[-83.6162,10.1653,141.4691],[-83.6247,10.1535,183.7872],[-83.6369,10.1422,233.5077],[-83.6376,10.139,260.0681],[-83.642,10.1347,282.795],[-83.6428,10.1309,301.1041],[-83.6466,10.1263,339.4428],[-83.6516,10.1245,350.1591],[-83.6534,10.1156,438.3708],[-83.6582,10.1113,448.7991],[-83.6573,10.1034,528.4681],[-83.6605,10.1005,550.2696],[-83.6612,10.096,574.0864],[-83.6659,10.0885,707.6367],[-83.6639,10.0844,822.8865],[-83.6659,10.0799,801.9982],[-83.6708,10.0771,833.1595],[-83.675,10.0704,969.5932],[-83.6868,10.0603,1363.0653],[-83.6919,10.0588,1418.9421],[-83.7006,10.0593,1646.926],[-83.7068,10.0571,1757.9021],[-83.7119,10.0538,1854.5208],[-83.7143,10.0486,2040.8553],[-83.7187,10.0443,2211.5557],[-83.7252,10.0398,2414.7217]]]]}}