{"type":"Feature","properties":{"GID_3":"CRI.7.8.5_1","GID_0":"CRI","country":"CostaRica","GID_1":"CRI.7_1","province":"SanJosé","NL_NAME_1":"NA","GID_2":"CRI.7.8_1","county":"Goicoechea","NL_NAME_2":"NA","city":"Purral","VARNAME_3":"NA","NL_NAME_3":"NA","TYPE_3":"Distrito","ENGTYPE_3":"District","CC_3":"7","HASC_3":"NA","name":"Purral.city"},
"geometry":{"type": "MultiPolygon","coordinates": [[[[-84.038,9.9554,1226.0859],[-84.0332,9.9551,1231.7809],[-84.0296,9.9515,1270.2837],[-84.0188,9.9571,1330.402],[-84.0123,9.955,1365.426],[-84.0091,9.9575,1369.7708],[-84.0073,9.9554,1370.1357],[-84.0033,9.9588,1399.3053],[-84.0024,9.9624,1417.3849],[-83.9988,9.9625,1424.0912],[-83.9995,9.9648,1445.3351],[-83.9981,9.9651,1449.4617],[-83.9989,9.9671,1440.4937],[-84.0057,9.9674,1408.3673],[-84.0055,9.9658,1411.3513],[-84.0103,9.965,1372.7793],[-84.0152,9.9604,1344.0737],[-84.0202,9.9592,1315.0696],[-84.0225,9.9613,1312.0559],[-84.032,9.9596,1252.882],[-84.0339,9.9618,1255.7983],[-84.0396,9.9576,1236.3887],[-84.0369,9.9567,1227.8528],[-84.038,9.9554,1226.0859]]]]}}