{"type":"Feature","properties":{"GID_2":"CRI.6.7_1","GID_0":"CRI","country":"CostaRica","GID_1":"CRI.6_1","province":"Puntarenas","NL_NAME_1":"NA","county":"Golfito","VARNAME_2":"NA","NL_NAME_2":"NA","TYPE_2":"Cantón","ENGTYPE_2":"Canton","CC_2":"7","HASC_2":"CR.PU.GO","name":"Golfito.county"},
"geometry":{"type": "MultiPolygon","coordinates": [[[[-83.0519,8.5316,1.0],[-83.0542,8.5398,3.4048],[-83.0469,8.5483,3.1088],[-83.0428,8.5467,1.9779],[-83.043,8.5532,2.6984],[-83.0357,8.5624,10.1356],[-83.0342,8.5597,3.6375],[-83.0314,8.561,10.4312],[-83.0266,8.5589,4.348],[-83.0249,8.5627,3.5676],[-83.0013,8.5838,8.9337],[-83.0014,8.6488,22.9288],[-83.0035,8.6528,28.7797],[-83.0048,8.6525,19.3432],[-83.0043,8.6538,27.8292],[-83.0072,8.6547,27.6829],[-83.0067,8.6571,18.6035],[-83.0088,8.6601,29.9164],[-83.0064,8.6671,40.6949],[-83.0074,8.6684,40.6949],[-83.0056,8.6692,37.6348],[-83.0093,8.6734,50.2864],[-83.0092,8.6786,83.914],[-82.9967,8.6872,116.3728],[-82.9934,8.6976,299.0498],[-82.9892,8.7026,405.9728],[-82.9929,8.709,463.2622],[-82.9913,8.7166,631.5995],[-82.9896,8.7192,740.9462],[-82.9845,8.7202,997.7858],[-82.98,8.7253,1251.7555],[-82.9798,8.7284,1268.105],[-82.9831,8.7334,1326.58],[-82.9824,8.7374,1422.6667],[-82.9847,8.7394,1455.074],[-82.982,8.7498,1437.1833],[-82.983,8.7575,1406.504],[-82.9779,8.7636,1271.4149],[-82.9693,8.763,1260.4722],[-82.9692,8.7646,1230.0409],[-82.9739,8.7692,1281.5997],[-82.9739,8.7764,1338.1379],[-82.9802,8.7824,1414.9104],[-82.9866,8.783,1442.7365],[-82.994,8.7867,1417.0521],[-83.0177,8.7833,1312.7078],[-83.0275,8.788,1496.1135],[-83.0326,8.7882,1568.9889],[-83.0349,8.7838,1517.9452],[-83.0399,8.7829,1535.825],[-83.0413,8.7789,1472.986],[-83.0465,8.7745,1496.5266],[-83.0482,8.7775,1550.2693],[-83.0572,8.7801,1516.3973],[-83.0651,8.7793,1457.5027],[-83.0727,8.7762,1513.1431],[-83.0753,8.7775,1567.1104],[-83.0844,8.7753,1405.9662],[-83.0907,8.7769,1621.5911],[-83.0961,8.7752,1589.4498],[-83.1039,8.7811,1597.3354],[-83.1148,8.7799,1472.019],[-83.1202,8.7832,1476.5267],[-83.1306,8.7855,1565.835],[-83.1386,8.7942,1618.854],[-83.142,8.7944,1571.2985],[-83.1513,8.7986,1524.0385],[-83.1526,8.8007,1592.5769],[-83.1599,8.8027,1588.2015],[-83.1579,8.8071,1539.5161],[-83.1595,8.8086,1553.8247],[-83.1592,8.8118,1586.5939],[-83.1627,8.8142,1622.7148],[-83.1643,8.8073,1476.2955],[-83.1672,8.8041,1377.3396],[-83.1665,8.8004,1200.1307],[-83.171,8.7926,775.1277],[-83.1726,8.7794,543.457],[-83.1739,8.7781,502.9691],[-83.173,8.7674,385.136],[-83.171,8.7637,268.7404],[-83.1728,8.7596,271.8357],[-83.1721,8.7529,173.5184],[-83.1748,8.7514,125.2577],[-83.1757,8.745,95.3092],[-83.1798,8.7376,65.4736],[-83.1842,8.7354,90.8134],[-83.1858,8.7362,64.5755],[-83.1907,8.7444,48.9385],[-83.2039,8.7444,33.72],[-83.2076,8.7498,38.5772],[-83.2117,8.7513,24.0895],[-83.2164,8.7574,20.4431],[-83.2197,8.7539,26.2281],[-83.2209,8.7571,19.213],[-83.226,8.7585,39.5722],[-83.224,8.7648,19.0941],[-83.2249,8.7666,18.7104],[-83.228,8.7661,17.4192],[-83.2288,8.764,24.0454],[-83.2339,8.7653,15.745],[-83.2331,8.7731,15.0891],[-83.2355,8.7727,32.2882],[-83.2364,8.7742,14.6435],[-83.2424,8.7724,21.985],[-83.2429,8.7762,19.4505],[-83.2473,8.7736,8.0312],[-83.2492,8.7758,16.0471],[-83.249,8.779,19.9195],[-83.2512,8.7746,18.8967],[-83.2484,8.7721,8.0312],[-83.2509,8.7701,8.5806],[-83.2544,8.7713,12.3444],[-83.2564,8.7669,36.8128],[-83.2612,8.7687,9.9506],[-83.2613,8.7662,14.218],[-83.2635,8.7661,9.477],[-83.2637,8.7684,21.3247],[-83.265,8.7659,9.477],[-83.2692,8.7659,10.4702],[-83.2741,8.7691,8.9611],[-83.2774,8.7606,12.674],[-83.2788,8.7628,9.3684],[-83.2798,8.7599,7.6424],[-83.283,8.7607,8.4771],[-83.2823,8.7628,23.1334],[-83.2848,8.7618,13.4315],[-83.2886,8.7551,40.4054],[-83.2865,8.7534,10.178],[-83.2883,8.7515,18.5732],[-83.2869,8.7499,8.8208],[-83.2876,8.7473,9.8062],[-83.2894,8.7437,8.1633],[-83.2915,8.7448,6.8289],[-83.2944,8.7435,21.6349],[-83.2936,8.7409,2.9351],[-83.2958,8.7388,8.6405],[-83.2977,8.7323,3.4222],[-83.2956,8.7298,7.0415],[-83.2988,8.726,17.2528],[-83.3044,8.7256,14.2459],[-83.3081,8.7279,17.0992],[-83.3143,8.7288,40.6562],[-83.3203,8.7277,12.1702],[-83.3248,8.7224,2.5313],[-83.3337,8.7193,0.0],[-83.3358,8.7145,0.0],[-83.3348,8.7138,4.4452],[-83.3331,8.7162,5.4509],[-83.3319,8.7144,1.8835],[-83.3251,8.7184,7.2357],[-83.3224,8.7148,9.6443],[-83.326,8.7161,1.1893],[-83.327,8.715,7.3161],[-83.3256,8.7146,7.3161],[-83.3294,8.7128,2.1955],[-83.3313,8.7095,24.2209],[-83.3296,8.7054,15.2519],[-83.3331,8.702,6.4155],[-83.3267,8.6897,9.6209],[-83.3274,8.6861,0.0],[-83.3307,8.6852,32.4093],[-83.3292,8.6806,39.7202],[-83.322,8.6773,8.1625],[-83.3202,8.6737,0.0],[-83.307,8.6732,0.0],[-83.305,8.6681,0.0],[-83.3007,8.6667,0.0],[-83.299,8.6642,7.116],[-83.2947,8.6533,0.0],[-83.2911,8.6576,9.4189],[-83.2866,8.6583,3.3415],[-83.2846,8.6569,0.0],[-83.2779,8.6597,3.89],[-83.2755,8.6595,68.2753],[-83.2721,8.6562,6.7841],[-83.2625,8.6576,19.4229],[-83.2539,8.6566,0.0],[-83.2471,8.6375,0.0],[-83.2441,8.6326,3.2603],[-83.2372,8.6268,0.0],[-83.2357,8.6318,45.0506],[-83.2329,8.6333,2.8219],[-83.2355,8.6346,50.3664],[-83.2344,8.6392,6.1392],[-83.2257,8.6413,10.4725],[-83.2176,8.6362,8.8672],[-83.2174,8.6319,0.0],[-83.2129,8.6282,0.0],[-83.2058,8.631,57.9554],[-83.2043,8.6267,0.0],[-83.1983,8.6285,0.0],[-83.1956,8.6255,9.3581],[-83.1829,8.6217,0.0],[-83.1774,8.6255,48.5554],[-83.1771,8.631,32.8636],[-83.1743,8.6347,5.5178],[-83.1775,8.635,25.8283],[-83.1766,8.6393,0.0],[-83.1838,8.6404,6.0283],[-83.1843,8.6391,6.0283],[-83.1875,8.6418,6.7432],[-83.1862,8.6417,12.1935],[-83.1843,8.6409,8.2682],[-83.1839,8.643,10.8765],[-83.1817,8.6414,0.0],[-83.177,8.6414,2.0228],[-83.1774,8.6443,12.78],[-83.175299999999993,8.6436,4.2591],[-83.1762,8.6456,9.9263],[-83.1744,8.6432,0.0],[-83.1719,8.6428,4.4267],[-83.1712,8.639,0.6747],[-83.1684,8.6362,0.0],[-83.1643,8.6357,69.0497],[-83.1545,8.6235,0.0],[-83.1413,8.6133,5.0576],[-83.1403,8.6093,0.0],[-83.135,8.6039,9.7016],[-83.1352,8.6004,0.0],[-83.1311,8.6028,10.83],[-83.1273,8.601,5.7611],[-83.1229,8.6011,9.625],[-83.1242,8.6006,3.4997],[-83.1232,8.5941,5.0729],[-83.13,8.591,0.0],[-83.1309,8.5891,2.6279],[-83.1388,8.5907,0.0],[-83.1385,8.5845,2.4075],[-83.1401,8.5828,10.7723],[-83.1429,8.5835,4.8895],[-83.1424,8.5816,16.0632],[-83.1441,8.5832,4.8895],[-83.145,8.581,17.9776],[-83.1465,8.5833,0.4891],[-83.1485,8.5802,30.8896],[-83.1538,8.5793,8.5866],[-83.1558,8.577,5.982],[-83.1602,8.5781,3.3212],[-83.1597,8.5795,0.0],[-83.162,8.5798,4.6082],[-83.1598,8.5814,2.7581],[-83.1656,8.5837,0.0],[-83.1603,8.5826,7.5507],[-83.1574,8.5799,0.0],[-83.1541,8.581,0.0],[-83.1556,8.5841,2.5378],[-83.1638,8.5853,4.126],[-83.1596,8.5876,19.8496],[-83.16,8.5928,8.4093],[-83.1552,8.5954,26.5028],[-83.1596,8.5992,16.6781],[-83.1591,8.6013,3.0073],[-83.1612,8.6012,19.1581],[-83.1608,8.6031,22.6453],[-83.1565,8.6051,9.065],[-83.1571,8.6066,50.6286],[-83.1544,8.6082,6.4576],[-83.1518,8.608,0.0],[-83.1519,8.6092,0.0],[-83.1545,8.6103,5.7798],[-83.1592,8.6072,7.6442],[-83.1633,8.6077,5.2371],[-83.165,8.6089,67.5734],[-83.1652,8.615,6.9075],[-83.1671,8.6158,0.0],[-83.1724,8.6126,8.6267],[-83.1739,8.6077,2.1681],[-83.1782,8.6059,0.0],[-83.1796,8.6077,0.0],[-83.179,8.6102,1.1346],[-83.1747,8.6129,0.0],[-83.1759,8.6146,0.5686],[-83.1779,8.6134,1.2715],[-83.173,8.6189,0.0],[-83.168,8.6214,0.0],[-83.1708,8.6233,2.0617],[-83.1694,8.6233,2.0617],[-83.1706,8.6252,0.6709],[-83.1726,8.6241,2.6519],[-83.1807,8.61,0.0],[-83.1756,8.5923,0.0],[-83.1732,8.5916,0.0],[-83.168,8.5862,0.0],[-83.1591,8.5709,3.0661],[-83.151,8.5657,6.4468],[-83.1424,8.5568,0.9328],[-83.1396,8.5563,29.1371],[-83.1417,8.554,10.1531],[-83.1363,8.5495,6.3722],[-83.1383,8.5466,0.0],[-83.1381,8.5405,6.0167],[-83.14,8.5412,6.0167],[-83.1419,8.5366,0.0],[-83.1436,8.5369,8.1135],[-83.1464,8.5456,2.2794],[-83.1511,8.5482,0.916],[-83.1516,8.5471,0.916],[-83.1456,8.5375,7.4012],[-83.1374,8.5174,8.0473],[-83.1135,8.4914,2.0359],[-83.1045,8.4784,6.9591],[-83.0971,8.4655,7.884],[-83.0917,8.4509,17.3061],[-83.0923,8.4478,13.6499],[-83.1023,8.4389,6.6852],[-83.1047,8.4333,5.355],[-83.1058,8.4243,2.5191],[-83.1106,8.4149,18.7851],[-83.1192,8.4074,1.6527],[-83.1316,8.4034,0.0],[-83.1338,8.3983,14.2688],[-83.1381,8.3957,0.0],[-83.1423,8.3855,0.0],[-83.1453,8.3824,2.4714],[-83.1445,8.3725,2.7637],[-83.1465,8.3672,0.0],[-83.1372,8.3556,22.0244],[-83.1273,8.3483,25.555],[-83.1216,8.3402,0.0],[-83.1087,8.331,120.1217],[-83.0468,8.2959,0.0],[-83.0251,8.2776,0.0],[-82.9919,8.2584,0.0],[-82.9739,8.2389,0.0],[-82.9711,8.2327,0.0],[-82.9626,8.223,8.1155],[-82.9613,8.2178,0.0],[-82.9569,8.2145,0.0],[-82.9519,8.2061,1.5594],[-82.9492,8.2051,3.2214],[-82.9504,8.205,3.2214],[-82.9377,8.1858,0.0],[-82.9272,8.1644,16.5486],[-82.9226,8.1466,0.0],[-82.9172,8.1399,15.4364],[-82.9139,8.1305,0.0],[-82.9039,8.1153,0.0],[-82.9002,8.1,7.7671],[-82.9015,8.0837,0.0],[-82.9061,8.0766,4.7264],[-82.9137,8.0775,0.0],[-82.9123,8.0733,0.0],[-82.9128,8.0715,9.5735],[-82.9151,8.0712,1.6454],[-82.9138,8.0635,1.6711],[-82.9162,8.0587,0.0],[-82.9071,8.0432,9.5847],[-82.9007,8.0396,14.8755],[-82.8961,8.0479,46.492],[-82.8906,8.0516,154.2032],[-82.8916,8.0541,163.1534],[-82.8944,8.0538,150.9895],[-82.8966,8.0602,149.7068],[-82.892,8.0741,61.5953],[-82.8878,8.0789,63.3475],[-82.8888,8.0934,72.8969],[-82.8927,8.1041,89.4726],[-82.8872,8.1051,117.4747],[-82.8861,8.1086,183.9245],[-82.8883,8.1088,186.3197],[-82.89,8.1109,170.9206],[-82.8892,8.114,218.8376],[-82.8931,8.1153,87.74],[-82.9009,8.129,144.4102],[-82.9012,8.1329,167.3139],[-82.9042,8.1364,135.0457],[-82.9031,8.1388,230.2953],[-82.9076,8.1418,101.747],[-82.9086,8.1447,152.6929],[-82.9101,8.1574,115.5192],[-82.9095,8.1626,198.1183],[-82.9078,8.164,169.6086],[-82.9099,8.1684,85.647],[-82.903,8.1753,175.5511],[-82.9127,8.1778,102.0035],[-82.9108,8.1948,126.7648],[-82.9119,8.1975,135.9903],[-82.9152,8.1971,142.623],[-82.9177,8.1939,168.6349],[-82.9214,8.2016,185.4579],[-82.925,8.2029,201.9603],[-82.9273,8.2089,190.9199],[-82.931,8.211,194.2825],[-82.9352,8.2094,205.8597],[-82.9364,8.2104,131.3689],[-82.9366,8.2151,132.0717],[-82.9329,8.2202,175.3443],[-82.9337,8.2254,118.2229],[-82.9315,8.2281,102.722],[-82.9318,8.2361,83.4502],[-82.9285,8.2416,82.4483],[-82.9301,8.2452,92.6768],[-82.9387,8.2516,143.1363],[-82.9382,8.2624,192.0327],[-82.9422,8.2722,242.7838],[-82.9482,8.2698,258.0056],[-82.9485,8.2678,247.3682],[-82.9523,8.2678,219.2275],[-82.9563,8.2799,317.7726],[-82.9605,8.2805,266.5878],[-82.963,8.2782,218.0895],[-82.9681,8.2791,314.009],[-82.9757,8.2891,463.604],[-82.9808,8.2859,365.127],[-82.9861,8.2727,504.1408],[-82.9907,8.2713,499.0193],[-82.9998,8.2888,575.7319],[-83.0043,8.2891,617.9932],[-83.0032,8.2956,656.0513],[-83.014,8.3027,619.694],[-83.0242,8.3046,652.5013],[-83.0254,8.3081,605.5317],[-83.0227,8.3116,635.1311],[-83.0271,8.3141,587.9625],[-83.0272,8.3164,584.8198],[-83.0326,8.3133,528.6893],[-83.0375,8.3185,442.1262],[-83.0455,8.3155,374.7139],[-83.0463,8.3216,449.2226],[-83.0516,8.3308,486.5054],[-83.0519,8.3345,499.4122],[-83.0464,8.3379,495.6687],[-83.0523,8.3486,515.45],[-83.0504,8.3559,379.1952],[-83.0512,8.3602,333.2209],[-83.0359,8.3734,217.4266],[-83.0342,8.3773,199.0843],[-83.0373,8.3795,220.1008],[-83.0418,8.3791,262.3887],[-83.049,8.3757,282.3813],[-83.0541,8.3696,345.0353],[-83.0572,8.3714,401.5702],[-83.0546,8.3757,359.8383],[-83.0455,8.3828,388.2247],[-83.0469,8.3852,368.6002],[-83.0427,8.3912,249.2687],[-83.0409,8.3987,245.3989],[-83.0307,8.4148,238.1489],[-83.0224,8.418,161.5104],[-83.0213,8.4242,111.4061],[-83.0133,8.4262,86.6119],[-83.0128,8.4283,79.7538],[-83.0076,8.4326,46.4636],[-83.0095,8.4356,42.5165],[-83.0087,8.4386,42.8431],[-83.0059,8.4385,43.2134],[-83.0044,8.4421,48.5833],[-83.0015,8.4415,39.2156],[-83.0008,8.4445,39.2545],[-82.9993,8.4417,40.0856],[-82.9953,8.4427,32.1001],[-82.9964,8.445,33.9391],[-82.9939,8.4452,35.2935],[-82.9972,8.4501,36.9637],[-82.9942,8.4524,33.7623],[-82.9961,8.4574,32.916],[-82.9922,8.4581,34.095],[-82.9921,8.4607,34.2635],[-82.9895,8.4605,27.2419],[-82.9886,8.4624,23.3415],[-82.9926,8.4658,24.24],[-82.9944,8.4644,25.5487],[-82.998,8.4663,23.0642],[-82.9975,8.469,24.1297],[-82.9995,8.4708,28.169],[-82.9988,8.4736,21.3351],[-82.9997,8.4729,21.3351],[-83.0016,8.4755,19.0246],[-83.0003,8.4777,19.7882],[-83.0022,8.4794,21.8706],[-83.0011,8.4809,24.0592],[-83.0042,8.4823,24.0507],[-83.0031,8.483,24.0507],[-83.0039,8.4866,18.8153],[-83.0005,8.4869,16.9476],[-83.0029,8.488,19.7858],[-83.0045,8.4915,16.2415],[-83.0058,8.4906,16.2415],[-83.005,8.4935,23.7576],[-83.0067,8.4919,19.4609],[-83.007,8.4934,17.9761],[-83.0045,8.4959,20.497],[-83.0081,8.4986,24.0081],[-83.008,8.5027,14.7423],[-83.0098,8.5032,12.677],[-83.0104,8.5062,14.9779],[-83.009,8.5071,14.4607],[-83.0113,8.5076,17.8456],[-83.0123,8.5063,14.9779],[-83.0147,8.5084,22.5965],[-83.0129,8.5098,21.4716],[-83.0149,8.5125,13.3191],[-83.0169,8.5123,18.4007],[-83.0158,8.5199,11.8239],[-83.0189,8.5192,27.6133],[-83.0213,8.5207,18.2604],[-83.0213,8.5183,14.1636],[-83.0229,8.5204,13.544],[-83.025,8.5202,18.7612],[-83.0255,8.5221,15.1822],[-83.0285,8.5217,16.7308],[-83.0252,8.5252,15.4526],[-83.0285,8.5258,12.9717],[-83.0319,8.5237,9.6586],[-83.0323,8.5266,10.9045],[-83.0355,8.5257,8.4336],[-83.0354,8.5284,6.8652],[-83.0389,8.5318,7.9396],[-83.0462,8.5292,9.5929],[-83.0469,8.532,11.516],[-83.0502,8.5326,4.7213],[-83.0499,8.5358,3.7276],[-83.0519,8.5316,1.0]]],
[[[-83.1458,8.6005,0.0],[-83.1446,8.6008,0.0],[-83.1443,8.6012,0.0],[-83.145,8.6014,0.0],[-83.1458,8.6005,0.0]]],
[[[-83.4847,8.6779,4.3619],[-83.4862,8.6762,10.8696],[-83.4846,8.6746,4.1858],[-83.4851,8.6714,5.3507],[-83.4822,8.6699,7.3586],[-83.4809,8.6673,6.544],[-83.4831,8.6654,9.3276],[-83.4814,8.6608,13.6532],[-83.4838,8.6565,14.3791],[-83.4827,8.6522,16.6835],[-83.4847,8.6458,17.77],[-83.4842,8.6412,30.3175],[-83.4831,8.6398,18.0919],[-83.4792,8.6402,22.1165],[-83.4772,8.6375,21.7063],[-83.4765,8.6328,26.8902],[-83.4799,8.6299,39.6816],[-83.4776,8.627,28.1872],[-83.4863,8.6185,31.0759],[-83.4951,8.6166,37.5273],[-83.494,8.6138,34.4809],[-83.4979,8.6109,38.3235],[-83.4952,8.6084,37.7393],[-83.497,8.6042,41.6432],[-83.5,8.6049,63.0079],[-83.5062,8.5977,93.4896],[-83.5087,8.5979,104.1931],[-83.5116,8.5955,70.5799],[-83.5125,8.5972,90.8781],[-83.5146,8.5968,123.1829],[-83.515,8.5945,95.4507],[-83.5195,8.5952,115.2301],[-83.5236,8.5857,104.0609],[-83.5245,8.587,104.0609],[-83.5288,8.5851,121.3943],[-83.5325,8.5901,136.6018],[-83.5401,8.5899,141.1241],[-83.5408,8.5932,139.3317],[-83.5523,8.5929,160.3933],[-83.5522,8.5945,149.6121],[-83.5567,8.5963,166.7699],[-83.5587,8.6009,192.5088],[-83.5685,8.6033,244.0685],[-83.5688,8.6056,237.2462],[-83.5726,8.6095,336.0217],[-83.57,8.6096,382.9236],[-83.5683,8.6132,381.368],[-83.5702,8.6141,393.1922],[-83.5733,8.6247,397.0558],[-83.5838,8.6328,494.1266],[-83.5852,8.633,537.8994],[-83.5851,8.6315,481.1558],[-83.5805,8.6252,370.7296],[-83.579,8.6186,291.338],[-83.5859,8.6117,212.4896],[-83.5893,8.6137,202.537],[-83.5912,8.6116,189.7009],[-83.5988,8.6122,191.93],[-83.5994,8.6138,210.4089],[-83.6015,8.6137,187.7602],[-83.6009,8.6169,202.4937],[-83.6053,8.621,195.9786],[-83.6058,8.6238,165.5399],[-83.6101,8.6269,149.3679],[-83.6123,8.6252,177.6327],[-83.6162,8.6266,140.359],[-83.619,8.6238,150.2503],[-83.6213,8.6287,101.1339],[-83.6275,8.6293,84.8529],[-83.6306,8.6236,130.594],[-83.6303,8.6204,140.755],[-83.6284,8.6193,90.1989],[-83.6298,8.6135,156.5181],[-83.6277,8.612,126.9156],[-83.6309,8.6098,108.3457],[-83.6298,8.6075,100.4383],[-83.6329,8.6065,83.4127],[-83.6359,8.6012,75.531],[-83.6397,8.6024,80.5902],[-83.644,8.5944,49.9754],[-83.6332,8.5874,37.4278],[-83.6322,8.5822,26.1759],[-83.6283,8.5819,25.4006],[-83.6269,8.5769,21.6037],[-83.6238,8.5754,23.7962],[-83.6193,8.5768,19.4724],[-83.6173,8.575,19.3677],[-83.608,8.5729,25.6607],[-83.6021,8.5687,24.2715],[-83.5961,8.5608,15.2801],[-83.6029,8.5569,4.1282],[-83.6062,8.5518,4.4859],[-83.613,8.5485,5.0389],[-83.6177,8.5402,4.5293],[-83.6238,8.5382,13.2115],[-83.6239,8.5347,15.1298],[-83.63,8.5374,25.5578],[-83.6302,8.5354,23.9352],[-83.634,8.5353,18.9438],[-83.6316,8.5309,17.8543],[-83.633,8.5289,11.871],[-83.631,8.5251,27.3226],[-83.6292,8.5255,16.265],[-83.6243,8.5222,9.0038],[-83.6241,8.5238,18.029],[-83.6226,8.5234,8.8517],[-83.6212,8.5191,9.5704],[-83.6183,8.5191,5.3401],[-83.6202,8.5181,22.8631],[-83.6192,8.5149,15.6444],[-83.6092,8.5125,16.1031],[-83.6078,8.5108,16.1784],[-83.61,8.5086,15.1647],[-83.6224,8.5042,26.4313],[-83.6248,8.5075,21.6554],[-83.627,8.5077,12.7172],[-83.6293,8.5123,17.8092],[-83.6343,8.5136,20.6644],[-83.6343,8.5154,17.9902],[-83.637,8.5145,13.1701],[-83.6354,8.5175,14.2321],[-83.6392,8.5171,19.8208],[-83.6419,8.5222,18.3009],[-83.6446,8.5207,16.8639],[-83.6431,8.522,13.0681],[-83.6441,8.5245,18.6904],[-83.6513,8.5266,0.5103],[-83.6524,8.5242,0.0],[-83.6215,8.4997,0.0],[-83.6104,8.492,0.0],[-83.6097,8.4931,2.788],[-83.593,8.4712,0.0],[-83.5935,8.467,0.0],[-83.5903,8.4659,13.6171],[-83.5911,8.4641,1.3882],[-83.5894,8.459,5.2999],[-83.571,8.4504,0.0],[-83.5686,8.4479,0.0],[-83.5702,8.4433,0.0],[-83.5668,8.4405,16.927],[-83.5629,8.4422,20.3778],[-83.5453,8.4396,0.0],[-83.5408,8.4433,0.0],[-83.513,8.4484,0.0],[-83.4886,8.4469,0.0],[-83.4601,8.4416,0.0],[-83.4239,8.4296,3.9569],[-83.3793,8.4094,0.0],[-83.3189,8.3862,6.7961],[-83.3016,8.3767,0.0],[-83.2914,8.3744,4.1203],[-83.2872,8.3799,39.1507],[-83.2828,8.3819,0.0],[-83.2781,8.3874,27.0258],[-83.2797,8.3914,5.4615],[-83.2782,8.3946,14.0511],[-83.2811,8.3989,5.9908],[-83.2799,8.404,0.0],[-83.2811,8.4095,6.3055],[-83.2795,8.413,0.0],[-83.2803,8.4167,4.611],[-83.2738,8.4251,2.6217],[-83.2724,8.4297,3.1517],[-83.2739,8.4336,10.4001],[-83.2775,8.4362,0.0],[-83.2837,8.4454,0.0],[-83.2839,8.4477,0.0],[-83.2797,8.4567,0.0],[-83.2711,8.4651,0.0],[-83.2758,8.4736,0.0],[-83.2776,8.4805,0.0],[-83.284,8.4845,0.0],[-83.292,8.5001,0.0],[-83.285,8.5324,0.0],[-83.2855,8.5423,0.0],[-83.2903,8.5397,0.6257],[-83.2912,8.5367,0.0],[-83.2896,8.5352,3.9348],[-83.2909,8.5347,3.2356],[-83.2946,8.5354,7.0747],[-83.2991,8.5399,4.492],[-83.3043,8.5415,0.0],[-83.3057,8.5401,8.4213],[-83.3074,8.5445,0.6326],[-83.3104,8.5453,6.2645],[-83.3139,8.5491,3.92],[-83.3134,8.5507,2.15],[-83.3222,8.5619,8.6417],[-83.3234,8.5666,9.8565],[-83.3268,8.5691,0.0],[-83.3354,8.5686,6.614],[-83.3397,8.5723,0.0],[-83.3526,8.5766,3.987],[-83.3743,8.575,6.5353],[-83.3776,8.5804,9.7375],[-83.3773,8.584,1.5093],[-83.3795,8.5822,9.3677],[-83.3795,8.5853,5.8084],[-83.3863,8.5843,1.2259],[-83.3904,8.5865,6.5884],[-83.3919,8.5889,3.6697],[-83.3992,8.5928,0.0],[-83.4104,8.6061,4.1222],[-83.4132,8.6068,8.0866],[-83.4164,8.6125,0.502],[-83.4268,8.6183,3.5409],[-83.4281,8.6214,0.0],[-83.4274,8.6262,0.0],[-83.4307,8.6274,3.1497],[-83.4345,8.6336,7.6484],[-83.4366,8.6342,7.147],[-83.4329,8.6469,3.2429],[-83.4344,8.6505,12.1817],[-83.4327,8.6518,1.5289],[-83.4339,8.6577,0.0],[-83.4426,8.6671,0.0],[-83.446,8.6663,6.5968],[-83.4464,8.6681,8.2695],[-83.443,8.669,0.0],[-83.4496,8.6752,6.7125],[-83.4513,8.6747,2.042],[-83.4507,8.6719,5.6028],[-83.4541,8.6716,8.3423],[-83.453,8.6723,6.4323],[-83.4509,8.6722,4.0246],[-83.4518,8.6755,0.0],[-83.4563,8.6774,5.1083],[-83.4564,8.6813,1.1337],[-83.4587,8.682,5.7131],[-83.4572,8.6831,3.7957],[-83.4581,8.6855,0.0],[-83.4611,8.687,2.8812],[-83.4645,8.6865,1.0226],[-83.4678,8.6812,3.5557],[-83.4663,8.6879,3.057],[-83.4681,8.6929,2.7607],[-83.4722,8.6878,5.7502],[-83.4728,8.6896,6.7373],[-83.4808,8.6901,2.2403],[-83.482,8.6879,8.5874],[-83.479,8.6855,4.9539],[-83.482,8.684,4.0477],[-83.4817,8.6807,4.8131],[-83.4847,8.6779,4.3619]]],
[[[-83.1626,8.569,0.0],[-83.1619,8.5691,0.0],[-83.1617,8.5695,0.0],[-83.1626,8.5694,0.0],[-83.1626,8.569,0.0]]],
[[[-83.158,8.5788,0.0],[-83.1573,8.579,0.0],[-83.1587,8.5799,0.0],[-83.1586,8.5793,0.0],[-83.158,8.5788,0.0]]]]}}