{"type":"Feature","properties":{"GID_3":"CRI.5.6.3_1","GID_0":"CRI","country":"CostaRica","GID_1":"CRI.5_1","province":"Limón","NL_NAME_1":"NA","GID_2":"CRI.5.6_1","county":"Talamanca","NL_NAME_2":"NA","city":"Sixaola","VARNAME_3":"NA","NL_NAME_3":"NA","TYPE_3":"Distrito","ENGTYPE_3":"District","CC_3":"2","HASC_3":"NA","name":"Sixaola.city"},
"geometry":{"type": "MultiPolygon","coordinates": [[[[-82.7881,9.5956,20.4585],[-82.7764,9.5851,19.1966],[-82.7693,9.5878,18.8651],[-82.763,9.5937,21.7152],[-82.7607,9.5941,22.3057],[-82.752,9.5903,19.832],[-82.7475,9.593,19.711],[-82.7438,9.5917,18.6194],[-82.7429,9.5895,18.9857],[-82.7458,9.5871,21.1819],[-82.7474,9.5817,16.1421],[-82.7434,9.5736,12.0],[-82.7434,9.5685,13.626],[-82.7303,9.5651,19.3721],[-82.7263,9.5599,11.8192],[-82.7289,9.5541,19.4048],[-82.72,9.551,17.3234],[-82.716,9.546,15.9136],[-82.7129,9.5462,16.6579],[-82.7106,9.5527,15.4358],[-82.7076,9.5539,16.2047],[-82.7054,9.5522,15.0868],[-82.703,9.5455,16.2563],[-82.695,9.5431,12.2123],[-82.6921,9.5351,16.4902],[-82.7004,9.5287,14.4895],[-82.6931,9.5213,9.7332],[-82.6916,9.5126,22.3796],[-82.6814,9.5068,11.8751],[-82.6789,9.5077,7.5],[-82.6752,9.5129,9.9252],[-82.6725,9.5094,10.4435],[-82.6716,9.5018,13.2694],[-82.6681,9.5006,12.095],[-82.6617,9.5025,16.3797],[-82.6614,9.5085,11.5507],[-82.6597,9.5101,14.5668],[-82.648,9.4975,9.7695],[-82.637,9.4942,8.6972],[-82.6335,9.4951,5.7703],[-82.6354,9.5006,8.5045],[-82.6336,9.5026,8.0049],[-82.6196,9.4981,6.907],[-82.6127,9.4995,3.25],[-82.6076,9.5027,3.0],[-82.6034,9.51,7.4561],[-82.604,9.5228,2.0],[-82.5981,9.534,3.3001],[-82.5987,9.5407,1.0],[-82.6039,9.5515,2.602],[-82.6027,9.5568,15.6618],[-82.6005,9.5588,2.7251],[-82.5888,9.5594,0.5],[-82.5792,9.5569,4.3126],[-82.5724,9.5521,0.5],[-82.5657,9.5422,6.5471],[-82.5607,9.5396,2.2575],[-82.5563,9.5405,5.4448],[-82.5525,9.5465,5.1759],[-82.5541,9.552,8.7553],[-82.5636,9.5614,8.5564],[-82.5648,9.5718,0.5439],[-82.602,9.5947,0.0],[-82.6126,9.6079,1.458],[-82.6182,9.6011,26.2344],[-82.6304,9.5991,48.4227],[-82.6471,9.6014,42.3754],[-82.6567,9.5986,46.963],[-82.6674,9.6022,52.4772],[-82.6697,9.5993,62.8665],[-82.6684,9.5969,64.1219],[-82.67,9.5906,101.7209],[-82.6838,9.5981,94.8215],[-82.6898,9.5991,101.7857],[-82.6929,9.5971,93.1103],[-82.697,9.5974,76.8692],[-82.6995,9.6027,100.7164],[-82.7065,9.6065,118.7351],[-82.7076,9.6089,74.0523],[-82.7146,9.6087,111.3159],[-82.7162,9.6131,112.0486],[-82.7198,9.6159,119.2932],[-82.7211,9.6202,87.5033],[-82.7344,9.6202,34.1121],[-82.7391,9.6156,60.82],[-82.7419,9.615,84.6347],[-82.7481,9.6213,202.4283],[-82.755,9.6175,153.2402],[-82.7579,9.6136,145.1788],[-82.7618,9.6138,126.9791],[-82.7653,9.6114,138.8543],[-82.7782,9.6109,186.2564],[-82.7838,9.6133,204.0219],[-82.7866,9.6094,27.0328],[-82.7854,9.6021,24.9854],[-82.7881,9.5956,20.4585]]]]}}