{"type":"Feature","properties":{"GID_2":"CRI.1.9_1","GID_0":"CRI","country":"CostaRica","GID_1":"CRI.1_1","province":"Alajuela","NL_NAME_1":"NA","county":"Palmares","VARNAME_2":"NA","NL_NAME_2":"NA","TYPE_2":"Cantón","ENGTYPE_2":"Canton","CC_2":"7","HASC_2":"CR.AL.PA","name":"Palmares.county"},
"geometry":{"type": "MultiPolygon","coordinates": [[[[-84.4307,10.0126,1287.9661],[-84.4245,10.0156,1266.3727],[-84.4221,10.0249,1208.1035],[-84.4124,10.0275,1088.6384],[-84.4047,10.0338,857.7955],[-84.4134,10.0386,897.6937],[-84.4122,10.0456,912.1033],[-84.4078,10.0537,913.472],[-84.4102,10.0566,943.8998],[-84.4086,10.0595,919.5484],[-84.4111,10.0604,934.2512],[-84.4113,10.063,916.9134],[-84.4137,10.065,915.3013],[-84.4121,10.0667,920.4724],[-84.4127,10.0729,941.9782],[-84.4205,10.0798,956.7655],[-84.4253,10.0815,951.0889],[-84.4259,10.084,973.9069],[-84.4304,10.084,967.5651],[-84.4336,10.086,970.9791],[-84.4391,10.0811,1204.4509],[-84.4467,10.0798,1189.4824],[-84.4511,10.0639,1140.573],[-84.4594,10.0531,1247.929],[-84.46,10.0431,1395.9534],[-84.4639,10.0399,1415.2766],[-84.4641,10.0354,1410.7258],[-84.4687,10.029,1465.6659],[-84.4688,10.0176,1353.0833],[-84.47,10.016,1383.4479],[-84.465,10.0144,1418.2007],[-84.4637,10.011,1396.1577],[-84.4551,10.009,1382.3976],[-84.4547,10.0074,1328.7029],[-84.447,10.0104,1294.7894],[-84.4388,10.0104,1300.3735],[-84.4307,10.0126,1287.9661]]]]}}