{"type":"Feature","properties":{"GID_3":"CRI.4.3.2_1","GID_0":"CRI","country":"CostaRica","GID_1":"CRI.4_1","province":"Heredia","NL_NAME_1":"NA","GID_2":"CRI.4.3_1","county":"Flores","NL_NAME_2":"NA","city":"Llorente","VARNAME_3":"NA","NL_NAME_3":"NA","TYPE_3":"Distrito","ENGTYPE_3":"District","CC_3":"3","HASC_3":"NA","name":"Llorente.city"},
"geometry":{"type": "MultiPolygon","coordinates": [[[[-84.1647,9.9901,971.0789],[-84.1603,9.9945,1000.8574],[-84.1549,9.9943,1018.1088],[-84.1494,10.0002,1042.1272],[-84.1714,10.0046,981.8514],[-84.1647,9.9901,971.0789]]]]}}