{"type":"Feature","properties":{"GID_3":"CRI.4.6.1_1","GID_0":"CRI","country":"CostaRica","GID_1":"CRI.4_1","province":"Heredia","NL_NAME_1":"NA","GID_2":"CRI.4.6_1","county":"SanPablo","NL_NAME_2":"NA","city":"RincóndeSabanilla","VARNAME_3":"NA","NL_NAME_3":"NA","TYPE_3":"Distrito","ENGTYPE_3":"District","CC_3":"2","HASC_3":"NA","name":"Rincónde_Sabanilla.city"},
"geometry":{"type": "MultiPolygon","coordinates": [[[[-84.1113,9.9905,1127.2928],[-84.109,9.9834,1113.4724],[-84.1137,9.9713,1049.2744],[-84.1092,9.9758,1073.7142],[-84.1046,9.9757,1092.1754],[-84.1024,9.9741,1099.9456],[-84.1004,9.9752,1106.4043],[-84.1003,9.9818,1131.5164],[-84.0984,9.9845,1139.4065],[-84.0955,9.9853,1142.8557],[-84.1011,9.9919,1170.9205],[-84.1087,9.9934,1149.9288],[-84.1087,9.9905,1142.8823],[-84.1113,9.9905,1127.2928]]]]}}