{"type":"Feature","properties":{"GID_2":"CRI.3.5_1","GID_0":"CRI","country":"CostaRica","GID_1":"CRI.3_1","province":"Guanacaste","NL_NAME_1":"NA","county":"Hojancha","VARNAME_2":"NA","NL_NAME_2":"NA","TYPE_2":"Cantón","ENGTYPE_2":"Canton","CC_2":"11","HASC_2":"CR.GU.HO","name":"Hojancha.county"},
"geometry":{"type": "MultiPolygon","coordinates": [[[[-85.3905,9.9124,56.1055],[-85.3868,9.9104,62.6577],[-85.3835,9.9123,68.2506],[-85.3759,9.9102,61.2252],[-85.3716,9.912,60.75],[-85.3702,9.9135,63.7406],[-85.3724,9.9133,58.1293],[-85.3723,9.9146,56.5641],[-85.3685,9.9157,61.2815],[-85.3686,9.918,76.3441],[-85.3665,9.9199,60.3437],[-85.3637,9.9195,62.0719],[-85.3641,9.9223,61.2954],[-85.3587,9.9229,65.3434],[-85.3534,9.9273,72.2982],[-85.3498,9.9263,69.6294],[-85.3486,9.9278,62.6946],[-85.3497,9.9312,73.317],[-85.3424,9.9336,79.4221],[-85.3419,9.9369,75.6121],[-85.3387,9.9379,83.4981],[-85.3394,9.9426,82.3975],[-85.3419,9.9411,95.5522],[-85.343,9.9437,90.9784],[-85.3497,9.944,106.6253],[-85.3549,9.9475,126.8765],[-85.3546,9.9561,158.2692],[-85.3574,9.9618,190.8686],[-85.3615,9.9647,248.6676],[-85.3579,9.9696,301.2311],[-85.3569,9.9743,380.6156],[-85.3538,9.9739,370.6733],[-85.3543,9.9761,368.2514],[-85.3482,9.9807,399.6416],[-85.3479,9.9868,471.7216],[-85.3508,9.9887,491.7639],[-85.3517,9.9968,508.0869],[-85.3571,9.9984,527.4819],[-85.3671,9.995,606.1738],[-85.3764,10.001,738.6008],[-85.3763,10.004,721.7222],[-85.3715,10.0048,649.1333],[-85.3694,10.0084,608.4268],[-85.3649,10.0103,561.4299],[-85.355,10.0091,425.6197],[-85.351,10.0056,356.1673],[-85.3498,10.0066,342.1782],[-85.3423,10.0056,332.0708],[-85.3358,10.0093,296.2249],[-85.3331,10.0052,281.8507],[-85.3274,10.0061,268.2111],[-85.3279,10.0087,268.4193],[-85.3262,10.0095,259.8418],[-85.3261,10.0142,260.364],[-85.3239,10.0174,260.4522],[-85.3262,10.0201,266.6828],[-85.3243,10.022,255.4266],[-85.3264,10.024,255.0693],[-85.3235,10.0253,222.5463],[-85.3259,10.0269,221.3577],[-85.3295,10.0267,261.6589],[-85.3296,10.0287,245.5039],[-85.3275,10.029,198.6756],[-85.3277,10.0311,235.2444],[-85.3251,10.0312,189.3998],[-85.3233,10.0366,176.7169],[-85.3302,10.0358,263.0989],[-85.3356,10.0399,347.8853],[-85.3397,10.0389,388.3942],[-85.3397,10.0434,471.5967],[-85.3687,10.0466,207.2543],[-85.3806,10.0617,191.112],[-85.3894,10.0677,145.9635],[-85.3787,10.0718,123.783],[-85.3817,10.074,147.2435],[-85.3827,10.0774,206.8979],[-85.3857,10.079,248.7505],[-85.3878,10.0782,264.0002],[-85.3923,10.0833,318.2851],[-85.3888,10.0833,251.3947],[-85.3852,10.0861,230.1398],[-85.3922,10.0927,234.4804],[-85.3974,10.0926,130.196],[-85.4025,10.0973,147.7884],[-85.4144,10.0988,226.1332],[-85.4192,10.0964,263.25],[-85.4235,10.1007,295.4762],[-85.4318,10.0939,331.6048],[-85.4435,10.0892,243.6931],[-85.4489,10.0848,188.4252],[-85.4516,10.08,281.287],[-85.4511,10.072,522.7878],[-85.4479,10.071,526.6021],[-85.4475,10.0645,450.3261],[-85.4527,10.0591,408.4424],[-85.4525,10.0562,388.8906],[-85.4595,10.054,242.981],[-85.4649,10.0413,230.2774],[-85.4647,10.0363,275.7656],[-85.4723,10.0271,402.883],[-85.4745,10.0205,581.5765],[-85.4706,10.0122,732.8368],[-85.4704,9.999,742.0248],[-85.4688,9.9963,687.5385],[-85.4729,9.9937,658.7062],[-85.473,9.9867,604.2321],[-85.4745,9.9846,692.2679],[-85.474,9.9825,740.3305],[-85.4697,9.9795,753.9031],[-85.469,9.9761,726.9713],[-85.4624,9.9673,548.5108],[-85.464,9.9636,567.9706],[-85.4637,9.9582,569.7375],[-85.4658,9.9546,644.5276],[-85.4605,9.9505,574.7463],[-85.4627,9.945,558.4613],[-85.4669,9.9436,497.215],[-85.4675,9.9318,616.4572],[-85.4735,9.9254,588.3224],[-85.4737,9.9225,586.475],[-85.4709,9.918,564.0616],[-85.4667,9.9156,456.2],[-85.4655,9.9131,482.7404],[-85.4672,9.9088,402.4171],[-85.4637,9.902,398.8932],[-85.4647,9.8995,377.1774],[-85.4679,9.8977,329.8749],[-85.4694,9.892,314.6783],[-85.4743,9.8886,297.0531],[-85.4749,9.8856,290.616],[-85.4807,9.8885,238.1857],[-85.4866,9.8883,182.3411],[-85.4874,9.8813,90.3931],[-85.4954,9.8769,25.9619],[-85.4961,9.8723,21.596],[-85.4851,9.8691,5.1977],[-85.4832,9.8636,7.9839],[-85.486,9.8622,0.0],[-85.4864,9.8593,5.4795],[-85.4799,9.8574,25.1545],[-85.4745,9.8544,18.583],[-85.4745,9.8529,5.8531],[-85.4701,9.8525,18.0961],[-85.468,9.8502,2.6543],[-85.4635,9.8507,36.0595],[-85.4604,9.8591,7.4373],[-85.4569,9.8611,21.8954],[-85.4534,9.8601,4.6071],[-85.4547,9.8646,2.0154],[-85.4535,9.8701,14.2322],[-85.4569,9.8714,9.1747],[-85.4574,9.8735,11.7013],[-85.4523,9.8732,28.1818],[-85.4495,9.8759,12.5015],[-85.4526,9.8779,8.0052],[-85.4527,9.8807,13.9075],[-85.4476,9.8792,10.8433],[-85.4451,9.88,17.4881],[-85.447,9.8822,14.0334],[-85.4449,9.8851,12.7062],[-85.4465,9.8868,13.7029],[-85.4456,9.8879,22.7372],[-85.4426,9.8874,39.9474],[-85.4406,9.8836,30.2685],[-85.4387,9.8842,17.9892],[-85.4363,9.8885,25.1959],[-85.4383,9.8904,22.4861],[-85.4385,9.8941,19.4482],[-85.4366,9.8971,72.776],[-85.4306,9.897,35.7643],[-85.4309,9.9036,31.7669],[-85.4284,9.9072,46.417],[-85.4258,9.9073,39.4852],[-85.4217,9.9117,37.0595],[-85.4199,9.91,37.0305],[-85.4179,9.9109,37.3978],[-85.4147,9.9092,42.3205],[-85.4103,9.9126,51.3004],[-85.4058,9.9088,42.3786],[-85.3985,9.9125,52.9138],[-85.3952,9.9118,48.4655],[-85.3933,9.9086,57.6872],[-85.3911,9.909,54.4134],[-85.3905,9.9124,56.1055]]]]}}