{"type":"Feature","properties":{"GID_3":"CRI.3.2.1_1","GID_0":"CRI","country":"CostaRica","GID_1":"CRI.3_1","province":"Guanacaste","NL_NAME_1":"NA","GID_2":"CRI.3.2_1","county":"Bagaces","NL_NAME_2":"NA","city":"Bagaces","VARNAME_3":"NA","NL_NAME_3":"NA","TYPE_3":"Distrito","ENGTYPE_3":"District","CC_3":"1","HASC_3":"NA","name":"Bagaces.city"},
"geometry":{"type": "MultiPolygon","coordinates": [[[[-85.2475,10.2519,0.0],[-85.2396,10.2532,1.7673],[-85.232,10.2636,19.0218],[-85.219,10.2721,18.585],[-85.216,10.2835,24.1063],[-85.2124,10.2844,3.8998],[-85.2054,10.2823,7.6734],[-85.2037,10.2836,2.1875],[-85.2044,10.2861,2.1884],[-85.2084,10.2876,6.3377],[-85.2111,10.2911,2.8551],[-85.2145,10.3059,2.6781],[-85.2131,10.3144,3.5515],[-85.2094,10.3162,3.2061],[-85.2045,10.3248,3.3999],[-85.2072,10.3308,3.324],[-85.2113,10.3351,8.6795],[-85.2099,10.3362,5.2558],[-85.2075,10.3346,4.3849],[-85.2065,10.3373,5.6691],[-85.2028,10.3354,7.5418],[-85.2034,10.341,7.4223],[-85.1987,10.345,13.5693],[-85.1998,10.3505,5.6652],[-85.2042,10.3518,4.9333],[-85.2017,10.357,7.3789],[-85.1955,10.3608,5.727],[-85.1974,10.3701,9.7399],[-85.1932,10.371,16.4987],[-85.1908,10.3685,9.2755],[-85.1874,10.3758,11.4097],[-85.1802,10.38,12.9548],[-85.1834,10.3831,16.2731],[-85.1784,10.3845,13.0953],[-85.179,10.3877,11.7983],[-85.1841,10.3879,12.7761],[-85.1858,10.3897,14.3947],[-85.1853,10.3943,17.2342],[-85.184,10.3938,17.2342],[-85.1848,10.3911,13.9834],[-85.1807,10.3922,12.1511],[-85.181,10.3963,13.524],[-85.1843,10.3976,11.0414],[-85.1817,10.3994,18.2945],[-85.1782,10.3976,14.3054],[-85.1735,10.4,20.935],[-85.1764,10.4043,15.7005],[-85.1749,10.4073,20.7378],[-85.1714,10.4062,15.3374],[-85.1695,10.4108,23.5838],[-85.1639,10.4117,20.4794],[-85.1599,10.4189,18.5045],[-85.1588,10.4294,27.0656],[-85.157,10.4321,27.9563],[-85.1584,10.437,28.2781],[-85.1572,10.4434,30.7061],[-85.1635,10.4548,34.3338],[-85.1638,10.4642,33.9343],[-85.1623,10.4677,38.7711],[-85.1638,10.4778,42.2956],[-85.1668,10.4803,43.0826],[-85.1659,10.4892,45.9167],[-85.1637,10.4935,47.2529],[-85.1649,10.4968,57.8329],[-85.1606,10.5011,57.8329],[-85.1631,10.508,58.8895],[-85.1603,10.5157,63.9168],[-85.1626,10.5205,64.7616],[-85.1605,10.5262,66.3312],[-85.1534,10.5325,74.1331],[-85.1564,10.5362,87.6171],[-85.1544,10.5399,116.8825],[-85.1572,10.5421,94.5656],[-85.1538,10.5427,114.8439],[-85.1554,10.5451,108.5332],[-85.1522,10.5527,110.952],[-85.1553,10.5531,116.9981],[-85.1595,10.5599,123.1885],[-85.1597,10.5639,143.057],[-85.1616,10.5652,134.3059],[-85.1635,10.5722,156.8573],[-85.1761,10.5883,202.1533],[-85.1782,10.5973,220.307],[-85.1747,10.5991,224.6071],[-85.1782,10.6,226.795],[-85.1773,10.6025,232.3008],[-85.1805,10.6075,236.8561],[-85.1794,10.6114,243.4276],[-85.186,10.6175,256.4474],[-85.1852,10.6194,255.3072],[-85.1871,10.619,258.3358],[-85.187,10.6218,260.8868],[-85.1901,10.6269,297.4161],[-85.1973,10.6323,322.989],[-85.2012,10.6304,279.3384],[-85.1989,10.6171,214.2016],[-85.2007,10.6162,214.9502],[-85.2014,10.6128,212.2869],[-85.1997,10.6062,195.3726],[-85.2007,10.5918,176.1489],[-85.2031,10.5945,184.7216],[-85.2029,10.5968,181.6018],[-85.2114,10.6019,187.5403],[-85.2105,10.6084,199.547],[-85.2079,10.6096,238.4532],[-85.2101,10.6134,213.5266],[-85.2092,10.6166,209.4902],[-85.2153,10.6263,229.2789],[-85.2196,10.6286,247.1838],[-85.2203,10.6309,242.8479],[-85.218,10.6377,253.0341],[-85.2806,10.6268,186.9917],[-85.2833,10.6292,195.077],[-85.2851,10.638,222.1516],[-85.2872,10.6399,266.7353],[-85.2875,10.6462,265.8881],[-85.2936,10.6462,297.3471],[-85.2964,10.643,293.8902],[-85.3019,10.6416,296.3344],[-85.3146,10.6281,224.464],[-85.324,10.6245,170.0514],[-85.3301,10.6285,217.3116],[-85.3302,10.633,213.59],[-85.3344,10.6419,269.3077],[-85.3347,10.6455,278.0867],[-85.3434,10.646,257.502],[-85.3427,10.6374,219.0118],[-85.3449,10.6317,227.1165],[-85.3479,10.6293,233.1233],[-85.3481,10.6247,222.1159],[-85.3462,10.6234,178.701],[-85.352,10.6139,165.3198],[-85.3589,10.6067,155.5492],[-85.362799999999993,10.607,144.4145],[-85.3653,10.5993,138.1658],[-85.369,10.5982,128.4284],[-85.3797,10.5903,121.8266],[-85.3808,10.5862,127.0011],[-85.379,10.584,119.9035],[-85.3798,10.5815,121.1137],[-85.3813,10.5814,116.3988],[-85.3816,10.5764,116.369],[-85.3886,10.5702,109.7891],[-85.3876,10.5664,109.1026],[-85.3894,10.5637,113.2986],[-85.393,10.5631,108.3157],[-85.3961,10.5599,105.7194],[-85.3944,10.5548,101.2344],[-85.4003,10.5434,101.0973],[-85.3985,10.5416,98.3218],[-85.3999,10.5374,114.0625],[-85.3987,10.5324,81.7332],[-85.4035,10.5243,60.4691],[-85.4057,10.5254,52.8721],[-85.4068,10.524,52.8721],[-85.4101,10.5157,65.6949],[-85.4039,10.5076,41.4378],[-85.408,10.5011,36.5107],[-85.4078,10.492,30.8651],[-85.4096,10.4902,34.9189],[-85.4101,10.4845,22.2699],[-85.4176,10.4765,18.2508],[-85.4231,10.4761,22.8654],[-85.4182,10.4602,13.2125],[-85.4324,10.4489,8.0518],[-85.4336,10.4447,7.0177],[-85.4319,10.4428,7.0705],[-85.4335,10.4402,7.3651],[-85.4267,10.4332,7.5207],[-85.4174,10.4317,7.1044],[-85.4133,10.4291,6.6846],[-85.4065,10.4298,9.6265],[-85.4036,10.4273,7.362],[-85.401,10.4214,8.2364],[-85.3926,10.4216,7.0098],[-85.3888,10.4246,17.0096],[-85.386,10.4221,16.7651],[-85.3819,10.424,16.3106],[-85.3788,10.4233,16.1779],[-85.3772,10.4184,15.6797],[-85.3732,10.4172,17.0714],[-85.3776,10.4132,16.245],[-85.3778,10.4114,15.9756],[-85.3713,10.4098,16.9823],[-85.3703,10.412,12.0883],[-85.3691,10.4102,15.2383],[-85.37,10.4078,12.7324],[-85.3734,10.4066,13.9019],[-85.3734,10.4028,7.1458],[-85.3768,10.4043,6.9357],[-85.3751,10.3996,10.2341],[-85.3777,10.3967,7.4348],[-85.3795,10.3972,7.7009],[-85.3786,10.3955,7.4348],[-85.3814,10.3932,11.3582],[-85.3843,10.3927,10.5758],[-85.3822,10.3913,7.8868],[-85.387,10.3934,10.3579],[-85.3903,10.392,8.8801],[-85.3918,10.3936,10.1584],[-85.3904,10.3954,11.0208],[-85.3915,10.3968,4.5715],[-85.3929,10.3938,9.0175],[-85.392,10.391,6.7696],[-85.3946,10.3946,5.5436],[-85.3959,10.3931,5.6981],[-85.3936,10.3876,8.992],[-85.3968,10.3871,8.7437],[-85.4001,10.3887,12.2439],[-85.3982,10.3862,7.9728],[-85.4026,10.3803,9.9313],[-85.3987,10.3809,7.716],[-85.398,10.3791,10.1001],[-85.404,10.3775,7.433],[-85.4031,10.3745,5.3644],[-85.406,10.3731,4.5516],[-85.4053,10.3705,7.2892],[-85.4092,10.3692,8.5467],[-85.4109,10.363,5.6852],[-85.4062,10.3587,6.1412],[-85.4079,10.3465,3.4917],[-85.4027,10.3398,5.337],[-85.3982,10.3376,9.8172],[-85.3866,10.3374,9.6044],[-85.3744,10.3443,5.2113],[-85.3676,10.3432,4.1797],[-85.3667,10.3405,10.7386],[-85.3712,10.3365,5.3344],[-85.3687,10.3276,6.6112],[-85.372,10.3265,4.4921],[-85.3771,10.3318,6.0862],[-85.379,10.3302,2.1795],[-85.3716,10.3253,2.5484],[-85.3584,10.3249,3.687],[-85.3568,10.3224,1.5],[-85.3569,10.3163,1.5],[-85.3462,10.3237,1.5],[-85.3399,10.3254,1.5],[-85.3164,10.3246,2.463],[-85.3103,10.3224,5.6387],[-85.3064,10.3186,2.389],[-85.3037,10.3071,5.3523],[-85.2925,10.3029,2.0942],[-85.2845,10.2978,1.3119],[-85.2803,10.2931,0.5],[-85.2787,10.2824,1.6937],[-85.2847,10.2731,1.5139],[-85.2844,10.2696,0.5],[-85.2678,10.2652,0.375],[-85.2475,10.2519,0.0]]]]}}