{"type": "Feature","bbox": [-84.2778,10.0496,-84.2179,10.1147],"geometry": {"type": "MultiPolygon","coordinates": [[[[-84.2206,10.1018,1288.6003],[-84.2189,10.1025,1303.1274],[-84.2179,10.109,1355.3052],[-84.2204,10.1114,1399.7832],[-84.2205,10.1147,1421.6586],[-84.2268,10.11,1425.621],[-84.2305,10.1108,1420.3188],[-84.2314,10.113,1403.0876],[-84.2358,10.0969,1228.1495],[-84.2392,10.0933,1195.8971],[-84.2405,10.0892,1199.5024],[-84.2433,10.0876,1187.4492],[-84.2435,10.0831,1158.2153],[-84.2481,10.0823,1168.1344],[-84.2566,10.0734,1070.2786],[-84.2608,10.073,1071.4199],[-84.2618,10.0671,1053.5679],[-84.266,10.0662,1053.7975],[-84.2719,10.0615,1003.5831],[-84.2738,10.062,1003.5831],[-84.2737,10.0639,984.8159],[-84.2778,10.0564,1003.3291],[-84.2778,10.0531,961.877],[-84.2727,10.0543,970.9902],[-84.2731,10.0516,1017.6588],[-84.2686,10.0514,1034.0046],[-84.2662,10.0496,993.6579],[-84.2643,10.0518,992.8413],[-84.2626,10.0503,996.495],[-84.2605,10.0529,1066.6119],[-84.2564,10.0523,1117.9308],[-84.2532,10.0545,1107.5056],[-84.2511,10.0586,1057.3623],[-84.249,10.0558,991.0859],[-84.25,10.0529,968.1],[-84.2468,10.0547,1008.9818],[-84.2469,10.062,1029.8058],[-84.2389,10.0714,1080.8021],[-84.2339,10.0729,1141.3661],[-84.2351,10.0748,1120.075],[-84.2338,10.0755,1145.4332],[-84.234,10.0785,1141.5831],[-84.2323,10.0782,1176.4629],[-84.2316,10.0836,1154.2615],[-84.2273,10.0861,1170.8668],[-84.2261,10.0911,1201.1774],[-84.2218,10.0957,1273.2159],[-84.2226,10.097,1252.752],[-84.2201,10.0982,1298.7609],[-84.2206,10.1018,1288.6003]]]]}
,"properties": {"GID_3": "CRI.1.10.4_1","GID_0": "CRI","country": "CostaRica","GID_1": "CRI.1_1","province": "Alajuela","NL_NAME_1": "NA","GID_2": "CRI.1.10_1","county": "Poás","NL_NAME_2": "NA","city": "SanPedro","VARNAME_3": "NA","NL_NAME_3": "NA","TYPE_3": "Distrito","ENGTYPE_3": "District","CC_3": "1","HASC_3": "NA","name": "San_Pedro.city","area_km2": 13.6523,"hist_schema_id": "Elevation0-9000","hist_area_km2": {"950": 0.02088,"975": 0.37578,"1000": 0.73067,"1025": 0.66805,"1050": 1.02293,"1075": 1.71183,"1100": 1.60743,"1125": 1.3569,"1150": 0.77237,"1175": 0.75149,"1200": 0.85585,"1225": 0.58448,"1250": 0.50098,"1275": 0.3966,"1300": 0.62621,"1325": 0.3966,"1350": 0.33397,"1375": 0.29222,"1400": 0.35484,"1425": 0.27135,"1450": 0.02087}}}