{"type": "Feature","bbox": [-83.4677,9.7977,-83.1509,10.2238],"geometry": {"type": "MultiPolygon","coordinates": [[[[-83.3388,9.8333,447.6321],[-83.336,9.8326,450.6669],[-83.3311,9.8274,569.9413],[-83.3319,9.8208,547.1428],[-83.3282,9.8198,510.1329],[-83.3266,9.8166,518.5951],[-83.3224,9.8146,527.4935],[-83.3223,9.812,578.4715],[-83.3193,9.8108,545.8149],[-83.3185,9.8048,580.3212],[-83.3147,9.8019,603.6817],[-83.3108,9.8019,619.6677],[-83.3029,9.7977,664.4285],[-83.3021,9.7997,709.0911],[-83.2998,9.8005,746.4941],[-83.2954,9.7992,776.7926],[-83.2935,9.8019,804.7595],[-83.2902,9.8002,841.059],[-83.2843,9.8027,887.3834],[-83.2769,9.8017,962.649],[-83.27,9.8096,1128.9397],[-83.2698,9.8129,1216.2566],[-83.2642,9.8161,1419.4209],[-83.2617,9.8203,1486.1373],[-83.2574,9.8212,1646.3733],[-83.2509,9.8264,1817.5406],[-83.2472,9.8252,1733.3701],[-83.243,9.8272,1695.6034],[-83.2428,9.8336,1812.2281],[-83.2358,9.8409,1605.7092],[-83.2353,9.8432,1643.0367],[-83.2433,9.8543,1276.1511],[-83.2419,9.8574,1127.9594],[-83.244,9.8621,1022.108],[-83.24,9.8702,1052.4169],[-83.241,9.8782,762.1828],[-83.2339,9.8803,717.066],[-83.2298,9.885,721.4813],[-83.2306,9.8874,707.6414],[-83.2279,9.8894,679.7684],[-83.2121,9.8859,521.0506],[-83.2045,9.8906,453.0402],[-83.2007,9.8947,444.4309],[-83.1998,9.8989,443.982],[-83.2013,9.9054,463.9691],[-83.2061,9.9082,500.4781],[-83.2086,9.9148,420.93],[-83.2078,9.9169,378.1137],[-83.2049,9.918,371.0587],[-83.2039,9.9211,349.7904],[-83.2006,9.9221,360.3969],[-83.1957,9.9322,387.0579],[-83.2056,9.9433,325.1607],[-83.206,9.9479,288.5883],[-83.2034,9.9515,225.0078],[-83.2041,9.9643,114.512],[-83.2009,9.9708,89.2919],[-83.2017,9.9739,83.1102],[-83.1999,9.9742,83.1102],[-83.1963,9.9785,67.6395],[-83.191,9.9779,54.3617],[-83.1882,9.9814,62.2732],[-83.1903,9.9849,54.1404],[-83.1961,9.9851,72.2273],[-83.1968,9.9894,48.3234],[-83.2014,9.991,26.4817],[-83.2072,10.0009,20.5237],[-83.2093,10.0024,29.0143],[-83.2103,10.0012,26.0683],[-83.2115,10.0092,19.7882],[-83.2098,10.0147,16.4027],[-83.2112,10.0157,13.9611],[-83.2081,10.0194,22.6745],[-83.2039,10.0188,12.8457],[-83.1996,10.0212,16.9711],[-83.197,10.0193,13.2297],[-83.1952,10.0201,14.4262],[-83.1941,10.0174,12.096],[-83.1918,10.0217,20.1974],[-83.1858,10.0258,11.3111],[-83.1802,10.0258,8.293],[-83.1739,10.0299,6.0578],[-83.1724,10.0332,3.7691],[-83.1679,10.0356,3.7882],[-83.1645,10.0354,10.8423],[-83.1633,10.0387,10.2755],[-83.1537,10.0398,3.1404],[-83.1509,10.0426,7.2983],[-83.1515,10.0482,10.2377],[-83.1599,10.0623,4.6024],[-83.1529,10.0664,1.3146],[-83.1576,10.0732,1.2853],[-83.1853,10.1103,8.0372],[-83.2179,10.1473,0.0],[-83.2464,10.1851,2.2057],[-83.2785,10.2238,0.9279],[-83.2809,10.2202,0.0],[-83.2711,10.207,0.0],[-83.2698,10.1947,3.6952],[-83.2769,10.1902,9.4945],[-83.2792,10.1933,13.5607],[-83.2847,10.1917,11.1479],[-83.2877,10.1948,13.4848],[-83.296,10.1921,6.5845],[-83.2983,10.1948,5.7922],[-83.3002,10.1945,9.2667],[-83.2994,10.1963,5.2816],[-83.3012,10.1964,7.5487],[-83.3032,10.1957,3.1285],[-83.3049,10.1915,6.5155],[-83.3086,10.192,6.8946],[-83.31,10.1899,11.4796],[-83.3085,10.1868,14.5905],[-83.3108,10.187,16.4956],[-83.3105,10.1851,16.4515],[-83.3156,10.1873,15.8567],[-83.3212,10.1857,6.2252],[-83.3216,10.1837,10.367],[-83.3232,10.1847,13.9742],[-83.3295,10.1815,8.1552],[-83.33,10.1794,11.2101],[-83.3337,10.1791,4.1542],[-83.3417,10.1676,12.9812],[-83.3442,10.1677,9.5621],[-83.3455,10.1613,10.5178],[-83.3484,10.16,6.0842],[-83.3547,10.1495,15.2708],[-83.3623,10.1417,12.3447],[-83.3638,10.1368,14.7496],[-83.3624,10.1306,13.4615],[-83.3662,10.1276,12.5917],[-83.3633,10.1233,13.6608],[-83.3705,10.1105,16.1579],[-83.3753,10.1075,18.2892],[-83.3812,10.0997,26.5955],[-83.3838,10.1015,23.0699],[-83.3927,10.0973,37.2462],[-83.3981,10.0914,51.539],[-83.4021,10.0834,77.2482],[-83.4065,10.0787,95.9049],[-83.4117,10.0771,117.6124],[-83.4174,10.0703,156.4319],[-83.4121,10.0616,178.1139],[-83.42,10.044,246.059],[-83.424,10.0411,251.22559999999999],[-83.4332,10.0412,280.2429],[-83.4445,10.0345,353.8456],[-83.4462,10.0284,471.8598],[-83.4561,10.0267,559.7211],[-83.4577,10.0235,577.5669],[-83.463,10.0203,541.7971],[-83.4673,10.0126,666.4662],[-83.4677,10.0076,637.4503],[-83.4617,9.9935,598.9271],[-83.4581,9.9931,624.899],[-83.4592,9.9889,580.1464],[-83.4553,9.9845,541.3498],[-83.45,9.9819,555.895],[-83.3119,9.9816,52.7434],[-83.3165,9.979,53.203],[-83.3278,9.9651,71.2055],[-83.3331,9.9647,75.117],[-83.3399,9.9602,100.7841],[-83.341,9.9541,88.1486],[-83.3377,9.9439,126.0694],[-83.3383,9.9421,101.8649],[-83.3453,9.9401,112.6296],[-83.3482,9.9361,119.468],[-83.353,9.9383,132.4196],[-83.3513,9.9318,167.7139],[-83.3487,9.9294,182.4863],[-83.3507,9.9264,204.3656],[-83.3498,9.9216,156.5477],[-83.3467,9.9201,166.5569],[-83.3449,9.9168,202.0484],[-83.3487,9.9148,163.8116],[-83.3489,9.9079,247.1682],[-83.3476,9.9056,275.9532],[-83.3494,9.9035,219.5695],[-83.3439,9.8999,186.2071],[-83.3478,9.898,218.9715],[-83.3438,9.8936,250.6719],[-83.3403,9.894,217.9289],[-83.3424,9.8890999999999991,252.6867],[-83.3348,9.8851,284.975],[-83.3374,9.8845,269.6485],[-83.334,9.8784,315.9147],[-83.3366,9.8751,328.1845],[-83.3347,9.8719,349.0669],[-83.3393,9.859,384.008],[-83.3358,9.8475,455.9419],[-83.3321,9.8435,467.1136],[-83.3348,9.8372,453.1148],[-83.3388,9.8333,447.6321]]]]}
,"properties": {"GID_2": "CRI.5.3_1","GID_0": "CRI","country": "CostaRica","GID_1": "CRI.5_1","province": "Limón","NL_NAME_1": "NA","county": "Matina","VARNAME_2": "NA","NL_NAME_2": "NA","TYPE_2": "Cantón","ENGTYPE_2": "Canton","CC_2": "5","HASC_2": "CR.LI.MA","name": "Matina.county","area_km2": 774.6327,"hist_schema_id": "Elevation0-9000","hist_area_km2": {"0": 185.1262,"25": 198.1676,"50": 24.8887,"75": 13.1961,"100": 14.0734,"125": 16.1828,"150": 18.5844,"175": 21.5496,"200": 21.3408,"225": 17.9372,"250": 17.4152,"275": 15.5776,"300": 15.8282,"325": 12.4664,"350": 12.237,"375": 10.2741,"400": 8.2695,"425": 7.7058,"450": 7.7683,"475": 5.6803,"500": 5.3882,"525": 4.6991,"550": 5.0542,"575": 4.929,"600": 5.0127,"625": 4.971,"650": 4.2818,"675": 4.1148,"700": 4.1566,"725": 3.53,"750": 3.6972,"775": 3.0497,"800": 3.0079,"825": 3.1332,"850": 2.987,"875": 2.7991,"900": 3.2169,"925": 2.7782,"950": 2.7573,"975": 3.0289,"1000": 2.6112,"1025": 2.5694,"1050": 2.4649,"1075": 2.4023,"1100": 2.3396,"1125": 1.9218,"1150": 2.1307,"1175": 1.7547,"1200": 1.8592,"1225": 1.7756,"1250": 1.6085,"1275": 1.6921,"1300": 1.5668,"1325": 1.6503,"1350": 1.3787,"1375": 1.5667,"1400": 1.3161,"1425": 1.3788,"1450": 1.6085,"1475": 1.2116,"1500": 1.1281,"1525": 1.1699,"1550": 1.4832,"1575": 1.0445,"1600": 1.0654,"1625": 1.0654,"1650": 1.0027,"1675": 0.9819,"1700": 0.961,"1725": 1.0654,"1750": 1.0654,"1775": 1.0654,"1800": 0.5849,"1825": 0.8565,"1850": 0.7103,"1875": 0.6685,"1900": 0.4596,"1925": 0.3343,"1950": 0.2089,"1975": 0.0418}}}