{"type": "Feature","bbox": [-85.6377,9.8601,-85.463,9.9638],"geometry": {"type": "MultiPolygon","coordinates": [[[[-85.5148,9.8604,0.0],[-85.5142,9.8608,0.0],[-85.5134,9.8626,0.0],[-85.5154,9.8623,0.0],[-85.5148,9.8604,0.0]]],
[[[-85.463,9.9449,558.4613],[-85.4762,9.9507,320.656],[-85.4868,9.9455,225.3505],[-85.489,9.9452,209.8185],[-85.4904,9.9468,214.8323],[-85.4927,9.9449,192.3105],[-85.4946,9.9457,214.8372],[-85.4997,9.9395,164.2787],[-85.5047,9.9369,161.875],[-85.51,9.94,223.8687],[-85.519,9.95,105.7189],[-85.5276,9.9414,102.166],[-85.5275,9.9392,100.8486],[-85.5256,9.9383,86.8234],[-85.5279,9.9353,106.7797],[-85.5627,9.9343,70.6883],[-85.5583,9.9427,143.4883],[-85.5611,9.9495,149.7419],[-85.5636,9.9493,149.0062],[-85.5656,9.9533,246.3203],[-85.57,9.957,292.0977],[-85.5705,9.9638,462.4956],[-85.574,9.9585,397.1581],[-85.5802,9.9562,389.9394],[-85.5813,9.954,393.4994],[-85.588,9.9543,478.9205],[-85.5907,9.9521,416.5915],[-85.5917,9.9474,263.1303],[-85.5891,9.9398,179.5475],[-85.5907,9.9379,199.392],[-85.5899,9.9338,148.8377],[-85.5944,9.9279,80.0307],[-85.5926,9.9241,103.5789],[-85.5951,9.9221,73.0644],[-85.5942,9.9195,47.5644],[-85.5962,9.9168,31.0021],[-85.5971,9.911,28.6712],[-85.6073,9.9129,26.443],[-85.6124,9.9117,19.317],[-85.615,9.9132,22.8753],[-85.6183,9.9123,17.5445],[-85.627,9.9054,14.3124],[-85.6377,9.9068,0.0],[-85.6294,9.9007,7.4092],[-85.628,9.8964,0.0],[-85.6294,9.894,0.95009999999999994],[-85.626,9.8924,24.3408],[-85.6163,9.8928,15.5099],[-85.6086,9.8904,10.1317],[-85.6059,9.8872,20.1982],[-85.5996,9.8906,15.4075],[-85.5932,9.8905,16.0185],[-85.5921,9.8885,63.314],[-85.5929,9.8859,0.0],[-85.5896,9.8853,11.0809],[-85.5889,9.8834,0.0],[-85.5749,9.8814,9.351],[-85.5691,9.8766,0.0],[-85.5653,9.8801,0.0],[-85.5595,9.8803,0.0],[-85.5521,9.8782,0.0],[-85.5479,9.8744,32.3931],[-85.5354,9.8738,48.4389],[-85.5285,9.8793,0.0],[-85.5198,9.8801,0.0],[-85.5082,9.8707,3.8092],[-85.5074,9.8675,0.0],[-85.5102,9.864,19.8411],[-85.5072,9.8601,0.0],[-85.5028,9.8639,39.2381],[-85.4987,9.8624,0.0],[-85.5003,9.8651,30.4616],[-85.4996,9.8673,5.6548],[-85.4936,9.8714,0.0],[-85.4961,9.8723,21.596],[-85.4956,9.8767,25.9619],[-85.4876,9.881,90.3931],[-85.4866,9.8883,182.3411],[-85.4807,9.8885,238.1857],[-85.4749,9.8856,290.616],[-85.4742,9.8888,287.0627],[-85.4694,9.892,314.6783],[-85.4679,9.8977,329.8749],[-85.4647,9.8995,377.1774],[-85.4642,9.9041,415.8877],[-85.4674,9.9098,421.5794],[-85.4655,9.9131,482.7404],[-85.4675,9.9168,445.4426],[-85.4718,9.9189,571.3971],[-85.4737,9.9247,591.1315],[-85.4675,9.9318,616.4572],[-85.4669,9.9436,497.215],[-85.463,9.9449,558.4613]]]]}
,"properties": {"GID_3": "CRI.3.9.6_1","GID_0": "CRI","country": "CostaRica","GID_1": "CRI.3_1","province": "Guanacaste","NL_NAME_1": "NA","GID_2": "CRI.3.9_1","county": "Nicoya","NL_NAME_2": "NA","city": "Sámara","VARNAME_3": "NA","NL_NAME_3": "NA","TYPE_3": "Distrito","ENGTYPE_3": "District","CC_3": "5","HASC_3": "NA","name": "Sámara.city","area_km2": 109.46247,"hist_schema_id": "Elevation0-9000","hist_area_km2": {"0": 6.80931,"25": 19.17382,"50": 17.0014,"75": 11.21578,"100": 9.7328,"125": 6.51629,"150": 4.49034,"175": 4.03086,"200": 3.96816,"225": 3.5713,"250": 4.03076,"275": 2.88209,"300": 2.61062,"325": 2.54797,"350": 1.90053,"375": 1.83785,"400": 1.75432,"425": 1.48282,"450": 1.16955,"475": 0.71007,"500": 0.48035,"525": 0.43858,"550": 0.22973,"575": 0.31327,"600": 0.18796,"625": 0.25061,"650": 0.10442,"675": 0.02088}}}