{"type": "Feature","bbox": [-84.0976,9.9486,-84.0802,9.9661],"geometry": {"type": "MultiPolygon","coordinates": [[[[-84.0969,9.9632,1082.9211],[-84.0968,9.961,1104.4492],[-84.0941,9.9594,1109.8304],[-84.0956,9.9553,1106.342],[-84.0976,9.9544,1095.6089],[-84.0971,9.952,1106.8776],[-84.0863,9.9486,1130.209],[-84.0802,9.9492,1131.292],[-84.0811,9.9572,1147.3336],[-84.0883,9.9585,1128.1342],[-84.0907,9.9623,1120.7473],[-84.0901,9.9661,1090.3325],[-84.0934,9.9631,1082.4821],[-84.0969,9.9632,1082.9211]]]]}
,"properties": {"GID_3": "CRI.7.18.3_1","GID_0": "CRI","country": "CostaRica","GID_1": "CRI.7_1","province": "SanJosé","NL_NAME_1": "NA","GID_2": "CRI.7.18_1","county": "Tibás","NL_NAME_2": "NA","city": "Colima","VARNAME_3": "NA","NL_NAME_3": "NA","TYPE_3": "Distrito","ENGTYPE_3": "District","CC_3": "5","HASC_3": "NA","name": "Colima.city","area_km2": 2.004766,"hist_schema_id": "Elevation0-9000","hist_area_km2": {"1075": 0.062647,"1100": 0.29236,"1125": 1.023266,"1150": 0.626492}}}