{"type": "Feature","bbox": [-84.2561,10.0386,-84.1613,10.1966],"geometry": {"type": "MultiPolygon","coordinates": [[[[-84.1614,10.1582,1912.1881],[-84.1613,10.1966,1583.7136],[-84.1622,10.1937,1569.9691],[-84.1635,10.1932,1599.9852],[-84.1643,10.1954,1576.8333],[-84.1661,10.192,1629.1451],[-84.1738,10.188,1717.1522],[-84.1753,10.184,1765.3909],[-84.1864,10.1801,1951.3259],[-84.1914,10.1797,2026.7864],[-84.205,10.1844,2275.8074],[-84.2198,10.1812,2531.4299],[-84.2242,10.1848,2656.4053],[-84.223,10.1811,2593.5601],[-84.2197,10.1794,2526.1562],[-84.2135,10.1706,2354.7759],[-84.2081,10.167,2176.2656],[-84.1983,10.1559,1902.8113],[-84.1957,10.1423,1791.0084],[-84.1958,10.1389,1762.4001],[-84.1978,10.1366,1716.7703],[-84.1971,10.1327,1677.6569],[-84.204,10.1183,1504.224],[-84.2082,10.1146,1474.1118],[-84.2087,10.1086,1422.6382],[-84.2125,10.1076,1394.4899],[-84.2184,10.1014,1287.9321],[-84.2209,10.1015,1288.6003],[-84.2201,10.0982,1298.7609],[-84.2226,10.097,1252.752],[-84.2218,10.0957,1273.2159],[-84.2261,10.0911,1201.1774],[-84.2273,10.0861,1170.8668],[-84.2316,10.0836,1154.2615],[-84.2323,10.0782,1176.4629],[-84.234,10.0785,1141.5831],[-84.2338,10.0755,1145.4332],[-84.2351,10.0748,1120.075],[-84.2339,10.0729,1141.3661],[-84.2389,10.0714,1080.8021],[-84.2469,10.062,1029.8058],[-84.2477,10.0562,991.0859],[-84.2466,10.0549,1008.9818],[-84.2526,10.0504,940.3148],[-84.2541,10.0471,939.2992],[-84.2524,10.0445,908.2777],[-84.2558,10.0431,891.0012],[-84.2561,10.0395,884.8428],[-84.2541,10.0386,907.9814],[-84.2528,10.0416,919.895],[-84.2479,10.0428,936.3643],[-84.2418,10.0489,963.3842],[-84.2373,10.0501,990.2767],[-84.2336,10.0538,1039.558],[-84.2287,10.049,993.6888],[-84.2271,10.0551,1025.6893],[-84.2245,10.0568,1020.5253],[-84.2237,10.0597,1046.8635],[-84.2203,10.0624,1114.1084],[-84.2188,10.0616,1081.968],[-84.2119,10.0671,1214.7877],[-84.2071,10.0736,1257.6306],[-84.2085,10.0777,1275.0472],[-84.206,10.0802,1257.4618],[-84.2069,10.0837,1290.0212],[-84.2028,10.0853,1322.8608],[-84.1962,10.0929,1368.8329],[-84.196,10.1014,1455.3812],[-84.1932,10.1048,1475.1133],[-84.1925,10.1095,1501.8892],[-84.1922,10.1174,1578.1938],[-84.194,10.1201,1603.1736],[-84.1916,10.1271,1670.2344],[-84.1922,10.1306,1679.3035],[-84.1852,10.1408,1750.4205],[-84.1851,10.1471,1763.6689],[-84.174,10.1512,1817.3048],[-84.173,10.1536,1855.2871],[-84.1707,10.1536,1874.391],[-84.1698,10.1564,1867.8761],[-84.1633,10.1589,1914.2091],[-84.1614,10.1582,1912.1881]]]]}
,"properties": {"GID_3": "CRI.1.1.7_1","GID_0": "CRI","country": "CostaRica","GID_1": "CRI.1_1","province": "Alajuela","NL_NAME_1": "NA","GID_2": "CRI.1.1_1","county": "Alajuela","NL_NAME_2": "NA","city": "Sabanilla","VARNAME_3": "NA","NL_NAME_3": "NA","TYPE_3": "Distrito","ENGTYPE_3": "District","CC_3": "7","HASC_3": "NA","name": "Sabanilla.city","area_km2": 43.70605,"hist_schema_id": "Elevation0-9000","hist_area_km2": {"900": 0.04175,"925": 0.33404,"950": 0.39666,"975": 0.35491,"1000": 0.45929,"1025": 0.52191,"1050": 0.58454,"1075": 0.70979,"1100": 0.45927,"1125": 0.62627,"1150": 1.00204,"1175": 1.10641,"1200": 1.2734,"1225": 0.98115,"1250": 1.69089,"1275": 1.75349,"1300": 0.9811,"1325": 0.89759,"1350": 0.77234,"1375": 1.16894,"1400": 0.96019,"1425": 1.06455,"1450": 0.66795,"1475": 0.60532,"1500": 0.43833,"1525": 0.48008,"1550": 0.56355,"1575": 0.50091,"1600": 0.35479,"1625": 0.37568,"1650": 0.48001,"1675": 0.52176,"1700": 0.43827,"1725": 0.70956,"1750": 0.6887,"1775": 1.2313,"1800": 1.83652,"1825": 1.69044,"1850": 1.96174,"1875": 1.96174,"1900": 1.9826,"1925": 1.33564,"1950": 0.75129,"1975": 0.8139,"2000": 0.41738,"2025": 0.41738,"2050": 0.47999,"2075": 0.3339,"2100": 0.31303,"2125": 0.16695,"2150": 0.18782,"2175": 0.25043,"2200": 0.20869,"2225": 0.16695,"2250": 0.18782,"2275": 0.18782,"2300": 0.20869,"2325": 0.25042,"2350": 0.25042,"2375": 0.29216,"2400": 0.20869,"2425": 0.10434,"2450": 0.08347,"2475": 0.18782,"2500": 0.12521,"2525": 0.06261,"2550": 0.02087,"2575": 0.02087,"2625": 0.02087,"2650": 0.02087}}}