{"type":"Feature","properties":{"GID_3":"CRI.5.5.6_1","GID_0":"CRI","country":"CostaRica","GID_1":"CRI.5_1","province":"Limón","NL_NAME_1":"NA","GID_2":"CRI.5.5_1","county":"Siquirres","NL_NAME_2":"NA","city":"Reventazón","VARNAME_3":"NA","NL_NAME_3":"NA","TYPE_3":"Distrito","ENGTYPE_3":"District","CC_3":"1","HASC_3":"NA","name":"Reventazón.city"},
"geometry":{"type": "MultiPolygon","coordinates": [[[[-83.2785,10.2238,0.9279],[-83.2945,10.2403,4.4788],[-83.3472,10.3054,1.0763],[-83.3548,10.3124,2.9077],[-83.3527,10.3027,0.8756],[-83.3446,10.295,0.3913],[-83.3438,10.2895,2.2049],[-83.3531,10.2944,2.1419],[-83.3543,10.2933,2.1166],[-83.3503,10.2897,2.8714],[-83.3512,10.2884,5.8371],[-83.356,10.2897,2.8745],[-83.3591,10.288,3.2241],[-83.3647,10.2881,6.4867],[-83.366,10.2898,14.3143],[-83.362799999999993,10.2942,3.4063],[-83.3659,10.2955,3.1507],[-83.3691,10.2921,4.3396],[-83.37,10.2934,4.3396],[-83.3682,10.2977,2.1891],[-83.3701,10.3,2.1462],[-83.3748,10.2989,3.0721],[-83.3788,10.294,3.6975],[-83.3777,10.2996,3.2467],[-83.3799,10.3034,6.151],[-83.3814,10.3027,5.6399],[-83.3835,10.2962,3.044],[-83.3848,10.2961,3.044],[-83.3855,10.3017,5.0867],[-83.388,10.3031,6.7414],[-83.3947,10.2947,7.2869],[-83.3942,10.3008,4.8671],[-83.3985,10.3032,5.7253],[-83.4011,10.3,9.6254],[-83.3991,10.2943,8.2796],[-83.4047,10.2959,7.6276],[-83.4054,10.2941,11.1194],[-83.4027,10.2912,8.7853],[-83.4035,10.2899,9.3162],[-83.4069,10.2878,6.9065],[-83.408,10.2902,10.3158],[-83.4102,10.2899,9.327],[-83.4054,10.2843,6.8844],[-83.4097,10.2855,15.4949],[-83.412,10.2821,9.1804],[-83.415,10.2836,11.5422],[-83.4221,10.2775,7.1566],[-83.4264,10.2759,8.9073],[-83.4278,10.2729,8.4088],[-83.4299,10.2766,11.168],[-83.432,10.2771,7.3376],[-83.4361,10.2706,12.3155],[-83.4405,10.2677,9.2888],[-83.4394,10.264099999999999,8.5862],[-83.4442,10.2602,8.894],[-83.4448,10.2556,12.121],[-83.4503,10.2548,9.3563],[-83.4497,10.2515,12.1987],[-83.4529,10.2455,10.8874],[-83.4565,10.2449,13.025],[-83.468,10.2496,14.3999],[-83.4719,10.2488,23.9993],[-83.4751,10.2434,12.4345],[-83.4733,10.2408,16.1852],[-83.4741,10.2382,14.7697],[-83.4779,10.2385,17.776],[-83.4796,10.2362,14.0491],[-83.4777,10.2334,13.7425],[-83.4723,10.2325,13.9505],[-83.4751,10.2302,16.0637],[-83.4801,10.2298,14.6264],[-83.4757,10.2249,17.0024],[-83.4756,10.2226,13.8489],[-83.4797,10.2191,15.3228],[-83.4826,10.2139,17.4661],[-83.4875,10.2135,20.4325],[-83.4861,10.2089,15.0353],[-83.4945,10.2023,17.9493],[-83.4973,10.1928,20.3235],[-83.4884,10.1801,24.1022],[-83.489,10.1752,21.2802],[-83.4848,10.1715,32.6614],[-83.4776,10.1799,22.1994],[-83.4517,10.1829,16.2153],[-83.4523,10.1865,16.6335],[-83.4478,10.1938,14.0793],[-83.4331,10.1847,22.1908],[-83.4114,10.1826,12.4138],[-83.4024,10.1907,11.7526],[-83.3916,10.1889,10.921],[-83.3777,10.1822,9.8252],[-83.372,10.1867,12.0687],[-83.3699,10.193,9.2715],[-83.3666,10.1967,10.8559],[-83.3659,10.203,9.434],[-83.3637,10.2065,9.4899],[-83.358,10.2049,9.9003],[-83.3443,10.2139,7.6456],[-83.3405,10.2146,7.4645],[-83.3381,10.2133,6.5519],[-83.3359,10.2067,6.8813],[-83.3374,10.2047,7.1883],[-83.3425,10.2045,6.6428],[-83.3355,10.2008,5.7966],[-83.3306,10.205,7.9841],[-83.3247,10.2031,5.384],[-83.322,10.2112,4.9929],[-83.3193,10.2146,5.744],[-83.3147,10.2152,7.3171],[-83.3091,10.2115,5.502],[-83.3023,10.2135,4.2909],[-83.3004,10.2188,2.5696],[-83.3073,10.2291,4.2194],[-83.3049,10.232,4.3555],[-83.3023,10.2321,6.0854],[-83.2951,10.2273,12.8563],[-83.2937,10.2238,12.7874],[-83.2896,10.2205,10.8584],[-83.2809,10.2202,0.0],[-83.2785,10.2238,0.9279]]]]}}