{"type":"Feature","properties":{"GID_3":"CRI.1.16.2_1","GID_0":"CRI","country":"CostaRica","GID_1":"CRI.1_1","province":"Alajuela","NL_NAME_1":"NA","GID_2":"CRI.1.16_1","county":"Zarcero","NL_NAME_2":"NA","city":"Guadalupe","VARNAME_3":"NA","NL_NAME_3":"NA","TYPE_3":"Distrito","ENGTYPE_3":"District","CC_3":"4","HASC_3":"NA","name":"Guadalupe.city"},
"geometry":{"type": "MultiPolygon","coordinates": [[[[-84.4014,10.1714,1520.9258],[-84.4037,10.1718,1520.5129],[-84.4036,10.1731,1549.269],[-84.3992,10.1765,1656.5665],[-84.4011,10.1822,1700.4546],[-84.4057,10.1882,1571.8542],[-84.4064,10.196,1697.0596],[-84.4101,10.1996,1599.9117],[-84.4203,10.1985,1510.2572],[-84.426,10.2025,1479.2384],[-84.4307,10.201599999999999,1412.0334],[-84.435,10.2035,1371.5894],[-84.448,10.1973,1192.9631],[-84.46,10.2029,1086.4841],[-84.4631,10.2021,1067.1053],[-84.4642,10.2053,1040.2236],[-84.469,10.2058,961.5605],[-84.4767,10.212,875.2084],[-84.4768,10.2071,876.6558],[-84.4732,10.2053,911.4093],[-84.4746,10.2038,931.9286],[-84.4731,10.2039,911.4093],[-84.4717,10.2005,987.2045],[-84.4729,10.1933,986.3183],[-84.4686,10.192,1002.1396],[-84.4686,10.1879,1023.3721],[-84.4663,10.1882,1043.8234],[-84.4651,10.1852,1055.9534],[-84.4579,10.1818,1116.9443],[-84.4521,10.1748,1169.3037],[-84.444,10.1726,1211.8995],[-84.4426,10.1695,1219.3213],[-84.4369,10.1671,1242.1256],[-84.4272,10.1714,1335.4857],[-84.424,10.169,1360.0049],[-84.4177,10.1719,1402.2437],[-84.4153,10.1691,1429.2692],[-84.4115,10.1684,1453.2322],[-84.4098,10.1699,1451.6257],[-84.4024,10.1696,1493.2568],[-84.4014,10.1714,1520.9258]]]]}}