{"type": "Feature","bbox": [-84.689,9.8615,-84.5708,9.9352],"geometry": {"type": "MultiPolygon","coordinates": [[[[-84.5708,9.9086,177.057],[-84.5725,9.9091,178.3492],[-84.5736,9.9127,172.935],[-84.5786,9.9121,163.6198],[-84.5725,9.9213,192.9225],[-84.58,9.9244,186.9427],[-84.5813,9.9273,177.6772],[-84.5798,9.9304,175.0345],[-84.5822,9.9341,123.7652],[-84.592,9.9334,75.0975],[-84.5929,9.9312,100.7437],[-84.5966,9.9352,61.3338],[-84.597,9.9306,67.055],[-84.6021,9.9295,82.1821],[-84.6024,9.9261,90.687],[-84.605,9.9272,89.6402],[-84.611,9.9247,86.1288],[-84.6128,9.9266,64.7925],[-84.6159,9.9257,65.4788],[-84.6212,9.927,57.5684],[-84.6245,9.9255,81.7834],[-84.6231,9.923,42.2562],[-84.624,9.9214,38.7092],[-84.634,9.9207,83.0914],[-84.6385,9.9182,50.6895],[-84.6403,9.9127,15.4902],[-84.6447,9.9108,29.5289],[-84.6441,9.9072,17.9329],[-84.6459,9.9087,11.5533],[-84.6484,9.907,11.6338],[-84.6511,9.9075,12.2608],[-84.6536,9.9104,12.7858],[-84.6599,9.9093,10.7241],[-84.6595,9.9118,9.723],[-84.6634,9.9128,9.0415],[-84.6685,9.9172,8.6344],[-84.6713,9.9147,7.7335],[-84.6712,9.9118,19.7584],[-84.6741,9.911,7.3458],[-84.6752,9.9087,9.4253],[-84.6767,9.909,6.8891],[-84.6766,9.9075,9.4253],[-84.6796,9.907,6.236],[-84.6804,9.905,6.0527],[-84.6813,9.9065,5.7509],[-84.6801,9.9078,7.8972],[-84.6822,9.9091,7.7035],[-84.6875,9.9065,7.8745],[-84.6871,9.9045,5.2924],[-84.689,9.9027,5.0914],[-84.6883,9.9002,6.0638],[-84.6871,9.9011,5.5537],[-84.6862,9.8996,5.8048],[-84.6869,9.8967,8.1972],[-84.6845,9.8974,5.2762],[-84.6857,9.8948,11.1748],[-84.6838,9.894,7.6897],[-84.6888,9.8864,7.465],[-84.685,9.8877,6.8165],[-84.6844,9.8859,7.5],[-84.683,9.8878,8.5955],[-84.6823,9.8841,5.125],[-84.6789,9.8794,17.7995],[-84.6809,9.8776,24.2288],[-84.6788,9.877,29.3833],[-84.6809,9.8747,29.6057],[-84.678,9.8752,25.3791],[-84.6771,9.8785,32.1729],[-84.6745,9.8773,32.3031],[-84.6708,9.8788,14.1928],[-84.6696,9.8771,14.0321],[-84.6647,9.8772,12.3291],[-84.6646,9.8756,7.704],[-84.6611,9.875,13.9945],[-84.6595,9.8763,11.1425],[-84.6559,9.8728,13.1252],[-84.6473,9.8701,20.6383],[-84.6476,9.8652,22.2717],[-84.6466,9.8663,16.7217],[-84.6455,9.8649,22.0075],[-84.6429,9.8659,26.503],[-84.6407,9.8647,27.1264],[-84.638,9.8661,31.8264],[-84.6292,9.8622,36.1594],[-84.6165,9.8615,43.4574],[-84.6116,9.869,98.4304],[-84.6069,9.8719,92.1221],[-84.6053,9.8769,83.3449],[-84.5998,9.8775,87.3395],[-84.6009,9.8794,93.7986],[-84.5995,9.881,92.7362],[-84.6033,9.8817,103.7686],[-84.6028,9.8836,116.1259],[-84.596,9.8865,103.4177],[-84.595,9.8839,114.3553],[-84.589,9.884,115.2052],[-84.5896,9.8896,133.9111],[-84.5857,9.8929,138.7964],[-84.5784,9.8941,151.2451],[-84.5711,9.9031,179.0996],[-84.5708,9.9086,177.057]]]]}
,"properties": {"GID_3": "CRI.1.8.4_1","GID_0": "CRI","country": "CostaRica","GID_1": "CRI.1_1","province": "Alajuela","NL_NAME_1": "NA","GID_2": "CRI.1.8_1","county": "Orotina","NL_NAME_2": "NA","city": "LaCeiba","VARNAME_3": "NA","NL_NAME_3": "NA","TYPE_3": "Distrito","ENGTYPE_3": "District","CC_3": "5","HASC_3": "NA","name": "La_Ceiba.city","area_km2": 61.2188,"hist_schema_id": "Elevation0-9000","hist_area_km2": {"0": 5.82744,"25": 5.34711,"50": 5.66041,"75": 7.51935,"100": 11.55036,"125": 13.05396,"150": 6.24503,"175": 5.74364,"200": 0.27151}}}