{"type": "Feature","bbox": [-84.0715,9.913,-84.0465,9.9276],"geometry": {"type": "MultiPolygon","coordinates": [[[[-84.0465,9.9253,1200.5085],[-84.0514,9.9224,1181.5801],[-84.0515,9.9253,1178.5146],[-84.0556,9.9269,1174.9706],[-84.0659,9.9276,1157.9993],[-84.0715,9.92,1138.9038],[-84.0693,9.9158,1139.3318],[-84.0626,9.9153,1155.8662],[-84.0599,9.913,1162.808],[-84.0581,9.9143,1163.8124],[-84.0542,9.9131,1163.5253],[-84.0516,9.9158,1176.3413],[-84.0495,9.9157,1181.6356],[-84.0507,9.9188,1181.8638],[-84.0465,9.9253,1200.5085]]]]}
,"properties": {"GID_3": "CRI.7.15.11_1","GID_0": "CRI","country": "CostaRica","GID_1": "CRI.7_1","province": "SanJosé","NL_NAME_1": "NA","GID_2": "CRI.7.15_1","county": "SanJosé","NL_NAME_2": "NA","city": "Zapote","VARNAME_3": "NA","NL_NAME_3": "NA","TYPE_3": "Distrito","ENGTYPE_3": "District","CC_3": "5","HASC_3": "NA","name": "Zapote.city","area_km2": 2.923927,"hist_schema_id": "Elevation0-9000","hist_area_km2": {"1150": 1.169571,"1175": 1.712586,"1200": 0.04177}}}