{"type":"Feature","properties":{"GID_3":"CRI.1.11.12_1","GID_0":"CRI","country":"CostaRica","GID_1":"CRI.1_1","province":"Alajuela","NL_NAME_1":"NA","GID_2":"CRI.1.11_1","county":"SanCarlos","NL_NAME_2":"NA","city":"Venado","VARNAME_3":"NA","NL_NAME_3":"NA","TYPE_3":"Distrito","ENGTYPE_3":"District","CC_3":"10","HASC_3":"NA","name":"Venado.city"},
"geometry":{"type": "MultiPolygon","coordinates": [[[[-84.8632,10.5558,798.3001],[-84.8576,10.5539,814.5807],[-84.8518,10.5462,751.0465],[-84.8444,10.546,784.0927],[-84.846,10.5324,774.8773],[-84.8387,10.5299,801.6041],[-84.8369,10.524,787.4904],[-84.8307,10.523,812.0149],[-84.8217,10.526,859.6918],[-84.8206,10.5143,842.5183],[-84.8127,10.5111,832.0205],[-84.8019,10.5023,854.0092],[-84.7961,10.4999,855.5573],[-84.7923,10.4905,816.8711],[-84.7817,10.4963,830.4306],[-84.7789,10.4955,831.1491],[-84.7762,10.4973,813.7568],[-84.7626,10.4992,823.7051],[-84.7467,10.5063,752.3484],[-84.7424,10.5175,649.571],[-84.7315,10.5185,685.5103],[-84.7291,10.5202,696.3164],[-84.7278,10.5291,587.366],[-84.7256,10.531,580.0437],[-84.7266,10.5354,583.5356],[-84.7222,10.5399,588.4401],[-84.7192,10.5395,607.841],[-84.7177,10.5417,592.2758],[-84.7196,10.5437,545.5432],[-84.7201,10.548,488.6509],[-84.7171,10.5473,477.6027],[-84.7127,10.5498,443.9392],[-84.7101,10.5486,467.8925],[-84.7069,10.5499,422.9022],[-84.7064,10.5601,330.5415],[-84.7086,10.5624,348.5903],[-84.701,10.5705,293.6541],[-84.7002,10.5793,233.2705],[-84.6965,10.5863,211.5863],[-84.6966,10.5908,188.6223],[-84.6982,10.5926,173.4683],[-84.6907,10.5968,166.0358],[-84.6845,10.594,186.5023],[-84.6819,10.5949,162.4514],[-84.6856,10.6026,148.9537],[-84.6842,10.6044,143.116],[-84.6867,10.6052,139.6384],[-84.6858,10.6125,153.9148],[-84.6877,10.6118,138.9597],[-84.6903,10.6147,130.7776],[-84.692,10.6129,151.2373],[-84.6921,10.6146,151.0205],[-84.6897,10.6167,142.2008],[-84.6933,10.6176,136.6993],[-84.6922,10.6196,121.519],[-84.6986,10.6182,101.069],[-84.6997,10.6212,106.3237],[-84.7075,10.6244,85.181],[-84.7095,10.6278,79.6249],[-84.7085,10.6304,75.6904],[-84.7103,10.6307,70.4366],[-84.7115,10.6357,83.2692],[-84.7133,10.6351,71.833],[-84.7131,10.6367,72.879],[-84.7153,10.6367,70.4925],[-84.7161,10.6384,73.7258],[-84.7195,10.6379,75.462],[-84.725,10.6337,128.8544],[-84.7324,10.6396,116.9506],[-84.738,10.6415,92.3194],[-84.7424,10.6409,96.9499],[-84.7472,10.6452,79.7567],[-84.7517,10.6471,63.3569],[-84.7545,10.6464,61.6612],[-84.7555,10.643,65.4612],[-84.7531,10.6383,68.9196],[-84.7632,10.6384,124.1917],[-84.7619,10.6348,77.4412],[-84.7649,10.6314,81.3511],[-84.7607,10.6302,92.1176],[-84.7604,10.6279,89.7717],[-84.7617,10.627,98.9492],[-84.7599,10.6259,95.8845],[-84.7617,10.6257,98.9492],[-84.7654,10.6197,122.4273],[-84.7691,10.6196,146.4482],[-84.773,10.6165,167.7765],[-84.771,10.6112,205.5353],[-84.7741,10.6095,229.1749],[-84.7753,10.6052,269.3638],[-84.7837,10.6034,287.6466],[-84.7846,10.601,289.2693],[-84.7876,10.6002,347.3551],[-84.7898,10.5929,411.6936],[-84.7889,10.5883,474.4723],[-84.7919,10.5844,468.2218],[-84.7966,10.5826,476.4307],[-84.8049,10.5852,471.3732],[-84.8049,10.5898,474.7874],[-84.814,10.5965,389.2153],[-84.8184,10.5969,374.9959],[-84.8208,10.5999,336.187],[-84.8237,10.5975,302.6299],[-84.8188,10.5918,378.5214],[-84.817,10.5792,462.9504],[-84.8186,10.5764,460.9272],[-84.8367,10.5634,648.7053],[-84.843,10.5639,669.2734],[-84.856,10.5587,789.368],[-84.8594,10.5588,782.5184],[-84.8632,10.5558,798.3001]]]]}}