{"type": "Feature","bbox": [-84.0784,9.9421,-84.0552,9.956],"geometry": {"type": "MultiPolygon","coordinates": [[[[-84.0553,9.9534,1193.42],[-84.0577,9.9528,1192.634],[-84.064,9.956,1164.308],[-84.0683,9.9529,1154.4033],[-84.0734,9.9522,1147.0095],[-84.0749,9.9496,1139.0455],[-84.0771,9.9512,1136.2506],[-84.0784,9.9446,1138.3628],[-84.0679,9.9421,1177.1152],[-84.0599,9.9445,1185.0271],[-84.0583,9.9483,1197.8777],[-84.057,9.9477,1195.959],[-84.0552,9.9495,1199.1393],[-84.0564,9.9515,1199.9861],[-84.0553,9.9534,1193.42]]]]}
,"properties": {"GID_3": "CRI.7.8.1_1","GID_0": "CRI","country": "CostaRica","GID_1": "CRI.7_1","province": "SanJosé","NL_NAME_1": "NA","GID_2": "CRI.7.8_1","county": "Goicoechea","NL_NAME_2": "NA","city": "CalleBlancos","VARNAME_3": "NA","NL_NAME_3": "NA","TYPE_3": "Distrito","ENGTYPE_3": "District","CC_3": "3","HASC_3": "NA","name": "Calle_Blancos.city","area_km2": 2.46424,"hist_schema_id": "Elevation0-9000","hist_area_km2": {"1150": 0.689153,"1175": 0.897989,"1200": 0.877099}}}