{"type": "Feature","bbox": [-84.1738,10.0002,-84.1341,10.0119],"geometry": {"type": "MultiPolygon","coordinates": [[[[-84.1432,10.0106,1087.4828],[-84.1524,10.0065,1056.4395],[-84.1635,10.0119,1011.9342],[-84.1682,10.0104,982.0597],[-84.1738,10.0056,967.729],[-84.1494,10.0002,1042.1272],[-84.1411,10.0086,1075.8547],[-84.1346,10.0062,1097.8588],[-84.1341,10.0099,1104.2839],[-84.1432,10.0106,1087.4828]]]]}
,"properties": {"GID_3": "CRI.4.3.3_1","GID_0": "CRI","country": "CostaRica","GID_1": "CRI.4_1","province": "Heredia","NL_NAME_1": "NA","GID_2": "CRI.4.3_1","county": "Flores","NL_NAME_2": "NA","city": "SanJoaquín","VARNAME_3": "NA","NL_NAME_3": "NA","TYPE_3": "Distrito","ENGTYPE_3": "District","CC_3": "1","HASC_3": "NA","name": "San_Joaquín.city","area_km2": 2.609961,"hist_schema_id": "Elevation0-9000","hist_area_km2": {"975": 0.125278,"1000": 0.313195,"1025": 0.772547,"1050": 0.668156,"1075": 0.56375,"1100": 0.167036}}}