{"type":"Feature","properties":{"GID_2":"CRI.1.12_1","GID_0":"CRI","country":"CostaRica","GID_1":"CRI.1_1","province":"Alajuela","NL_NAME_1":"NA","county":"SanMateo","VARNAME_2":"NA","NL_NAME_2":"NA","TYPE_2":"Cantón","ENGTYPE_2":"Canton","CC_2":"4","HASC_2":"CR.AL.SM","name":"San_Mateo.county"},
"geometry":{"type": "MultiPolygon","coordinates": [[[[-84.5858,9.934,101.8691],[-84.5771,9.935,111.6777],[-84.5733,9.9292,112.7775],[-84.5703,9.9298,115.4529],[-84.5623,9.9258,134.2485],[-84.5581,9.9283,131.2033],[-84.5583,9.9244,167.4667],[-84.5543,9.9244,139.7822],[-84.5536,9.9213,144.2627],[-84.5493,9.9205,148.3304],[-84.5477,9.9233,147.1649],[-84.5456,9.9237,153.9528],[-84.5439,9.9304,161.464],[-84.5413,9.9319,170.3751],[-84.5372,9.9291,177.151],[-84.5363,9.9306,171.3922],[-84.5384,9.9317,166.8565],[-84.535,9.9321,192.881],[-84.5338,9.9299,184.5122],[-84.5262,9.9263,189.4222],[-84.5263,9.9286,187.3463],[-84.5242,9.9279,196.001],[-84.5229,9.9306,214.9452],[-84.5211,9.9286,215.2951],[-84.5185,9.9304,203.576],[-84.5136,9.93,224.0706],[-84.5115,9.932,218.7922],[-84.5062,9.9324,264.572],[-84.5016,9.9363,314.8842],[-84.5005,9.9415,359.2641],[-84.4921,9.9455,522.4136],[-84.4863,9.9463,575.7152],[-84.48,9.9443,630.1921],[-84.4773,9.9464,648.7203],[-84.4724,9.9427,552.0739],[-84.4677,9.9417,297.3517],[-84.4682,9.9527,426.0909],[-84.4614,9.9593,516.8279],[-84.4568,9.9605,533.6653],[-84.4536,9.9653,612.1767],[-84.4526,9.9691,780.6647],[-84.4546,9.9754,812.9859],[-84.4536,9.9824,1040.4403],[-84.4554,9.9883,1123.8904],[-84.4522,9.9932,1223.1581],[-84.4535,9.9959,1256.5018],[-84.452,9.9978,1281.3362],[-84.4557,9.9977,1150.3635],[-84.4585,9.9931,1093.8866],[-84.4648,9.9893,973.059],[-84.4945,9.9796,520.3403],[-84.4979,9.9842,602.7031],[-84.4944,9.9927,692.346],[-84.4967,10.0054,878.7029],[-84.4952,10.0097,1014.6838],[-84.4978,10.0149,1187.3354],[-84.5014,10.0116,1154.8101],[-84.5081,10.0147,970.3143],[-84.5135,10.0135,847.9022],[-84.5161,10.0112,768.8144],[-84.5185,10.011,750.5142],[-84.5218,10.0134,691.0426],[-84.5267,10.0109,578.6396],[-84.533,10.0102,473.8617],[-84.5496,9.999,394.5349],[-84.5516,9.9963,304.7538],[-84.5516,9.9933,325.7728],[-84.5547,9.9924,292.2248],[-84.5533,9.9861,260.8481],[-84.5555,9.986,252.7355],[-84.5565,9.9838,248.5626],[-84.5582,9.9853,238.9099],[-84.5595,9.9817,251.4252],[-84.5615,9.9819,243.0468],[-84.5626,9.984,246.0286],[-84.5686,9.9816,251.983],[-84.5691,9.9834,231.3234],[-84.5706,9.9832,228.5334],[-84.571,9.9868,212.4305],[-84.5737,9.9835,246.4142],[-84.5775,9.9831,210.3175],[-84.5775,9.9817,223.7191],[-84.5807,9.9822,218.801],[-84.5815,9.9803,216.6595],[-84.5841,9.9805,196.1388],[-84.5845,9.9785,214.814],[-84.5897,9.9794,187.3604],[-84.5921,9.9722,195.5752],[-84.5962,9.9711,160.1529],[-84.597,9.9732,158.5342],[-84.599,9.9688,142.7398],[-84.6016,9.9706,166.8212],[-84.6048,9.9667,144.7332],[-84.6069,9.9587,146.7811],[-84.6085,9.9593,118.6955],[-84.6112,9.9559,166.4997],[-84.6151,9.9571,140.9701],[-84.6161,9.9551,88.7693],[-84.6151,9.9522,108.1837],[-84.63,9.9491,69.4067],[-84.6327,9.9501,54.7408],[-84.637,9.9472,40.4134],[-84.6365,9.945,84.025],[-84.6406,9.9401,43.9247],[-84.6495,9.9444,35.6406],[-84.6528,9.9406,19.3974],[-84.6531,9.9351,40.2454],[-84.662,9.9333,11.7879],[-84.6614,9.9302,10.7962],[-84.6585,9.9311,15.5598],[-84.6576,9.9301,13.7112],[-84.6604,9.9255,18.1381],[-84.6652,9.925,11.0433],[-84.6636,9.9225,10.0907],[-84.6647,9.921,9.5057],[-84.6677,9.9226,8.3489],[-84.6654,9.9193,10.6144],[-84.6674,9.9175,8.6344],[-84.6634,9.9128,9.0415],[-84.6595,9.9118,9.723],[-84.6599,9.9093,10.7241],[-84.6536,9.9104,12.7858],[-84.6511,9.9075,12.2608],[-84.6484,9.907,11.6338],[-84.6459,9.9087,11.5533],[-84.6441,9.9072,17.9329],[-84.6447,9.9108,29.5289],[-84.6403,9.9127,15.4902],[-84.6387,9.9181,50.6895],[-84.634,9.9207,83.0914],[-84.624,9.9214,38.7092],[-84.6237,9.9261,81.7834],[-84.6128,9.9266,64.7925],[-84.611,9.9247,86.1288],[-84.605,9.9272,89.6402],[-84.6028,9.926,90.687],[-84.6021,9.9295,82.1821],[-84.597,9.9306,67.055],[-84.5966,9.9352,61.3338],[-84.5929,9.9312,100.7437],[-84.592,9.9334,75.0975],[-84.5858,9.934,101.8691]]]]}}