{"type":"Feature","properties":{"GID_3":"CRI.2.7.4_1","GID_0":"CRI","country":"CostaRica","GID_1":"CRI.2_1","province":"Cartago","NL_NAME_1":"NA","GID_2":"CRI.2.7_1","county":"Paraíso","NL_NAME_2":"NA","city":"Paraíso","VARNAME_3":"NA","NL_NAME_3":"NA","TYPE_3":"Distrito","ENGTYPE_3":"District","CC_3":"1","HASC_3":"NA","name":"Paraíso.city"},
"geometry":{"type": "MultiPolygon","coordinates": [[[[-83.8664,9.8099,1042.8938],[-83.8612,9.8124,1060.0071],[-83.8579,9.8106,1021.4084],[-83.8518,9.8113,1011.3812],[-83.8464,9.8208,999.5529],[-83.8376,9.8255,1016.3607],[-83.833,9.8239,1016.5366],[-83.8313,9.8204,1008.2643],[-83.832,9.8176,987.577],[-83.8299,9.8173,1006.322],[-83.8237,9.8214,1001.1123],[-83.822,9.8283,1007.3782],[-83.8176,9.8283,986.5732],[-83.8158,9.8306,991.3275],[-83.8177,9.8307,1001.0469],[-83.8174,9.8336,1006.6992],[-83.8196,9.8331,1008.3998],[-83.8188,9.8355,1002.2114],[-83.8234,9.8386,1013.2147],[-83.8251,9.8416,1013.153],[-83.83,9.844,1153.7173],[-83.8353,9.8541,1289.6658],[-83.8409,9.8564,1377.3616],[-83.8416,9.8584,1387.5374],[-83.8396,9.8603,1398.7271],[-83.8462,9.8705,1556.5034],[-83.8441,9.8787,1632.2709],[-83.8567,9.8777,1601.7288],[-83.8632,9.8671,1571.7191],[-83.8661,9.8653,1540.4966],[-83.8734,9.8645,1544.6533],[-83.8755,9.862,1433.5181],[-83.8777,9.8628,1434.6165],[-83.869,9.8544,1356.7762],[-83.8677,9.8484,1340.3547],[-83.8679,9.8439,1336.4586],[-83.8705,9.8442,1336.9283],[-83.8711,9.8398,1333.3036],[-83.8758,9.8398,1347.5559],[-83.8714,9.838,1330.7068],[-83.8708,9.8335,1323.3716],[-83.8747,9.8327,1338.4554],[-83.8782,9.8353,1341.573],[-83.8788,9.8322,1344.9907],[-83.8723,9.8285,1335.3206],[-83.8649,9.8184,1231.6492],[-83.8671,9.8164,1185.5514],[-83.8635,9.8152,1118.3246],[-83.8654,9.8153,1106.1566],[-83.8647,9.813,1085.9836],[-83.8664,9.8099,1042.8938]]]]}}