{"type": "Feature","bbox": [-84.4439,10.0819,-84.4056,10.1121],"geometry": {"type": "MultiPolygon","coordinates": [[[[-84.4167,10.1085,1196.7578],[-84.4254,10.1104,1120.741],[-84.4267,10.107,1077.2692],[-84.4295,10.1121,1092.2284],[-84.4396,10.1107,1043.1287],[-84.4439,10.1022,1029.5078],[-84.437,10.0986,1011.3226],[-84.4339,10.0863,970.9791],[-84.4311,10.0843,967.5651],[-84.4259,10.084,973.9069],[-84.4255,10.0819,951.0889],[-84.4213,10.0845,1005.5117],[-84.4203,10.088,985.3927],[-84.4187,10.0856,993.2435],[-84.4073,10.0853,1319.285],[-84.4056,10.087,1312.3879],[-84.4065,10.0962,1163.7982],[-84.4094,10.0969,1150.0168],[-84.4119,10.1004,1072.907],[-84.4214,10.0996,1051.3572],[-84.4223,10.1048,1083.8767],[-84.418,10.1028,1129.9479],[-84.4167,10.1085,1196.7578]]]]}
,"properties": {"GID_3": "CRI.1.7.4_1","GID_0": "CRI","country": "CostaRica","GID_1": "CRI.1_1","province": "Alajuela","NL_NAME_1": "NA","GID_2": "CRI.1.7_1","county": "Naranjo","NL_NAME_2": "NA","city": "Palmitos","VARNAME_3": "NA","NL_NAME_3": "NA","TYPE_3": "Distrito","ENGTYPE_3": "District","CC_3": "8","HASC_3": "NA","name": "Palmitos.city","area_km2": 8.140797,"hist_schema_id": "Elevation0-9000","hist_area_km2": {"950": 0.146121,"975": 0.647106,"1000": 1.25245,"1025": 1.231562,"1050": 1.523783,"1075": 1.273281,"1100": 0.876686,"1125": 0.542715,"1150": 0.271359,"1175": 0.166992,"1200": 0.062622,"1225": 0.083498,"1250": 0.041749,"1300": 0.020875}}}