{"type": "Feature","bbox": [-84.684,9.9452,-84.625,9.9934],"geometry": {"type": "MultiPolygon","coordinates": [[[[-84.6575,9.9454,42.9571],[-84.6598,9.9461,28.0517],[-84.6572,9.9482,41.1079],[-84.6556,9.9525,67.4129],[-84.6574,9.9543,88.6801],[-84.6558,9.9575,105.3604],[-84.64,9.9566,162.1638],[-84.6408,9.9644,171.0026],[-84.6392,9.9638,167.083],[-84.6394,9.9617,166.7619],[-84.6374,9.9636,191.746],[-84.6378,9.966,178.4066],[-84.6337,9.9681,180.0892],[-84.6332,9.966,173.7718],[-84.6317,9.9662,182.8129],[-84.6311,9.9717,181.8136],[-84.6285,9.9716,180.7048],[-84.6285,9.9695,186.1334],[-84.6256,9.9708,198.6339],[-84.6279,9.9783,210.0991],[-84.6252,9.9814,193.3458],[-84.625,9.9844,197.6595],[-84.6312,9.9908,239.057],[-84.6407,9.9934,232.6543],[-84.6416,9.9902,229.7952],[-84.6446,9.9888,230.4017],[-84.6469,9.991,224.0964],[-84.6507,9.9915,217.1847],[-84.6552,9.9858,207.1398],[-84.658,9.9881,202.3756],[-84.659,9.9866,199.8589],[-84.6622,9.9884,186.9747],[-84.6666,9.982,166.4734],[-84.6703,9.9825,160.8607],[-84.6717,9.9845,160.0067],[-84.6751,9.9805,140.371],[-84.6721,9.9786,167.0109],[-84.6727,9.9751,180.4935],[-84.6741,9.9727,221.085],[-84.6793,9.9698,165.959],[-84.6804,9.9638,131.8981],[-84.6829,9.9644,110.3588],[-84.684,9.961,123.1316],[-84.6778,9.9562,147.9886],[-84.6774,9.9536,162.5762],[-84.671,9.9492,161.6985],[-84.6622,9.9452,42.404],[-84.6575,9.9454,42.9571]]]]}
,"properties": {"GID_3": "CRI.6.5.5_1","GID_0": "CRI","country": "CostaRica","GID_1": "CRI.6_1","province": "Puntarenas","NL_NAME_1": "NA","GID_2": "CRI.6.5_1","county": "Esparza","NL_NAME_2": "NA","city": "SanJuanGrande","VARNAME_3": "NA","NL_NAME_3": "NA","TYPE_3": "Distrito","ENGTYPE_3": "District","CC_3": "2","HASC_3": "NA","name": "San_Juan_Grande.city","area_km2": 19.67081,"hist_schema_id": "Elevation0-9000","hist_area_km2": {"25": 0.16707,"50": 0.1253,"75": 0.2506,"100": 0.33413,"125": 0.7309,"150": 1.83767,"175": 3.88412,"200": 5.65899,"225": 5.78416,"250": 0.89789}}}