{"type": "Feature","bbox": [-83.9236,9.8523,-83.9075,9.869],"geometry": {"type": "MultiPolygon","coordinates": [[[[-83.9162,9.8523,1395.5247],[-83.916,9.8569,1420.5569],[-83.914,9.8566,1419.5027],[-83.9133,9.8589,1408.9388],[-83.9093,9.8575,1396.3042],[-83.9075,9.8662,1433.4766],[-83.9112,9.8685,1443.351],[-83.9172,9.8675,1451.6404],[-83.9214,9.869,1461.8558],[-83.9236,9.8562,1415.3037],[-83.9162,9.8523,1395.5247]]]]}
,"properties": {"GID_3": "CRI.2.2.8_1","GID_0": "CRI","country": "CostaRica","GID_1": "CRI.2_1","province": "Cartago","NL_NAME_1": "NA","GID_2": "CRI.2.2_1","county": "Cartago","NL_NAME_2": "NA","city": "Oriental","VARNAME_3": "NA","NL_NAME_3": "NA","TYPE_3": "Distrito","ENGTYPE_3": "District","CC_3": "1","HASC_3": "NA","name": "Oriental.city","area_km2": 2.068003,"hist_schema_id": "Elevation0-9000","hist_area_km2": {"1400": 0.334227,"1425": 1.336892,"1450": 0.396884}}}