{"type":"Feature","properties":{"GID_3":"CRI.1.15.3_1","GID_0":"CRI","country":"CostaRica","GID_1":"CRI.1_1","province":"Alajuela","NL_NAME_1":"NA","GID_2":"CRI.1.15_1","county":"Sarchí","NL_NAME_2":"NA","city":"SarchiNorte","VARNAME_3":"NA","NL_NAME_3":"NA","TYPE_3":"Distrito","ENGTYPE_3":"District","CC_3":"1","HASC_3":"NA","name":"Sarchi_Norte.city"},
"geometry":{"type": "MultiPolygon","coordinates": [[[[-84.3589,10.0691,843.0325],[-84.3574,10.0649,827.2785],[-84.3552,10.0693,853.6985],[-84.3556,10.0731,864.858],[-84.3515,10.0745,880.9629],[-84.3471,10.0822,916.0412],[-84.344,10.0832,918.603],[-84.3463,10.085,932.5165],[-84.3418,10.0923,975.525],[-84.3427,10.095,983.0611],[-84.3372,10.1008,1046.5317],[-84.3376,10.1059,1083.9268],[-84.3358,10.1082,1076.3555],[-84.3393,10.1147,1142.1169],[-84.3328,10.1216,1190.9004],[-84.334,10.1236,1225.2983],[-84.3278,10.1309,1278.3344],[-84.3291,10.1335,1300.4027],[-84.3243,10.1356,1327.7104],[-84.3227,10.1422,1393.8457],[-84.3196,10.1432,1400.2491],[-84.3191,10.1449,1407.412],[-84.3158,10.1445,1417.9495],[-84.3137,10.1459,1427.6957],[-84.308,10.1539,1507.9832],[-84.3081,10.1619,1564.9896],[-84.2881,10.1783,1851.9338],[-84.2822,10.1864,2097.7078],[-84.2891,10.1849,2041.0681],[-84.2953,10.1807,1988.5392],[-84.3059,10.1816,1944.423],[-84.3196,10.1714,2041.0731],[-84.3246,10.1718,2011.0852],[-84.3277,10.1695,2042.8936],[-84.3338,10.1731,2069.4612],[-84.3349,10.169,1883.3146],[-84.3331,10.1623,1715.9427],[-84.3344,10.1581,1623.6986],[-84.3409,10.1574,1686.0486],[-84.3413,10.1559,1643.5514],[-84.3393,10.1477,1506.0234],[-84.3369,10.1453,1451.4631],[-84.3346,10.1323,1333.5515],[-84.3424,10.1225,1217.4656],[-84.3482,10.12,1176.1919],[-84.3422,10.1157,1150.0601],[-84.3494,10.1023,1003.7138],[-84.353,10.089,935.1027],[-84.3566,10.0834,897.8898],[-84.3597,10.0818,878.3188],[-84.3589,10.0691,843.0325]]]]}}