{"type": "Feature","bbox": [-85.3296,10.003,-85.2345,10.0771],"geometry": {"type": "MultiPolygon","coordinates": [[[[-85.3239,10.0178,260.4522],[-85.3154,10.0119,388.3474],[-85.3074,10.0142,509.8518],[-85.3029,10.0116,627.7657],[-85.2983,10.0152,625.7543],[-85.2912,10.003,185.9663],[-85.279,10.0074,117.6181],[-85.2733,10.013,96.6644],[-85.2589,10.0139,61.2827],[-85.2565,10.0172,53.2218],[-85.2495,10.0201,45.3309],[-85.2485,10.0234,43.2106],[-85.2441,10.0232,38.9612],[-85.2443,10.031,32.0921],[-85.2479,10.0337,33.2547],[-85.2475,10.0355,28.6158],[-85.2468,10.0374,27.6299],[-85.2415,10.0386,33.5323],[-85.237799999999993,10.0427,22.2851],[-85.237799999999993,10.0476,16.8355],[-85.2414,10.049,16.386],[-85.2416,10.054,54.6244],[-85.2473,10.0578,34.6847],[-85.2428,10.0642,5.4539],[-85.2386,10.0635,4.4089],[-85.2392,10.0706,6.8327],[-85.2358,10.0724,11.7939],[-85.2345,10.0753,11.7355],[-85.2405,10.0747,11.5173],[-85.2427,10.0763,10.7499],[-85.2428,10.0744,13.4279],[-85.2454,10.0728,12.5894],[-85.2468,10.0771,13.5345],[-85.2476,10.0722,18.8973],[-85.2532,10.0691,15.8232],[-85.2521,10.0646,11.5749],[-85.2549,10.0612,12.9334],[-85.2581,10.0622,13.2895],[-85.2607,10.0591,15.3004],[-85.2662,10.0595,27.4714],[-85.2687,10.057,23.8509],[-85.2707,10.0577,25.5024],[-85.273,10.0631,21.516],[-85.2774,10.0594,21.002],[-85.2782,10.0651,22.824],[-85.285,10.0651,26.7977],[-85.2864,10.0592,27.3265],[-85.2928,10.0632,31.5172],[-85.294,10.0627,31.5172],[-85.2925,10.0609,26.7603],[-85.2938,10.0604,35.6631],[-85.3005,10.0633,32.225],[-85.3005,10.068,53.1012],[-85.3091,10.0671,29.6517],[-85.3122,10.0727,65.551],[-85.314,10.0706,38.4888],[-85.3171,10.0736,34.4224],[-85.3261,10.0687,63.4458],[-85.326,10.0659,67.8121],[-85.3229,10.0676,72.552],[-85.3224,10.0631,94.437],[-85.3207,10.0621,95.5946],[-85.3201,10.0552,85.0715],[-85.3223,10.0512,106.6643],[-85.3158,10.0481,104.294],[-85.316,10.0435,121.938],[-85.3226,10.0416,153.0554],[-85.3223,10.0377,175.1069],[-85.3247,10.0319,189.3998],[-85.326,10.0303,197.9749],[-85.328,10.0308,235.2444],[-85.3275,10.029,198.6756],[-85.3296,10.029,275.5954],[-85.3295,10.0267,261.6589],[-85.3259,10.0269,221.3577],[-85.3235,10.0253,222.5463],[-85.3264,10.024,255.0693],[-85.3243,10.022,255.4266],[-85.326,10.0196,266.6828],[-85.3246,10.0198,259.9107],[-85.3239,10.0178,260.4522]]]]}
,"properties": {"GID_3": "CRI.3.8.5_1","GID_0": "CRI","country": "CostaRica","GID_1": "CRI.3_1","province": "Guanacaste","NL_NAME_1": "NA","GID_2": "CRI.3.8_1","county": "Nandayure","NL_NAME_2": "NA","city": "SantaRita","VARNAME_3": "NA","NL_NAME_3": "NA","TYPE_3": "Distrito","ENGTYPE_3": "District","CC_3": "2","HASC_3": "NA","name": "Santa_Rita.city","area_km2": 51.35881,"hist_schema_id": "Elevation0-9000","hist_area_km2": {"0": 0.96028,"25": 13.23587,"50": 7.11926,"75": 4.13377,"100": 2.83934,"125": 2.46354,"150": 1.7746,"175": 2.08777,"200": 2.00426,"225": 2.06689,"250": 1.73287,"275": 1.50322,"300": 1.1483,"325": 1.33621,"350": 0.8769,"375": 0.8769,"400": 0.83515,"425": 0.73076,"450": 0.62636,"475": 0.50109,"500": 0.62637,"525": 0.2923,"550": 0.3967,"575": 0.25055,"600": 0.27143,"625": 0.31319,"650": 0.14615,"675": 0.14615,"700": 0.04176,"725": 0.02088}}}