{"type": "Feature","bbox": [-85.6083,9.9779,-85.3625,10.2337],"geometry": {"type": "MultiPolygon","coordinates": [[[[-85.4387,10.0909,326.6415],[-85.4318,10.0939,331.6048],[-85.4246,10.1004,298.174],[-85.422,10.1005,290.4672],[-85.4192,10.0964,263.25],[-85.4144,10.0988,226.1332],[-85.4039,10.0969,152.7342],[-85.3995,10.1024,126.7544],[-85.4083,10.101,157.7646],[-85.4108,10.1047,227.9211],[-85.414,10.1034,260.9622],[-85.4172,10.1044,282.9456],[-85.4132,10.1061,234.3409],[-85.415,10.1113,124.1336],[-85.4122,10.1218,98.9128],[-85.4082,10.1228,92.5735],[-85.4104,10.1285,94.258],[-85.4079,10.1343,142.1142],[-85.4133,10.1442,276.1839],[-85.4056,10.141,315.9828],[-85.4038,10.1439,253.2121],[-85.4062,10.1462,264.4053],[-85.4036,10.1487,286.6927],[-85.4011,10.1464,281.1368],[-85.3959,10.1478,290.5129],[-85.3923,10.1421,239.5328],[-85.3863,10.1413,254.8742],[-85.3849,10.1423,268.9751],[-85.3854,10.1475,232.5332],[-85.3771,10.1469,196.3647],[-85.3725,10.1505,162.0531],[-85.3706,10.1496,192.9922],[-85.3625,10.1631,429.719],[-85.3896,10.1629,73.8101],[-85.3913,10.1663,87.197],[-85.3982,10.1674,91.9977],[-85.406,10.1644,202.834],[-85.4086,10.1648,237.15],[-85.4123,10.1598,287.2057],[-85.4175,10.1609,276.6233],[-85.417,10.1682,238.6663],[-85.42,10.1669,249.6656],[-85.4243,10.1677,258.0374],[-85.4298,10.1725,232.0599],[-85.4366,10.1705,152.8316],[-85.4401,10.1746,193.3038],[-85.4465,10.1768,274.2389],[-85.4494,10.1804,283.5378],[-85.4536,10.1801,355.4221],[-85.4586,10.1888,363.6281],[-85.4626,10.1903,381.6835],[-85.4564,10.1995,362.2061],[-85.4566,10.2044,493.1985],[-85.4715,10.2076,287.9329],[-85.4789,10.2119,273.715],[-85.4829,10.2179,383.7308],[-85.483,10.2208,426.2825],[-85.4853,10.2185,347.6412],[-85.4903,10.22,236.1349],[-85.4963,10.229,412.2998],[-85.4997,10.2312,458.5759],[-85.5001,10.2337,527.6277],[-85.5081,10.2328,478.1946],[-85.5115,10.2303,382.7796],[-85.5182,10.2302,246.0076],[-85.5206,10.2267,240.1389],[-85.525,10.226,222.077],[-85.5289,10.2014,382.0534],[-85.5363,10.1809,280.0113],[-85.5407,10.1789,345.1833],[-85.5429,10.1757,471.5714],[-85.5439,10.1701,649.2303],[-85.5473,10.1643,704.1561],[-85.5512,10.1641,735.3981],[-85.5504,10.1625,749.4309],[-85.5586,10.1583,903.5534],[-85.5607,10.1535,885.6923],[-85.5664,10.15,696.4672],[-85.5738,10.1399,674.9205],[-85.5831,10.1333,792.9265],[-85.5845,10.1285,830.0866],[-85.592,10.1273,756.2136],[-85.5957,10.1239,749.4382],[-85.5988,10.1149,829.0272],[-85.5985,10.1105,865.1659],[-85.597,10.107,833.3618],[-85.5914,10.107,758.0826],[-85.5923,10.0967,655.1353],[-85.5889,10.0875,535.7783],[-85.5909,10.0844,489.1025],[-85.5899,10.0814,445.3221],[-85.5961,10.0791,370.8838],[-85.5962,10.0756,348.0077],[-85.5944,10.0763,336.7772],[-85.5947,10.074,326.183],[-85.592,10.0727,328.7945],[-85.5922,10.0689,326.6178],[-85.593,10.0677,270.5775],[-85.5943,10.0688,320.0562],[-85.597,10.0654,250.6538],[-85.6002,10.066,236.7167],[-85.6024,10.0635,230.5271],[-85.6059,10.0635,215.491],[-85.6083,10.0595,202.2096],[-85.6062,10.0588,208.8749],[-85.6068,10.0565,195.8654],[-85.6033,10.0531,257.4047],[-85.5973,10.0537,296.026],[-85.5939,10.0573,364.2018],[-85.5886,10.0559,570.8468],[-85.5892,10.0531,435.3724],[-85.5838,10.0487,282.0164],[-85.5814,10.0411,189.0738],[-85.583,10.0354,183.9765],[-85.5879,10.0331,146.0396],[-85.589,10.0301,144.3387],[-85.587,10.0168,87.1876],[-85.5887,10.0148,85.1518],[-85.5826,10.0119,234.912],[-85.5771,10.0018,87.867],[-85.5777,9.993,72.9019],[-85.5733,9.9911,148.928],[-85.5719,9.9871,263.6476],[-85.5677,9.985,382.5476],[-85.5663,9.9817,547.0363],[-85.5672,9.9779,705.4645],[-85.5564,9.9868,573.4605],[-85.5541,9.9914,577.4069],[-85.5631,9.9986,330.0056],[-85.5642,10.0027,230.5046],[-85.5629,10.0074,75.6455],[-85.5609,10.0064,76.6743],[-85.5555,10.0088,79.5344],[-85.5523,10.0162,98.7733],[-85.55,10.0158,85.7139],[-85.5499,10.0128,131.5984],[-85.5443,10.016,108.786],[-85.5392,10.0132,101.2826],[-85.5368,10.0146,95.6646],[-85.5451,10.0201,110.7317],[-85.5438,10.0243,121.6124],[-85.545,10.0275,113.2824],[-85.5416,10.0372,133.3139],[-85.5462,10.0371,121.7782],[-85.5459,10.0393,124.072],[-85.5426,10.0409,116.2874],[-85.5471,10.0444,135.8931],[-85.5475,10.047,140.0674],[-85.5449,10.0487,128.0318],[-85.5378,10.0481,131.5435],[-85.5358,10.0519,131.2691],[-85.5323,10.0501,143.2645],[-85.5258,10.0517,136.0804],[-85.5214,10.0501,156.47],[-85.5206,10.0513,141.3253],[-85.5087,10.0517,139.0673],[-85.5075,10.0547,144.6026],[-85.5011,10.0564,145.0081],[-85.4998,10.0608,147.4081],[-85.4958,10.0633,143.4184],[-85.4809,10.0555,250.8704],[-85.4766,10.0497,404.2071],[-85.472,10.0509,366.3745],[-85.4668,10.0486,295.745],[-85.4636,10.0442,182.4765],[-85.4595,10.054,242.981],[-85.4525,10.0562,388.8906],[-85.4527,10.0591,408.4424],[-85.4475,10.0645,450.3261],[-85.4479,10.071,526.6021],[-85.4511,10.072,522.7878],[-85.4516,10.08,281.287],[-85.4455,10.088,210.6285],[-85.4387,10.0909,326.6415]]]]}
,"properties": {"GID_3": "CRI.3.9.3_1","GID_0": "CRI","country": "CostaRica","GID_1": "CRI.3_1","province": "Guanacaste","NL_NAME_1": "NA","GID_2": "CRI.3.9_1","county": "Nicoya","NL_NAME_2": "NA","city": "Nicoya","VARNAME_3": "NA","NL_NAME_3": "NA","TYPE_3": "Distrito","ENGTYPE_3": "District","CC_3": "1","HASC_3": "NA","name": "Nicoya.city","area_km2": 311.5631,"hist_schema_id": "Elevation0-9000","hist_area_km2": {"25": 0.0209,"50": 0.8766,"75": 2.0245,"100": 9.8726,"125": 19.932,"150": 34.8558,"175": 24.4837,"200": 23.5448,"225": 22.0838,"250": 20.9774,"275": 19.0779,"300": 18.3055,"325": 14.4232,"350": 13.5257,"375": 12.5027,"400": 10.4364,"425": 9.5179,"450": 7.7854,"475": 5.8025,"500": 4.571,"525": 4.0074,"550": 3.9449,"575": 4.0492,"600": 3.7777,"625": 4.2369,"650": 3.5899,"675": 3.1098,"700": 2.3167,"725": 2.275,"750": 1.8158,"775": 1.461,"800": 1.0436,"825": 0.5636,"850": 0.3757,"875": 0.2296,"900": 0.1252,"925": 0.0209}}}