{"type":"Feature","properties":{"GID_3":"CRI.1.14.3_1","GID_0":"CRI","country":"CostaRica","GID_1":"CRI.1_1","province":"Alajuela","NL_NAME_1":"NA","GID_2":"CRI.1.14_1","county":"Upala","NL_NAME_2":"NA","city":"Canalete","VARNAME_3":"NA","NL_NAME_3":"NA","TYPE_3":"Distrito","ENGTYPE_3":"District","CC_3":"1","HASC_3":"NA","name":"Canalete.city"},
"geometry":{"type": "MultiPolygon","coordinates": [[[[-85.1326,10.7652,1607.2892],[-85.1234,10.7699,1732.6746],[-85.1212,10.774,1465.8948],[-85.1208,10.7807,1128.5139],[-85.1135,10.7905,767.951],[-85.1089,10.7918,635.1121],[-85.0977,10.7892,523.544],[-85.0928,10.7906,506.4613],[-85.0873,10.7988,431.8008],[-85.0815,10.7989,343.2812],[-85.0722,10.8051,236.8343],[-85.0697,10.8096,214.511],[-85.0478,10.8094,124.6272],[-85.0429,10.8124,112.9471],[-85.0376,10.8209,100.596],[-85.0351,10.8224,94.1954],[-85.0319,10.823,92.8496],[-85.0283,10.8124,107.4306],[-85.0312,10.8005,134.684],[-85.0118,10.7978,274.5783],[-85.0023,10.8164,127.7256],[-84.9963,10.8229,115.93],[-84.9884,10.8273,116.2141],[-84.9859,10.8403,115.3645],[-85.0247,10.8383,87.9448],[-85.0128,10.8597,88.1954],[-85.0203,10.8722,66.0318],[-85.0272,10.8677,64.6516],[-85.0302,10.8622,66.6508],[-85.0327,10.8662,68.6145],[-85.0312,10.8752,65.4594],[-85.0417,10.8801,66.1911],[-85.0422,10.8762,61.0216],[-85.0472,10.8737,71.7062],[-85.0556,10.8801,65.6719],[-85.0736,10.8762,70.8894],[-85.0785,10.8851,64.4853],[-85.0891,10.8957,60.3745],[-85.0922,10.8862,71.0735],[-85.0902,10.8822,74.8481],[-85.092,10.8774,82.5364],[-85.0949,10.8746,92.0997],[-85.0951,10.8688,100.3283],[-85.1132,10.8467,223.6346],[-85.1137,10.8424,244.7095],[-85.1164,10.8391,253.2134],[-85.1168,10.8303,320.7105],[-85.1189,10.8283,360.8434],[-85.1266,10.8304,403.3779],[-85.1296,10.8237,487.4044],[-85.1352,10.8185,539.8127],[-85.1286,10.8061,646.108],[-85.132,10.7922,916.1553],[-85.1326,10.7652,1607.2892]]]]}}