{"type": "Feature","bbox": [-84.2,9.9657,-84.1536,10.0056],"geometry": {"type": "MultiPolygon","coordinates": [[[[-84.1837,9.9728,860.4781],[-84.1826,9.9685,882.843],[-84.1739,9.972,919.2748],[-84.1689,9.9657,932.7045],[-84.1593,9.967,946.1534],[-84.1536,9.9723,969.8007],[-84.155,9.9765,969.7166],[-84.1627,9.981,995.2292],[-84.1617,9.9814,995.2292],[-84.1671,9.9961,997.397],[-84.1714,10.0046,981.8514],[-84.1738,10.0056,967.729],[-84.1765,10.0055,967.9751],[-84.1766,10.0032,957.6014],[-84.1803,9.9993,922.7151],[-84.1852,9.9979,910.0096],[-84.1886,9.9945,895.836],[-84.1983,9.9919,882.5865],[-84.1947,9.9775,897.1436],[-84.2,9.9762,882.2415],[-84.1999,9.9681,873.6931],[-84.1902,9.9745,894.7628],[-84.1837,9.9728,860.4781]]]]}
,"properties": {"GID_2": "CRI.4.2_1","GID_0": "CRI","country": "CostaRica","GID_1": "CRI.4_1","province": "Heredia","NL_NAME_1": "NA","county": "Belén","VARNAME_2": "NA","NL_NAME_2": "NA","TYPE_2": "Cantón","ENGTYPE_2": "Canton","CC_2": "7","HASC_2": "CR.HE.BE","name": "Belén.county","area_km2": 12.549584,"hist_schema_id": "Elevation0-9000","hist_area_km2": {"850": 0.083528,"875": 0.647334,"900": 2.213409,"925": 2.234302,"950": 3.21571,"975": 3.570648,"1000": 0.584654}}}