{"type":"Feature","properties":{"GID_3":"CRI.3.5.4_1","GID_0":"CRI","country":"CostaRica","GID_1":"CRI.3_1","province":"Guanacaste","NL_NAME_1":"NA","GID_2":"CRI.3.5_1","county":"Hojancha","NL_NAME_2":"NA","city":"MonteRomo","VARNAME_3":"NA","NL_NAME_3":"NA","TYPE_3":"Distrito","ENGTYPE_3":"District","CC_3":"2","HASC_3":"NA","name":"Monte_Romo.city"},
"geometry":{"type": "MultiPolygon","coordinates": [[[[-85.4318,9.9974,298.1223],[-85.4307,9.9914,426.1818],[-85.4289,9.9905,421.1259],[-85.4311,9.9881,310.9452],[-85.432,9.9801,223.3103],[-85.4245,9.9746,545.0961],[-85.4324,9.9717,351.91],[-85.4398,9.9622,136.812],[-85.4359,9.9622,178.7189],[-85.4293,9.9662,246.1777],[-85.4265,9.965,287.5071],[-85.4204,9.9544,386.3962],[-85.4204,9.9483,208.0789],[-85.4184,9.9447,146.3793],[-85.4222,9.9405,106.596],[-85.4226,9.9354,257.4561],[-85.4082,9.9314,555.9163],[-85.3987,9.931,552.3818],[-85.3911,9.9131,56.1055],[-85.3875,9.9106,52.6657],[-85.3835,9.9123,68.2506],[-85.3759,9.9102,61.2252],[-85.3716,9.912,60.75],[-85.3702,9.9135,63.7406],[-85.3724,9.9133,58.1293],[-85.3723,9.9146,56.5641],[-85.3685,9.9157,61.2815],[-85.3686,9.918,76.3441],[-85.3665,9.9199,60.3437],[-85.3637,9.9195,62.0719],[-85.3641,9.9223,61.2954],[-85.3587,9.9229,65.3434],[-85.3534,9.9273,72.2982],[-85.3498,9.9263,69.6294],[-85.3486,9.9278,62.6946],[-85.3497,9.9312,73.317],[-85.3424,9.9336,79.4221],[-85.3419,9.9369,75.6121],[-85.3387,9.9379,83.4981],[-85.3394,9.9426,82.3975],[-85.3419,9.9411,95.5522],[-85.343,9.9437,90.9784],[-85.3497,9.944,106.6253],[-85.3549,9.9475,126.8765],[-85.3546,9.9561,158.2692],[-85.3574,9.9618,190.8686],[-85.3615,9.9647,248.6676],[-85.3579,9.9696,301.2311],[-85.3569,9.9743,380.6156],[-85.3538,9.9739,370.6733],[-85.3543,9.9761,368.2514],[-85.3482,9.9807,399.6416],[-85.3479,9.9868,471.7216],[-85.3508,9.9887,491.7639],[-85.3521,9.9972,507.5478],[-85.3571,9.9984,527.4819],[-85.3679,9.9954,606.1738],[-85.3764,10.001,738.6008],[-85.3763,10.004,721.7222],[-85.3795,10.0084,771.593],[-85.3788,10.0105,758.8924],[-85.3842,10.0174,813.7622],[-85.3869,10.0091,784.6033],[-85.3895,10.0089,734.2083],[-85.3897,10.0058,738.6661],[-85.3955,10.0042,737.4309],[-85.3966,10.0018,777.4285],[-85.401,10.0002,843.9783],[-85.414,10.0088,753.1782],[-85.4178,10.0145,728.7585],[-85.4247,10.0155,623.9039],[-85.4313,10.0114,503.1472],[-85.428,10.0066,403.543],[-85.4318,9.9974,298.1223]]]]}}