{"type": "Feature","bbox": [-85.0432,10.4511,-84.9503,10.5628],"geometry": {"type": "MultiPolygon","coordinates": [[[[-85.028,10.4523,218.0147],[-85.0242,10.4541,249.9754],[-85.0183,10.4533,248.0689],[-85.016,10.4547,233.575],[-85.0098,10.4511,264.0601],[-85.0075,10.4548,267.3795],[-84.9997,10.4545,290.0101],[-84.9996,10.4564,289.4666],[-84.9952,10.4579,323.1022],[-84.9953,10.4598,326.0801],[-84.9891,10.4629,367.5523],[-84.9891,10.4735,405.9385],[-84.9816,10.4734,457.106],[-84.9791,10.4778,474.4002],[-84.9743,10.4768,488.3822],[-84.9696,10.4818,514.6634],[-84.9543,10.4877,690.1357],[-84.9555,10.49,695.5756],[-84.9544,10.4919,700.1264],[-84.9573,10.4928,659.3273],[-84.9594,10.4978,726.3317],[-84.9649,10.5039,698.9265],[-84.9654,10.5093,675.4667],[-84.9594,10.5123,655.9174],[-84.9567,10.511,633.0923],[-84.9503,10.5142,541.033],[-84.9555,10.5191,568.549],[-84.953,10.5224,547.3724],[-84.9553,10.5236,540.0],[-84.9582,10.5213,548.7742],[-84.9573,10.5229,540.0],[-84.9594,10.5229,560.1107],[-84.9602,10.527,540.0],[-84.9625,10.5278,540.0],[-84.9656,10.525,559.66],[-84.9695,10.5261,549.8796],[-84.9676,10.5268,545.2026],[-84.9671,10.5298,540.0],[-84.9685,10.5313,540.0],[-84.9704,10.5297,547.0455],[-84.9727,10.5339,540.0],[-84.9738,10.5333,540.0],[-84.9739,10.5318,540.0],[-84.9726,10.5293,548.8137],[-84.975,10.5315,540.0],[-84.9784,10.5316,547.5876],[-84.9769,10.5358,540.0],[-84.9749,10.5365,540.0],[-84.9766,10.5378,540.0],[-84.9791,10.5351,545.8385],[-84.9813,10.5357,540.0],[-84.9818,10.538,571.5648],[-84.9798,10.541,541.0974],[-84.9818,10.5445,566.3381],[-84.9796,10.5429,558.7283],[-84.9817,10.5475,565.8619],[-84.9951,10.5565,659.7866],[-84.9983,10.5603,672.308],[-85.0054,10.5628,705.8348],[-85.0056,10.5565,649.1423],[-85.0076,10.5538,621.4586],[-85.0147,10.5531,528.8768],[-85.0193,10.5457,490.236],[-85.0217,10.5445,471.7639],[-85.023,10.5458,478.0411],[-85.0283,10.5432,425.8413],[-85.0322,10.5376,399.5496],[-85.0306,10.5356,384.5627],[-85.0309,10.5311,375.5979],[-85.037,10.5283,356.0056],[-85.0388,10.5241,355.8442],[-85.0432,10.5228,329.4696],[-85.0432,10.5092,344.8396],[-85.0279,10.5002,338.8369],[-85.028,10.4523,218.0147]]]]}
,"properties": {"GID_3": "CRI.3.11.5_1","GID_0": "CRI","country": "CostaRica","GID_1": "CRI.3_1","province": "Guanacaste","NL_NAME_1": "NA","GID_2": "CRI.3.11_1","county": "Tilarán","NL_NAME_2": "NA","city": "SantaRosa","VARNAME_3": "NA","NL_NAME_3": "NA","TYPE_3": "Distrito","ENGTYPE_3": "District","CC_3": "4","HASC_3": "NA","name": "Santa_Rosa.city","area_km2": 71.42087,"hist_schema_id": "Elevation0-9000","hist_area_km2": {"225": 0.18765,"250": 0.4587,"275": 0.68805,"300": 0.81314,"325": 1.14672,"350": 2.89787,"375": 3.83589,"400": 4.66971,"425": 4.87833,"450": 3.52322,"475": 3.50235,"500": 5.14926,"525": 5.04498,"550": 5.31585,"575": 4.87804,"600": 3.73143,"625": 5.23226,"650": 5.56574,"675": 4.89873,"700": 4.3776,"725": 0.52113,"750": 0.10422}}}