{"type": "Feature","bbox": [-84.6597,9.9844,-84.5725,10.0461],"geometry": {"type": "MultiPolygon","coordinates": [[[[-84.618,10.0434,187.8416],[-84.6193,10.0349,220.6867],[-84.6323,10.0247,137.3823],[-84.6368,10.0173,131.4892],[-84.6504,10.0144,125.2177],[-84.6557,10.0174,97.4365],[-84.6575,10.0163,97.2566],[-84.6597,10.01,175.3358],[-84.6572,9.9972,225.9519],[-84.6538,9.9981,227.3645],[-84.6544,9.995,224.972],[-84.652,9.9944,229.478],[-84.6539,9.9916,217.7873],[-84.6528,9.9884,209.2],[-84.6507,9.9915,217.1847],[-84.6428,9.9892,229.4499],[-84.6407,9.9934,232.6543],[-84.6312,9.9908,239.057],[-84.625,9.9844,197.6595],[-84.6245,9.9878,208.0862],[-84.6276,9.9896,203.7905],[-84.6247,9.9902,216.4527],[-84.6251,9.9925,211.4194],[-84.6222,9.9941,216.2404],[-84.6153,9.9952,223.7561],[-84.6144,9.9919,232.9426],[-84.6106,9.992,245.0181],[-84.6065,9.9953,238.9307],[-84.6047,9.9923,238.913],[-84.6027,9.9946,246.912],[-84.6002,9.9931,269.5623],[-84.599,9.9963,263.3058],[-84.5912,10.0017,289.0902],[-84.5914,10.0053,299.0098],[-84.582,10.0086,322.7176],[-84.5806,10.0118,328.2366],[-84.5765,10.0136,351.0789],[-84.5747,10.0176,350.3156],[-84.5725,10.0186,349.558],[-84.5771,10.0241,433.6098],[-84.5927,10.0351,385.6655],[-84.6002,10.0375,476.2622],[-84.6026,10.044,328.883],[-84.6094,10.0461,211.9896],[-84.617,10.0456,205.1248],[-84.618,10.0434,187.8416]]]]}
,"properties": {"GID_3": "CRI.6.5.3_1","GID_0": "CRI","country": "CostaRica","GID_1": "CRI.6_1","province": "Puntarenas","NL_NAME_1": "NA","GID_2": "CRI.6.5_1","county": "Esparza","NL_NAME_2": "NA","city": "Macacona","VARNAME_3": "NA","NL_NAME_3": "NA","TYPE_3": "Distrito","ENGTYPE_3": "District","CC_3": "3","HASC_3": "NA","name": "Macacona.city","area_km2": 33.7408,"hist_schema_id": "Elevation0-9000","hist_area_km2": {"100": 0.25055,"125": 0.25055,"150": 0.68901,"175": 0.96042,"200": 1.56592,"225": 5.51228,"250": 6.74414,"275": 3.111,"300": 2.63075,"325": 2.81866,"350": 2.60985,"375": 2.02524,"400": 1.48239,"425": 1.31535,"450": 0.81426,"475": 0.54284,"500": 0.31318,"525": 0.10439}}}