{"type": "Feature","bbox": [-84.7623,9.9607,-84.6618,10.0419],"geometry": {"type": "MultiPolygon","coordinates": [[[[-84.7187,9.9696,3.4658],[-84.7191,9.9736,11.2522],[-84.7142,9.983,21.6944],[-84.7098,9.9851,40.3574],[-84.7048,9.992,34.0272],[-84.6956,9.9926,41.9813],[-84.6932,10.0018,48.9607],[-84.6844,10.002,119.375],[-84.6824,10.0065,64.4642],[-84.6787,10.0084,61.8085],[-84.6707,10.0067,124.1504],[-84.6673,10.0093,80.4397],[-84.6649,10.0183,147.0438],[-84.662,10.0213,105.1741],[-84.6618,10.0288,127.3994],[-84.6635,10.0321,136.0676],[-84.6727,10.0357,183.7571],[-84.6797,10.0335,289.5717],[-84.6819,10.0348,323.3831],[-84.6865,10.034,263.3546],[-84.6899,10.0374,142.2634],[-84.6925,10.0378,138.9288],[-84.6953,10.0419,118.5989],[-84.6962,10.0394,128.7481],[-84.6992,10.0388,105.7361],[-84.7018,10.041,94.3612],[-84.7062,10.0375,81.9666],[-84.7032,10.0349,139.1629],[-84.7024,10.0301,203.1762],[-84.7049,10.0266,323.9075],[-84.7042,10.0228,377.9385],[-84.7065,10.0204,383.8537],[-84.7144,10.0269,209.5438],[-84.7195,10.0228,85.1653],[-84.7215,10.0189,48.4928],[-84.7257,10.0164,17.758],[-84.7266,10.0139,14.8373],[-84.7325,10.0129,16.0358],[-84.733,10.0092,20.0085],[-84.7439,10.0061,11.5415],[-84.7532,10.0081,7.6846],[-84.7569,10.0052,5.1317],[-84.7596,9.9948,5.2024],[-84.7623,9.9951,7.8176],[-84.7619,9.9925,3.4572],[-84.7565,9.9943,2.2225],[-84.7541,9.9922,2.8506],[-84.7457,9.9907,3.5574],[-84.7386,9.9942,5.3967],[-84.7345,9.9925,13.0547],[-84.732,9.9958,12.846],[-84.7224,9.9943,26.1018],[-84.7206,9.9916,19.8741],[-84.7289,9.987,12.2149],[-84.7263,9.9871,18.6188],[-84.7289,9.9807,14.6195],[-84.732,9.9812,10.1654],[-84.7315,9.9733,6.7178],[-84.7366,9.9716,6.2706],[-84.7352,9.9607,6.0261],[-84.7279,9.9629,4.5623],[-84.7187,9.9696,3.4658]]]]}
,"properties": {"GID_3": "CRI.6.11.3_1","GID_0": "CRI","country": "CostaRica","GID_1": "CRI.6_1","province": "Puntarenas","NL_NAME_1": "NA","GID_2": "CRI.6.11_1","county": "Puntarenas","NL_NAME_2": "NA","city": "Barranca","VARNAME_3": "NA","NL_NAME_3": "NA","TYPE_3": "Distrito","ENGTYPE_3": "District","CC_3": "8","HASC_3": "NA","name": "Barranca.city","area_km2": 35.87122,"hist_schema_id": "Elevation0-9000","hist_area_km2": {"0": 7.53794,"25": 5.63775,"50": 2.15063,"75": 1.58686,"100": 1.79564,"125": 1.85827,"150": 2.27582,"175": 1.79558,"200": 1.81645,"225": 2.21315,"250": 2.02524,"275": 1.37799,"300": 1.29446,"325": 1.23184,"350": 0.75163,"375": 0.37581,"400": 0.14615}}}