{"type": "Feature","bbox": [-84.0061,9.9655,-83.9047,9.9913],"geometry": {"type": "MultiPolygon","coordinates": [[[[-83.9047,9.9757,2767.6567],[-83.9195,9.9799,2556.5242],[-83.923,9.9795,2633.428],[-83.9266,9.9881,2551.6003],[-83.93,9.99,2579.6504],[-83.9399,9.9882,2242.1475],[-83.9459,9.9894,2086.5183],[-83.9487,9.9876,2011.717],[-83.9604,9.9913,1772.8052],[-83.9691,9.9846,1706.4281],[-83.9746,9.984,1629.8461],[-83.9818,9.9862,1545.952],[-83.9844,9.9851,1534.3586],[-83.989,9.9881,1485.6392],[-83.9954,9.9863,1456.374],[-83.9961,9.9842,1434.7837],[-84.0008,9.9823,1408.5432],[-84.0051,9.9829,1386.7942],[-84.0061,9.9804,1395.3417],[-84.0036,9.9806,1400.0944],[-83.995,9.9756,1448.9945],[-83.9891,9.9766,1485.8948],[-83.9796,9.973,1575.0399],[-83.9707,9.9735,1675.7292],[-83.9661,9.9713,1724.0853],[-83.9619,9.9726,1758.911],[-83.9478,9.9686,2008.3446],[-83.9466,9.9655,1960.9219],[-83.9437,9.9672,2048.2073],[-83.9365,9.9676,2085.7156],[-83.9304,9.9658,2152.6233],[-83.9189,9.97,2316.8428],[-83.9086,9.9698,2581.1897],[-83.9047,9.9757,2767.6567]]]]}
,"properties": {"GID_3": "CRI.7.20.5_1","GID_0": "CRI","country": "CostaRica","GID_1": "CRI.7_1","province": "SanJosé","NL_NAME_1": "NA","GID_2": "CRI.7.20_1","county": "VázquezdeCoronado","NL_NAME_2": "NA","city": "SanRafael","VARNAME_3": "NA","NL_NAME_3": "NA","TYPE_3": "Distrito","ENGTYPE_3": "District","CC_3": "2","HASC_3": "NA","name": "San_Rafael.city","area_km2": 16.97664,"hist_schema_id": "Elevation0-9000","hist_area_km2": {"1400": 0.12529,"1425": 0.20881,"1450": 0.41763,"1475": 0.48027,"1500": 0.37586,"1525": 0.45939,"1550": 0.3341,"1575": 0.48027,"1600": 0.41763,"1625": 0.18793,"1650": 0.3341,"1675": 0.31322,"1700": 0.39675,"1725": 0.39675,"1750": 0.52203,"1775": 0.41763,"1800": 0.50115,"1825": 0.35498,"1850": 0.45939,"1875": 0.29234,"1900": 0.31322,"1925": 0.31322,"1950": 0.39675,"1975": 0.2297,"2000": 0.18793,"2025": 0.35499,"2050": 0.31322,"2075": 0.37587,"2100": 0.41763,"2125": 0.10441,"2150": 0.43851,"2175": 0.25058,"2200": 0.27146,"2225": 0.4594,"2250": 0.43852,"2275": 0.35499,"2300": 0.37587,"2325": 0.29234,"2350": 0.48028,"2375": 0.45939,"2400": 0.35499,"2425": 0.2297,"2450": 0.35499,"2475": 0.41763,"2500": 0.27146,"2525": 0.29234,"2550": 0.14617,"2575": 0.10441,"2600": 0.14617,"2625": 0.10441,"2650": 0.06265,"2675": 0.02088,"2700": 0.14617,"2750": 0.02088}}}