{"type":"Feature","properties":{"GID_3":"CRI.2.2.10_1","GID_0":"CRI","country":"CostaRica","GID_1":"CRI.2_1","province":"Cartago","NL_NAME_1":"NA","GID_2":"CRI.2.2_1","county":"Cartago","NL_NAME_2":"NA","city":"SanNicolas","VARNAME_3":"NA","NL_NAME_3":"NA","TYPE_3":"Distrito","ENGTYPE_3":"District","CC_3":"4","HASC_3":"NA","name":"San_Nicolas.city"},
"geometry":{"type": "MultiPolygon","coordinates": [[[[-83.9147,9.8956,1686.0549],[-83.9162,9.897,1711.5947],[-83.9129,9.9062,1879.7987],[-83.9165,9.9232,2040.7001],[-83.9291,9.9232,1945.9121],[-83.9342,9.9198,1882.1539],[-83.9334,9.9265,1964.2406],[-83.9426,9.9278,1889.6134],[-83.9454,9.9234,1827.1342],[-83.9486,9.9229,1810.8281],[-83.9506,9.9183,1686.8835],[-83.9495,9.9166,1650.4811],[-83.9578,9.9218,1695.4589],[-83.9581,9.9197,1684.1261],[-83.9531,9.9161,1608.4705],[-83.9547,9.915,1594.7384],[-83.9548,9.9023,1522.7439],[-83.9593,9.9005,1531.7584],[-83.96,9.8965,1587.6035],[-83.9627,9.8984,1518.5433],[-83.962,9.8909,1660.8994],[-83.97,9.889,1758.1014],[-83.9717,9.8849,1780.2299],[-83.9763,9.8819,1836.038],[-83.9771,9.8797,1798.252],[-83.972,9.8801,1737.9966],[-83.97,9.8745,1616.1479],[-83.966,9.8729,1543.6543],[-83.966,9.8699,1484.3853],[-83.9602,9.8654,1394.3722],[-83.9577,9.8662,1415.4718],[-83.9563,9.873,1404.2916],[-83.9527,9.8767,1407.1045],[-83.9505,9.8732,1410.4977],[-83.9464,9.871,1420.3784],[-83.9487,9.8678,1415.256],[-83.9325,9.866,1427.6041],[-83.9275,9.8728,1465.0524],[-83.9284,9.8742,1461.8638],[-83.9207,9.879,1521.7565],[-83.9208,9.8827,1549.3728],[-83.9179,9.8887,1612.7401],[-83.9147,9.8902,1631.306],[-83.9147,9.8956,1686.0549]]]]}}