{"type": "Feature","bbox": [-84.1197,10.006,-84.1047,10.0195],"geometry": {"type": "MultiPolygon","coordinates": [[[[-84.1197,10.0115,1170.7322],[-84.1171,10.006,1182.0396],[-84.1099,10.006,1203.4651],[-84.1076,10.0096,1231.1987],[-84.1047,10.0097,1231.2043],[-84.105,10.0195,1265.6033],[-84.1089,10.0164,1241.6299],[-84.1197,10.0115,1170.7322]]]]}
,"properties": {"GID_3": "CRI.4.7.3_1","GID_0": "CRI","country": "CostaRica","GID_1": "CRI.4_1","province": "Heredia","NL_NAME_1": "NA","GID_2": "CRI.4.7_1","county": "SanRafael","NL_NAME_2": "NA","city": "SanJosecito","VARNAME_3": "NA","NL_NAME_3": "NA","TYPE_3": "Distrito","ENGTYPE_3": "District","CC_3": "2","HASC_3": "NA","name": "San_Josecito.city","area_km2": 1.3154,"hist_schema_id": "Elevation0-9000","hist_area_km2": {"1175": 0.354952,"1200": 0.313191,"1225": 0.33407,"1250": 0.313188}}}