{"type": "Feature","bbox": [-83.9341,9.8521,-83.9214,9.8728],"geometry": {"type": "MultiPolygon","coordinates": [[[[-83.9236,9.8562,1415.3037],[-83.9214,9.869,1461.8558],[-83.9255,9.8693,1455.4619],[-83.9275,9.8728,1465.0524],[-83.9325,9.866,1427.6041],[-83.9328,9.863,1418.6782],[-83.9294,9.8624,1422.6028],[-83.9341,9.8539,1396.2015],[-83.9276,9.8521,1392.6555],[-83.9236,9.8562,1415.3037]]]]}
,"properties": {"GID_3": "CRI.2.2.7_1","GID_0": "CRI","country": "CostaRica","GID_1": "CRI.2_1","province": "Cartago","NL_NAME_1": "NA","GID_2": "CRI.2.2_1","county": "Cartago","NL_NAME_2": "NA","city": "Occidental","VARNAME_3": "NA","NL_NAME_3": "NA","TYPE_3": "Distrito","ENGTYPE_3": "District","CC_3": "2","HASC_3": "NA","name": "Occidental.city","area_km2": 1.838224,"hist_schema_id": "Elevation0-9000","hist_area_km2": {"1400": 0.564011,"1425": 0.89822,"1450": 0.375993}}}