{"type":"Feature","properties":{"GID_3":"CRI.7.15.2_1","GID_0":"CRI","country":"CostaRica","GID_1":"CRI.7_1","province":"SanJosé","NL_NAME_1":"NA","GID_2":"CRI.7.15_1","county":"SanJosé","NL_NAME_2":"NA","city":"ElCarmen","VARNAME_3":"NA","NL_NAME_3":"NA","TYPE_3":"Distrito","ENGTYPE_3":"District","CC_3":"1","HASC_3":"NA","name":"El_Carmen.city"},
"geometry":{"type": "MultiPolygon","coordinates": [[[[-84.0657,9.9396,1174.5803],[-84.0696,9.9409,1170.3853],[-84.0734,9.9384,1164.2213],[-84.0785,9.9403,1140.9462],[-84.079,9.9341,1166.4429],[-84.0615,9.932,1186.1592],[-84.0606,9.9405,1186.7296],[-84.0612,9.9394,1181.3894],[-84.0629,9.9404,1179.3234],[-84.0636,9.9389,1179.3234],[-84.0657,9.9396,1174.5803]]]]}}