{"type": "Feature","bbox": [-84.1587,9.4468,-83.9724,9.7186],"geometry": {"type": "MultiPolygon","coordinates": [[[[-84.0021,9.4502,83.2523],[-83.9981,9.4504,103.2003],[-83.9971,9.4468,89.2891],[-83.9945,9.4468,92.4215],[-83.9967,9.4536,103.2936],[-83.9916,9.4556,112.7447],[-83.9948,9.4617,130.2759],[-83.989,9.4645,131.8555],[-83.9897,9.6538,1492.3638],[-83.9724,9.7137,2193.6465],[-83.9782,9.7157,2204.9846],[-83.9792,9.7186,2193.1035],[-83.9861,9.7167,2120.0146],[-83.9891,9.7177,2133.595],[-84.0047,9.7112,2040.0613],[-84.0094,9.7108,2071.5242],[-84.0142,9.7044,2110.9885],[-84.0204,9.7022,2135.5073],[-84.0216,9.6956,2054.7192],[-84.0183,9.6897,2036.0157],[-84.0202,9.6884,2025.9102],[-84.0262,9.6891,1871.7614],[-84.0284,9.6853,1772.7371],[-84.0315,9.6853,1735.3379],[-84.0292,9.6822,1718.1959],[-84.0295,9.6781,1633.5132],[-84.0345,9.6745,1574.3763],[-84.038,9.6639,1504.088],[-84.0472,9.6573,1354.7485],[-84.0497,9.6566,1388.0405],[-84.0517,9.6588,1347.0222],[-84.0584,9.6595,1337.627],[-84.0621,9.6544,1284.0432],[-84.0653,9.6554,1302.1737],[-84.0733,9.652,1273.6207],[-84.0756,9.6535,1232.377],[-84.077,9.6504,1221.1573],[-84.0811,9.6497,1205.5],[-84.0816,9.6473,1205.5],[-84.0864,9.6442,1205.5],[-84.0911,9.6439,1205.5],[-84.0944,9.6458,1205.5],[-84.1004,9.6418,1205.5],[-84.1108,9.6461,1109.5717],[-84.1127,9.6424,1069.636],[-84.117,9.6429,1058.86],[-84.1204,9.6385,1038.5906],[-84.1247,9.6368,1028.5529],[-84.1272,9.6378,981.5475],[-84.1287,9.6422,955.3397],[-84.1316,9.6432,966.3514],[-84.1297,9.6474,958.7017],[-84.1304,9.6494,950.3222],[-84.1355,9.65,919.8167],[-84.1368,9.6538,916.3791],[-84.135,9.6576,902.7428],[-84.1362,9.6612,854.5386],[-84.1385,9.6618,836.5338],[-84.1428,9.6596,861.1758],[-84.1458,9.6616,821.9821],[-84.1497,9.66,813.9749],[-84.1567,9.6625,725.2374],[-84.1587,9.6565,640.4871],[-84.1534,9.6553,968.8492],[-84.1466,9.6481,1337.2645],[-84.1451,9.6401,1837.5175],[-84.1498,9.6291,2119.8896],[-84.1485,9.6234,2078.0513],[-84.1392,9.6215,1652.9818],[-84.1306,9.6088,1717.55],[-84.1309,9.6047,1646.8828],[-84.1337,9.6,1528.2179],[-84.142,9.6005,1304.2773],[-84.1393,9.5898,853.1245],[-84.1432,9.5809,618.89],[-84.1407,9.5763,557.8887],[-84.1381,9.5756,503.4125],[-84.136,9.572,479.2133],[-84.1291,9.57,395.1192],[-84.1264,9.5663,379.2853],[-84.1241,9.5579,318.9205],[-84.1204,9.555,265.0345],[-84.1188,9.56,341.1114],[-84.11,9.5616,356.5192],[-84.1091,9.5638,383.8582],[-84.1064,9.5635,400.9312],[-84.0992,9.569,447.4162],[-84.0921,9.568,494.7343],[-84.0828,9.5636,722.8255],[-84.075,9.5666,1004.8929],[-84.0719,9.571,1213.3929],[-84.0761,9.5581,975.4578],[-84.072,9.5527,684.3438],[-84.0718,9.5345,202.0572],[-84.0693,9.5304,193.3495],[-84.0739,9.5234,166.0119],[-84.0736,9.5185,149.6738],[-84.0839,9.5146,70.752],[-84.0876,9.5103,81.1673],[-84.0843,9.5095,88.8361],[-84.0831,9.5115,69.827],[-84.0799,9.5115,101.0775],[-84.0787,9.5131,84.1878],[-84.0747,9.5027,343.4726],[-84.0642,9.4992,444.7342],[-84.0594,9.4951,414.5662],[-84.0553,9.4897,413.4379],[-84.0529,9.4888,423.5836],[-84.0514,9.4843,375.6417],[-84.0437,9.4769,256.1719],[-84.0331,9.4709,557.4243],[-84.0271,9.461,598.8013],[-84.0187,9.4593,609.8338],[-84.0021,9.4502,83.2523]]]]}
,"properties": {"GID_2": "CRI.7.17_1","GID_0": "CRI","country": "CostaRica","GID_1": "CRI.7_1","province": "SanJosé","NL_NAME_1": "NA","county": "Tarrazú","VARNAME_2": "NA","NL_NAME_2": "NA","TYPE_2": "Cantón","ENGTYPE_2": "Canton","CC_2": "5","HASC_2": "CR.SJ.TA","name": "Tarrazú.county","area_km2": 289.5908,"hist_schema_id": "Elevation0-9000","hist_area_km2": {"75": 0.3973,"100": 0.3764,"125": 0.5646,"150": 0.481,"175": 0.962,"200": 1.2129,"225": 1.9657,"250": 2.2793,"275": 2.6348,"300": 2.9485,"325": 3.3667,"350": 3.7849,"375": 3.8895,"400": 3.4921,"425": 4.1403,"450": 4.0566,"475": 3.5757,"500": 3.9729,"525": 3.4711,"550": 4.2447,"575": 3.7846,"600": 3.8264,"625": 4.3701,"650": 4.4954,"675": 4.2863,"700": 4.1818,"725": 4.4536,"750": 4.2863,"775": 4.4535,"800": 4.3699,"825": 4.1189,"850": 3.9934,"875": 3.5125,"900": 3.1153,"925": 3.5961,"950": 3.6169,"975": 3.6796,"1000": 3.6169,"1025": 3.2405,"1050": 3.136,"1075": 3.1568,"1100": 2.6969,"1125": 3.4495,"1150": 3.5122,"1175": 3.6167,"1200": 4.3901,"1225": 4.3692,"1250": 4.202,"1275": 4.2646,"1300": 4.5155,"1325": 4.4318,"1350": 5.1634,"1375": 5.4351,"1400": 6.4174,"1425": 7.6507,"1450": 6.7936,"1475": 7.2116,"1500": 6.1874,"1525": 6.9817,"1550": 6.3755,"1575": 6.1037,"1600": 5.7484,"1625": 4.8285,"1650": 4.8704,"1675": 4.1179,"1700": 3.6998,"1725": 2.571,"1750": 2.4038,"1775": 1.9648,"1800": 1.9648,"1825": 1.7139,"1850": 1.8811,"1875": 2.111,"1900": 1.5466,"1925": 2.2573,"1950": 1.6093,"1975": 1.6511,"2000": 1.9855,"2025": 1.4421,"2050": 1.4421,"2075": 0.8569,"2100": 0.6479,"2125": 0.6897,"2150": 0.2926,"2175": 0.2299,"2200": 0.1881}}}