{"type": "Feature","bbox": [-85.6028,10.966,-85.4209,11.1725],"geometry": {"type": "MultiPolygon","coordinates": [[[[-85.5473,10.9791,298.666],[-85.5455,10.9812,303.0217],[-85.5379,10.9818,316.3051],[-85.5316,10.9855,339.3608],[-85.5305,10.9881,344.6927],[-85.5267,10.989,353.7914],[-85.5224,10.9827,372.8325],[-85.5164,10.9787,392.3937],[-85.5171,10.975,381.2981],[-85.5104,10.9713,440.5565],[-85.4978,10.9704,555.4847],[-85.4968,10.9685,552.9924],[-85.4919,10.9666,650.3785],[-85.4849,10.9688,789.6257],[-85.4769,10.9788,1412.6904],[-85.4737,10.9794,1449.2205],[-85.4704,10.9779,1416.0129],[-85.4695,10.9736,1348.0687],[-85.4647,10.9724,1222.1682],[-85.4631,10.966,1124.3944],[-85.4577,10.9678,1091.2634],[-85.4551,10.9724,911.2912],[-85.4572,10.983,769.9617],[-85.457,10.9924,628.375],[-85.4491,11.008,469.9053],[-85.4482,11.0207,399.8007],[-85.4528,11.0299,359.3302],[-85.4521,11.0326,329.8414],[-85.4572,11.0366,321.0328],[-85.4572,11.0441,305.4452],[-85.4533,11.0482,297.9091],[-85.4528,11.0549,278.0292],[-85.4482,11.0598,281.4827],[-85.4464,11.0596,283.4395],[-85.4428,11.0667,272.5783],[-85.4408,11.0665,276.6888],[-85.4426,11.0701,270.5505],[-85.4396,11.0745,273.661],[-85.4345,11.0784,278.9201],[-85.4327,11.0774,270.6381],[-85.4278,11.0793,261.0299],[-85.4257,11.0769,278.5827],[-85.4268,11.0797,261.0299],[-85.4256,11.0802,275.2548],[-85.4255,11.0864,234.0456],[-85.4237,11.0883,241.5215],[-85.4258,11.0931,182.3049],[-85.4209,11.099,168.6773],[-85.4269,11.103,164.0835],[-85.4277,11.107,147.0022],[-85.4263,11.1105,131.2463],[-85.4305,11.1145,127.7145],[-85.4282,11.1197,91.1417],[-85.4301,11.1217,88.8802],[-85.4238,11.129,72.4717],[-85.5223,11.1676,130.012],[-85.5279,11.1725,83.121],[-85.5361,11.1661,96.9563],[-85.5396,11.1651,101.0968],[-85.5455,11.1549,127.1978],[-85.5457,11.1517,141.1955],[-85.5529,11.147,182.585],[-85.5526,11.1393,221.302],[-85.5534,11.1355,258.1552],[-85.5565,11.1327,305.6548],[-85.556,11.1289,306.5509],[-85.5601,11.1285,289.8162],[-85.5717,11.1332,172.4824],[-85.583,11.1341,132.176],[-85.5847,11.1368,140.1678],[-85.5873,11.135,159.5517],[-85.5899,11.1401,112.7629],[-85.5959,11.1447,87.551],[-85.6021,11.1371,113.6338],[-85.6028,11.1328,100.8452],[-85.6024,11.1309,99.2493],[-85.5996,11.1313,98.1223],[-85.5981,11.1237,107.8226],[-85.5953,11.123,103.9037],[-85.5916,11.1173,107.782],[-85.5876,11.1146,110.0823],[-85.5918,11.1102,116.0938],[-85.5944,11.1116,123.3156],[-85.5945,11.1093,120.1906],[-85.5916,11.1054,114.4773],[-85.5932,11.1035,126.4934],[-85.587,11.1014,125.5183],[-85.5781,11.0883,150.984],[-85.58,11.0838,160.8454],[-85.5782,11.0806,184.4771],[-85.5806,11.0767,170.7971],[-85.5804,11.0733,194.7203],[-85.5853,11.0684,185.0338],[-85.5877,11.0618,175.0684],[-85.5842,11.0574,195.4568],[-85.5866,11.0519,191.7031],[-85.5859,11.0481,201.2158],[-85.5821,11.0469,202.3472],[-85.5791,11.0435,206.7509],[-85.5778,11.0372,208.7254],[-85.575,11.0339,211.3772],[-85.5684,11.0345,225.1793],[-85.5639,11.04,229.5762],[-85.5585,11.0397,250.115],[-85.5548,11.0345,258.2147],[-85.54,11.0228,283.7191],[-85.5365,11.0166,299.2704],[-85.5457,11.0024,540.2981],[-85.5443,10.9985,575.5792],[-85.5473,10.9791,298.666]]]]}
,"properties": {"GID_3": "CRI.3.6.2_1","GID_0": "CRI","country": "CostaRica","GID_1": "CRI.3_1","province": "Guanacaste","NL_NAME_1": "NA","GID_2": "CRI.3.6_1","county": "LaCruz","NL_NAME_2": "NA","city": "LaGarita","VARNAME_3": "NA","NL_NAME_3": "NA","TYPE_3": "Distrito","ENGTYPE_3": "District","CC_3": "3","HASC_3": "NA","name": "La_Garita.city","area_km2": 274.4707,"hist_schema_id": "Elevation0-9000","hist_area_km2": {"50": 0.0832,"75": 1.8723,"100": 6.5737,"125": 10.9217,"150": 10.901,"175": 12.4822,"200": 14.418,"225": 14.855,"250": 19.4329,"275": 67.3343,"300": 39.7018,"325": 15.4189,"350": 11.0078,"375": 8.3442,"400": 7.3872,"425": 5.577,"450": 4.3078,"475": 3.3505,"500": 2.4767,"525": 1.9356,"550": 1.6026,"575": 1.4153,"600": 1.1447,"625": 0.7701,"650": 0.9366,"675": 0.9366,"700": 0.7077,"725": 0.6868,"750": 0.8742,"775": 0.666,"800": 0.5412,"825": 0.4579,"850": 0.3746,"875": 0.4995,"900": 0.3747,"925": 0.3538,"950": 0.1457,"975": 0.3747,"1000": 0.2706,"1025": 0.1873,"1050": 0.2081,"1075": 0.1249,"1100": 0.3955,"1125": 0.4579,"1150": 0.1873,"1175": 0.1873,"1200": 0.2706,"1225": 0.0833,"1250": 0.1665,"1275": 0.0833,"1300": 0.1041,"1325": 0.1457,"1350": 0.1041,"1375": 0.0416,"1400": 0.0833,"1450": 0.0624,"1475": 0.0208,"1500": 0.0416}}}