{"type": "Feature","bbox": [-83.947,10.0836,-83.7744,10.2538],"geometry": {"type": "MultiPolygon","coordinates": [[[[-83.8163,10.0836,923.7301],[-83.8105,10.0873,906.4622],[-83.8062,10.094,797.2018],[-83.8078,10.0988,756.2576],[-83.8056,10.1061,708.9742],[-83.8078,10.1103,707.9221],[-83.8105,10.1117,674.1764],[-83.8091,10.1168,674.3825],[-83.8037,10.1252,680.6617],[-83.8036,10.132,610.636],[-83.8059,10.1335,597.6946],[-83.8063,10.1365,566.7488],[-83.8039,10.1397,549.6025],[-83.8035,10.1451,508.1864],[-83.8012,10.1497,490.4008],[-83.7869,10.1723,426.3718],[-83.7859,10.1867,358.8165],[-83.7811,10.1948,325.0799],[-83.779,10.2043,287.9928],[-83.7749,10.2115,257.4904],[-83.7762,10.2152,251.4916],[-83.7744,10.2182,247.3597],[-83.7752,10.2226,232.8629],[-83.8236,10.2285,225.4375],[-83.8287,10.245,175.0375],[-83.8342,10.2469,165.3537],[-83.8342,10.2426,171.9745],[-83.8432,10.2457,159.9055],[-83.8475,10.2516,154.9135],[-83.8589,10.2538,148.4344],[-83.8638,10.2479,154.5935],[-83.8733,10.2428,169.5339],[-83.8874,10.2291,202.2933],[-83.9086,10.2052,262.1633],[-83.9133,10.2032,266.3319],[-83.9187,10.1968,288.3794],[-83.9294,10.1902,338.0164],[-83.9339,10.1854,337.2241],[-83.9367,10.179,429.6457],[-83.9375,10.1707,374.2995],[-83.9426,10.1627,406.5967],[-83.947,10.1473,473.381],[-83.8163,10.0836,923.7301]]]]}
,"properties": {"GID_3": "CRI.5.4.3_1","GID_0": "CRI","country": "CostaRica","GID_1": "CRI.5_1","province": "Limón","NL_NAME_1": "NA","GID_2": "CRI.5.4_1","county": "Pococí","NL_NAME_2": "NA","city": "Guápiles","VARNAME_3": "NA","NL_NAME_3": "NA","TYPE_3": "Distrito","ENGTYPE_3": "District","CC_3": "1","HASC_3": "NA","name": "Guápiles.city","area_km2": 206.2062,"hist_schema_id": "Elevation0-9000","hist_area_km2": {"150": 1.7317,"175": 6.9062,"200": 9.2434,"225": 9.7444,"250": 10.2662,"275": 6.6564,"300": 7.0113,"325": 11.1849,"350": 11.4356,"375": 9.0777,"400": 8.3892,"425": 7.6171,"450": 6.1355,"475": 6.6781,"500": 5.9686,"525": 5.6348,"550": 5.7392,"575": 5.6349,"600": 4.4036,"625": 4.4454,"650": 4.5498,"675": 3.5898,"700": 2.9219,"725": 2.8802,"750": 3.1933,"775": 3.4228,"800": 3.2559,"825": 2.755,"850": 2.8594,"875": 2.5255,"900": 2.275,"925": 2.0872,"950": 1.8158,"975": 1.7532,"1000": 1.461,"1025": 1.8785,"1050": 1.7741,"1075": 1.7533,"1100": 1.5654,"1125": 1.8785,"1150": 1.6698,"1175": 2.1499,"1200": 2.0038,"1225": 1.4611,"1250": 1.6281,"1275": 1.3985,"1300": 0.9393,"1325": 0.668,"1350": 0.1879}}}