{"type":"Feature","properties":{"GID_3":"CRI.6.11.5_1","GID_0":"CRI","country":"CostaRica","GID_1":"CRI.6_1","province":"Puntarenas","NL_NAME_1":"NA","GID_2":"CRI.6.11_1","county":"Puntarenas","NL_NAME_2":"NA","city":"Chira","VARNAME_3":"NA","NL_NAME_3":"NA","TYPE_3":"Distrito","ENGTYPE_3":"District","CC_3":"13","HASC_3":"NA","name":"Chira.city"},
"geometry":{"type": "MultiPolygon","coordinates": [[[[-85.1212,10.1039,0.0],[-85.1215,10.1054,0.0],[-85.1183,10.1046,1.6687],[-85.1165,10.1011,0.0],[-85.1047,10.1071,0.0],[-85.1166,10.1098,4.5037],[-85.1257,10.1147,9.8576],[-85.1399,10.1176,4.1459],[-85.146,10.1214,0.0],[-85.1502,10.1196,7.7492],[-85.1506,10.1211,12.2946],[-85.1629,10.1261,9.2329],[-85.1796,10.1251,28.7128],[-85.1871,10.1197,10.0832],[-85.1907,10.119,0.0],[-85.194,10.1205,0.0],[-85.1977,10.1141,13.0672],[-85.1964,10.1105,7.1351],[-85.1902,10.105,0.0],[-85.1892,10.099,9.3471],[-85.1827,10.0842,4.4673],[-85.1729,10.0781,2.831],[-85.1575,10.0737,0.0],[-85.1349,10.0741,5.8189],[-85.1242,10.0787,0.0],[-85.1084,10.0816,0.0],[-85.1008,10.0847,0.0],[-85.097,10.0881,52.4503],[-85.0936,10.0957,3.4161],[-85.0978,10.0959,2.8205],[-85.101,10.0983,0.0],[-85.1012,10.097,21.1636],[-85.1086,10.0937,8.088],[-85.1143,10.094,0.0],[-85.115,10.0922,1.729],[-85.1203,10.0918,8.3438],[-85.1195,10.0926,0.0],[-85.1212,10.0931,7.1447],[-85.1226,10.0967,6.5391],[-85.1212,10.1039,0.0]]]]}}