{"type":"Feature","properties":{"GID_2":"CRI.3.6_1","GID_0":"CRI","country":"CostaRica","GID_1":"CRI.3_1","province":"Guanacaste","NL_NAME_1":"NA","county":"LaCruz","VARNAME_2":"NA","NL_NAME_2":"NA","TYPE_2":"Cantón","ENGTYPE_2":"Canton","CC_2":"10","HASC_2":"CR.GU.LC","name":"La_Cruz.county"},
"geometry":{"type": "MultiPolygon","coordinates": [[[[-85.9699,10.852,0.0],[-85.9703,10.8518,0.0],[-85.9704,10.8514,0.0],[-85.9698,10.8517,0.0],[-85.9699,10.852,0.0]]],
[[[-85.9768,10.852,0.0],[-85.9757,10.8517,0.0],[-85.9779,10.8527,0.0],[-85.9776,10.8515,0.0],[-85.9768,10.852,0.0]]],
[[[-85.9698,10.8527,0.0],[-85.97,10.8527,0.0],[-85.9701,10.8523,0.0],[-85.9698,10.8525,0.0],[-85.9698,10.8527,0.0]]],
[[[-85.979,10.8538,0.0],[-85.9789,10.8531,0.0],[-85.9781,10.8532,0.0],[-85.9782,10.8537,0.0],[-85.979,10.8538,0.0]]],
[[[-85.9573,10.8544,0.0],[-85.9593,10.8545,0.0],[-85.9602,10.8539,0.0],[-85.9588,10.8528,0.856],[-85.9573,10.8544,0.0]]],
[[[-85.963,10.8541,0.0],[-85.963,10.8537,0.0],[-85.9624,10.8539,0.0],[-85.9626,10.8542,0.0],[-85.963,10.8541,0.0]]],
[[[-85.9486,10.8557,0.0],[-85.9502,10.8545,6.5992],[-85.9526,10.8574,0.0],[-85.9532,10.8552,2.0446],[-85.9558,10.854,0.0],[-85.9491,10.853,6.4122],[-85.9486,10.8557,0.0]]],
[[[-85.9283,10.8544,21.3528],[-85.9325,10.8576,0.0],[-85.9334,10.8573,0.0],[-85.9316,10.8536,10.4925],[-85.9283,10.8544,21.3528]]],
[[[-85.9214,10.8531,9.1068],[-85.9219,10.8531,9.1068],[-85.922,10.853,9.1068],[-85.9215,10.8529,9.1068],[-85.9214,10.8531,9.1068]]],
[[[-85.9123,10.8624,0.0],[-85.9185,10.8615,0.0],[-85.9185,10.8582,4.2188],[-85.9232,10.8577,0.0],[-85.9274,10.8534,0.0],[-85.9214,10.8534,9.1068],[-85.9174,10.857,29.3658],[-85.9144,10.8517,0.0913],[-85.9095,10.8532,0.0],[-85.909,10.855,0.0],[-85.9124,10.8581,8.3664],[-85.9123,10.8624,0.0]]],
[[[-85.9021,10.8591,0.0],[-85.9072,10.8596,16.5737],[-85.9083,10.8558,18.0666],[-85.9034,10.8552,0.0],[-85.9035,10.8576,19.8997],[-85.899,10.858,0.0],[-85.9021,10.8591,0.0]]],
[[[-85.8985,10.8582,0.0],[-85.8987,10.858,0.0],[-85.8984,10.8578,0.0],[-85.8983,10.8579,0.0],[-85.8985,10.8582,0.0]]],
[[[-85.936,10.8567,6.5072],[-85.9371,10.8589,0.0],[-85.9401,10.8574,0.0],[-85.9414,10.8589,0.0],[-85.9414,10.8568,19.8064],[-85.9443,10.8559,5.9298],[-85.9454,10.8572,0.0],[-85.9469,10.855,0.0],[-85.9434,10.8539,19.8781],[-85.936,10.8567,6.5072]]],
[[[-85.9513,10.8901,0.0],[-85.9514,10.8896,0.0],[-85.9507,10.8897,1.6267],[-85.9507,10.8901,1.6267],[-85.9513,10.8901,0.0]]],
[[[-85.8885,10.8727,17.4065],[-85.8873,10.8747,33.467],[-85.8889,10.8767,7.4873],[-85.8924,10.8746,3.3192],[-85.8973,10.8748,8.8644],[-85.8988,10.8726,34.2022],[-85.8955,10.8699,7.065],[-85.8885,10.8727,17.4065]]],
[[[-85.899,10.9196,0.0],[-85.8987,10.9214,0.0],[-85.9018,10.9213,0.0],[-85.9003,10.9176,0.0],[-85.8974,10.9167,1.9019],[-85.8971,10.9173,0.0],[-85.899,10.9196,0.0]]],
[[[-85.8975,10.9221,0.0],[-85.8976,10.9218,0.0],[-85.8973,10.9218,0.0],[-85.8973,10.922,0.0],[-85.8975,10.9221,0.0]]],
[[[-85.9045,10.9254,0.0],[-85.9044,10.9251,0.0],[-85.9041,10.9253,0.0],[-85.9042,10.9255,0.0],[-85.9045,10.9254,0.0]]],
[[[-85.9028,10.9263,0.0],[-85.9027,10.926,0.0],[-85.9022,10.9263,0.0],[-85.9024,10.9265,0.0],[-85.9028,10.9263,0.0]]],
[[[-85.9077,10.9421,0.0],[-85.9076,10.9418,0.0],[-85.9075,10.9417,0.0],[-85.9074,10.9421,0.0],[-85.9077,10.9421,0.0]]],
[[[-85.856,10.8473,0.0],[-85.8621,10.848,11.1766],[-85.8723,10.8437,33.0433],[-85.8724,10.8423,33.0433],[-85.8687,10.8412,34.8658],[-85.8591,10.8446,38.0139],[-85.856,10.8473,0.0]]],
[[[-85.8172,10.9253,0.0],[-85.8171,10.9251,0.0],[-85.8168,10.925,0.0],[-85.817,10.9254,0.0],[-85.8172,10.9253,0.0]]],
[[[-85.7892,10.9381,0.0],[-85.7894,10.938,0.0],[-85.7889,10.9376,0.0],[-85.7889,10.9379,0.0],[-85.7892,10.9381,0.0]]],
[[[-85.7977,10.9371,22.7915],[-85.7966,10.9362,0.0],[-85.7964,10.9383,0.0],[-85.7983,10.9396,0.0],[-85.7986,10.9377,22.7915],[-85.7977,10.9371,22.7915]]],
[[[-85.4599,10.9619,1173.1694],[-85.4574,10.9602,1175.2671],[-85.4599,10.9427,1258.4005],[-85.4596,10.9352,1384.7178],[-85.4588,10.9337,1445.8171],[-85.4534,10.9333,1503.6134],[-85.4489,10.9342,1596.1426],[-85.444,10.9442,1055.2875],[-85.4205,10.9644,644.9935],[-85.4121,10.9618,601.7898],[-85.4084,10.9632,551.5432],[-85.4042,10.9619,533.0636],[-85.3967,10.9664,495.2081],[-85.3914,10.9651,482.8811],[-85.389,10.9681,467.7684],[-85.3821,10.9711,447.5767],[-85.3801,10.9732,442.7252],[-85.3813,10.9745,446.3943],[-85.3795,10.9772,441.3155],[-85.3777,10.9771,431.6233],[-85.3802,10.9797,426.1291],[-85.3789,10.9812,420.6987],[-85.3806,10.9843,400.617],[-85.3793,10.9886,398.2161],[-85.3767,10.9895,396.8612],[-85.3784,10.9936,390.0935],[-85.3768,10.9948,391.4878],[-85.3776,10.9957,400.8461],[-85.3744,10.998,366.827],[-85.3701,10.997,378.2579],[-85.3664,10.9991,372.124],[-85.3687,11.0007,386.4251],[-85.3675,11.0033,363.7368],[-85.3689,11.0048,353.9776],[-85.3661,11.0094,343.1593],[-85.3649,11.0074,342.3636],[-85.3638,11.0104,328.1653],[-85.3623,11.0101,346.7124],[-85.3624,11.0144,334.4419],[-85.3571,11.0188,311.0415],[-85.3566,11.0243,330.3034],[-85.3545,11.0254,326.8659],[-85.3562,11.0274,327.188],[-85.3557,11.0303,308.0013],[-85.3534,11.031,286.5062],[-85.354,11.0328,275.3221],[-85.3465,11.0356,253.7999],[-85.3406,11.036,236.5849],[-85.3391,11.0343,231.0924],[-85.3358,11.0366,233.1985],[-85.3338,11.036,227.5616],[-85.3312,11.0411,229.7694],[-85.3286,11.0395,211.9103],[-85.3255,11.0419,208.2488],[-85.3231,11.0421,240.9964],[-85.3216,11.0404,199.5282],[-85.3112,11.0429,184.1926],[-85.3093,11.0402,199.5576],[-85.3059,11.0396,194.5122],[-85.307,11.0381,215.4666],[-85.3042,11.0373,205.234],[-85.305,11.0356,206.1476],[-85.2984,11.0322,205.3127],[-85.2976,11.0311,186.9063],[-85.2997,11.0314,178.4483],[-85.2967,11.0277,182.6451],[-85.2915,11.025,180.3241],[-85.2901,11.0226,184.2342],[-85.2881,11.0241,190.1561],[-85.2862,11.0227,158.7463],[-85.2849,11.0247,150.3015],[-85.2787,11.0191,156.905],[-85.2789,11.0171,151.8237],[-85.2762,11.0166,161.0528],[-85.2772,11.0148,159.7516],[-85.2732,11.014099999999999,144.2101],[-85.272,11.016,145.4375],[-85.2685,11.016,129.7905],[-85.2688,11.0117,133.2143],[-85.265,11.014099999999999,154.8344],[-85.2629,11.0126,119.3013],[-85.2582,11.0209,132.0806],[-85.2589,11.0339,95.4527],[-85.2613,11.0355,93.887],[-85.2608,11.039,81.6583],[-85.2633,11.0429,76.082],[-85.2587,11.0451,56.3395],[-85.2567,11.0441,56.8857],[-85.2543,11.0492,54.269],[-85.2517,11.0494,56.7265],[-85.2486,11.0622,64.7152],[-85.245,11.0611,44.82],[-85.2432,11.0622,42.6074],[-85.2428,11.0656,40.6033],[-85.2393,11.0636,44.9659],[-85.2353,11.0655,42.1353],[-85.2332,11.0622,41.3765],[-85.2291,11.0633,40.042],[-85.3575,11.1263,46.1073],[-85.424,11.129,72.4717],[-85.5223,11.1676,130.012],[-85.5604,11.21,243.9097],[-85.6098,11.2198,38.8993],[-85.693,11.0789,5.97],[-85.685,11.0745,6.1102],[-85.6826,11.0685,0.0],[-85.6767,11.0681,3.6424],[-85.6728,11.0656,8.0692],[-85.6704,11.0615,2.5869],[-85.6678,11.0462,0.0],[-85.6704,11.0384,7.751],[-85.6758,11.0325,0.0],[-85.6804,11.0318,6.2201],[-85.6882,11.027,3.1456],[-85.7075,11.0302,5.2032],[-85.7133,11.0267,7.5759],[-85.7175,11.0315,2.9007],[-85.7174,11.0358,13.8203],[-85.723,11.0461,0.0],[-85.7275,11.0492,0.0],[-85.732,11.0462,20.1387],[-85.735,11.0477,0.0],[-85.7362,11.0447,11.5383],[-85.7408,11.0436,21.212],[-85.7389,11.0381,11.7643],[-85.7349,11.0372,0.0],[-85.7361,11.0319,37.9071],[-85.7456,11.0338,0.0],[-85.747,11.0278,2.6756],[-85.749,11.0269,19.0351],[-85.7506,11.028,0.2717],[-85.7542,11.024,0.0],[-85.7528,11.0184,0.0],[-85.7459,11.0134,0.0],[-85.7421,11.0126,21.0701],[-85.737,11.0081,0.0],[-85.7314,11.0062,5.8426],[-85.7253,11.0063,3.9062],[-85.7184,11.0,0.0],[-85.7103,10.9964,0.0],[-85.7096,10.9894,13.589],[-85.7026,10.9854,0.0],[-85.7006,10.9859,17.090699999999998],[-85.6976,10.9821,8.337],[-85.6947,10.982,0.0],[-85.6893,10.9772,11.6564],[-85.6885,10.9694,5.1405],[-85.6916,10.9636,10.927],[-85.6963,10.9654,0.0],[-85.6985,10.9629,19.2904],[-85.7025,10.9649,0.0],[-85.702,10.9627,0.0],[-85.705,10.9603,14.3151],[-85.7049,10.9575,11.6823],[-85.7071,10.9549,13.0553],[-85.7136,10.9567,7.8347],[-85.7152,10.954,0.0],[-85.7194,10.9583,0.0],[-85.7209,10.9584,0.0],[-85.7187,10.9571,0.0],[-85.7197,10.9549,6.5535],[-85.7164,10.9527,0.0],[-85.7125,10.9511,0.0],[-85.7095,10.9523,34.2104],[-85.7052,10.9491,39.6555],[-85.7027,10.9498,7.3491],[-85.7011,10.9457,0.0],[-85.7049,10.9353,19.3806],[-85.7117,10.9359,7.6894],[-85.7119,10.9329,16.3775],[-85.7139,10.9316,15.2398],[-85.7119,10.9264,9.0398],[-85.7169,10.9237,5.9648],[-85.7226,10.9245,11.1789],[-85.7227,10.9282,5.6092],[-85.7203,10.9311,2.1495],[-85.7188,10.931,2.1495],[-85.72,10.9349,0.0],[-85.7269,10.9369,13.2729],[-85.728,10.9386,0.0],[-85.7289,10.9349,1.4935],[-85.7314,10.9346,1.8506],[-85.7339,10.9372,17.9542],[-85.733,10.9398,3.002],[-85.7409,10.9382,28.713],[-85.7451,10.9392,0.0],[-85.7482,10.937,27.3634],[-85.7487,10.9388,0.0],[-85.7505,10.9372,0.0],[-85.7554,10.9395,7.9352],[-85.762,10.9378,19.4894],[-85.7654,10.9386,13.5917],[-85.7649,10.9366,21.4424],[-85.7664,10.9358,0.0],[-85.7695,10.9392,1.2029],[-85.7716,10.9375,5.7813],[-85.7732,10.9397,9.1349],[-85.7772,10.94,12.2065],[-85.7787,10.9395,0.0],[-85.7789,10.9347,5.9362],[-85.7802,10.9341,1.9676],[-85.7818,10.9367,0.0],[-85.7843,10.9365,23.3978],[-85.7844,10.9398,0.0],[-85.7851,10.938,5.5484],[-85.7864,10.9388,0.0],[-85.7869,10.9372,0.0],[-85.7889,10.9371,0.0],[-85.7877,10.9353,34.4735],[-85.7893,10.9322,0.0],[-85.7925,10.9317,15.2205],[-85.796,10.9347,0.0],[-85.7996,10.9322,0.0],[-85.798,10.9277,34.8362],[-85.7908,10.9241,14.6638],[-85.7896,10.9199,4.2379],[-85.7834,10.9147,12.8462],[-85.7862,10.9144,8.4663],[-85.7852,10.9134,13.7052],[-85.7905,10.9095,3.3987],[-85.7942,10.909,0.0],[-85.8054,10.9151,25.301],[-85.8069,10.9184,5.4485],[-85.8143,10.9194,1.6558],[-85.8181,10.9223,0.0],[-85.8193,10.9299,2.9656],[-85.8103,10.9356,0.0],[-85.8149,10.9395,3.5478],[-85.8169,10.9455,0.0],[-85.8183,10.9439,10.0441],[-85.8204,10.9462,0.0],[-85.8228,10.9459,0.0],[-85.8242,10.9428,7.8976],[-85.8257,10.9435,16.2921],[-85.8258,10.9458,0.0],[-85.8302,10.9455,0.0],[-85.8317,10.9435,48.2795],[-85.8356,10.9467,0.0],[-85.8376,10.9449,51.3394],[-85.8539,10.9453,45.7751],[-85.8568,10.9486,9.5867],[-85.8621,10.9479,0.0],[-85.8639,10.951,0.0],[-85.8656,10.9489,0.0],[-85.8681,10.9492,0.0],[-85.8688,10.951,0.0],[-85.8766,10.9494,5.2225],[-85.8827,10.9503,42.6158],[-85.8845,10.9492,5.9347],[-85.8805,10.947,14.1704],[-85.8679,10.9417,10.5653],[-85.8635,10.9416,29.1595],[-85.861,10.936,6.1156],[-85.862,10.9294,6.1161],[-85.8652,10.9267,13.17],[-85.8691,10.9264,2.1527],[-85.8716,10.9235,29.5643],[-85.8761,10.9222,0.0],[-85.8807,10.9235,1.7028],[-85.8811,10.9206,0.0],[-85.8979,10.9133,17.4489],[-85.9001,10.9106,0.0],[-85.9068,10.9095,9.0975],[-85.913,10.9105,0.0],[-85.9136,10.908,35.974],[-85.9184,10.9049,10.6415],[-85.926,10.9039,0.0],[-85.9286,10.9009,0.0],[-85.9333,10.9005,0.0],[-85.9421,10.8947,21.045],[-85.9458,10.8946,0.0],[-85.9502,10.8898,1.6267],[-85.9362,10.8946,29.6296],[-85.9318,10.894,31.4521],[-85.923,10.896,22.6838],[-85.9163,10.8994,23.9446],[-85.9074,10.8962,54.7429],[-85.9033,10.8901,7.233],[-85.8774,10.8817,11.42],[-85.8746,10.8785,0.0],[-85.8673,10.8773,27.4695],[-85.8573,10.8645,0.0],[-85.854,10.854,0.9726],[-85.8502,10.8562,2.6247],[-85.844,10.8568,0.0],[-85.8338,10.8525,8.2649],[-85.8279,10.8543,8.168],[-85.8044,10.8499,26.7993],[-85.7973,10.8552,5.7511],[-85.7894,10.8482,1.7369],[-85.7879,10.8433,0.0],[-85.7886,10.8395,0.0],[-85.7913,10.8365,4.7959],[-85.7945,10.8373,0.0],[-85.8019,10.8341,5.6307],[-85.8024,10.8282,85.902],[-85.801,10.8246,0.0],[-85.7955,10.8221,15.3378],[-85.7924,10.8154,7.3279],[-85.7778,10.814,81.1925],[-85.7642,10.8033,0.0],[-85.762,10.8036,5.7441],[-85.7598,10.8091,104.2097],[-85.7529,10.8141,51.3718],[-85.7417,10.8191,22.3204],[-85.7304,10.8126,0.0],[-85.7265,10.8129,17.9552],[-85.7228,10.8088,4.0625],[-85.7207,10.8112,8.5064],[-85.7174,10.8114,0.0],[-85.7133,10.8102,1.5596],[-85.7091,10.8057,8.5388],[-85.7035,10.8072,50.056399999999996],[-85.6966,10.7994,6.7315],[-85.6864,10.8035,1.4672],[-85.6793,10.7971,1.5906],[-85.6789,10.7985,0.0],[-85.683,10.8031,4.1178],[-85.6793,10.8084,18.8553],[-85.6692,10.7991,12.9592],[-85.6646,10.8028,23.5602],[-85.6582,10.803,26.0869],[-85.6522,10.8024,35.522],[-85.6417,10.7982,89.7483],[-85.6408,10.8075,221.9396],[-85.6433,10.812,246.4099],[-85.6442,10.8221,286.9081],[-85.6384,10.8259,290.7112],[-85.6333,10.8327,290.8645],[-85.6256,10.8351,294.5607],[-85.6248,10.8388,297.4478],[-85.6152,10.835,289.7132],[-85.6092,10.8478,304.2367],[-85.5969,10.8544,254.9819],[-85.5901,10.8541,236.3017],[-85.5842,10.851,207.1991],[-85.5785,10.8526,197.7713],[-85.5688,10.8595,170.1743],[-85.5637,10.8564,122.7858],[-85.5604,10.8596,121.2227],[-85.551,10.8622,126.6965],[-85.5525,10.8664,137.5171],[-85.5459,10.8722,136.1448],[-85.5489,10.8772,139.4321],[-85.5497,10.8868,157.0354],[-85.5534,10.8895,150.82],[-85.5537,10.8923,182.615],[-85.5559,10.8926,162.0999],[-85.5572,10.8948,167.1151],[-85.5596,10.8946,164.187],[-85.559,10.8981,173.6588],[-85.5509,10.9039,210.8888],[-85.547,10.9049,209.0513],[-85.5449,10.9035,234.4505],[-85.5385,10.911,252.4708],[-85.5343,10.9135,245.0327],[-85.5338,10.916,265.0398],[-85.5265,10.9203,276.3988],[-85.5274,10.9224,271.1852],[-85.5254,10.925,270.4302],[-85.5302,10.9275,284.3816],[-85.5281,10.9311,294.9637],[-85.5254,10.9324,304.114],[-85.5252,10.9409,337.8846],[-85.5203,10.9449,389.7682],[-85.5155,10.9457,392.2152],[-85.5092,10.9505,439.7732],[-85.502,10.9516,505.4073],[-85.4972,10.9558,548.7218],[-85.4862,10.9606,674.1129],[-85.477,10.9619,825.7056],[-85.469,10.9652,944.0681],[-85.4654,10.9641,1009.1576],[-85.4631,10.9603,1081.4912],[-85.4599,10.9619,1173.1694]]],
[[[-85.7343,10.9579,0.0],[-85.7332,10.957,0.0],[-85.7325,10.957,0.0],[-85.7343,10.9581,0.0],[-85.7343,10.9579,0.0]]],
[[[-85.7222,10.958,0.0],[-85.7224,10.9583,0.0],[-85.7238,10.9588,0.0],[-85.7225,10.957,0.0],[-85.7222,10.958,0.0]]],
[[[-85.7149,10.9797,12.3749],[-85.714,10.9783,0.0],[-85.7138,10.982,0.0],[-85.7183,10.9833,10.2999],[-85.7183,10.9829,10.2999],[-85.7149,10.9797,12.3749]]],
[[[-85.8012,10.9384,0.0],[-85.8014,10.9383,0.0],[-85.8014,10.9381,0.0],[-85.801,10.9381,0.0],[-85.8012,10.9384,0.0]]],
[[[-85.79,10.9391,0.0],[-85.7901,10.9388,0.0],[-85.7891,10.9383,0.0],[-85.7891,10.9394,0.0],[-85.79,10.9391,0.0]]],
[[[-85.8137,10.9441,0.0],[-85.8143,10.9426,1.5909],[-85.8123,10.9454,0.0],[-85.813,10.9454,0.0],[-85.8137,10.9441,0.0]]],
[[[-85.7476,11.0015,0.0],[-85.7469,11.0005,3.7841],[-85.745,11.0027,9.83],[-85.7473,11.0037,0.0],[-85.7476,11.0015,0.0]]],
[[[-85.7485,11.0034,0.0],[-85.7482,11.0031,0.0],[-85.7478,11.0036,0.0],[-85.7483,11.0037,0.0],[-85.7485,11.0034,0.0]]],
[[[-85.7403,11.0454,0.0],[-85.7398,11.0456,0.0],[-85.74,11.0462,0.0],[-85.7403,11.0459,0.0],[-85.7403,11.0454,0.0]]],
[[[-85.7081,11.0463,3.8105],[-85.7068,11.0462,0.0],[-85.7069,11.0485,0.0],[-85.711,11.0503,7.6299],[-85.7106,11.047,0.0],[-85.7081,11.0463,3.8105]]]]}}