{"type":"Feature","properties":{"GID_3":"CRI.7.6.3_1","GID_0":"CRI","country":"CostaRica","GID_1":"CRI.7_1","province":"SanJosé","NL_NAME_1":"NA","GID_2":"CRI.7.6_1","county":"Dota","NL_NAME_2":"NA","city":"SantaMaría","VARNAME_3":"NA","NL_NAME_3":"NA","TYPE_3":"Distrito","ENGTYPE_3":"District","CC_3":"1","HASC_3":"NA","name":"Santa_María.city"},
"geometry":{"type": "MultiPolygon","coordinates": [[[[-83.9335,9.647,1815.1562],[-83.9398,9.6505,1812.2791],[-83.945,9.6571,1700.7112],[-83.9485,9.6575,1677.0187],[-83.9481,9.6605,1741.0476],[-83.9729,9.6884,1958.0603],[-83.977,9.6888,2033.7407],[-83.9783,9.6929,2024.0728],[-83.9897,9.6538,1492.3638],[-83.989,9.4645,131.8555],[-83.9874,9.4647,191.7765],[-83.9859,9.4686,128.7939],[-83.9838,9.4648,174.2399],[-83.9764,9.4616,143.5768],[-83.9742,9.4584,166.1544],[-83.9397,9.6257,2246.7842],[-83.9416,9.6284,2168.5256],[-83.9409,9.6343,1973.4138],[-83.9354,9.641,1883.7335],[-83.9335,9.647,1815.1562]]]]}}