{"type": "Feature","id": "1334","bbox": [-85.94644,9.72482,-84.76399,11.20994],"geometry": {"type": "Polygon","coordinates": [[[-85.23648,11.0531,51.7585],[-85.27236,11.0662,75.0214],[-85.40742,11.11545,120.6658],[-85.50863,11.15242,194.8951],[-85.54095,11.17033,89.074],[-85.56916,11.19539,360.9837],[-85.59779,11.20994,82.4226],[-85.63115,11.19622,88.0106],[-85.65931,11.15883,186.1495],[-85.67758,11.11963,291.9089],[-85.70174,11.08088,21.4294],[-85.70173,11.08088,21.4294],[-85.69323,11.07734,0.0],[-85.68102,11.06839,0.7195],[-85.6702,11.05439,0.0],[-85.66751,11.03986,5.0655],[-85.67955,11.02896,6.7655],[-85.69962,11.02863,3.0622],[-85.70999,11.03811,0.0],[-85.71886,11.04291,0.0],[-85.73416,11.02896,67.1465],[-85.74096,11.02407,61.3691],[-85.746,11.02302,48.3688],[-85.746,11.02066,81.1587],[-85.73758,11.01187,48.8807],[-85.73038,11.0069,11.2066],[-85.71353,11.00003,51.9538],[-85.70629,10.99482,16.8354],[-85.69815,10.98322,0.0],[-85.69469,10.97024,0.0],[-85.69888,10.95926,26.9677],[-85.71373,10.9538,48.3962],[-85.71373,10.94636,0.0],[-85.70889,10.94082,0.0],[-85.70779,10.93403,30.1491],[-85.71056,10.92829,26.7387],[-85.71707,10.92593,0.0],[-85.72521,10.92768,71.7241],[-85.73416,10.93643,21.3401],[-85.741,10.9396,0.0],[-85.76114,10.94058,0.0],[-85.78246,10.93745,0.0],[-85.79337,10.93024,48.395],[-85.78197,10.91909,40.9327],[-85.78197,10.91287,12.2651],[-85.78942,10.90546,22.6503],[-85.79564,10.90546,44.8026],[-85.8085,10.91718,5.4485],[-85.81265,10.91909,0.6928],[-85.81461,10.92227,0.0],[-85.81216,10.92971,0.0],[-85.8109,10.93867,0.0],[-85.81615,10.94636,0.0],[-85.82872,10.94929,0.0],[-85.87816,10.94636,50.4204],[-85.87816,10.9396,0.0],[-85.86913,10.93814,0.0],[-85.86449,10.93586,0.0],[-85.86148,10.93207,3.6899],[-85.8577,10.92593,8.2534],[-85.8815,10.92316,0.0],[-85.92382,10.9042,0.0],[-85.94644,10.89859,0.0],[-85.94644,10.89114,68.4261],[-85.9088,10.88642,0.0],[-85.88292,10.87515,0.0],[-85.85977,10.86176,0.0],[-85.83035,10.85086,0.0],[-85.8223,10.85061,0.0],[-85.80297,10.85248,108.6484],[-85.79564,10.85086,0.0],[-85.78991,10.8439,0.0],[-85.79239,10.83832,0.0],[-85.79833,10.83564,11.2796],[-85.80309,10.83718,0.0],[-85.79507,10.82864,209.5591],[-85.76749,10.8061,64.1639],[-85.7615,10.8061,10.8544],[-85.74649,10.81619,0.0],[-85.71337,10.81086,20.3998],[-85.68029,10.79633,0.0],[-85.66527,10.77884,5.8649],[-85.65958,10.71296,33.6476],[-85.66287,10.67898,0.0],[-85.67955,10.66584,0.0],[-85.67955,10.65839,0.0],[-85.67272,10.65839,0.0],[-85.67272,10.65217,80.3301],[-85.68399,10.64907,0.0],[-85.68448,10.64619,0.0],[-85.687,10.63788,0.0],[-85.68387,10.6398,0.0],[-85.68179,10.64191,0.0],[-85.68045,10.64383,72.8059],[-85.67955,10.64472,72.8059],[-85.67272,10.63788,76.2505],[-85.68139,10.6352,47.4751],[-85.68847,10.62995,14.1535],[-85.70006,10.61746,0.0],[-85.70006,10.61123,0.0],[-85.69518,10.61164,11.1512],[-85.69408,10.61001,14.5648],[-85.6942,10.60708,0.0],[-85.69323,10.60379,0.0],[-85.65225,10.64472,55.3117],[-85.63931,10.63581,0.0],[-85.63402,10.62946,0.0],[-85.63174,10.62116,0.0],[-85.66185,10.59011,0.0],[-85.67422,10.59125,28.6953],[-85.67785,10.59211,0.0],[-85.687,10.57648,0.0],[-85.69229,10.57209,10.6202],[-85.69799,10.56863,0.0],[-85.70141,10.56228,0.0],[-85.70006,10.54914,8.3394],[-85.70629,10.54914,23.2873],[-85.72159,10.55093,0.0],[-85.74161,10.53982,0.0],[-85.76122,10.53181,31.9382],[-85.77514,10.543,0.0],[-85.78197,10.543,0.0],[-85.79052,10.52412,5.9486],[-85.79784,10.51716,85.1634],[-85.80923,10.51504,19.9586],[-85.80923,10.50821,0.0],[-85.79564,10.50821,21.8258],[-85.79564,10.50137,14.1081],[-85.80028,10.50027,34.7559],[-85.80297,10.49881,0.0],[-85.80923,10.49453,0.0],[-85.79882,10.48395,0.2566],[-85.78372,10.46524,1.6073],[-85.7755,10.44729,0.0],[-85.79674,10.43142,0.0],[-85.80399,10.41592,0.0],[-85.81326,10.4053,0.0],[-85.83035,10.41201,0.0],[-85.83853,10.39545,0.0],[-85.85025,10.37849,0.0],[-85.86758,10.36489,0.0],[-85.87499,10.35505,0.0],[-85.8616,10.34699,6.6041],[-85.84032,10.32014,0.0],[-85.83816,10.31204,0.0],[-85.8439,10.30244,0.0],[-85.8577,10.28909,0.0],[-85.85184,10.27656,0.0],[-85.84756,10.25934,12.7969],[-85.84402,10.23102,0.0],[-85.80504,10.13666,0.0],[-85.79271,10.11782,3.24],[-85.78466,10.09089,0.0],[-85.77855,10.0799,0.0],[-85.67614,9.95551,0.0],[-85.66556,9.93032,0.0],[-85.67272,9.91169,0.0],[-85.66381,9.90009,0.0],[-85.65722,9.90054,0.0],[-85.64981,9.90497,0.0],[-85.63858,9.90546,0.0],[-85.6306,9.90156,0.0],[-85.62552,9.8968,32.944],[-85.61913,9.89289,23.0424],[-85.59207,9.88874,63.314],[-85.53555,9.87075,0.0],[-85.53482,9.87271,0.0],[-85.531,9.87588,0.0],[-85.52518,9.87739,0.0],[-85.51818,9.87417,0.0],[-85.51452,9.86966,0.0],[-85.51321,9.86664,0.0],[-85.51098,9.86506,0.0],[-85.50455,9.86453,46.669],[-85.49356,9.86225,0.0],[-85.48001,9.85248,0.0],[-85.47037,9.85025,0.0],[-85.4639,9.85261,106.9463],[-85.44957,9.86249,6.6911],[-85.43997,9.86453,12.4518],[-85.33243,9.82661,31.873],[-85.29931,9.80801,10.2402],[-85.2755,9.78201,0.0],[-85.27469,9.77505,0.0],[-85.27505,9.76594,0.0],[-85.27298,9.758,0.0],[-85.24791,9.74775,3.0084],[-85.23864,9.74201,7.2453],[-85.23453,9.73733,6.089],[-85.2293,9.72482,0.0],[-85.22918,9.72494,0.0],[-85.22663,9.72757,0.0],[-85.22074,9.73026,11.4022],[-85.21864,9.73067,15.1987],[-85.21619,9.73222,8.9263],[-85.20975,9.7454,17.0659],[-85.20683,9.74783,9.2444],[-85.20425,9.74953,8.1895],[-85.20185,9.75217,14.463],[-85.19968,9.75636,15.1316],[-85.19684,9.76504,12.9621],[-85.19467,9.76938,24.6617],[-85.19265,9.77243,23.1222],[-85.18694,9.77697,19.3731],[-85.18601,9.77883,37.6615],[-85.18645,9.78111,39.986],[-85.18926,9.78431,21.2829],[-85.19066,9.78845,68.3251],[-85.1904,9.7946,25.6305],[-85.18014,9.83294,66.5901],[-85.17635,9.84322,69.5551],[-85.1734,9.84937,40.3881],[-85.17384,9.8518,32.3993],[-85.17573,9.85371,29.1422],[-85.19035,9.85712,58.82],[-85.19291,9.858,45.5066],[-85.195,9.85945,37.4422],[-85.19632,9.86152,38.2991],[-85.19777,9.8671,38.0951],[-85.19864,9.87304,65.2623],[-85.20066,9.87774,59.7779],[-85.202,9.87991,68.9425],[-85.20309,9.88229,93.2644],[-85.2058,9.88648,57.088],[-85.2113,9.89144,62.4837],[-85.21557,9.89733,77.315],[-85.21748,9.89893,73.3124],[-85.21983,9.90012,74.2434],[-85.22753,9.90276,92.3902],[-85.2342,9.90648,92.3398],[-85.23993,9.90772,120.3404],[-85.24939,9.90761,142.1347],[-85.25218,9.90823,200.3795],[-85.25466,9.90927,191.4246],[-85.25898,9.91175,240.4013],[-85.26143,9.91283,250.8135],[-85.27032,9.91443,359.5175],[-85.27337,9.91454,346.9435],[-85.2766,9.91449,337.3529],[-85.28593,9.91325,452.1162],[-85.29016,9.91392,501.1301],[-85.2944,9.91604,540.4454],[-85.29822,9.91939,666.7689],[-85.30158,9.92394,621.3628],[-85.30329,9.92968,620.844],[-85.2991,9.93738,559.8729],[-85.28993,9.94575,614.9294],[-85.26531,9.95753,470.1193],[-85.25487,9.96079,410.496],[-85.24807,9.96146,285.855],[-85.24626,9.95986,240.0486],[-85.24471,9.95815,182.0674],[-85.24283,9.9565,148.719],[-85.24079,9.95546,140.1725],[-85.23614,9.95676,122.4909],[-85.21032,9.97148,58.2067],[-85.20534,9.9736,44.5817],[-85.18337,9.97882,23.0505],[-85.17751,9.98699,15.4971],[-85.1674,10.0194,4.5172],[-85.18615,10.03583,2.472],[-85.18615,10.04206,3.7906],[-85.17882,10.03885,12.2874],[-85.17028,10.03632,0.0],[-85.16128,10.03518,3.1981],[-85.15258,10.03583,14.1453],[-85.15408,10.04267,23.0448],[-85.15758,10.04536,59.5248],[-85.16564,10.04206,38.325],[-85.17186,10.04206,11.6859],[-85.18505,10.06708,0.0],[-85.19591,10.07876,6.1541],[-85.22647,10.08938,4.2276],[-85.23827,10.10244,6.2517],[-85.2401,10.11628,9.4659],[-85.22708,10.12458,0.0],[-85.23888,10.14313,0.0],[-85.2449,10.17036,0.0],[-85.24755,10.21674,23.5559],[-85.25418,10.24116,40.6841],[-85.28307,10.26203,41.1472],[-85.28917,10.28225,2.5906],[-85.24625,10.25263,0.0],[-85.22879,10.23159,0.0],[-85.23453,10.21332,6.4576],[-85.23453,10.2071,0.0],[-85.20946,10.18118,17.8312],[-85.19347,10.17011,0.0],[-85.17557,10.16555,0.0],[-85.1079,10.16657,0.0],[-85.08987,10.17239,1.0442],[-85.07677,10.16059,12.3998],[-85.07287,10.15876,8.0752],[-85.06857,10.15582,6.0238],[-85.06839,10.15587,6.0238],[-85.04837,10.16181,18.101],[-85.04015,10.16165,8.8112],[-85.03708,10.16114,6.6924],[-85.03387,10.16103,6.9243],[-85.02762,10.16165,30.1052],[-85.02196,10.16274,12.7126],[-85.0192,10.16279,46.7128],[-85.01656,10.16217,35.3944],[-85.01437,10.16114,11.2488],[-85.01059,10.15804,28.6966],[-85.0085,10.15659,86.2067],[-85.00618,10.15561,19.8235],[-85.00351,10.15499,27.3795],[-85.00109,10.15514,25.165],[-84.99948,10.15545,21.5733],[-84.99437,10.157,42.7221],[-84.99039,10.15762,84.3938],[-84.98716,10.15747,77.4827],[-84.98421,10.15685,64.7836],[-84.97925,10.15494,75.4281],[-84.97005,10.14998,51.1338],[-84.96804,10.14853,82.3097],[-84.96057,10.14212,132.4772],[-84.94838,10.12693,92.392],[-84.94471,10.12331,72.6824],[-84.93685,10.11737,83.5263],[-84.92758,10.11246,49.5154],[-84.92504,10.11163,62.4631],[-84.92233,10.11101,52.4606],[-84.91993,10.11122,47.618],[-84.91835,10.11277,66.2013],[-84.91887,10.11659,68.3693],[-84.92264,10.12729,79.2454],[-84.9237,10.13303,69.5555],[-84.92362,10.13613,97.3079],[-84.9228,10.14222,117.2542],[-84.92011,10.14667,101.6755],[-84.91541,10.15235,142.9926],[-84.89734,10.16806,229.1192],[-84.89298,10.1709,285.9127],[-84.87381,10.17912,316.6508],[-84.87174,10.18176,278.1042],[-84.87009,10.18517,210.8306],[-84.86954,10.1924,274.378],[-84.87024,10.19617,267.8644],[-84.87164,10.19907,273.0648],[-84.87481,10.20269,224.9625],[-84.87618,10.20475,234.4141],[-84.87714,10.20692,261.6686],[-84.87794,10.2094,256.4884],[-84.87791,10.21209,336.4864],[-84.87698,10.2155,347.5039],[-84.87089,10.22811,413.4626],[-84.86988,10.23111,528.4485],[-84.86763,10.25033,403.6654],[-84.86295,10.26356,600.4631],[-84.86249,10.26625,576.9605],[-84.86285,10.26888,555.7424],[-84.8636,10.27152,558.7109],[-84.86492,10.27348,518.9254],[-84.87228,10.2802,626.2219],[-84.87373,10.28216,694.6292],[-84.87489,10.28433,774.4769],[-84.87543,10.28697,779.5188],[-84.87543,10.28991,744.7823],[-84.87481,10.29286,735.5724],[-84.87298,10.29627,832.8279],[-84.87024,10.3003,844.4187],[-84.86582,10.3048,947.9001],[-84.85988,10.30878,1050.5973],[-84.85081,10.31343,1267.814],[-84.84709,10.31653,1171.7755],[-84.83843,10.32567,1301.5973],[-84.83252,10.32971,1394.9503],[-84.82918,10.33079,1381.292],[-84.82492,10.33167,1435.3549],[-84.8174,10.33198,1499.1895],[-84.81239,10.33167,1622.967],[-84.80668,10.32981,1718.3329],[-84.80226,10.32785,1721.823],[-84.78663,10.31534,1638.3229],[-84.77061,10.34547,1310.1675],[-84.7689,10.35539,1050.6266],[-84.77128,10.35973,1076.2754],[-84.77268,10.36169,1101.3062],[-84.77547,10.36857,984.7763],[-84.77939,10.38707,777.201],[-84.76399,10.44215,540.0],[-84.78578,10.48515,749.0717],[-84.79327,10.49662,830.6834],[-84.8504,10.54003,770.6524],[-84.86846,10.54912,733.8392],[-84.92339,10.56328,703.5575],[-84.93732,10.56876,677.3198],[-84.94801,10.58054,894.7881],[-84.9747,10.60411,1165.2319],[-84.97793,10.60772,1124.8076],[-84.98359,10.61625,902.509],[-84.98654,10.62323,981.703],[-84.99111,10.65015,1069.0157],[-85.00253,10.67046,1472.116],[-85.01672,10.69273,1189.0806],[-85.023,10.69935,1202.5612],[-85.02933,10.70322,1168.3107],[-85.04284,10.70891,677.6731],[-85.05403,10.71211,558.8857],[-85.1071,10.72462,1166.468],[-85.12273,10.72984,1405.2729],[-85.12891,10.73433,1463.3722],[-85.13635,10.74126,1599.1371],[-85.16604,10.76126,1125.8876],[-85.17374,10.76513,808.6071],[-85.17958,10.76751,657.3636],[-85.18593,10.76803,575.5452],[-85.19252,10.76782,557.6473],[-85.20482,10.76627,564.0812],[-85.2267,10.761,584.0005],[-85.2528,10.75852,718.6116],[-85.28272,10.75955,831.3883],[-85.30732,10.80771,1535.3625],[-85.31605,10.82094,1477.5365],[-85.32047,10.82415,1531.7008],[-85.32277,10.82549,1681.1722],[-85.32525,10.82657,1723.8477],[-85.32778,10.82745,1661.1353],[-85.35034,10.83024,1821.1416],[-85.35644,10.83241,1610.5712],[-85.38083,10.84637,1145.808],[-85.3922,10.85494,863.6069],[-85.43754,10.90688,971.6561],[-85.43878,10.90859,1014.5743],[-85.44101,10.91277,1051.6099],[-85.44119,10.91541,1053.1698],[-85.44072,10.91768,1127.5283],[-85.437,10.92202,1083.5623],[-85.40302,10.9245,563.8141],[-85.39388,10.92843,494.2394],[-85.39098,10.93298,491.1967],[-85.38897,10.93742,493.479],[-85.31047,10.99023,290.9371],[-85.26267,11.04336,76.082],[-85.25895,11.04594,54.734],[-85.25626,11.04677,48.4996],[-85.25234,11.04728,50.3039],[-85.24629,11.0494,77.3384],[-85.23885,11.05111,53.6084],[-85.23648,11.0531,51.7585]]]}
,"properties": {"ISO3166-1-Alpha-3": "CRI","country": "Costa Rica","fill": "#FF0","name": "Guanacaste","area_km2": 10323.438,"hist_schema_id": "Elevation0-9000","hist_area_km2": {"0": 929.943,"25": 1330.633,"50": 779.025,"75": 625.624,"100": 606.118,"125": 597.007,"150": 518.821,"175": 389.06,"200": 382.188,"225": 359.697,"250": 336.315,"275": 348.057,"300": 311.982,"325": 252.78,"350": 225.995,"375": 192.434,"400": 165.837,"425": 144.011,"450": 127.831,"475": 116.169,"500": 107.874,"525": 97.866,"550": 188.144,"575": 125.049,"600": 93.375,"625": 84.602,"650": 79.575,"675": 74.005,"700": 63.812,"725": 52.95,"750": 50.361,"775": 45.15,"800": 38.25,"825": 37.477,"850": 32.017,"875": 30.994,"900": 28.617,"925": 27.012,"950": 26.908,"975": 25.345,"1000": 21.216,"1025": 18.36,"1050": 17.339,"1075": 17.069,"1100": 17.193,"1125": 15.818,"1150": 14.274,"1175": 12.316,"1200": 11.212,"1225": 10.42,"1250": 9.586,"1275": 8.774,"1300": 8.628,"1325": 8.003,"1350": 6.606,"1375": 6.606,"1400": 6.544,"1425": 6.253,"1450": 6.795,"1475": 6.92,"1500": 6.106,"1525": 4.689,"1550": 4.189,"1575": 4.126,"1600": 4.043,"1625": 3.668,"1650": 3.209,"1675": 2.813,"1700": 3.439,"1725": 2.48,"1750": 1.875,"1775": 1.292,"1800": 0.896,"1825": 0.479,"1850": 0.604,"1875": 0.312,"1900": 0.146,"1925": 0.125}}}