{"type": "Feature","bbox": [-85.979,9.7272,-84.7663,11.2198],"geometry": {"type": "MultiPolygon","coordinates": [[[[-85.5154,9.8621,0.0],[-85.5146,9.8604,0.0],[-85.5134,9.8625,0.0],[-85.5153,9.8624,0.0],[-85.5154,9.8621,0.0]]],
[[[-85.498,9.8692,1.394],[-85.4936,9.8714,0.0],[-85.4858,9.8697,5.1977],[-85.4832,9.8636,7.9839],[-85.486,9.8622,0.0],[-85.4864,9.8593,5.4795],[-85.4799,9.8574,25.1545],[-85.4745,9.8544,18.583],[-85.4745,9.8529,5.8531],[-85.4701,9.8525,18.0961],[-85.468,9.8502,2.6543],[-85.4634,9.8508,36.0595],[-85.4608,9.8585,0.0],[-85.4577,9.8607,23.3225],[-85.4535,9.8599,4.6071],[-85.4533,9.8621,38.3324],[-85.4438,9.8622,11.2777],[-85.4278,9.8582,1.631],[-85.425299999999993,9.8526,51.538],[-85.4133,9.8517,12.3945],[-85.4038,9.8475,29.9222],[-85.4033,9.851,0.0],[-85.3998,9.8527,5.0846],[-85.3933,9.8516,2.2822],[-85.3898,9.8491,24.3917],[-85.3806,9.8484,0.0],[-85.3687,9.8404,0.0],[-85.3651,9.8413,4.4514],[-85.3527,9.836,2.4949],[-85.3384,9.8275,3.0577],[-85.3332,9.8226,0.9489],[-85.3323,9.8238,19.6141],[-85.3312,9.8227,5.6143],[-85.3322,9.8191,0.0],[-85.3356,9.8173,18.8402],[-85.3345,9.8159,26.6898],[-85.3285,9.8155,31.1552],[-85.3234,9.8173,42.4022],[-85.2999,9.8045,0.0],[-85.2979,9.805,0.0],[-85.2974,9.8032,0.0],[-85.2752,9.7869,0.0],[-85.2679,9.7773,0.0],[-85.2634,9.7745,2.7059],[-85.2658,9.773,0.0],[-85.2676,9.7676,54.3481],[-85.2724,9.7651,0.0],[-85.2756,9.7599,0.0],[-85.2675,9.7585,0.0],[-85.2619,9.7556,0.6315],[-85.2465,9.7464,1.233],[-85.2259,9.73,2.0115],[-85.2179,9.7272,5.8189],[-85.2155,9.7286,4.2561],[-85.2179,9.7304,4.0799],[-85.2173,9.7369,9.4455],[-85.2192,9.7427,7.4776],[-85.2123,9.7411,7.3904],[-85.2103,9.7436,7.4646],[-85.2119,9.7463,8.2809],[-85.2068,9.7456,10.7618],[-85.2055,9.7477,7.4643],[-85.2036,9.7472,20.9715],[-85.2035,9.755,7.7621],[-85.1987,9.7553,16.394],[-85.1976,9.7576,14.6981],[-85.2008,9.7616,10.9877],[-85.1978,9.7637,7.7442],[-85.199,9.7689,17.4509],[-85.1929,9.7758,38.8989],[-85.188,9.7753,31.96],[-85.1847,9.7794,20.2734],[-85.18,9.7818,29.399],[-85.1832,9.7836,20.061],[-85.1838,9.7878,15.4028],[-85.1865,9.7829,22.696],[-85.1892,9.7812,28.4763],[-85.194,9.7869,39.3438],[-85.1945,9.7882,30.3118],[-85.1918,9.7894,19.5252],[-85.1902,9.7932,30.3161],[-85.195,9.7951,24.208],[-85.1932,9.7994,28.2709],[-85.1951,9.8021,23.0024],[-85.1935,9.8038,29.6437],[-85.1898,9.8035,26.5257],[-85.1889,9.8077,37.6148],[-85.1933,9.8136,21.3595],[-85.1889,9.8128,25.5194],[-85.1877,9.8165,32.6643],[-85.1845,9.8177,29.2418],[-85.1874,9.8201,28.9692],[-85.1889,9.8254,27.9938],[-85.1858,9.8319,34.3144],[-85.19,9.8359,32.474],[-85.1865,9.8351,38.3088],[-85.1835,9.8375,24.0856],[-85.1841,9.8415,25.313],[-85.1865,9.8401,27.3988],[-85.1862,9.8437,29.2867],[-85.1852,9.8455,31.2958],[-85.1814,9.8447,29.3235],[-85.1789,9.8461,51.1247],[-85.176,9.8549,28.2271],[-85.1825,9.8534,35.9258],[-85.1836,9.8569,34.6119],[-85.1908,9.8562,54.2486],[-85.1931,9.8599,36.167],[-85.1982,9.8609,47.4313],[-85.1969,9.867,46.5546],[-85.2003,9.8686,43.8975],[-85.2001,9.8744,43.9213],[-85.2042,9.8764,47.2029],[-85.2043,9.8825,54.4626],[-85.2062,9.8831,51.6439],[-85.2045,9.8856,57.088],[-85.2106,9.8857,62.2462],[-85.209,9.8905,62.1938],[-85.2129,9.8882,58.7945],[-85.2146,9.8901,60.309],[-85.2166,9.894,71.6305],[-85.2166,9.9018,73.5586],[-85.2215,9.9026,74.6297],[-85.2237,9.9008,78.8667],[-85.2231,9.8994,79.7264],[-85.2272,9.9029,92.3902],[-85.2271,9.9006,82.0144],[-85.2285,9.9007,82.0144],[-85.2315,9.9036,89.4267],[-85.2318,9.907,92.3243],[-85.2376,9.9061,96.3387],[-85.2392,9.91,112.1441],[-85.2422,9.9103,109.5485],[-85.2468,9.9079,119.9109],[-85.2509,9.909,142.5204],[-85.2563,9.9143,167.5511],[-85.2587,9.9125,162.6419],[-85.2619,9.9151,222.16],[-85.2654,9.9139,283.6902],[-85.2642,9.9174,317.2091],[-85.2674,9.9153,307.9204],[-85.2721,9.9191,336.5098],[-85.2729,9.9158,307.3156],[-85.2767,9.9154,337.3529],[-85.2797,9.9217,360.3728],[-85.2779,9.9229,429.56],[-85.2779,9.9264,459.5071],[-85.2747,9.9327,473.4096],[-85.2706,9.934,504.6681],[-85.2683,9.9373,549.6493],[-85.2713,9.943,720.5995],[-85.2695,9.9461,787.0747],[-85.2731,9.9512,995.1221],[-85.2713,9.9584,795.8284],[-85.2681,9.9633,651.3799],[-85.2631,9.9625,537.2181],[-85.2544,9.9641,548.5371],[-85.252,9.9656,518.2605],[-85.2493,9.972,478.6236],[-85.2469,9.9729,439.6926],[-85.2432,9.972,306.9982],[-85.2371,9.9675,140.7245],[-85.2339,9.9674,134.4898],[-85.222,9.969,73.9953],[-85.2184,9.9723,64.7322],[-85.2167,9.9711,76.8406],[-85.2126,9.9721,63.0156],[-85.2047,9.9709,51.9277],[-85.2032,9.9692,50.1964],[-85.1992,9.9711,43.6944],[-85.1957,9.9689,40.8925],[-85.1906,9.9708,32.3571],[-85.1862,9.9702,34.2539],[-85.1856,9.9719,28.3865],[-85.1813,9.973,28.2871],[-85.1802,9.976,26.4281],[-85.1812,9.9765,26.4281],[-85.1673,9.9814,20.8048],[-85.1636,9.9867,16.9621],[-85.1611,9.9876,18.8569],[-85.1614,9.9947,11.5113],[-85.1688,10.0045,14.002],[-85.1687,10.0081,13.1326],[-85.1704,10.0093,13.4227],[-85.1661,10.0115,8.6988],[-85.1633,10.0161,4.9648],[-85.1644,10.0166,4.9648],[-85.1636,10.0199,4.8384],[-85.169,10.0221,6.7717],[-85.1687,10.0245,0.0],[-85.1707,10.0268,3.4492],[-85.1691,10.0279,6.5562],[-85.169,10.0341,0.0],[-85.1671,10.0377,4.0207],[-85.1627,10.036,12.216],[-85.1592,10.0305,12.5969],[-85.1545,10.0313,0.0],[-85.15,10.0401,0.0],[-85.1523,10.049,0.0],[-85.1548,10.0498,0.0],[-85.1589,10.0473,0.0],[-85.1698,10.0462,4.4366],[-85.1741,10.0483,2.617],[-85.1789,10.0524,0.0],[-85.184,10.0651,4.0953],[-85.1873,10.0663,2.3556],[-85.1904,10.0636,4.1908],[-85.1953,10.083,1.0615],[-85.1992,10.0849,1.2424],[-85.2034,10.084,0.0],[-85.2131,10.0857,0.0],[-85.2191,10.0908,1.2394],[-85.23,10.0948,2.2103],[-85.2359,10.1071,0.0],[-85.2398,10.1059,1.4003],[-85.2395,10.1107,3.3188],[-85.2375,10.1136,1.9469],[-85.24,10.1198,2.3795],[-85.2381,10.1224,0.0],[-85.239,10.127,7.0721],[-85.2354,10.1277,0.0],[-85.2315,10.1224,0.0],[-85.2278,10.1211,0.0],[-85.2395,10.1364,0.0],[-85.2416,10.143,0.0],[-85.2443,10.1447,0.0],[-85.2424,10.1481,0.0],[-85.2426,10.1514,0.0],[-85.2467,10.1675,0.0],[-85.2473,10.1787,8.3431],[-85.2425,10.2008,0.0],[-85.2465,10.2061,0.0],[-85.2435,10.2223,27.8713],[-85.2477,10.2309,13.2899],[-85.2443,10.2373,6.0749],[-85.2495,10.2464,8.7205],[-85.2764,10.2599,12.0171],[-85.2832,10.2652,14.518],[-85.2865,10.2651,29.1502],[-85.2899,10.2685,16.6706],[-85.291,10.2754,11.0342],[-85.2841,10.2868,0.5],[-85.2862,10.2921,0.5],[-85.3053,10.3043,2.8131],[-85.3082,10.3085,1.0],[-85.3099,10.3168,2.3228],[-85.3131,10.3202,7.0273],[-85.3352,10.322,11.1741],[-85.3413,10.3184,5.8877],[-85.3485,10.318,11.3767],[-85.3538,10.3142,5.9696],[-85.3567,10.3139,3.2197],[-85.3592,10.316,2.4759],[-85.3602,10.3245,3.687],[-85.3713,10.3241,2.5484],[-85.3796,10.3297,2.1795],[-85.3794,10.3318,2.3893],[-85.3767,10.3324,3.166],[-85.372,10.3273,11.807],[-85.3697,10.3276,6.6112],[-85.3719,10.3369,5.3344],[-85.3678,10.3425,4.1797],[-85.3736,10.3436,11.0724],[-85.386,10.3367,2.908],[-85.3977,10.3369,4.6757],[-85.4035,10.3395,5.337],[-85.4083,10.3462,3.4917],[-85.4021,10.3392,5.337],[-85.3982,10.3376,9.8172],[-85.3926,10.3384,4.6513],[-85.3859,10.3375,9.6044],[-85.3731,10.3446,5.2113],[-85.3676,10.3432,4.1797],[-85.3667,10.3405,10.7386],[-85.3712,10.3365,5.3344],[-85.3688,10.3313,3.657],[-85.3687,10.3276,6.6112],[-85.372,10.3265,4.4921],[-85.3771,10.3318,6.0862],[-85.379,10.3302,2.1795],[-85.3716,10.3253,2.5484],[-85.3584,10.3249,3.687],[-85.3568,10.3224,1.5],[-85.3569,10.3163,1.5],[-85.3462,10.3237,1.5],[-85.3399,10.3254,1.5],[-85.3164,10.3246,2.463],[-85.3078,10.3206,6.2104],[-85.3037,10.3071,5.3523],[-85.2865,10.2992,0.5],[-85.2797,10.2919,1.0104],[-85.2787,10.2824,1.6937],[-85.2847,10.2731,1.5139],[-85.2844,10.2696,0.5],[-85.269,10.2657,2.1098],[-85.2507,10.2549,16.5345],[-85.2309,10.2363,4.313],[-85.2279,10.2271,9.655],[-85.2299,10.2169,15.216],[-85.2345,10.2142,3.9787],[-85.2345,10.2115,4.6297],[-85.2306,10.2091,30.1661],[-85.2274,10.2037,0.0],[-85.2262,10.1986,9.4786],[-85.2273,10.1961,0.0],[-85.2253,10.1923,0.0],[-85.2142,10.1823,20.749],[-85.19,10.1725,0.0],[-85.1819,10.1712,0.0],[-85.1804,10.1728,0.0],[-85.1772,10.1729,0.0],[-85.1731,10.1714,0.0],[-85.1689,10.1666,0.0],[-85.1602,10.1677,5.3443],[-85.1519,10.163,0.0],[-85.1471,10.1625,6.3052],[-85.1437,10.1597,0.0],[-85.1394,10.1621,13.3824],[-85.1344,10.1608,2.84],[-85.1339,10.1663,0.0],[-85.1302,10.1715,7.918],[-85.1234,10.1745,2.7594],[-85.1111,10.1763,3.968],[-85.1055,10.174,1.864],[-85.1038,10.1752,2.457],[-85.1028,10.1733,1.1915],[-85.0924,10.1696,0.0],[-85.0968,10.1631,3.5371],[-85.0945,10.1562,0.0],[-85.082,10.1483,2.1489],[-85.0781,10.144,2.3185],[-85.074,10.1436,5.1957],[-85.0711,10.1453,0.0],[-85.0699,10.1502,4.2383],[-85.0755,10.1547,8.0055],[-85.0762,10.1571,19.8707],[-85.0738,10.1599,8.0752],[-85.0691,10.1583,5.2586],[-85.0664,10.1591,29.7216],[-85.0685,10.1643,12.9928],[-85.0675,10.167,20.7965],[-85.0623,10.1621,20.4541],[-85.0607,10.1627,16.7948],[-85.0605,10.166,8.6175],[-85.058,10.1643,10.7568],[-85.0582,10.1669,4.8428],[-85.0485,10.1597,8.7878],[-85.0426,10.1606,16.236],[-85.0415,10.1635,9.2121],[-85.0409,10.1605,8.8112],[-85.039,10.1593,9.1483],[-85.0275,10.1595,12.8818],[-85.0299,10.1627,18.9966],[-85.0279,10.1652,16.8779],[-85.0275,10.1693,22.7125],[-85.0316,10.1704,10.6185],[-85.0317,10.1689,10.6185],[-85.0346,10.1719,13.9107],[-85.0357,10.1746,25.5351],[-85.0343,10.1767,11.7534],[-85.0366,10.1803,11.8339],[-85.0356,10.1821,10.9107],[-85.0382,10.1823,13.5318],[-85.0366,10.1878,24.5073],[-85.0398,10.191,22.3689],[-85.036,10.1925,27.0998],[-85.0349,10.1964,29.0643],[-85.0306,10.1974,35.3731],[-85.0278,10.2008,31.5174],[-85.0263,10.1989,38.3312],[-85.029,10.1924,86.7343],[-85.0256,10.1865,33.1656],[-85.0097,10.1795,30.5675],[-85.0043,10.1736,19.1764],[-85.0023,10.1694,17.9851],[-85.0044,10.1652,24.6214],[-85.0039,10.1605,48.0192],[-84.9835,10.1507,52.1277],[-84.9812,10.1485,47.9312],[-84.9798,10.1415,40.6078],[-84.9773,10.1397,39.9487],[-84.9717,10.1393,51.5674],[-84.949,10.119,82.1075],[-84.9396,10.1146,81.2108],[-84.929,10.1148,47.6661],[-84.9216,10.1115,48.8053],[-84.9198,10.109,37.7464],[-84.9243,10.1155,48.5281],[-84.9271,10.1149,42.4121],[-84.924,10.1198,61.7236],[-84.9291,10.1272,68.9398],[-84.9281,10.1286,51.0195],[-84.9256,10.128,69.9457],[-84.9248,10.1312,58.4267],[-84.927,10.138,73.8057],[-84.9298,10.1401,74.5617],[-84.9272,10.1471,71.9514],[-84.9317,10.1493,85.6477],[-84.9306,10.1519,84.3178],[-84.9326,10.1539,93.9673],[-84.9288,10.1594,103.8778],[-84.926,10.1593,111.27],[-84.92,10.1633,115.7069],[-84.9167,10.1628,119.1979],[-84.9127,10.1683,131.7878],[-84.9118,10.1743,153.068],[-84.9089,10.1744,129.3054],[-84.9043,10.179,149.4558],[-84.9007,10.1781,148.8068],[-84.899,10.1805,185.2022],[-84.8937,10.1816,156.235],[-84.8905,10.1798,170.9599],[-84.885,10.1813,175.6884],[-84.8749,10.1883,187.709],[-84.8744,10.2002,242.0032],[-84.8784,10.2019,221.5322],[-84.8873,10.2118,253.88],[-84.8895,10.2124,256.9124],[-84.8891,10.2187,327.1068],[-84.8869,10.2228,283.5602],[-84.8789,10.2276,296.6824],[-84.8768,10.2376,340.4999],[-84.8726,10.2414,351.6284],[-84.8706,10.248,360.7672],[-84.8723,10.2613,427.1826],[-84.8659,10.2698,483.2977],[-84.8631,10.2811,548.3046],[-84.8586,10.2843,643.6165],[-84.8472,10.2877,787.9995],[-84.8439,10.2935,813.9033],[-84.8432,10.3035,926.0832],[-84.8446,10.312,1044.3134],[-84.8379,10.3294,1318.1605],[-84.8266,10.3373,1484.8562],[-84.8153,10.3305,1535.6705],[-84.805,10.3309,1740.3914],[-84.8035,10.3257,1787.1707],[-84.7965,10.3255,1765.7534],[-84.794,10.3232,1782.2069],[-84.7941,10.3205,1780.2399],[-84.7885,10.3211,1723.9827],[-84.781,10.3319,1606.873],[-84.7788,10.3396,1509.538],[-84.7772,10.3401,1502.8086],[-84.7762,10.3466,1356.3674],[-84.7739,10.3478,1228.8982],[-84.7743,10.3502,1181.3214],[-84.7671,10.3519,1130.7046],[-84.7663,10.3555,999.1338],[-84.7685,10.3575,975.9213],[-84.7695,10.3675,915.6339],[-84.7716,10.3697,866.9445],[-84.7712,10.3744,835.0398],[-84.7792,10.3797,794.5483],[-84.7814,10.3851,742.9058],[-84.7745,10.3958,662.2812],[-84.7718,10.4063,608.0601],[-84.7672,10.4123,583.3141],[-84.7666,10.4258,542.2795],[-84.7741,10.4628,551.7166],[-84.7742,10.4974,805.145],[-84.7789,10.4955,831.1491],[-84.7817,10.4963,830.4306],[-84.7923,10.4905,816.8711],[-84.7961,10.4999,855.5573],[-84.8019,10.5023,854.0092],[-84.8127,10.5111,832.0205],[-84.8206,10.5143,842.5183],[-84.8217,10.526,859.6918],[-84.8307,10.523,812.0149],[-84.8379,10.5247,791.8099],[-84.8387,10.5299,801.6041],[-84.846,10.5324,774.8773],[-84.846,10.5369,768.3619],[-84.8444,10.5395,772.0696],[-84.8449,10.5466,784.0927],[-84.8518,10.5462,751.0465],[-84.8576,10.5539,814.5807],[-84.8641,10.5561,798.3001],[-84.8707,10.5627,791.1008],[-84.8746,10.5635,784.9774],[-84.8793,10.562,790.9357],[-84.8831,10.564,774.4993],[-84.8901,10.5599,743.5453],[-84.8953,10.5628,752.7038],[-84.9032,10.5707,704.4955],[-84.9089,10.5688,703.2866],[-84.9191,10.5739,710.8466],[-84.9222,10.5723,760.5237],[-84.9252,10.5736,795.3263],[-84.9301,10.5801,774.0996],[-84.9295,10.5836,825.4218],[-84.9336,10.5857,819.7296],[-84.9392,10.5856,979.8667],[-84.9412,10.5898,945.4199],[-84.9443,10.5914,941.9136],[-84.9453,10.5952,938.7307],[-84.9558,10.5946,1033.9894],[-84.9687,10.601,1064.5819],[-84.9748,10.6062,1184.1907],[-84.9855,10.605,1148.142],[-84.9882,10.6184,984.0976],[-85.0018,10.6259,1112.2856],[-85.001,10.6356,1023.424],[-85.003,10.641,1144.5415],[-85.0008,10.6477,1217.5984],[-85.001,10.6562,1326.0597],[-85.0101,10.664,1705.1089],[-85.0126,10.6712,1833.4135],[-85.0196,10.674,1741.5804],[-85.0199,10.6806,1535.391],[-85.0267,10.6934,1497.1753],[-85.0438,10.6975,818.8522],[-85.055,10.6974,629.606],[-85.0586,10.7006,602.825],[-85.0608,10.7088,566.4731],[-85.0671,10.708,543.8833],[-85.0716,10.7129,511.0756],[-85.0868,10.7128,859.4209],[-85.0963,10.7177,1131.413],[-85.1019,10.7137,1272.3352],[-85.1238,10.7103,1457.2451],[-85.1244,10.7146,1469.1948],[-85.1294,10.719,1486.7452],[-85.1283,10.7256,1528.1484],[-85.1295,10.733,1492.1792],[-85.1376,10.7397,1581.001],[-85.1397,10.7451,1758.3635],[-85.1419,10.7451,1749.9263],[-85.1446,10.7478,1818.5824],[-85.1554,10.7468,1834.9299],[-85.1696,10.7479,1206.4172],[-85.1818,10.7459,803.5309],[-85.1863,10.748,746.3569],[-85.1897,10.7476,661.7786],[-85.2043,10.7552,568.406],[-85.2353,10.7667,788.3351],[-85.2433,10.7637,694.0439],[-85.2481,10.7639,706.8821],[-85.253,10.7589,700.7479],[-85.2624,10.7543,760.4616],[-85.269,10.7557,790.7904],[-85.2713,10.7516,791.7227],[-85.2735,10.7528,799.8024],[-85.2779,10.7511,808.6677],[-85.2806,10.7603,827.0056],[-85.2851,10.7609,816.026],[-85.2866,10.7673,894.6704],[-85.2909,10.7721,995.9601],[-85.2907,10.7748,1018.9998],[-85.2959,10.7771,1114.2285],[-85.3018,10.7885,1318.0085],[-85.3056,10.8001,1566.9318],[-85.3184,10.8084,1873.246],[-85.3192,10.8112,1854.7695],[-85.3248,10.8109,1722.9838],[-85.3286,10.8162,1739.7095],[-85.3368,10.8184,1741.9644],[-85.349,10.8272,1860.9587],[-85.3649,10.827,1751.8799],[-85.3706,10.8297,1701.3069],[-85.3745,10.8349,1543.0763],[-85.3777,10.8353,1459.8328],[-85.3907,10.8594,835.2836],[-85.3955,10.8654,713.7535],[-85.4051,10.8716,648.1708],[-85.4087,10.8799,696.312],[-85.4139,10.8794,684.8885],[-85.4205,10.8902,810.3322],[-85.4227,10.8907,866.9504],[-85.4271,10.8965,932.7153],[-85.4343,10.8986,923.9818],[-85.4366,10.9082,997.8392],[-85.4471,10.9169,1311.2067],[-85.4477,10.9226,1326.4753],[-85.4455,10.9283,1539.176],[-85.4491,10.9345,1596.1426],[-85.4486,10.937,1447.7124],[-85.444,10.9442,1055.2875],[-85.4205,10.9644,644.9935],[-85.4121,10.9618,601.7898],[-85.4084,10.9632,551.5432],[-85.4042,10.9619,533.0636],[-85.3967,10.9664,495.2081],[-85.3914,10.9651,482.8811],[-85.389,10.9681,467.7684],[-85.3821,10.9711,447.5767],[-85.3801,10.9732,442.7252],[-85.3813,10.9745,446.3943],[-85.3795,10.9772,441.3155],[-85.3775,10.9776,431.6233],[-85.3802,10.9797,426.1291],[-85.3789,10.9812,420.6987],[-85.3806,10.9843,400.617],[-85.3793,10.9886,398.2161],[-85.3767,10.9895,396.8612],[-85.3784,10.9936,390.0935],[-85.3768,10.9948,391.4878],[-85.3776,10.9957,400.8461],[-85.3744,10.998,366.827],[-85.3701,10.997,378.2579],[-85.3664,10.9991,372.124],[-85.3687,11.0007,386.4251],[-85.3675,11.0033,363.7368],[-85.3689,11.0048,353.9776],[-85.3661,11.0094,343.1593],[-85.3649,11.0074,342.3636],[-85.3638,11.0104,328.1653],[-85.3623,11.0101,346.7124],[-85.3624,11.0144,334.4419],[-85.3571,11.0188,311.0415],[-85.3566,11.0243,330.3034],[-85.3545,11.0254,326.8659],[-85.3562,11.0274,327.188],[-85.3557,11.0303,308.0013],[-85.3534,11.031,286.5062],[-85.3538,11.0329,275.3221],[-85.3517,11.0326,277.6667],[-85.3508,11.0348,271.3399],[-85.3465,11.0356,253.7999],[-85.3406,11.036,236.5849],[-85.3391,11.0343,231.0924],[-85.3358,11.0366,233.1985],[-85.3338,11.036,227.5616],[-85.3312,11.0411,229.7694],[-85.3286,11.0395,211.9103],[-85.3255,11.0419,208.2488],[-85.3231,11.0421,240.9964],[-85.3216,11.0404,199.5282],[-85.3118,11.043,184.1926],[-85.3093,11.0402,199.5576],[-85.3059,11.0396,194.5122],[-85.307,11.0381,215.4666],[-85.3042,11.0373,205.234],[-85.305,11.0356,206.1476],[-85.2984,11.0322,205.3127],[-85.2976,11.0311,186.9063],[-85.2997,11.0314,178.4483],[-85.2967,11.0277,182.6451],[-85.2915,11.025,180.3241],[-85.2901,11.0226,184.2342],[-85.2881,11.0241,190.1561],[-85.2862,11.0227,158.7463],[-85.2849,11.0247,150.3015],[-85.2787,11.0191,156.905],[-85.2789,11.0171,151.8237],[-85.2762,11.0166,161.0528],[-85.2772,11.0148,159.7516],[-85.2732,11.014099999999999,144.2101],[-85.272,11.016,145.4375],[-85.2685,11.016,129.7905],[-85.2688,11.0117,133.2143],[-85.265,11.014099999999999,154.8344],[-85.2629,11.0126,119.3013],[-85.2582,11.0209,132.0806],[-85.2589,11.0339,95.4527],[-85.2613,11.0355,93.887],[-85.2608,11.039,81.6583],[-85.2633,11.0429,76.082],[-85.2587,11.0451,56.3395],[-85.2567,11.0441,56.8857],[-85.2543,11.0492,54.269],[-85.2517,11.0494,56.7265],[-85.2486,11.0622,64.7152],[-85.245,11.0611,44.82],[-85.2432,11.0622,42.6074],[-85.2428,11.0656,40.6033],[-85.2393,11.0636,44.9659],[-85.2353,11.0655,42.1353],[-85.2332,11.0622,41.3765],[-85.2291,11.0633,40.042],[-85.3575,11.1263,46.1073],[-85.424,11.129,72.4717],[-85.5223,11.1676,130.012],[-85.5604,11.21,243.9097],[-85.6098,11.2198,38.8993],[-85.693,11.0789,5.97],[-85.685,11.0745,6.1102],[-85.6826,11.0685,0.0],[-85.6767,11.0681,3.6424],[-85.6728,11.0656,8.0692],[-85.6704,11.0615,2.5869],[-85.6678,11.0462,0.0],[-85.6704,11.0384,7.751],[-85.6758,11.0325,0.0],[-85.6804,11.0318,6.2201],[-85.6882,11.027,3.1456],[-85.7075,11.0302,5.2032],[-85.7133,11.0267,7.5759],[-85.7175,11.0315,2.9007],[-85.7174,11.0358,13.8203],[-85.723,11.0461,0.0],[-85.7275,11.0492,0.0],[-85.732,11.0462,20.1387],[-85.735,11.0477,0.0],[-85.7362,11.0447,11.5383],[-85.7408,11.0436,21.212],[-85.7389,11.0381,11.7643],[-85.7349,11.0372,0.0],[-85.7361,11.0319,37.9071],[-85.7456,11.0338,0.0],[-85.747,11.0278,2.6756],[-85.749,11.0269,19.0351],[-85.7506,11.028,0.2717],[-85.7542,11.024,0.0],[-85.7528,11.0184,0.0],[-85.7459,11.0134,0.0],[-85.7421,11.0126,21.0701],[-85.737,11.0081,0.0],[-85.7314,11.0062,5.8426],[-85.7253,11.0063,3.9062],[-85.7184,11.0,0.0],[-85.7103,10.9964,0.0],[-85.7096,10.9894,13.589],[-85.7026,10.9854,0.0],[-85.7006,10.9859,17.090699999999998],[-85.6976,10.9821,8.337],[-85.6947,10.982,0.0],[-85.6893,10.9772,11.6564],[-85.6885,10.9694,5.1405],[-85.6916,10.9636,10.927],[-85.6963,10.9654,0.0],[-85.6985,10.9629,19.2904],[-85.7025,10.9649,0.0],[-85.702,10.9627,0.0],[-85.705,10.9603,14.3151],[-85.7049,10.9575,11.6823],[-85.7071,10.9549,13.0553],[-85.7136,10.9567,7.8347],[-85.7152,10.954,0.0],[-85.7194,10.9583,0.0],[-85.7209,10.9584,0.0],[-85.7187,10.9571,0.0],[-85.7197,10.9549,6.5535],[-85.7164,10.9527,0.0],[-85.7125,10.9511,0.0],[-85.7095,10.9523,34.2104],[-85.7052,10.9491,39.6555],[-85.7027,10.9498,7.3491],[-85.7011,10.9457,0.0],[-85.7049,10.9353,19.3806],[-85.7117,10.9359,7.6894],[-85.7119,10.9329,16.3775],[-85.7139,10.9316,15.2398],[-85.7119,10.9264,9.0398],[-85.7169,10.9237,5.9648],[-85.7226,10.9245,11.1789],[-85.7227,10.9282,5.6092],[-85.7203,10.9311,2.1495],[-85.7188,10.931,2.1495],[-85.72,10.9349,0.0],[-85.7269,10.9369,13.2729],[-85.728,10.9386,0.0],[-85.7289,10.9349,1.4935],[-85.7314,10.9346,1.8506],[-85.7339,10.9372,17.9542],[-85.733,10.9398,3.002],[-85.7409,10.9382,28.713],[-85.7451,10.9392,0.0],[-85.7482,10.937,27.3634],[-85.7487,10.9388,0.0],[-85.7505,10.9372,0.0],[-85.7554,10.9395,7.9352],[-85.762,10.9378,19.4894],[-85.7654,10.9386,13.5917],[-85.7649,10.9366,21.4424],[-85.7664,10.9358,0.0],[-85.7695,10.9392,1.2029],[-85.7716,10.9375,5.7813],[-85.7732,10.9397,9.1349],[-85.7772,10.94,12.2065],[-85.7787,10.9395,0.0],[-85.7789,10.9347,5.9362],[-85.7802,10.9341,1.9676],[-85.7818,10.9367,0.0],[-85.7843,10.9365,23.3978],[-85.7844,10.9398,0.0],[-85.7851,10.938,5.5484],[-85.7864,10.9388,0.0],[-85.7869,10.9372,0.0],[-85.7889,10.9371,0.0],[-85.7877,10.9353,34.4735],[-85.7893,10.9322,0.0],[-85.7925,10.9317,15.2205],[-85.796,10.9347,0.0],[-85.7996,10.9322,0.0],[-85.798,10.9277,34.8362],[-85.7908,10.9241,14.6638],[-85.7896,10.9199,4.2379],[-85.7834,10.9147,12.8462],[-85.7862,10.9144,8.4663],[-85.7852,10.9134,13.7052],[-85.7905,10.9095,3.3987],[-85.7942,10.909,0.0],[-85.8054,10.9151,25.301],[-85.8069,10.9184,5.4485],[-85.8143,10.9194,1.6558],[-85.8181,10.9223,0.0],[-85.8193,10.9299,2.9656],[-85.8103,10.9356,0.0],[-85.8149,10.9395,3.5478],[-85.8169,10.9455,0.0],[-85.8183,10.9439,10.0441],[-85.8204,10.9462,0.0],[-85.8228,10.9459,0.0],[-85.8242,10.9428,7.8976],[-85.8257,10.9435,16.2921],[-85.8258,10.9458,0.0],[-85.8302,10.9455,0.0],[-85.8317,10.9435,48.2795],[-85.8356,10.9467,0.0],[-85.8376,10.9449,51.3394],[-85.8539,10.9453,45.7751],[-85.8568,10.9486,9.5867],[-85.8621,10.9479,0.0],[-85.8639,10.951,0.0],[-85.8656,10.9489,0.0],[-85.8681,10.9492,0.0],[-85.8688,10.951,0.0],[-85.8766,10.9494,5.2225],[-85.8827,10.9503,42.6158],[-85.8845,10.9492,5.9347],[-85.8805,10.947,14.1704],[-85.8679,10.9417,10.5653],[-85.8635,10.9416,29.1595],[-85.861,10.936,6.1156],[-85.862,10.9294,6.1161],[-85.8652,10.9267,13.17],[-85.8691,10.9264,2.1527],[-85.8716,10.9235,29.5643],[-85.8761,10.9222,0.0],[-85.8807,10.9235,1.7028],[-85.8811,10.9206,0.0],[-85.8979,10.9133,17.4489],[-85.9001,10.9106,0.0],[-85.9068,10.9095,9.0975],[-85.913,10.9105,0.0],[-85.9136,10.908,35.974],[-85.9184,10.9049,10.6415],[-85.926,10.9039,0.0],[-85.9286,10.9009,0.0],[-85.9333,10.9005,0.0],[-85.9421,10.8947,21.045],[-85.9458,10.8946,0.0],[-85.9502,10.8898,1.6267],[-85.9362,10.8946,29.6296],[-85.9318,10.894,31.4521],[-85.923,10.896,22.6838],[-85.9163,10.8994,23.9446],[-85.9074,10.8962,54.7429],[-85.9033,10.8901,7.233],[-85.8774,10.8817,11.42],[-85.8746,10.8785,0.0],[-85.8673,10.8773,27.4695],[-85.8573,10.8645,0.0],[-85.854,10.854,0.9726],[-85.8502,10.8562,2.6247],[-85.844,10.8568,0.0],[-85.8338,10.8525,8.2649],[-85.8279,10.8543,8.168],[-85.8044,10.8499,26.7993],[-85.7973,10.8552,5.7511],[-85.789,10.8475,1.7369],[-85.7885,10.8398,0.0],[-85.7913,10.8365,4.7959],[-85.7945,10.8373,0.0],[-85.8014,10.8347,5.6307],[-85.8024,10.8282,85.902],[-85.801,10.8246,0.0],[-85.7941,10.8205,6.1653],[-85.7924,10.8154,7.3279],[-85.7778,10.814,81.1925],[-85.7637,10.8032,0.0],[-85.7617,10.8039,86.7057],[-85.759,10.8098,0.0],[-85.7423,10.8191,22.3204],[-85.7355,10.8166,0.0],[-85.7304,10.8126,0.0],[-85.7265,10.8129,17.9552],[-85.7228,10.8088,4.0625],[-85.7207,10.8112,8.5064],[-85.7174,10.8114,0.0],[-85.7133,10.8102,1.5596],[-85.7091,10.8057,8.5388],[-85.7035,10.8072,50.056399999999996],[-85.6966,10.7994,6.7315],[-85.6864,10.8035,1.4672],[-85.6793,10.7971,1.5906],[-85.6826,10.8039,19.8851],[-85.68,10.8003,2.4744],[-85.6766,10.8013,8.4829],[-85.679,10.7998,6.3549],[-85.6764,10.7954,1.4068],[-85.6728,10.7944,27.7056],[-85.6734,10.7919,5.9536],[-85.6741,10.7929,7.3008],[-85.6733,10.7944,3.2675],[-85.676,10.7943,1.4068],[-85.6785,10.7962,0.0],[-85.6743,10.7883,0.0],[-85.6645,10.7761,0.0],[-85.6591,10.7745,3.727],[-85.6596,10.7717,8.2903],[-85.6609,10.7742,6.4414],[-85.6626,10.7736,7.0194],[-85.658,10.7655,5.7052],[-85.657,10.759,0.0],[-85.6621,10.7476,86.6949],[-85.663,10.7375,0.0],[-85.6605,10.7325,107.4994],[-85.6613,10.7178,32.831],[-85.6553,10.6992,0.0],[-85.6569,10.6949,0.0],[-85.6536,10.6844,26.8093],[-85.6536,10.6735,5.8785],[-85.6554,10.6675,0.0],[-85.6582,10.664,9.1174],[-85.6762,10.6616,0.0],[-85.6754,10.6596,0.0],[-85.6708,10.6592,22.1755],[-85.6701,10.6564,53.6239],[-85.6744,10.6511,17.8248],[-85.6793,10.6522,0.0],[-85.6802,10.6489,35.2678],[-85.685,10.644,3.7378],[-85.6797,10.6418,0.0],[-85.6744,10.6427,8.2899],[-85.6715,10.6456,15.2248],[-85.6704,10.6423,14.5432],[-85.6758,10.6358,0.0],[-85.6803,10.6336,30.3872],[-85.6837,10.6354,0.0],[-85.6855,10.6306,0.0],[-85.6887,10.6317,0.0],[-85.6882,10.6294,14.1535],[-85.691,10.6271,0.0],[-85.6912,10.6243,0.0],[-85.6864,10.6239,25.7227],[-85.6851,10.621,14.574],[-85.6872,10.616,66.7167],[-85.6892,10.6154,7.9429],[-85.6881,10.6132,0.3095],[-85.6965,10.6122,0.0],[-85.6993,10.6104,0.0],[-85.6919,10.6055,0.0],[-85.6883,10.6104,0.0],[-85.6795,10.6113,6.2169],[-85.6765,10.6199,0.0],[-85.6738,10.6232,39.0315],[-85.6749,10.6278,0.0],[-85.6738,10.6313,10.7942],[-85.663,10.6358,35.4392],[-85.6548,10.6427,14.2188],[-85.6487,10.6426,11.1992],[-85.6343,10.6353,0.0],[-85.6294,10.6294,3.8999],[-85.6273,10.6235,31.9712],[-85.6342,10.6171,0.0],[-85.6404,10.6142,0.0],[-85.6416,10.6076,3.2553],[-85.6449,10.6039,0.0],[-85.6489,10.6046,0.0],[-85.6506,10.6002,0.0],[-85.6492,10.5951,4.1967],[-85.6523,10.5899,7.0337],[-85.6619,10.5884,0.0],[-85.6638,10.5935,0.0],[-85.6716,10.5911,0.0],[-85.6762,10.5925,0.0],[-85.6805,10.5901,6.1571],[-85.681,10.588,8.0539],[-85.6793,10.5871,8.0539],[-85.677,10.5803,8.4401],[-85.6819,10.5721,0.0],[-85.6847,10.5706,0.0],[-85.688,10.5726,0.0],[-85.6985,10.5743,0.0],[-85.7006,10.5728,0.0],[-85.7,10.5698,0.0],[-85.6934,10.5675,30.3726],[-85.6911,10.5643,0.0],[-85.6935,10.5562,3.9494],[-85.7003,10.5505,0.0],[-85.7059,10.5499,5.0232],[-85.709,10.5542,28.6282],[-85.7141,10.5565,15.9464],[-85.7156,10.5524,45.4585],[-85.7187,10.5511,0.0],[-85.7186,10.548,13.1069],[-85.7221,10.546,5.3033],[-85.7272,10.5464,0.0],[-85.7287,10.544,9.6175],[-85.7356,10.5439,0.0],[-85.7388,10.5386,32.2785],[-85.7431,10.5372,0.0],[-85.7433,10.535,30.8506],[-85.7464,10.5338,0.0],[-85.7473,10.5317,5.089],[-85.7536,10.5297,7.4855],[-85.7588,10.5305,0.0],[-85.7643,10.5343,6.5958],[-85.7691,10.5422,0.0],[-85.7704,10.5403,69.5889],[-85.7741,10.5401,11.9614],[-85.7759,10.5431,0.0],[-85.7787,10.5441,0.0],[-85.7798,10.543,0.0],[-85.7791,10.5386,19.8173],[-85.7831,10.5383,0.0],[-85.7833,10.5355,14.8008],[-85.7813,10.5339,26.6793],[-85.7821,10.5305,7.4063],[-85.7854,10.53,9.3403],[-85.785,10.5279,31.2703],[-85.7874,10.5243,0.0],[-85.7917,10.5248,5.9486],[-85.7922,10.5232,0.0],[-85.7897,10.5218,5.8229],[-85.7915,10.5181,2.3278],[-85.7949,10.5175,40.7973],[-85.8009,10.5199,0.0],[-85.801,10.5174,7.4229],[-85.8037,10.518,5.1031],[-85.8092,10.5146,19.9586],[-85.8115,10.5171,0.0],[-85.8119,10.5147,4.3421],[-85.81,10.5129,3.0837],[-85.7998,10.5091,26.9664],[-85.7985,10.5067,2.5312],[-85.7993,10.5025,0.0],[-85.8037,10.4986,0.0843],[-85.8025,10.4964,0.0],[-85.8001,10.4978,17.8743],[-85.7991,10.4954,0.0],[-85.7968,10.4961,24.72],[-85.7948,10.4947,0.0],[-85.794,10.4912,6.2506],[-85.7982,10.4824,12.7739],[-85.7966,10.4813,0.0],[-85.7918,10.4832,3.5689],[-85.7889,10.4821,19.0461],[-85.7866,10.4797,0.0],[-85.7879,10.4776,2.5384],[-85.7824,10.4776,22.4295],[-85.7794,10.474,3.6448],[-85.7782,10.468,0.0],[-85.7793,10.4655,0.0],[-85.7763,10.4609,1.141],[-85.7773,10.4569,0.0],[-85.7736,10.458,1.3177],[-85.7714,10.4544,1.4308],[-85.7737,10.4465,6.9163],[-85.7786,10.4393,0.0],[-85.785,10.4369,4.2361],[-85.7905,10.4383,8.4371],[-85.7885,10.4423,0.0],[-85.8,10.4459,0.0],[-85.7995,10.4431,0.0],[-85.7961,10.4423,25.4311],[-85.7938,10.4397,8.3925],[-85.7931,10.4326,0.0],[-85.7957,10.4295,0.0],[-85.7907,10.4227,0.0],[-85.7944,10.4192,0.0],[-85.794,10.4162,7.688],[-85.7985,10.4075,1.5419],[-85.8076,10.401,0.0],[-85.8158,10.4003,5.8695],[-85.8196,10.4023,0.0],[-85.8194,10.4074,0.0],[-85.8209,10.4102,0.0],[-85.8249,10.4096,10.1203],[-85.8263,10.4114,0.0],[-85.8279,10.3989,7.4628],[-85.8328,10.397,14.2297],[-85.8364,10.3997,1.5035],[-85.835,10.3974,13.9684],[-85.8358,10.3926,0.0],[-85.8406,10.385,6.6462],[-85.8443,10.3836,5.89],[-85.8463,10.3804,1.0526],[-85.8454,10.3791,16.5074],[-85.8476,10.3771,4.7924],[-85.8472,10.3726,20.4034],[-85.8505,10.3707,4.3022],[-85.8544,10.3713,0.0],[-85.8542,10.369,0.0],[-85.8571,10.3667,27.1475],[-85.8593,10.3682,10.8148],[-85.8623,10.3661,7.0434],[-85.8654,10.3667,9.8521],[-85.8682,10.3617,81.5061],[-85.8728,10.359,5.3264],[-85.8755,10.3552,0.0],[-85.8736,10.354,103.5319],[-85.8725,10.3489,37.2667],[-85.8695,10.3491,23.7558],[-85.8661,10.3468,0.0],[-85.8651,10.3485,28.7605],[-85.863,10.3483,1.6117],[-85.8613,10.3442,3.4788],[-85.8573,10.3446,0.0],[-85.8543,10.3386,0.0],[-85.845,10.3299,6.7363],[-85.8401,10.3204,0.0],[-85.8391,10.3106,0.0],[-85.8419,10.3004,1.8973],[-85.848,10.2953,10.8704],[-85.8523,10.2954,2.7254],[-85.8534,10.2925,7.2793],[-85.849,10.2732,0.0],[-85.8529,10.2619,2.1503],[-85.8514,10.2534,3.4937],[-85.8474,10.2422,4.9715],[-85.8419,10.2361,0.0],[-85.8388,10.2285,0.0],[-85.8351,10.2073,12.2894],[-85.836,10.2011,2.9045],[-85.828,10.1923,8.3946],[-85.8225,10.1815,0.6815],[-85.8187,10.1789,13.3861],[-85.8185,10.1735,0.0],[-85.8151,10.1707,0.0],[-85.8095,10.1604,0.0],[-85.8081,10.1551,5.2593],[-85.8088,10.1501,1.3738],[-85.8008,10.1423,0.0],[-85.8008,10.1345,0.0],[-85.7936,10.1182,3.24],[-85.7951,10.1165,0.0],[-85.7939,10.1138,7.4359],[-85.7952,10.1102,0.0],[-85.7886,10.102,0.0],[-85.7887,10.0941,0.0],[-85.7843,10.0913,0.0],[-85.7795,10.0853,0.0],[-85.7777,10.0801,4.3678],[-85.7721,10.0748,0.0],[-85.7732,10.0733,0.0],[-85.7697,10.0719,0.0],[-85.7709,10.0692,0.0],[-85.7698,10.0673,3.7681],[-85.767,10.067,0.8865],[-85.7662,10.0625,1.5982],[-85.7638,10.0615,0.0],[-85.7636,10.0592,3.137],[-85.7529,10.0509,4.8761],[-85.7498,10.0502,1.8754],[-85.748,10.0429,4.1269],[-85.7435,10.0361,0.0],[-85.7434,10.0307,0.0],[-85.7406,10.0315,11.5363],[-85.7376,10.0292,11.4903],[-85.7414,10.0271,0.0],[-85.737799999999993,10.0249,0.0],[-85.7368,10.0266,5.7822],[-85.7312,10.0245,3.382],[-85.7304,10.0214,0.0],[-85.7275,10.0209,1.7667],[-85.7273,10.0176,0.0],[-85.7293,10.0166,0.0],[-85.7247,10.0127,0.0],[-85.7223,10.0134,20.603],[-85.7016,9.993,0.0],[-85.6971,9.9932,5.7111],[-85.6986,9.992,0.0],[-85.7007,9.9925,0.0],[-85.6875,9.9762,5.6487],[-85.6803,9.9634,16.5918],[-85.679,9.9636,31.5747],[-85.6808,9.9612,18.4487],[-85.6779,9.9586,0.0],[-85.6746,9.9515999999999991,6.2217],[-85.6752,9.9495,3.2633],[-85.6773,9.949,0.0],[-85.6707,9.9428,1.4664],[-85.6623,9.9286,2.2904],[-85.6621,9.9122,8.5353],[-85.6643,9.9087,34.4257],[-85.6702,9.9071,0.0],[-85.6688,9.9039,18.1667],[-85.6664,9.9025,0.0],[-85.6574,9.9029,0.0],[-85.6519,9.8989,0.0],[-85.6502,9.8999,0.0],[-85.6528,9.9029,3.1919],[-85.6516,9.9059,0.0],[-85.6459,9.9084,0.0],[-85.641,9.9083,0.0],[-85.6294,9.9007,7.4092],[-85.628,9.8964,0.0],[-85.6294,9.894,0.95009999999999994],[-85.626,9.8924,24.3408],[-85.6163,9.8928,15.5099],[-85.6086,9.8904,10.1317],[-85.6059,9.8872,20.1982],[-85.5996,9.8906,15.4075],[-85.5932,9.8905,16.0185],[-85.5921,9.8885,63.314],[-85.5929,9.8859,0.0],[-85.5896,9.8853,11.0809],[-85.5889,9.8834,0.0],[-85.5749,9.8814,9.351],[-85.5691,9.8766,0.0],[-85.5653,9.8801,0.0],[-85.5595,9.8803,0.0],[-85.5521,9.8782,0.0],[-85.5479,9.8744,32.3931],[-85.5354,9.8738,48.4389],[-85.5285,9.8793,0.0],[-85.5204,9.8803,0.0],[-85.5082,9.8707,3.8092],[-85.5074,9.8675,0.0],[-85.5102,9.864,19.8411],[-85.5074,9.8601,0.0],[-85.5028,9.8639,39.2381],[-85.4987,9.8624,0.0],[-85.5003,9.8655,36.0446],[-85.498,9.8692,1.394]]],
[[[-85.7814,10.4637,0.0],[-85.7815,10.4648,2.8963],[-85.7839,10.4642,1.6073],[-85.7829,10.4631,0.0],[-85.7814,10.4637,0.0]]],
[[[-85.8519,10.2996,0.0],[-85.8544,10.3008,0.0],[-85.8553,10.2991,0.2285],[-85.8524,10.299,0.3863],[-85.8519,10.2996,0.0]]],
[[[-85.8675,10.368,0.0],[-85.8665,10.3674,2.3749],[-85.866,10.3675,2.3749],[-85.8668,10.3683,0.0],[-85.8675,10.368,0.0]]],
[[[-85.8489,10.3727,0.0],[-85.8491,10.3725,0.0],[-85.8488,10.3723,0.0],[-85.8487,10.3726,0.0],[-85.8489,10.3727,0.0]]],
[[[-85.8456,10.3849,0.0],[-85.845,10.3843,0.0],[-85.8448,10.3844,0.0],[-85.8452,10.3852,0.0],[-85.8456,10.3849,0.0]]],
[[[-85.84,10.3874,0.0],[-85.8398,10.3872,0.0],[-85.8396,10.3872,0.0],[-85.8397,10.3875,0.0],[-85.84,10.3874,0.0]]],
[[[-85.7969,10.4199,0.0],[-85.7955,10.4197,0.0],[-85.7954,10.421,0.0],[-85.7957,10.4198,0.0],[-85.7969,10.4199,0.0]]],
[[[-85.8005,10.449,0.0],[-85.8043,10.4503,18.537],[-85.8056,10.4474,0.0],[-85.803,10.4453,0.0],[-85.8005,10.449,0.0]]],
[[[-85.8593,10.462,0.0],[-85.8596,10.4616,0.0],[-85.8596,10.4614,0.0],[-85.8588,10.4623,0.0],[-85.8593,10.462,0.0]]],
[[[-85.7987,10.4788,0.0],[-85.7987,10.4786,0.0],[-85.798,10.4786,0.0],[-85.7982,10.4787,0.0],[-85.7987,10.4788,0.0]]],
[[[-85.8041,10.5021,0.0],[-85.8031,10.5015,0.0],[-85.8026,10.5017,5.9519],[-85.8031,10.5022,0.0],[-85.8041,10.5021,0.0]]],
[[[-85.8218,10.5049,0.0],[-85.8214,10.504,0.0],[-85.8212,10.5039,0.0],[-85.8211,10.5046,0.0],[-85.8218,10.5049,0.0]]],
[[[-85.8226,10.5074,0.0],[-85.8231,10.5065,0.2518],[-85.8231,10.5058,0.2518],[-85.8222,10.5071,0.0],[-85.8226,10.5074,0.0]]],
[[[-85.8195,10.51,0.2835],[-85.8242,10.5109,0.0],[-85.8262,10.5103,0.0],[-85.824,10.5091,4.2635],[-85.8195,10.51,0.2835]]],
[[[-85.8031,10.5212,0.0],[-85.8033,10.5212,0.0],[-85.8036,10.5209,0.0],[-85.8032,10.521,0.0],[-85.8031,10.5212,0.0]]],
[[[-85.8709,10.477,0.0],[-85.8707,10.4761,0.0],[-85.8705,10.476,0.1154],[-85.8704,10.4774,0.5353],[-85.8709,10.477,0.0]]],
[[[-85.8719,10.4794,0.19],[-85.8704,10.4787,0.5353],[-85.8722,10.4816,0.2269],[-85.8723,10.4815,0.2269],[-85.8719,10.4794,0.19]]],
[[[-85.9698,10.8519,0.0],[-85.9703,10.8518,0.0],[-85.9704,10.8514,0.0],[-85.9698,10.8517,0.0],[-85.9698,10.8519,0.0]]],
[[[-85.9769,10.852,0.0],[-85.9759,10.8517,0.0],[-85.9757,10.8519,0.0],[-85.9779,10.8527,0.0],[-85.9769,10.852,0.0]]],
[[[-85.8027,10.5214,0.0],[-85.8024,10.5206,0.0],[-85.8019,10.5208,0.0],[-85.802,10.5216,0.0],[-85.8027,10.5214,0.0]]],
[[[-85.856,10.8471,0.0],[-85.8621,10.848,11.1766],[-85.8723,10.8437,33.0433],[-85.8724,10.8423,33.0433],[-85.8687,10.8412,34.8658],[-85.856,10.8471,0.0]]],
[[[-85.8172,10.9254,0.0],[-85.8171,10.9251,0.0],[-85.8168,10.925,0.0],[-85.8169,10.9252,0.0],[-85.8172,10.9254,0.0]]],
[[[-85.798,10.9371,22.7915],[-85.7966,10.9362,0.0],[-85.7964,10.9383,0.0],[-85.7983,10.9396,0.0],[-85.7986,10.9377,22.7915],[-85.798,10.9371,22.7915]]],
[[[-85.9698,10.8526,0.0],[-85.97,10.8527,0.0],[-85.9701,10.8523,0.0],[-85.9699,10.8523,0.0],[-85.9698,10.8526,0.0]]],
[[[-85.9214,10.853,9.1068],[-85.9217,10.8532,9.1068],[-85.922,10.853,9.1068],[-85.9215,10.8529,9.1068],[-85.9214,10.853,9.1068]]],
[[[-85.9787,10.8539,0.0],[-85.979,10.8532,0.0],[-85.9781,10.8532,0.0],[-85.9782,10.8537,0.0],[-85.9787,10.8539,0.0]]],
[[[-85.9571,10.8542,0.0],[-85.959,10.8546,0.0],[-85.9602,10.8539,0.0],[-85.9588,10.8528,0.856],[-85.9571,10.8542,0.0]]],
[[[-85.9629,10.8542,0.0],[-85.9631,10.8538,0.0],[-85.9626,10.8537,0.0],[-85.9625,10.8541,0.0],[-85.9629,10.8542,0.0]]],
[[[-85.9482,10.8557,0.0],[-85.9502,10.8545,6.5992],[-85.9526,10.8574,0.0],[-85.9532,10.8552,2.0446],[-85.9558,10.854,0.0],[-85.9491,10.853,6.4122],[-85.9482,10.8557,0.0]]],
[[[-85.928,10.8541,1.8525],[-85.9325,10.8576,0.0],[-85.9334,10.8573,0.0],[-85.9316,10.8536,10.4925],[-85.928,10.8541,1.8525]]],
[[[-85.9366,10.8563,42.4115],[-85.9368,10.8587,9.4314],[-85.9401,10.8574,0.0],[-85.9414,10.8589,0.0],[-85.9414,10.8568,19.8064],[-85.9443,10.8559,5.9298],[-85.9454,10.8572,0.0],[-85.9469,10.855,0.0],[-85.9434,10.8539,19.8781],[-85.9403,10.8561,27.2818],[-85.9366,10.8563,42.4115]]],
[[[-85.9123,10.8621,0.0],[-85.9185,10.8615,0.0],[-85.9185,10.8582,4.2188],[-85.9232,10.8577,0.0],[-85.9274,10.8534,0.0],[-85.9214,10.8534,9.1068],[-85.9174,10.857,29.3658],[-85.9144,10.8517,0.0913],[-85.9095,10.8532,0.0],[-85.909,10.855,0.0],[-85.9124,10.8581,8.3664],[-85.9123,10.8621,0.0]]],
[[[-85.9019,10.859,0.0],[-85.9061,10.8602,16.5737],[-85.9083,10.8558,18.0666],[-85.9034,10.8552,0.0],[-85.9035,10.8576,19.8997],[-85.899,10.858,0.0],[-85.9019,10.859,0.0]]],
[[[-85.8983,10.8581,0.0],[-85.8986,10.8582,0.0],[-85.8987,10.858,0.0],[-85.8984,10.8578,0.0],[-85.8983,10.8581,0.0]]],
[[[-85.8898,10.8724,53.313],[-85.8874,10.8734,17.4065],[-85.8885,10.8766,7.4873],[-85.8924,10.8746,3.3192],[-85.8973,10.8748,8.8644],[-85.8988,10.8726,34.2022],[-85.8955,10.8699,7.065],[-85.8898,10.8724,53.313]]],
[[[-85.951,10.8902,0.0],[-85.9515,10.8898,0.0],[-85.9512,10.8895,0.0],[-85.9507,10.8897,1.6267],[-85.951,10.8902,0.0]]],
[[[-85.8986,10.9194,0.0],[-85.8987,10.9214,0.0],[-85.9018,10.9213,0.0],[-85.9003,10.9176,0.0],[-85.8974,10.9167,1.9019],[-85.8986,10.9194,0.0]]],
[[[-85.8973,10.922,0.0],[-85.8977,10.922,0.0],[-85.8976,10.9218,0.0],[-85.8973,10.9218,0.0],[-85.8973,10.922,0.0]]],
[[[-85.9043,10.9255,0.0],[-85.9045,10.9254,0.0],[-85.9045,10.9251,0.0],[-85.9041,10.9253,0.0],[-85.9043,10.9255,0.0]]],
[[[-85.9026,10.9265,0.0],[-85.9028,10.9262,0.0],[-85.9027,10.926,0.0],[-85.9022,10.9263,0.0],[-85.9026,10.9265,0.0]]],
[[[-85.9075,10.9422,0.0],[-85.9077,10.9419,0.0],[-85.9075,10.9417,0.0],[-85.9073,10.942,0.0],[-85.9075,10.9422,0.0]]],
[[[-85.8012,10.9384,0.0],[-85.8014,10.9383,0.0],[-85.8014,10.9381,0.0],[-85.801,10.9381,0.0],[-85.8012,10.9384,0.0]]],
[[[-85.8137,10.9441,0.0],[-85.8143,10.9426,1.5909],[-85.8123,10.9454,0.0],[-85.813,10.9454,0.0],[-85.8137,10.9441,0.0]]],
[[[-85.2018,10.1098,0.0],[-85.2023,10.1097,0.0],[-85.2027,10.1094,0.0],[-85.2022,10.1092,0.0],[-85.2018,10.1098,0.0]]],
[[[-85.1346,10.1372,0.0],[-85.1349,10.1366,0.0],[-85.134,10.1363,0.0],[-85.1338,10.137,0.0],[-85.1346,10.1372,0.0]]],
[[[-85.7954,10.478,0.0],[-85.7962,10.4778,0.0],[-85.7963,10.4774,0.0],[-85.7954,10.4776,0.0],[-85.7954,10.478,0.0]]],
[[[-85.7853,10.5377,0.0],[-85.7852,10.5372,0.0],[-85.7845,10.5371,0.0],[-85.7847,10.5375,0.0],[-85.7853,10.5377,0.0]]],
[[[-85.7007,10.5779,0.0],[-85.7009,10.5778,0.0],[-85.7006,10.5776,0.0],[-85.7005,10.5777,0.0],[-85.7007,10.5779,0.0]]],
[[[-85.7076,10.5792,0.0],[-85.7093,10.5793,6.4586],[-85.7095,10.5776,0.0],[-85.7083,10.5782,0.0],[-85.7076,10.5792,0.0]]],
[[[-85.6934,10.6399,16.2719],[-85.6921,10.6413,77.7863],[-85.6963,10.6414,29.7655],[-85.6982,10.6394,0.0],[-85.6954,10.639099999999999,43.1834],[-85.6934,10.6399,16.2719]]],
[[[-85.6855,10.6441,26.5577],[-85.6892,10.6456,0.0],[-85.6916,10.6429,11.0043],[-85.6886,10.6403,0.0],[-85.6868,10.6408,15.7097],[-85.6855,10.6441,26.5577]]],
[[[-85.7046,10.5779,0.0],[-85.7031,10.5782,0.0],[-85.7027,10.5788,0.0],[-85.7044,10.5797,0.0],[-85.7046,10.5779,0.0]]],
[[[-85.7121,10.5807,3.8765],[-85.7123,10.5791,0.0],[-85.7095,10.5796,6.4586],[-85.7109,10.5813,3.8765],[-85.7121,10.5807,3.8765]]],
[[[-85.703,10.6085,0.0],[-85.7032,10.6086,0.0],[-85.7033,10.6083,0.0],[-85.7032,10.6083,0.0],[-85.703,10.6085,0.0]]],
[[[-85.7018,10.6107,0.0],[-85.702,10.6106,0.0],[-85.7019,10.6105,0.0],[-85.7017,10.6106,0.0],[-85.7018,10.6107,0.0]]],
[[[-85.6831,10.7927,0.0],[-85.6835,10.7925,0.0],[-85.6834,10.7916,0.0],[-85.6828,10.7921,0.0],[-85.6831,10.7927,0.0]]],
[[[-85.7892,10.9381,0.0],[-85.7894,10.938,0.0],[-85.7889,10.9376,0.0],[-85.7889,10.9379,0.0],[-85.7892,10.9381,0.0]]],
[[[-85.79,10.9391,0.0],[-85.7901,10.9388,0.0],[-85.7891,10.9383,0.0],[-85.7891,10.9394,0.0],[-85.79,10.9391,0.0]]],
[[[-85.7343,10.9579,0.0],[-85.7332,10.957,0.0],[-85.7325,10.957,0.0],[-85.7343,10.9581,0.0],[-85.7343,10.9579,0.0]]],
[[[-85.7222,10.958,0.0],[-85.7224,10.9583,0.0],[-85.7238,10.9588,0.0],[-85.7225,10.957,0.0],[-85.7222,10.958,0.0]]],
[[[-85.7149,10.9797,12.3749],[-85.714,10.9783,0.0],[-85.7138,10.982,0.0],[-85.7183,10.9833,10.2999],[-85.7183,10.9829,10.2999],[-85.7149,10.9797,12.3749]]],
[[[-85.7476,11.0015,0.0],[-85.7469,11.0005,3.7841],[-85.745,11.0027,9.83],[-85.7473,11.0037,0.0],[-85.7476,11.0015,0.0]]],
[[[-85.7485,11.0035,0.0],[-85.7485,11.0031,0.0],[-85.7478,11.0033,0.0],[-85.7479,11.0037,0.0],[-85.7485,11.0035,0.0]]],
[[[-85.7403,11.0454,0.0],[-85.7398,11.0456,0.0],[-85.74,11.0462,0.0],[-85.7403,11.0459,0.0],[-85.7403,11.0454,0.0]]],
[[[-85.7092,11.0464,3.8105],[-85.7069,11.046,0.0],[-85.7067,11.0483,0.0],[-85.7108,11.0504,7.6299],[-85.7113,11.0482,0.0],[-85.7092,11.0464,3.8105]]]]}
,"properties": {"GID_1": "CRI.3_1","GID_0": "CRI","country": "CostaRica","province": "Guanacaste","VARNAME_1": "NA","NL_NAME_1": "NA","TYPE_1": "Provincia","ENGTYPE_1": "Province","CC_1": "5","HASC_1": "CR.GU","ISO_1": "CR-G","name": "Guanacaste.province","area_km2": 10226.844,"hist_schema_id": "Elevation0-9000","hist_area_km2": {"0": 865.382,"25": 1336.736,"50": 792.633,"75": 647.287,"100": 618.787,"125": 602.684,"150": 522.771,"175": 390.971,"200": 379.561,"225": 356.092,"250": 332.294,"275": 344.663,"300": 307.36,"325": 245.889,"350": 218.626,"375": 185.876,"400": 157.593,"425": 138.661,"450": 123.791,"475": 110.444,"500": 103.961,"525": 96.411,"550": 186.085,"575": 120.678,"600": 92.378,"625": 84.377,"650": 80.286,"675": 75.445,"700": 65.753,"725": 54.64,"750": 52.239,"775": 47.341,"800": 38.981,"825": 37.958,"850": 32.497,"875": 30.995,"900": 28.786,"925": 27.013,"950": 26.659,"975": 24.7,"1000": 20.259,"1025": 17.361,"1050": 16.382,"1075": 16.216,"1100": 16.236,"1125": 15.048,"1150": 13.442,"1175": 11.733,"1200": 10.379,"1225": 9.441,"1250": 8.232,"1275": 7.691,"1300": 7.524,"1325": 6.858,"1350": 5.627,"1375": 5.419,"1400": 5.586,"1425": 5.169,"1450": 5.753,"1475": 5.544,"1500": 4.794,"1525": 3.835,"1550": 3.168,"1575": 3.293,"1600": 2.98,"1625": 2.46,"1650": 2.189,"1675": 1.814,"1700": 2.209,"1725": 1.334,"1750": 1.042,"1775": 0.979,"1800": 0.646,"1825": 0.292,"1850": 0.229,"1875": 0.187,"1925": 0.104}}}