{"type":"Feature","properties":{"GID_3":"CRI.7.4.3_1","GID_0":"CRI","country":"CostaRica","GID_1":"CRI.7_1","province":"SanJosé","NL_NAME_1":"NA","GID_2":"CRI.7.4_1","county":"Curridabat","NL_NAME_2":"NA","city":"Sánchez","VARNAME_3":"NA","NL_NAME_3":"NA","TYPE_3":"Distrito","ENGTYPE_3":"District","CC_3":"3","HASC_3":"NA","name":"Sánchez.city"},
"geometry":{"type": "MultiPolygon","coordinates": [[[[-84.0052,9.9299,1347.6187],[-84.0172,9.9269,1297.5347],[-84.0294,9.914,1217.6731],[-84.026,9.9117,1225.67],[-84.0272,9.9059,1210.041],[-84.0262,9.9024,1207.4963],[-84.0243,9.9023,1211.2047],[-84.021,9.8962,1214.6694],[-84.0157,9.8991,1242.4543],[-84.0177,9.905,1237.4296],[-84.0156,9.9102,1237.2393],[-84.0051,9.9245,1344.2422],[-84.0052,9.9299,1347.6187]]]]}}