{"type":"Feature","properties":{"GID_3":"CRI.7.13.7_1","GID_0":"CRI","country":"CostaRica","GID_1":"CRI.7_1","province":"SanJosé","NL_NAME_1":"NA","GID_2":"CRI.7.13_1","county":"PérezZeledón","NL_NAME_2":"NA","city":"Pejibaye","VARNAME_3":"NA","NL_NAME_3":"NA","TYPE_3":"Distrito","ENGTYPE_3":"District","CC_3":"7","HASC_3":"NA","name":"Pejibaye.city"},
"geometry":{"type": "MultiPolygon","coordinates": [[[[-83.5029,9.0843,379.3962],[-83.5108,9.0897,467.1324],[-83.5104,9.0916,439.527],[-83.5046,9.0932,458.9899],[-83.4989,9.1003,558.2002],[-83.4905,9.1025,652.3328],[-83.489,9.1076,790.1364],[-83.486,9.1087,799.4675],[-83.4817,9.1149,868.9272],[-83.4792,9.114,918.4052],[-83.4734,9.1192,833.2758],[-83.4739,9.1259,792.0508],[-83.4827,9.1332,559.3615],[-83.4815,9.138,458.5597],[-83.4831,9.1451,338.617],[-83.4795,9.1488,383.7841],[-83.4883,9.1538,410.0291],[-83.4964,9.1497,349.8561],[-83.5033,9.1518,357.0235],[-83.505,9.1493,349.0156],[-83.5094,9.1522,405.7723],[-83.511,9.1485,354.7334],[-83.5167,9.1501,373.107],[-83.5224,9.1473,404.102],[-83.524,9.1493,388.9256],[-83.5403,9.1522,388.5281],[-83.5431,9.1542,423.5524],[-83.5427,9.1696,666.353],[-83.5598,9.1891,507.674],[-83.5679,9.1923,636.4877],[-83.5719,9.1903,664.9371],[-83.5833,9.2013,712.3914],[-83.5788,9.2061,687.1287],[-83.5833,9.2061,691.3596],[-83.5849,9.2098,688.7329],[-83.5914,9.211,689.0396],[-83.5914,9.2134,688.8377],[-83.5947,9.2134,692.4399],[-83.5994,9.2188,770.1661],[-83.6073,9.2182,770.0289],[-83.611,9.2157,760.6682],[-83.6116,9.2129,817.1246],[-83.6149,9.2128,817.2942],[-83.6147,9.203,693.9073],[-83.6131,9.2019,708.3834],[-83.6155,9.2021,704.2209],[-83.6116,9.1978,724.99],[-83.6127,9.1928,754.5752],[-83.6094,9.1875,755.8379],[-83.6109,9.1847,711.3748],[-83.6086,9.1751,739.2352],[-83.6169,9.1702,846.1647],[-83.6225,9.1707,903.8491],[-83.6254,9.1668,967.9648],[-83.6322,9.1686,1050.6523],[-83.6341,9.1676,1062.4316],[-83.6334,9.1607,1051.9069],[-83.6376,9.1549,904.8163],[-83.6416,9.1525,822.1082],[-83.6359,9.1521,759.0853],[-83.6285,9.1556,749.7485],[-83.623,9.1561,689.5262],[-83.618,9.1542,622.6792],[-83.6181,9.1514,736.3728],[-83.6235,9.1448,845.2866],[-83.6233,9.1399,947.9192],[-83.6199,9.1318,1083.7373],[-83.6259,9.1267,1115.0391],[-83.6206,9.1244,1093.4379],[-83.6135,9.1249,1118.1022],[-83.6057,9.118,996.4843],[-83.6053,9.114,1015.7552],[-83.5833,9.1023,1059.1885],[-83.5769,9.0925,1074.0089],[-83.5688,9.086,998.3342],[-83.5621,9.0847,977.0967],[-83.5581,9.0857,959.8495],[-83.5501,9.0834,937.5177],[-83.5474,9.0806,883.9892],[-83.5419,9.0786,840.2908],[-83.5333,9.079,691.2534],[-83.5284,9.0819,484.0186],[-83.5211,9.077,460.4283],[-83.5167,9.0769,420.8607],[-83.5137,9.0749,398.1493],[-83.5067,9.0778,413.5937],[-83.5074,9.0807,423.4373],[-83.5052,9.0807,392.7668],[-83.5029,9.0843,379.3962]]]]}}