{"type": "Feature","bbox": [-84.8121,10.0433,-84.6637,10.1763],"geometry": {"type": "MultiPolygon","coordinates": [[[[-84.6836,10.1763,1320.7731],[-84.6896,10.1603,1377.7072],[-84.6884,10.1556,1407.5879],[-84.6908,10.152,1418.3999],[-84.7005,10.1468,1328.4449],[-84.7046,10.1507,1183.2365],[-84.7108,10.15,1069.8466],[-84.7132,10.1459,1011.778],[-84.7167,10.1436,895.0674],[-84.7182,10.1379,828.7872],[-84.721,10.137,783.3383],[-84.721,10.1346,765.7769],[-84.7232,10.1335,762.1318],[-84.7481,10.1344,562.36],[-84.7682,10.1436,475.1707],[-84.7724,10.1472,368.1057],[-84.7741,10.1528,268.3585],[-84.7783,10.1509,255.7664],[-84.7825,10.1533,244.733],[-84.7889,10.1463,227.4274],[-84.7922,10.1449,252.9894],[-84.7965,10.147,197.1116],[-84.7955,10.1409,184.167],[-84.799,10.1388,218.6214],[-84.8023,10.1305,190.6001],[-84.8104,10.1252,166.6251],[-84.8121,10.1174,152.2069],[-84.8116,10.1107,130.6453],[-84.8098,10.1084,120.1544],[-84.8105,10.1021,104.9268],[-84.8095,10.1003,101.458],[-84.8068,10.1045,146.0744],[-84.8047,10.1048,170.9199],[-84.7954,10.1012,153.8257],[-84.7928,10.1024,116.2108],[-84.7914,10.1007,112.0982],[-84.7925,10.0979,108.6787],[-84.7912,10.0973,111.808],[-84.7946,10.0957,115.4386],[-84.7916,10.0856,79.9615],[-84.7888,10.0834,58.1793],[-84.793,10.0788,55.3448],[-84.7901,10.075,52.1694],[-84.7912,10.0715,37.552],[-84.7886,10.07,34.7202],[-84.7892,10.0685,48.7826],[-84.7869,10.0663,40.9796],[-84.7827,10.0672,36.8339],[-84.7791,10.0645,33.1095],[-84.7814,10.0544,16.2077],[-84.7847,10.0509,17.968],[-84.7837,10.0479,13.7592],[-84.7717,10.0433,20.0034],[-84.7721,10.0458,19.2493],[-84.7688,10.0496,25.4837],[-84.7708,10.0524,28.2653],[-84.7701,10.0588,43.5398],[-84.7684,10.0608,42.9438],[-84.7737,10.0658,50.3166],[-84.7739,10.0683,64.8251],[-84.7712,10.07,55.1431],[-84.7241,10.0675,148.6338],[-84.7233,10.074,191.8383],[-84.7186,10.0796,256.9764],[-84.7175,10.0848,302.9893],[-84.7142,10.0874,347.8663],[-84.7107,10.0883,391.1928],[-84.7106,10.0867,398.6138],[-84.7089,10.0865,411.8532],[-84.7029,10.0916,516.7563],[-84.6946,10.0912,610.5731],[-84.6941,10.0896,581.4248],[-84.6904,10.0903,580.1537],[-84.6902,10.0887,578.2158],[-84.6861,10.0879,661.5948],[-84.6806,10.0908,720.6483],[-84.677,10.1064,995.342],[-84.6832,10.1078,1175.9625],[-84.6842,10.1143,1181.8108],[-84.6865,10.1179,1251.9255],[-84.6866,10.1265,1364.9755],[-84.6822,10.1278,1252.3103],[-84.6693,10.1198,771.2277],[-84.6651,10.1224,699.1887],[-84.6712,10.1282,854.1971],[-84.6705,10.1299,854.2616],[-84.6735,10.1399,966.894],[-84.6653,10.1464,1144.5824],[-84.6653,10.1524,1244.5791],[-84.6702,10.1558,1296.7183],[-84.6651,10.163,1294.5901],[-84.6658,10.1642,1303.7632],[-84.6637,10.1655,1299.7108],[-84.6651,10.1656,1310.2708],[-84.6638,10.167,1299.7108],[-84.6652,10.1685,1303.2748],[-84.6646,10.1709,1299.7942],[-84.6682,10.1755,1311.2739],[-84.6786,10.1742,1312.6361],[-84.6836,10.1763,1320.7731]]]]}
,"properties": {"GID_3": "CRI.6.8.2_1","GID_0": "CRI","country": "CostaRica","GID_1": "CRI.6_1","province": "Puntarenas","NL_NAME_1": "NA","GID_2": "CRI.6.8_1","county": "MontesdeOro","NL_NAME_2": "NA","city": "Miramar","VARNAME_3": "NA","NL_NAME_3": "NA","TYPE_3": "Distrito","ENGTYPE_3": "District","CC_3": "1","HASC_3": "NA","name": "Miramar.city","area_km2": 111.06434,"hist_schema_id": "Elevation0-9000","hist_area_km2": {"0": 0.16702,"25": 2.12941,"50": 1.52393,"75": 2.02489,"100": 3.67395,"125": 3.31901,"150": 5.94904,"175": 6.30378,"200": 6.3664,"225": 5.23918,"250": 5.1139,"275": 4.34161,"300": 4.13285,"325": 3.79887,"350": 3.21437,"375": 2.31684,"400": 2.08724,"425": 2.02463,"450": 2.10811,"475": 1.64895,"500": 1.62806,"525": 1.62808,"550": 1.39847,"575": 1.31499,"600": 1.33585,"625": 1.10627,"650": 1.39849,"675": 1.16888,"700": 1.12714,"725": 1.0019,"750": 1.10627,"775": 0.89753,"800": 1.08539,"825": 1.04363,"850": 0.79315,"875": 0.87663,"900": 0.73054,"925": 0.83489,"950": 0.96013,"975": 1.18971,"1000": 0.83489,"1025": 0.70965,"1050": 0.79314,"1075": 0.89749,"1100": 0.77226,"1125": 0.75139,"1150": 0.73051,"1175": 0.75138,"1200": 0.64703,"1225": 0.66788,"1250": 0.75136,"1275": 0.68874,"1300": 1.75308,"1325": 2.0035,"1350": 1.31482,"1375": 1.2731,"1400": 1.46094,"1425": 1.94095,"1450": 1.21049,"1475": 0.83482,"1500": 0.16697}}}