{"type": "Feature","bbox": [-83.3357,8.5296,-83.0099,8.779],"geometry": {"type": "MultiPolygon","coordinates": [[[[-83.1625,8.569,0.0],[-83.1619,8.5691,0.0],[-83.1617,8.5695,0.0],[-83.1626,8.5694,0.0],[-83.1625,8.569,0.0]]],
[[[-83.1579,8.5788,0.0],[-83.1573,8.579,0.0],[-83.1587,8.5799,0.0],[-83.1584,8.5791,0.0],[-83.1579,8.5788,0.0]]],
[[[-83.1458,8.6004,0.0],[-83.1446,8.6008,0.0],[-83.1443,8.6012,0.0],[-83.1451,8.6013,0.0],[-83.1458,8.6004,0.0]]],
[[[-83.0297,8.5603,9.0839],[-83.028,8.5613,8.1162],[-83.03,8.5663,4.2595],[-83.0281,8.5684,3.9332],[-83.0287,8.5705,4.2624],[-83.0269,8.57,4.528],[-83.0273,8.5746,4.1329],[-83.0299,8.5761,4.3365],[-83.0292,8.578,5.0548],[-83.0261,8.5761,6.7673],[-83.0265,8.5788,4.5404],[-83.0241,8.5795,5.0346],[-83.0255,8.5812,4.3902],[-83.0236,8.5824,3.883],[-83.0254,8.5833,4.0879],[-83.0237,8.585,4.137],[-83.0214,8.5839,3.818],[-83.0215,8.5822,5.1391],[-83.0169,8.5828,3.667],[-83.0191,8.5872,4.2709],[-83.0144,8.5854,3.2751],[-83.0142,8.5876,4.2545],[-83.0121,8.5857,4.1118],[-83.0131,8.5877,4.2545],[-83.0099,8.5901,4.4605],[-83.0113,8.5925,5.3043],[-83.0134,8.5911,4.8962],[-83.0146,8.5922,4.5147],[-83.0137,8.5937,4.7984],[-83.0154,8.593,4.5147],[-83.0133,8.5965,4.1535],[-83.0168,8.6004,9.1563],[-83.016,8.6024,9.1886],[-83.0198,8.6025,7.2639],[-83.0195,8.6052,6.9296],[-83.0208,8.604,8.3083],[-83.0219,8.6055,6.5331],[-83.0247,8.6048,14.615],[-83.0291,8.6065,8.4594],[-83.0287,8.6081,11.0666],[-83.0324,8.6085,5.7504],[-83.0313,8.6103,5.9369],[-83.0346,8.6131,9.4129],[-83.0356,8.612,7.0575],[-83.0377,8.6133,10.4486],[-83.0384,8.6118,7.2447],[-83.0418,8.6148,12.4256],[-83.0437,8.6136,8.0164],[-83.0444,8.6159,11.0782],[-83.0497,8.618,7.3013],[-83.0514,8.6207,15.2276],[-83.0523,8.6193,7.664],[-83.0527,8.6212,12.2488],[-83.0568,8.6192,9.7696],[-83.0605,8.6217,10.3123],[-83.0584,8.624,12.6307],[-83.0612,8.6247,11.7764],[-83.0609,8.6304,11.6982],[-83.0642,8.6317,10.1577],[-83.0633,8.6357,16.2694],[-83.0655,8.6359,11.544],[-83.0643,8.6398,15.7053],[-83.0654,8.6388,15.7053],[-83.0679,8.6427,12.248],[-83.0702,8.6425,12.5999],[-83.0752,8.6486,14.4977],[-83.0745,8.652,14.7726],[-83.0771,8.652,13.9763],[-83.077,8.6542,12.148],[-83.0812,8.6539,15.7282],[-83.0811,8.6554,15.7282],[-83.0793,8.6552,12.7087],[-83.0805,8.6568,14.3106],[-83.0791,8.6577,13.1941],[-83.0818,8.6585,15.5907],[-83.0798,8.6597,15.8611],[-83.0811,8.6609,16.1508],[-83.0825,8.6599,22.839],[-83.0868,8.6672,19.961],[-83.0919,8.6681,21.3999],[-83.0948,8.667,16.6805],[-83.0953,8.6685,21.6031],[-83.0977,8.6671,21.1219],[-83.1048,8.6715,23.2187],[-83.1047,8.6731,24.4645],[-83.1061,8.6722,23.7025],[-83.1067,8.674,19.7944],[-83.1117,8.6722,22.7912],[-83.1148,8.6738,24.4875],[-83.1158,8.6726,28.055],[-83.1179,8.6758,28.9595],[-83.1226,8.677,29.9886],[-83.124,8.6811,27.2993],[-83.1255,8.6811,27.2993],[-83.1259,8.6828,37.6217],[-83.1233,8.6846,30.018],[-83.125,8.6867,30.4511],[-83.1377,8.6766,267.6364],[-83.1411,8.6761,315.1454],[-83.1437,8.6807,311.3174],[-83.1482,8.6788,265.2759],[-83.1514,8.6817,264.0727],[-83.1531,8.6776,276.9376],[-83.1524,8.6712,332.3872],[-83.1559,8.666,449.4647],[-83.165,8.6636,377.3784],[-83.1674,8.6672,418.8925],[-83.1669,8.6711,451.898],[-83.169,8.6707,452.472],[-83.1761,8.6781,420.8677],[-83.1993,8.6776,146.3193],[-83.1967,8.6865,105.9913],[-83.1977,8.6886,88.4538],[-83.1967,8.6937,78.7138],[-83.1936,8.697,73.8219],[-83.1875,8.7116,67.4538],[-83.185,8.7144,62.037],[-83.1828,8.7136,64.1226],[-83.1804,8.7166,62.1385],[-83.1782,8.7165,60.6146],[-83.1721,8.7213,65.9669],[-83.168,8.7208,65.6803],[-83.1674,8.7229,70.8866],[-83.1703,8.7264,61.5773],[-83.172,8.7254,97.5917],[-83.1745,8.7275,58.3303],[-83.176,8.7269,88.9417],[-83.1803,8.7311,58.0324],[-83.1827,8.7314,59.3229],[-83.1903,8.7442,48.9385],[-83.1966,8.7454,54.7435],[-83.2039,8.7444,33.72],[-83.2076,8.7498,38.5772],[-83.2117,8.7513,24.0895],[-83.2164,8.7574,20.4431],[-83.2197,8.7539,26.2281],[-83.2209,8.7571,19.213],[-83.226,8.7585,39.5722],[-83.2242,8.7659,28.2213],[-83.2272,8.7665,17.4192],[-83.2288,8.764,24.0454],[-83.2327,8.7642,15.745],[-83.2341,8.7658,13.7524],[-83.2325,8.7708,12.6328],[-83.2335,8.7733,15.0891],[-83.2395,8.774,16.8233],[-83.2424,8.7724,21.985],[-83.2429,8.7762,19.4505],[-83.2473,8.7736,8.0312],[-83.2492,8.7758,16.0471],[-83.249,8.779,19.9195],[-83.2512,8.7746,18.8967],[-83.2484,8.7721,8.0312],[-83.2509,8.7701,8.5806],[-83.2544,8.7713,12.3444],[-83.2564,8.7669,36.8128],[-83.2612,8.7687,9.9506],[-83.2613,8.7662,14.218],[-83.2635,8.7661,9.477],[-83.2637,8.7684,21.3247],[-83.265,8.7659,9.477],[-83.2692,8.7659,10.4702],[-83.2744,8.7691,8.9611],[-83.2774,8.7606,12.674],[-83.279,8.7628,9.3684],[-83.2798,8.7599,7.6424],[-83.283,8.7607,8.4771],[-83.282,8.7625,20.9186],[-83.2832,8.7628,23.1334],[-83.2871,8.759,14.8653],[-83.2886,8.7551,40.4054],[-83.2865,8.7534,10.178],[-83.2883,8.7515,18.5732],[-83.2869,8.7499,8.8208],[-83.2876,8.7473,9.8062],[-83.2894,8.7437,8.1633],[-83.2915,8.7448,6.8289],[-83.2944,8.7435,21.6349],[-83.2936,8.7409,2.9351],[-83.2958,8.7388,8.6405],[-83.2977,8.7323,3.4222],[-83.2956,8.7298,7.0415],[-83.2988,8.726,17.2528],[-83.3044,8.7256,14.2459],[-83.3081,8.7279,17.0992],[-83.3143,8.7288,40.6562],[-83.3208,8.7276,12.1702],[-83.3248,8.7224,2.5313],[-83.3337,8.7193,0.0],[-83.3356,8.7157,0.0],[-83.3357,8.7142,0.0],[-83.334,8.7138,4.4452],[-83.3331,8.7162,5.4509],[-83.3319,8.7144,1.8835],[-83.3251,8.7184,7.2357],[-83.3224,8.7148,9.6443],[-83.326,8.7161,1.1893],[-83.327,8.715,7.3161],[-83.3256,8.7146,7.3161],[-83.3294,8.7128,2.1955],[-83.3313,8.7095,24.2209],[-83.3296,8.7054,15.2519],[-83.3331,8.702,6.4155],[-83.3267,8.6897,9.6209],[-83.3274,8.6861,0.0],[-83.3307,8.6852,32.4093],[-83.3292,8.6806,39.7202],[-83.322,8.6773,8.1625],[-83.3202,8.6737,0.0],[-83.307,8.6732,0.0],[-83.305,8.6681,0.0],[-83.3007,8.6667,0.0],[-83.299,8.6642,7.116],[-83.2947,8.6533,0.0],[-83.2911,8.6576,9.4189],[-83.2866,8.6583,3.3415],[-83.2846,8.6569,0.0],[-83.2779,8.6597,3.89],[-83.2755,8.6595,68.2753],[-83.2721,8.6562,6.7841],[-83.2625,8.6576,19.4229],[-83.2539,8.6566,0.0],[-83.2471,8.6375,0.0],[-83.2441,8.6326,3.2603],[-83.2372,8.6268,0.0],[-83.2357,8.6318,45.0506],[-83.2329,8.6333,2.8219],[-83.2355,8.6346,50.3664],[-83.2344,8.6392,6.1392],[-83.2257,8.6413,10.4725],[-83.2176,8.6362,8.8672],[-83.2174,8.6319,0.0],[-83.2129,8.6282,0.0],[-83.2058,8.631,57.9554],[-83.2043,8.6267,0.0],[-83.1983,8.6285,0.0],[-83.1956,8.6255,9.3581],[-83.1829,8.6217,0.0],[-83.1774,8.6255,48.5554],[-83.1771,8.631,32.8636],[-83.1743,8.6347,5.5178],[-83.1775,8.635,25.8283],[-83.1766,8.6393,0.0],[-83.1838,8.6404,6.0283],[-83.1843,8.6391,6.0283],[-83.1875,8.6418,6.7432],[-83.1862,8.6417,12.1935],[-83.1843,8.6409,8.2682],[-83.1839,8.643,10.8765],[-83.1817,8.6414,0.0],[-83.177,8.6414,2.0228],[-83.1774,8.6443,12.78],[-83.175299999999993,8.6436,4.2591],[-83.1762,8.6456,9.9263],[-83.1744,8.6432,0.0],[-83.1719,8.6428,4.4267],[-83.1712,8.639,0.6747],[-83.1684,8.6362,0.0],[-83.1643,8.6357,69.0497],[-83.1545,8.6235,0.0],[-83.1413,8.6133,5.0576],[-83.1403,8.6093,0.0],[-83.135,8.6039,9.7016],[-83.1352,8.6004,0.0],[-83.1311,8.6028,10.83],[-83.1273,8.601,5.7611],[-83.1229,8.6011,9.625],[-83.1242,8.6006,3.4997],[-83.1232,8.5941,5.0729],[-83.13,8.591,0.0],[-83.1309,8.5891,2.6279],[-83.1388,8.5907,0.0],[-83.1385,8.5845,2.4075],[-83.1401,8.5828,10.7723],[-83.1429,8.5835,4.8895],[-83.1424,8.5816,16.0632],[-83.1441,8.5832,4.8895],[-83.145,8.581,17.9776],[-83.1465,8.5833,0.4891],[-83.1485,8.5802,30.8896],[-83.1538,8.5793,8.5866],[-83.1558,8.577,5.982],[-83.1602,8.5781,3.3212],[-83.1597,8.5795,0.0],[-83.162,8.5798,4.6082],[-83.1598,8.5814,2.7581],[-83.1656,8.5837,0.0],[-83.1603,8.5826,7.5507],[-83.1574,8.5799,0.0],[-83.1541,8.581,0.0],[-83.1556,8.5841,2.5378],[-83.1638,8.5853,4.126],[-83.1596,8.5876,19.8496],[-83.16,8.5928,8.4093],[-83.1552,8.5954,26.5028],[-83.1596,8.5992,16.6781],[-83.1591,8.6013,3.0073],[-83.1612,8.6012,19.1581],[-83.1608,8.6031,22.6453],[-83.1565,8.6051,9.065],[-83.1571,8.6066,50.6286],[-83.1544,8.6082,6.4576],[-83.1518,8.608,0.0],[-83.1519,8.6092,0.0],[-83.1545,8.6103,5.7798],[-83.1592,8.6072,7.6442],[-83.1633,8.6077,5.2371],[-83.165,8.6089,67.5734],[-83.1652,8.615,6.9075],[-83.1671,8.6158,0.0],[-83.1724,8.6126,8.6267],[-83.1739,8.6077,2.1681],[-83.1782,8.6059,0.0],[-83.1796,8.6077,0.0],[-83.179,8.6102,1.1346],[-83.1747,8.6129,0.0],[-83.1759,8.6146,0.5686],[-83.1779,8.6134,1.2715],[-83.173,8.6189,0.0],[-83.168,8.6214,0.0],[-83.1708,8.6233,2.0617],[-83.1694,8.6233,2.0617],[-83.1706,8.6252,0.6709],[-83.1726,8.6241,2.6519],[-83.1807,8.61,0.0],[-83.1756,8.5923,0.0],[-83.1732,8.5916,0.0],[-83.168,8.5862,0.0],[-83.1591,8.5709,3.0661],[-83.151,8.5657,6.4468],[-83.1424,8.5568,0.9328],[-83.1396,8.5563,29.1371],[-83.1417,8.554,10.1531],[-83.1363,8.5495,6.3722],[-83.1383,8.5466,0.0],[-83.1265,8.5446,0.0],[-83.1212,8.5474,0.0],[-83.1148,8.5545,0.0],[-83.1102,8.5553,0.0],[-83.0982,8.551,0.5],[-83.0931,8.5516,0.5],[-83.0831,8.5424,1.3473],[-83.0762,8.5404,3.5012],[-83.0727,8.5341,0.5],[-83.0611,8.5326,1.8585],[-83.0557,8.5296,2.2237],[-83.0527,8.5323,3.7343],[-83.0542,8.5398,3.4048],[-83.0469,8.5483,3.1088],[-83.0428,8.5467,1.9779],[-83.0435,8.5516,3.7027],[-83.0416,8.5558,8.103],[-83.0354,8.5627,10.1356],[-83.0342,8.5597,3.6375],[-83.0297,8.5603,9.0839]]]]}
,"properties": {"GID_3": "CRI.6.7.1_1","GID_0": "CRI","country": "CostaRica","GID_1": "CRI.6_1","province": "Puntarenas","NL_NAME_1": "NA","GID_2": "CRI.6.7_1","county": "Golfito","NL_NAME_2": "NA","city": "Golfito","VARNAME_3": "NA","NL_NAME_3": "NA","TYPE_3": "Distrito","ENGTYPE_3": "District","CC_3": "1","HASC_3": "NA","name": "Golfito.city","area_km2": 359.2261,"hist_schema_id": "Elevation0-9000","hist_area_km2": {"0": 41.2141,"25": 42.2379,"50": 26.684,"75": 32.07,"100": 26.4316,"125": 24.2511,"150": 22.5532,"175": 21.547,"200": 18.5705,"225": 15.8036,"250": 14.7137,"275": 11.2344,"300": 10.8783,"325": 9.2853,"350": 8.8661,"375": 8.7403,"400": 7.6085,"425": 5.9525,"450": 4.0661,"475": 3.018,"500": 1.8653,"525": 1.1737,"550": 0.4192,"575": 0.0419}}}