{"type": "Feature","bbox": [-84.061,9.9365,-84.0397,9.951],"geometry": {"type": "MultiPolygon","coordinates": [[[[-84.0606,9.9405,1186.7296],[-84.061,9.9365,1183.7556],[-84.0579,9.938,1187.0957],[-84.0494,9.9366,1204.3888],[-84.0397,9.9438,1239.5294],[-84.0398,9.9466,1242.5459],[-84.0457,9.951,1208.9442],[-84.0464,9.9478,1205.3026],[-84.0493,9.9448,1209.1174],[-84.0489,9.9432,1204.6021],[-84.0545,9.9425,1194.5095],[-84.0549,9.941,1189.9421],[-84.0565,9.942,1186.5256],[-84.0578,9.94,1187.0577],[-84.0606,9.9405,1186.7296]]]]}
,"properties": {"GID_3": "CRI.7.10.1_1","GID_0": "CRI","country": "CostaRica","GID_1": "CRI.7_1","province": "SanJosé","NL_NAME_1": "NA","GID_2": "CRI.7.10_1","county": "MontesdeOca","NL_NAME_2": "NA","city": "Mercedes","VARNAME_3": "NA","NL_NAME_3": "NA","TYPE_3": "Distrito","ENGTYPE_3": "District","CC_3": "3","HASC_3": "NA","name": "Mercedes.city","area_km2": 1.545401,"hist_schema_id": "Elevation0-9000","hist_area_km2": {"1175": 0.146188,"1200": 0.730936,"1225": 0.605626,"1250": 0.062651}}}