{"type": "Feature","bbox": [-84.1738,10.0056,-84.1216,10.1582],"geometry": {"type": "MultiPolygon","coordinates": [[[[-84.1736,10.0164,1018.6843],[-84.1738,10.0056,967.729],[-84.1682,10.0104,982.0597],[-84.1635,10.0119,1011.9342],[-84.164,10.0134,1022.6445],[-84.1625,10.0145,1031.7209],[-84.1427,10.0238,1127.4059],[-84.1417,10.0251,1134.6614],[-84.1428,10.0417,1168.3333],[-84.1414,10.0454,1196.7073],[-84.1333,10.0594,1334.1724],[-84.1283,10.06,1369.4298],[-84.1216,10.0672,1500.7556],[-84.1265,10.0696,1512.2239],[-84.1311,10.0824,1592.5162],[-84.1312,10.1371,2507.7744],[-84.141,10.1496,2187.084],[-84.1565,10.1536,1979.2742],[-84.1577,10.1561,1944.281],[-84.1614,10.1582,1912.1881],[-84.1613,10.0832,1488.6588],[-84.1663,10.0718,1347.5894],[-84.1735,10.0274,1064.5403],[-84.1736,10.0164,1018.6843]]]]}
,"properties": {"GID_2": "CRI.4.8_1","GID_0": "CRI","country": "CostaRica","GID_1": "CRI.4_1","province": "Heredia","NL_NAME_1": "NA","county": "SantaBárbara","VARNAME_2": "NA","NL_NAME_2": "NA","TYPE_2": "Cantón","ENGTYPE_2": "Canton","CC_2": "4","HASC_2": "CR.HE.SB","name": "Santa_Bárbara.county","area_km2": 50.76762,"hist_schema_id": "Elevation0-9000","hist_area_km2": {"975": 0.14616,"1000": 0.25055,"1025": 0.54286,"1050": 1.71206,"1075": 1.545,"1100": 1.41971,"1125": 2.02517,"1150": 1.79548,"1175": 1.29439,"1200": 1.04385,"1225": 0.79332,"1250": 0.77244,"1275": 1.3361,"1300": 1.29433,"1325": 2.04586,"1350": 1.64921,"1375": 1.21079,"1400": 1.16903,"1425": 0.96027,"1450": 0.89764,"1475": 0.96026,"1500": 0.85588,"1525": 0.98112,"1550": 0.81412,"1575": 0.79324,"1600": 0.73061,"1625": 0.87672,"1650": 0.6471,"1675": 0.66797,"1700": 0.93932,"1725": 0.70971,"1750": 0.62621,"1775": 0.54271,"1800": 0.77231,"1825": 0.60532,"1850": 0.64707,"1875": 0.56357,"1900": 0.4592,"1925": 0.58444,"1950": 0.62616,"1975": 0.64703,"2000": 0.93923,"2025": 0.85576,"2050": 0.93922,"2075": 0.83486,"2100": 0.77226,"2125": 0.79312,"2150": 0.54266,"2175": 0.56353,"2200": 0.83486,"2225": 0.54266,"2250": 0.41743,"2275": 0.37569,"2300": 0.45917,"2325": 0.37569,"2350": 0.37569,"2375": 0.35482,"2400": 0.37569,"2425": 0.27133,"2450": 0.25046,"2475": 0.22958,"2500": 0.31308,"2525": 0.1461,"2550": 0.18785,"2575": 0.06262}}}