{"type": "Feature","bbox": [-84.2,9.9681,-84.1764,9.9884],"geometry": {"type": "MultiPolygon","coordinates": [[[[-84.1841,9.9725,860.4781],[-84.1826,9.9685,882.843],[-84.1764,9.9718,900.9674],[-84.1772,9.9884,965.3444],[-84.1959,9.9825,894.9395],[-84.1947,9.9775,897.1436],[-84.2,9.9762,882.2415],[-84.1999,9.9681,873.6931],[-84.1902,9.9745,894.7628],[-84.1841,9.9725,860.4781]]]]}
,"properties": {"GID_3": "CRI.4.2.3_1","GID_0": "CRI","country": "CostaRica","GID_1": "CRI.4_1","province": "Heredia","NL_NAME_1": "NA","GID_2": "CRI.4.2_1","county": "Belén","NL_NAME_2": "NA","city": "SanAntonio","VARNAME_3": "NA","NL_NAME_3": "NA","TYPE_3": "Distrito","ENGTYPE_3": "District","CC_3": "1","HASC_3": "NA","name": "San_Antonio.city","area_km2": 3.403685,"hist_schema_id": "Elevation0-9000","hist_area_km2": {"850": 0.083528,"875": 0.542928,"900": 1.336417,"925": 1.002309,"950": 0.39674,"975": 0.041762}}}