{"type":"Feature","properties":{"GID_3":"CRI.5.3.3_1","GID_0":"CRI","country":"CostaRica","GID_1":"CRI.5_1","province":"Limón","NL_NAME_1":"NA","GID_2":"CRI.5.3_1","county":"Matina","NL_NAME_2":"NA","city":"Matina","VARNAME_3":"NA","NL_NAME_3":"NA","TYPE_3":"Distrito","ENGTYPE_3":"District","CC_3":"1","HASC_3":"NA","name":"Matina.city"},
"geometry":{"type": "MultiPolygon","coordinates": [[[[-83.3386,9.833,447.6321],[-83.336,9.8326,450.6669],[-83.3311,9.8274,569.9413],[-83.3319,9.8208,547.1428],[-83.3282,9.8198,510.1329],[-83.3266,9.8166,518.5951],[-83.3224,9.8146,527.4935],[-83.3223,9.812,578.4715],[-83.319,9.8101,600.4664],[-83.319,9.8055,577.0906],[-83.3147,9.8019,603.6817],[-83.3108,9.8019,619.6677],[-83.3028,9.7977,664.4285],[-83.3021,9.7997,709.0911],[-83.2998,9.8005,746.4941],[-83.2954,9.7992,776.7926],[-83.2935,9.8019,804.7595],[-83.2902,9.8002,841.059],[-83.2843,9.8027,887.3834],[-83.2769,9.8017,962.649],[-83.27,9.8096,1128.9397],[-83.2698,9.8129,1216.2566],[-83.2642,9.8161,1419.4209],[-83.2617,9.8203,1486.1373],[-83.2574,9.8212,1646.3733],[-83.2509,9.8264,1817.5406],[-83.2472,9.8252,1733.3701],[-83.243,9.8272,1695.6034],[-83.2428,9.8336,1812.2281],[-83.2358,9.8409,1605.7092],[-83.2362,9.8455,1567.4701],[-83.2433,9.8543,1276.1511],[-83.2419,9.8574,1127.9594],[-83.244,9.8621,1022.108],[-83.2404,9.8679,1110.9121],[-83.2404,9.8791,786.7794],[-83.2339,9.8803,717.066],[-83.2298,9.885,721.4813],[-83.2306,9.8874,707.6414],[-83.2279,9.8894,679.7684],[-83.2278,9.892,657.6569],[-83.2218,9.8904,528.0911],[-83.2111,9.8919,417.5698],[-83.2072,9.8972,346.013],[-83.2079,9.8999,348.0381],[-83.2164,9.9061,321.2274],[-83.218,9.9116,255.1868],[-83.2237,9.9104,262.564],[-83.2259,9.9124,216.3661],[-83.2267,9.9159,222.2413],[-83.2234,9.9242,188.8669],[-83.2247,9.9283,219.1187],[-83.2209,9.9317,168.6924],[-83.2252,9.9352,153.7188],[-83.2271,9.934,161.6649],[-83.2317,9.9384,136.4845],[-83.2354,9.9384,144.3142],[-83.2336,9.9434,124.9639],[-83.2372,9.9475,122.0936],[-83.2354,9.9501,119.1705],[-83.2367,9.954,127.3949],[-83.2413,9.9556,121.5134],[-83.2411,9.9579,109.9452],[-83.2447,9.9576,99.7361],[-83.2432,9.9587,99.7361],[-83.2435,9.962,105.2055],[-83.2413,9.9614,112.1903],[-83.2428,9.9637,109.5653],[-83.24,9.9653,105.9668],[-83.2409,9.9671,100.7094],[-83.2468,9.9667,94.0977],[-83.2496,9.9628,82.1922],[-83.2512,9.9684,77.2719],[-83.2544,9.9686,75.5579],[-83.2555,9.9663,64.273],[-83.2588,9.9663,68.0676],[-83.2712,9.9727,52.9973],[-83.2808,9.9745,44.0018],[-83.283,9.9773,43.2067],[-83.2861,9.9734,46.056399999999996],[-83.288,9.9754,44.3478],[-83.2882,9.9793,38.9101],[-83.2901,9.9798,38.9101],[-83.2924,9.9781,41.1382],[-83.2937,9.9812,46.8852],[-83.2965,9.9818,40.1542],[-83.2964,9.9862,62.918],[-83.2993,9.9892,37.6692],[-83.2987,9.9926,35.3395],[-83.2935,9.9949,36.2102],[-83.2961,9.9998,30.985],[-83.2927,10.004,28.4155],[-83.2985,10.0131,28.7062],[-83.295,10.022,21.1296],[-83.2893,10.0275,18.8504],[-83.29,10.0323,20.0683],[-83.2868,10.0373,19.4564],[-83.29,10.0458,14.4085],[-83.2954,10.0518,13.6322],[-83.2958,10.055,18.1091],[-83.2916,10.064,11.1651],[-83.2936,10.0676,14.5684],[-83.2979,10.0685,15.2771],[-83.2969,10.0714,10.4687],[-83.2947,10.073,11.8806],[-83.2872,10.071,12.0014],[-83.2776,10.0751,11.0051],[-83.2732,10.0754,12.3494],[-83.2713,10.0783,13.4573],[-83.2723,10.083,12.0387],[-83.2671,10.0852,10.5551],[-83.2631,10.0894,8.9653],[-83.2553,10.0881,8.9078],[-83.2522,10.0891,10.2028],[-83.2469,10.0942,8.333],[-83.2522,10.0973,7.987],[-83.2506,10.1031,7.6061],[-83.2481,10.105,9.0519],[-83.2431,10.1038,9.1438],[-83.2411,10.1116,8.0235],[-83.236,10.1089,10.5321],[-83.2365,10.1173,6.5112],[-83.2314,10.1246,7.1354],[-83.2283,10.1244,5.0336],[-83.2242,10.1207,11.7985],[-83.2222,10.1124,13.5985],[-83.2164,10.1064,4.8869],[-83.2133,10.1095,8.5033],[-83.2192,10.1161,4.1092],[-83.2194,10.12,3.3046],[-83.2178,10.1215,7.1965],[-83.2139,10.1217,4.1493],[-83.2105,10.1155,9.9959],[-83.208,10.1141,5.8564],[-83.206,10.1153,12.952],[-83.2048,10.12,5.3902],[-83.2014,10.1205,3.2092],[-83.1997,10.1178,13.1596],[-83.2006,10.1123,8.4027],[-83.1988,10.1109,10.5653],[-83.1915,10.1151,0.0],[-83.2379,10.174,0.0],[-83.2453,10.1673,11.6875],[-83.2446,10.1652,8.4792],[-83.2462,10.1614,6.9961],[-83.2518,10.1597,14.2269],[-83.252,10.1524,7.5046],[-83.2563,10.1539,6.974],[-83.2645,10.1509,3.3304],[-83.2664,10.1469,11.6889],[-83.2654,10.144,14.8753],[-83.269,10.1355,3.0157],[-83.2733,10.1355,11.2613],[-83.2818,10.1281,10.5561],[-83.2844,10.1209,5.1592],[-83.2831,10.1169,6.7313],[-83.2846,10.1142,7.6016],[-83.2841,10.1116,8.4258],[-83.2922,10.1053,12.8939],[-83.2985,10.0972,11.4931],[-83.3049,10.0944,9.9441],[-83.3095,10.0869,10.882],[-83.3119,10.0853,10.9132],[-83.3144,10.0872,10.9404],[-83.3188,10.0848,12.1773],[-83.3184,10.0796,18.1538],[-83.3211,10.075,13.9766],[-83.3196,10.0737,14.1689],[-83.3234,10.069,15.2426],[-83.3282,10.0529,16.8257],[-83.3306,10.0542,16.6514],[-83.3376,10.0536,18.528],[-83.3381,10.0502,18.7965],[-83.3409,10.0491,21.2158],[-83.3428,10.053,18.4677],[-83.3449,10.0514,24.3985],[-83.3485,10.0538,24.5436],[-83.3527,10.0524,22.1777],[-83.355,10.0582,20.6852],[-83.3617,10.0595,29.8306],[-83.3679,10.0662,33.5718],[-83.371,10.0635,32.0617],[-83.3702,10.0531,63.1263],[-83.3733,10.0497,44.9071],[-83.3701,10.0441,67.7426],[-83.3755,10.0458,91.0313],[-83.3768,10.0327,61.2018],[-83.3877,10.0191,125.6077],[-83.3863,10.0169,117.7447],[-83.3871,10.0153,171.2205],[-83.3838,10.0113,214.7501],[-83.3845,10.0049,176.3083],[-83.3798,10.0019,238.1336],[-83.3807,10.0001,253.872],[-83.3743,9.9942,308.4192],[-83.3732,9.99,302.6528],[-83.3811,9.9818,418.7558],[-83.3119,9.9816,52.7434],[-83.3165,9.979,53.203],[-83.3278,9.9651,71.2055],[-83.3331,9.9647,75.117],[-83.3399,9.9602,100.7841],[-83.341,9.9541,88.1486],[-83.3377,9.9439,126.0694],[-83.3383,9.9421,101.8649],[-83.3453,9.9401,112.6296],[-83.3482,9.9361,119.468],[-83.353,9.9383,132.4196],[-83.3513,9.9318,167.7139],[-83.3487,9.9294,182.4863],[-83.3507,9.9264,204.3656],[-83.3498,9.9216,156.5477],[-83.3467,9.9201,166.5569],[-83.3449,9.9168,202.0484],[-83.3487,9.9148,163.8116],[-83.3489,9.9079,247.1682],[-83.3476,9.9056,275.9532],[-83.3494,9.9035,219.5695],[-83.3439,9.8999,186.2071],[-83.3478,9.898,218.9715],[-83.3438,9.8936,250.6719],[-83.3403,9.894,217.9289],[-83.3424,9.8890999999999991,252.6867],[-83.3348,9.8851,284.975],[-83.3374,9.8845,269.6485],[-83.334,9.8784,315.9147],[-83.3366,9.8751,328.1845],[-83.3347,9.8719,349.0669],[-83.3393,9.859,384.008],[-83.3358,9.8475,455.9419],[-83.3321,9.8435,467.1136],[-83.3341,9.8383,453.1148],[-83.3386,9.833,447.6321]]]]}}