{"type":"Feature","properties":{"GID_2":"CRI.1.1_1","GID_0":"CRI","country":"CostaRica","GID_1":"CRI.1_1","province":"Alajuela","NL_NAME_1":"NA","county":"Alajuela","VARNAME_2":"NA","NL_NAME_2":"NA","TYPE_2":"Cantón","ENGTYPE_2":"Canton","CC_2":"1","HASC_2":"CR.AL.AL","name":"Alajuela.county"},
"geometry":{"type": "MultiPolygon","coordinates": [[[[-84.1979,9.9902,885.5823],[-84.1971,9.9927,881.9398],[-84.1889,9.9944,895.836],[-84.1852,9.9979,910.0096],[-84.1808,9.9989,922.7151],[-84.1766,10.0032,957.6014],[-84.1765,10.0055,967.9751],[-84.1738,10.0056,967.729],[-84.1735,10.0274,1064.5403],[-84.1663,10.0718,1347.5894],[-84.1613,10.0832,1488.6588],[-84.1616,10.4136,182.9064],[-84.165,10.4096,203.073],[-84.1675,10.4094,218.7339],[-84.1705,10.4019,220.7596],[-84.1751,10.397,235.3576],[-84.1759,10.3912,237.3533],[-84.1789,10.387,241.1562],[-84.1773,10.3861,241.1562],[-84.1777,10.3827,246.9804],[-84.1795,10.3813,255.8961],[-84.181,10.3728,291.7051],[-84.1827,10.3717,290.2123],[-84.1832,10.3655,293.6791],[-84.1811,10.3536,327.321],[-84.1862,10.3471,348.5755],[-84.1849,10.3389,381.4792],[-84.1878,10.3373,385.3629],[-84.1948,10.3267,447.4641],[-84.1944,10.3183,505.4591],[-84.1977,10.311,648.5541],[-84.1971,10.3062,712.8813],[-84.1917,10.3021,739.4854],[-84.1944,10.2971,790.3694],[-84.2023,10.2917,887.9146],[-84.205,10.2869,917.3273],[-84.1994,10.2851,886.9905],[-84.201,10.2767,979.8071],[-84.2103,10.2683,1146.196],[-84.212,10.259,1262.986],[-84.2158,10.2513,1455.1909],[-84.2241,10.2471,1612.644],[-84.231,10.247,1665.0795],[-84.242,10.2419,1634.7338],[-84.2409,10.2347,1792.548],[-84.2356,10.2295,1940.4368],[-84.2351,10.2255,2037.5673],[-84.2268,10.2128,2612.1147],[-84.2268,10.2064,2439.0244],[-84.2307,10.1981,2309.5],[-84.2234,10.1819,2593.5601],[-84.1981,10.1554,1893.3376],[-84.1958,10.1389,1762.4001],[-84.1978,10.1366,1716.7703],[-84.1971,10.1327,1677.6569],[-84.1989,10.1309,1663.1888],[-84.1999,10.1252,1559.4438],[-84.2015,10.1248,1559.4438],[-84.204,10.1183,1504.224],[-84.2082,10.1146,1474.1118],[-84.2087,10.1086,1422.6382],[-84.2125,10.1076,1394.4899],[-84.2184,10.1014,1287.9321],[-84.2209,10.1015,1288.6003],[-84.2201,10.0982,1298.7609],[-84.2226,10.097,1252.752],[-84.2218,10.0957,1273.2159],[-84.2261,10.0911,1201.1774],[-84.2273,10.0861,1170.8668],[-84.2316,10.0836,1154.2615],[-84.2323,10.0782,1176.4629],[-84.234,10.0785,1141.5831],[-84.2338,10.0755,1145.4332],[-84.2351,10.0748,1120.075],[-84.2339,10.0729,1141.3661],[-84.2389,10.0714,1080.8021],[-84.2469,10.062,1029.8058],[-84.2477,10.0562,991.0859],[-84.2466,10.0549,1008.9818],[-84.2526,10.0504,940.3148],[-84.2541,10.0471,939.2992],[-84.2524,10.0445,908.2777],[-84.2558,10.0431,891.0012],[-84.2583,10.0344,870.5021],[-84.261,10.031,834.7102],[-84.2624,10.0317,836.421],[-84.265,10.0299,822.4528],[-84.2664,10.0259,806.345],[-84.2679,10.0264,806.8309],[-84.2754,10.0228,791.1219],[-84.2804,10.0233,765.1266],[-84.2864,10.0183,746.9636],[-84.2927,10.0173,730.9635],[-84.2961,10.0144,710.3136],[-84.2998,10.015,699.8454],[-84.3097,10.0053,644.3944],[-84.3107,9.9984,674.3767],[-84.3179,9.9979,616.1146],[-84.3214,9.9957,598.8793],[-84.3236,9.9979,605.1081],[-84.3293,9.9973,629.2042],[-84.3331,10.0013,575.6401],[-84.339,10.0005,564.182],[-84.3393,9.9959,613.0192],[-84.3418,9.9928,534.2025],[-84.3409,9.987,481.1554],[-84.3439,9.9859,496.5301],[-84.3425,9.982,461.1945],[-84.347,9.9748,503.4598],[-84.3521,9.9713,426.3825],[-84.3492,9.9696,416.7608],[-84.3506,9.9682,436.8692],[-84.3486,9.9668,424.4262],[-84.3486,9.9636,468.88],[-84.3533,9.9579,419.6919],[-84.3533,9.9551,440.0807],[-84.3559,9.954,399.5697],[-84.3524,9.9489,394.0537],[-84.3566,9.9461,421.2742],[-84.3526,9.9445,367.675],[-84.3531,9.9415,385.6075],[-84.3582,9.935,356.9269],[-84.3626,9.9323,326.3376],[-84.3663,9.9327,321.6633],[-84.3677,9.9301,301.5892],[-84.3583,9.9224,370.0971],[-84.3547,9.9224,348.9861],[-84.3544,9.9192,336.6701],[-84.3516,9.9197,358.2107],[-84.349,9.9164,403.468],[-84.345,9.9173,405.944],[-84.3436,9.9155,399.7365],[-84.3385,9.915,432.1641],[-84.3346,9.9176,402.1031],[-84.3283,9.9143,412.7468],[-84.3269,9.9166,416.3959],[-84.321,9.9157,447.1237],[-84.3197,9.9203,425.6278],[-84.3146,9.9176,470.9992],[-84.311,9.9196,453.0936],[-84.3102,9.9232,469.7645],[-84.2989,9.9252,525.0505],[-84.2933,9.9304,550.3284],[-84.2887,9.9287,564.4728],[-84.2866,9.9308,593.741],[-84.2839,9.929,566.3411],[-84.2692,9.9333,590.7415],[-84.2663,9.9313,590.9818],[-84.2604,9.9325,650.0134],[-84.2584,9.93,648.5986],[-84.2516,9.9281,611.1757],[-84.2489,9.9316,653.7532],[-84.2468,9.9319,673.6696],[-84.246,9.9348,680.6634],[-84.2391,9.9385,681.1368],[-84.2363,9.938,672.5905],[-84.2338,9.9457,762.631],[-84.2312,9.9484,755.0708],[-84.2269,9.9483,755.7794],[-84.2247,9.9456,782.2913],[-84.2205,9.9478,784.3521],[-84.2176,9.9587,817.63],[-84.2128,9.963,802.5475],[-84.2064,9.9608,804.1832],[-84.2031,9.9618,827.27],[-84.2015,9.965,817.2317],[-84.198,9.9657,833.8779],[-84.1906,9.9731,873.1307],[-84.1835,9.9729,860.4781],[-84.1902,9.9745,894.7628],[-84.1999,9.9681,873.6931],[-84.2,9.9762,882.2415],[-84.1947,9.9775,897.1436],[-84.1979,9.9902,885.5823]]]]}}