{"type": "Feature","bbox": [-84.0991,9.6964,-84.0513,9.7512],"geometry": {"type": "MultiPolygon","coordinates": [[[[-84.0917,9.709,2179.4824],[-84.0905,9.7071,2181.0447],[-84.0873,9.7077,2190.7922],[-84.0816,9.7046,2114.5127],[-84.0772,9.7011,2164.1973],[-84.0768,9.6985,2205.8391],[-84.072,9.6964,2196.6714],[-84.0513,9.7048,1939.3317],[-84.0534,9.7075,1945.3159],[-84.0552,9.7062,1930.2043],[-84.0602,9.7151,1690.8573],[-84.0634,9.7152,1655.723],[-84.0714,9.7248,1426.0927],[-84.0591,9.7253,1733.0562],[-84.0646,9.7291,1446.7957],[-84.0676,9.741,1236.9692],[-84.0704,9.74,1255.0492],[-84.0793,9.7427,1220.3574],[-84.081,9.7415,1195.6409],[-84.0821,9.7446,1210.2625],[-84.0837,9.7439,1194.1604],[-84.0863,9.7463,1169.6564],[-84.0898,9.7452,1131.683],[-84.0954,9.7512,1051.5947],[-84.0991,9.7464,1245.934],[-84.0991,9.7407,1509.3145],[-84.0974,9.737,1536.5004],[-84.0945,9.7354,1606.8698],[-84.0931,9.7302,1647.5804],[-84.0945,9.7263,1754.0524],[-84.0923,9.7256,1769.7336],[-84.0937,9.7156,2050.0776],[-84.0917,9.709,2179.4824]]]]}
,"properties": {"GID_3": "CRI.7.9.2_1","GID_0": "CRI","country": "CostaRica","GID_1": "CRI.7_1","province": "SanJosé","NL_NAME_1": "NA","GID_2": "CRI.7.9_1","county": "LeónCortésCastro","NL_NAME_2": "NA","city": "SanAndrés","VARNAME_3": "NA","NL_NAME_3": "NA","TYPE_3": "Distrito","ENGTYPE_3": "District","CC_3": "2","HASC_3": "NA","name": "San_Andrés.city","area_km2": 15.92404,"hist_schema_id": "Elevation0-9000","hist_area_km2": {"1075": 0.0209,"1100": 0.08358,"1125": 0.08358,"1150": 0.10448,"1175": 0.10448,"1200": 0.20896,"1225": 0.35524,"1250": 0.27166,"1275": 0.37614,"1300": 0.43883,"1325": 0.45973,"1350": 0.43883,"1375": 0.52242,"1400": 0.48063,"1425": 0.54333,"1450": 0.43884,"1475": 0.45974,"1500": 0.56423,"1525": 0.58513,"1550": 0.52244,"1575": 0.48064,"1600": 0.43885,"1625": 0.33436,"1650": 0.41796,"1675": 0.33437,"1700": 0.39706,"1725": 0.41796,"1750": 0.37617,"1775": 0.41797,"1800": 0.41796,"1825": 0.43887,"1850": 0.39707,"1875": 0.50156,"1900": 0.43887,"1925": 0.39707,"1950": 0.31348,"1975": 0.35528,"2000": 0.27168,"2025": 0.31348,"2050": 0.20899,"2075": 0.29258,"2100": 0.20899,"2125": 0.14629,"2150": 0.16719,"2175": 0.18809,"2200": 0.16719,"2225": 0.0209}}}