{"type": "Feature","bbox": [-83.7282,9.9348,-83.6145,10.041],"geometry": {"type": "MultiPolygon","coordinates": [[[[-83.6354,9.9375,420.9683],[-83.6352,9.9389,425.6831],[-83.6309,9.9384,422.6015],[-83.6294,9.9405,451.567],[-83.6299,9.9481,423.2063],[-83.6344,9.9478,464.3104],[-83.641,9.9561,565.4391],[-83.6256,9.9817,580.766],[-83.6145,9.9827,411.367],[-83.6249,9.9991,471.4297],[-83.6295,10.0005,496.1339],[-83.6305,9.9993,582.6473],[-83.6341,10.0057,607.7054],[-83.6373,10.0045,623.3113],[-83.6376,10.0084,700.9794],[-83.6394,10.0101,678.2791],[-83.6452,10.0108,710.7134],[-83.6494,10.0148,775.8674],[-83.6543,10.0158,855.7557],[-83.6564,10.018,888.905],[-83.6591,10.0163,929.3668],[-83.6644,10.0193,1017.5441],[-83.6689,10.0247,1161.5155],[-83.6801,10.0258,1356.8042],[-83.6897,10.0298,1661.5001],[-83.706,10.0405,2131.4265],[-83.7091,10.041,2222.0156],[-83.7143,10.0378,2331.8296],[-83.7252,10.0398,2414.7217],[-83.7282,10.0363,2327.6931],[-83.7211,10.0357,2212.4814],[-83.7114,10.0297,1870.8359],[-83.7066,10.0295,1803.0848],[-83.7028,10.0233,1661.9968],[-83.69,10.0207,1406.2451],[-83.6908,10.0159,1467.5197],[-83.6893,10.0126,1368.8593],[-83.6927,10.0097,1462.3524],[-83.6908,10.0041,1449.9667],[-83.6962,10.0028,1472.8447],[-83.6996,9.9989,1428.9835],[-83.6996,9.9919,1402.434],[-83.7038,9.9909,1434.7074],[-83.7042,9.9878,1429.924],[-83.7071,9.989,1475.6833],[-83.7066,9.987,1422.2632],[-83.7088,9.9841,1475.0437],[-83.7059,9.9781,1262.5607],[-83.7,9.9716,1183.8491],[-83.6922,9.9696,1053.4879],[-83.6882,9.9645,990.4969],[-83.6892,9.9603,926.2991],[-83.6819,9.9549,901.5901],[-83.6793,9.9556,860.9584],[-83.6709,9.9524,745.3452],[-83.6643,9.954,750.4685],[-83.6478,9.9456,583.5895],[-83.6423,9.9353,494.9294],[-83.6399,9.9348,459.8107],[-83.6354,9.9375,420.9683]]]]}
,"properties": {"GID_3": "CRI.2.8.8_1","GID_0": "CRI","country": "CostaRica","GID_1": "CRI.2_1","province": "Cartago","NL_NAME_1": "NA","GID_2": "CRI.2.8_1","county": "Turrialba","NL_NAME_2": "NA","city": "SantaTeresita","VARNAME_3": "NA","NL_NAME_3": "NA","TYPE_3": "Distrito","ENGTYPE_3": "District","CC_3": "5","HASC_3": "NA","name": "Santa_Teresita.city","area_km2": 60.32485,"hist_schema_id": "Elevation0-9000","hist_area_km2": {"400": 0.04177,"425": 0.39679,"450": 0.31325,"475": 0.48031,"500": 0.39678,"525": 0.60561,"550": 0.54295,"575": 0.81441,"600": 1.04411,"625": 1.2947,"650": 1.46173,"675": 1.75407,"700": 2.12993,"725": 2.3596,"750": 2.29695,"775": 2.17164,"800": 2.00461,"825": 1.9002,"850": 2.06723,"875": 1.81666,"900": 1.54519,"925": 2.44309,"950": 2.17165,"975": 2.02545,"1000": 2.00455,"1025": 1.54519,"1050": 1.62871,"1075": 1.37812,"1100": 1.33636,"1125": 1.3781,"1150": 1.21106,"1175": 1.16931,"1200": 1.2737,"1225": 1.02314,"1250": 1.21105,"1275": 0.89786,"1300": 1.10666,"1325": 1.16928,"1350": 0.81432,"1375": 0.98136,"1400": 0.75167,"1425": 0.70991,"1450": 0.3967,"1475": 0.18791,"1500": 0.14615,"1525": 0.12527,"1550": 0.22966,"1575": 0.10439,"1600": 0.22966,"1625": 0.08351,"1650": 0.10439,"1675": 0.14615,"1700": 0.16703,"1725": 0.10439,"1750": 0.12527,"1775": 0.12527,"1800": 0.16702,"1825": 0.22966,"1850": 0.22966,"1875": 0.08351,"1900": 0.12527,"1925": 0.08351,"1950": 0.16702,"1975": 0.12527,"2000": 0.06263,"2025": 0.06263,"2050": 0.06263,"2075": 0.06263,"2100": 0.12527,"2125": 0.08351,"2150": 0.04176,"2175": 0.06263,"2200": 0.10439,"2225": 0.08351,"2250": 0.02088,"2275": 0.06263,"2300": 0.08351,"2325": 0.12527,"2350": 0.02088,"2375": 0.04176,"2400": 0.02088,"2425": 0.02088,"2450": 0.02088}}}