{"type":"Feature","properties":{"GID_3":"CRI.4.8.2_1","GID_0":"CRI","country":"CostaRica","GID_1":"CRI.4_1","province":"Heredia","NL_NAME_1":"NA","GID_2":"CRI.4.8_1","county":"SantaBárbara","NL_NAME_2":"NA","city":"Purabá","VARNAME_3":"NA","NL_NAME_3":"NA","TYPE_3":"Distrito","ENGTYPE_3":"District","CC_3":"6","HASC_3":"NA","name":"Purabá.city"},
"geometry":{"type": "MultiPolygon","coordinates": [[[[-84.1708,10.0441,1188.2576],[-84.1624,10.042,1157.2788],[-84.1611,10.0392,1145.1263],[-84.1613,10.0465,1179.9089],[-84.1541,10.0528,1270.3063],[-84.1534,10.062,1320.7145],[-84.1497,10.0666,1345.3748],[-84.1519,10.0665,1353.7191],[-84.1406,10.0793,1510.7247],[-84.1324,10.0832,1578.3331],[-84.1311,10.0824,1592.5162],[-84.1311,10.0934,1798.2788],[-84.1359,10.0886,1705.3282],[-84.1429,10.0854,1577.0112],[-84.1505,10.0753,1408.7474],[-84.1568,10.07,1340.8423],[-84.1585,10.0661,1309.6331],[-84.1638,10.0645,1278.3385],[-84.1664,10.0611,1256.0325],[-84.168,10.0612,1249.5834],[-84.1708,10.0441,1188.2576]]]]}}