{"type":"Feature","properties":{"GID_2":"CRI.1.6_1","GID_0":"CRI","country":"CostaRica","GID_1":"CRI.1_1","province":"Alajuela","NL_NAME_1":"NA","county":"LosChiles","VARNAME_2":"NA","NL_NAME_2":"NA","TYPE_2":"Cantón","ENGTYPE_2":"Canton","CC_2":"14","HASC_2":"CR.AL.LC","name":"Los_Chiles.county"},
"geometry":{"type": "MultiPolygon","coordinates": [[[[-84.7415,10.7759,43.8067],[-84.7429,10.775,43.5357],[-84.7422,10.7721,42.1205],[-84.7384,10.7679,42.5863],[-84.7392,10.7655,43.4047],[-84.7355,10.7605,47.0331],[-84.7329,10.7591,46.9828],[-84.7311,10.7599,47.9825],[-84.7311,10.7577,43.0161],[-84.7236,10.7577,48.4568],[-84.7188,10.7537,59.2072],[-84.7115,10.7528,50.0829],[-84.7065,10.7478,47.8096],[-84.7033,10.7421,47.9548],[-84.7059,10.7394,45.6568],[-84.7054,10.7303,50.2611],[-84.7001,10.728,49.5316],[-84.6967,10.7197,50.8349],[-84.6866,10.7171,68.1023],[-84.6843,10.7086,62.7005],[-84.6797,10.6999,83.9968],[-84.6825,10.6963,90.2975],[-84.6791,10.6886,98.6153],[-84.6776,10.687,98.8005],[-84.6727,10.6871,66.912],[-84.6685,10.6795,70.7745],[-84.6624,10.6749,93.5323],[-84.6626,10.6729,72.7916],[-84.6596,10.6719,73.2543],[-84.658,10.6676,74.4624],[-84.6539,10.6643,73.1033],[-84.6515,10.6643,83.9321],[-84.6511,10.6621,76.9072],[-84.6426,10.6623,106.5512],[-84.6329,10.6518,126.432],[-84.629,10.65,132.4032],[-84.6223,10.639,137.5963],[-84.6204,10.6294,137.0459],[-84.6158,10.6322,138.214],[-84.6145,10.6475,128.8978],[-84.5846,10.6476,121.717],[-84.5854,10.6507,123.5711],[-84.5776,10.6546,116.2299],[-84.5764,10.6594,106.2528],[-84.5731,10.6584,107.9335],[-84.5702,10.66,102.056],[-84.5708,10.6621,101.7176],[-84.5686,10.6652,103.3693],[-84.5708,10.6723,104.8892],[-84.5665,10.6743,91.783],[-84.564,10.6807,92.8357],[-84.5606,10.6839,98.6927],[-84.5568,10.6835,75.9088],[-84.5559,10.6814,79.7366],[-84.552,10.6845,75.7526],[-84.5505,10.6825,82.1755],[-84.5431,10.6835,74.5899],[-84.5378,10.6865,72.4206],[-84.538,10.6886,73.9827],[-84.5347,10.6913,82.5287],[-84.5353,10.6876,89.7539],[-84.5288,10.6889,94.6703],[-84.5307,10.6853,95.5057],[-84.5292,10.6843,95.5057],[-84.5254,10.6855,75.461],[-84.5232,10.6913,84.8068],[-84.5189,10.694,68.7846],[-84.5224,10.701,59.4858],[-84.5205,10.7066,76.8689],[-84.5221,10.7115,59.5581],[-84.5196,10.7166,59.9466],[-84.5224,10.7193,56.5472],[-84.521,10.7215,58.3334],[-84.5232,10.7221,67.2104],[-84.5217,10.7239,56.3515],[-84.5244,10.7257,55.2158],[-84.523,10.7286,51.9823],[-84.5245,10.7293,53.4822],[-84.5239,10.731,52.6921],[-84.5262,10.7319,51.0154],[-84.5234,10.7339,50.0484],[-84.5255,10.7375,51.481],[-84.5238,10.7401,52.0686],[-84.527,10.7384,61.3998],[-84.5194,10.7489,49.156],[-84.5221,10.7468,49.5305],[-84.5266,10.7473,50.9509],[-84.5269,10.7498,47.0575],[-84.529,10.7507,45.6659],[-84.5263,10.7513,49.3889],[-84.5307,10.7598,45.2444],[-84.5284,10.7651,46.208],[-84.5317,10.7636,64.8839],[-84.5337,10.7654,47.0212],[-84.5339,10.7682,50.3725],[-84.5364,10.7677,57.2623],[-84.5378,10.7695,66.1012],[-84.539,10.7663,51.794],[-84.5407,10.769,54.9853],[-84.5434,10.7697,44.7449],[-84.5417,10.7717,44.5831],[-84.5455,10.771,43.2957],[-84.5439,10.7741,48.4867],[-84.5474,10.7785,43.5067],[-84.5442,10.7834,44.8023],[-84.5474,10.7831,45.3279],[-84.5465,10.7888,42.7504],[-84.5492,10.7882,43.7545],[-84.5499,10.7895,41.5703],[-84.547,10.7908,46.5904],[-84.5488,10.7944,42.1356],[-84.5452,10.795,46.9254],[-84.5475,10.8005,57.2486],[-84.5454,10.8008,41.4277],[-84.5473,10.8027,52.2504],[-84.5439,10.8034,49.448],[-84.546,10.8108,51.09],[-84.5505,10.8124,44.3812],[-84.5415,10.8175,50.2033],[-84.543,10.8179,50.2033],[-84.5422,10.8197,54.8611],[-84.5436,10.8193,40.2131],[-84.5388,10.8226,44.4594],[-84.5379,10.8315,43.8499],[-84.5397,10.8325,41.4178],[-84.54,10.8311,50.5229],[-84.5419,10.8346,37.2282],[-84.541,10.8366,45.4113],[-84.5394,10.8365,45.4113],[-84.5403,10.8399,39.2675],[-84.5418,10.8398,36.7034],[-84.5422,10.8457,44.9374],[-84.5442,10.8462,38.372],[-84.5434,10.8476,43.6221],[-84.5463,10.8471,43.9193],[-84.5444,10.8552,51.9191],[-84.5465,10.8564,45.2328],[-84.5456,10.8589,55.0096],[-84.548,10.86,45.696],[-84.5446,10.8607,54.0737],[-84.5464,10.8621,43.078],[-84.5453,10.8649,51.6669],[-84.5437,10.8626,56.8836],[-84.5427,10.8634,57.3458],[-84.5438,10.8674,47.6629],[-84.5365,10.8691,40.4959],[-84.5386,10.8716,55.8623],[-84.5366,10.872,46.3005],[-84.5371,10.8742,35.725],[-84.5354,10.8735,35.9891],[-84.5354,10.8704,40.4959],[-84.5338,10.8746,40.386],[-84.5307,10.8736,55.516],[-84.531,10.8712,48.4352],[-84.5294,10.8714,48.4352],[-84.5261,10.8757,47.4906],[-84.5229,10.8748,46.1042],[-84.5238,10.8784,45.5843],[-84.5206,10.8787,55.3057],[-84.5183,10.8762,44.201],[-84.5171,10.8798,36.987],[-84.5143,10.8788,48.487],[-84.513,10.8808,36.4099],[-84.5114,10.8782,54.1262],[-84.5085,10.883,39.4465],[-84.5045,10.88,54.1495],[-84.5051,10.8766,51.49],[-84.5024,10.8745,43.7706],[-84.5009,10.875,53.5671],[-84.5021,10.8727,52.2976],[-84.4992,10.8726,41.6898],[-84.4999,10.8745,49.2342],[-84.4968,10.8755,39.0397],[-84.4972,10.8732,33.2041],[-84.4936,10.8733,35.1859],[-84.4925,10.8751,39.3282],[-84.4946,10.8744,44.7831],[-84.4953,10.8759,34.8144],[-84.4927,10.8775,41.0788],[-84.4903,10.8754,33.4559],[-84.4874,10.8763,35.3006],[-84.4863,10.8745,35.3379],[-84.4856,10.8763,35.7318],[-84.4835,10.8738,35.2239],[-84.4811,10.8747,41.0369],[-84.477,10.8725,46.487],[-84.4757,10.8731,46.487],[-84.4742,10.8713,39.0685],[-84.4727,10.8725,47.7829],[-84.4737,10.8734,40.9324],[-84.4702,10.8726,41.395],[-84.4715,10.8762,40.6338],[-84.4661,10.8794,39.5825],[-84.4703,10.8823,42.087],[-84.4685,10.8835,35.4604],[-84.4695,10.8854,38.3814],[-84.4651,10.8877,48.7322],[-84.4685,10.8882,41.6719],[-84.4688,10.8916,49.9012],[-84.4716,10.892,45.2311],[-84.4681,10.8981,44.8249],[-84.4703,10.8985,36.0436],[-84.4699,10.9014,36.115],[-84.4718,10.9021,37.4528],[-84.4704,10.9038,32.6041],[-84.4705,10.908,37.8031],[-84.4684,10.9084,31.8957],[-84.467,10.9117,37.5348],[-84.469,10.9103,36.534],[-84.4716,10.9117,35.3609],[-84.4701,10.9142,40.0732],[-84.4721,10.9176,34.6901],[-84.4691,10.9194,30.9575],[-84.4724,10.9214,33.7099],[-84.4708,10.9237,37.9393],[-84.4725,10.926,32.4591],[-84.4762,10.9283,34.4154],[-84.4788,10.9258,31.8987],[-84.4802,10.9276,33.534],[-84.4829,10.9276,33.4358],[-84.4794,10.9288,31.3249],[-84.4745,10.9337,31.4593],[-84.473,10.9368,37.5395],[-84.4756,10.9396,36.9248],[-84.4721,10.9413,35.3701],[-84.4735,10.9439,42.9973],[-84.4758,10.9432,35.0469],[-84.4732,10.9466,43.5141],[-84.4794,10.9478,53.4083],[-84.4768,10.9499,48.7965],[-84.4779,10.9517,43.3398],[-84.4759,10.9521,32.8173],[-84.4746,10.9505,37.9015],[-84.4736,10.9533,35.0339],[-84.4715,10.9523,37.5577],[-84.4713,10.9574,30.5745],[-84.4666,10.9528,36.5299],[-84.4654,10.9539,31.8455],[-84.4662,10.959,32.417],[-84.4632,10.96,32.9853],[-84.4597,10.9584,35.5501],[-84.4611,10.9646,34.0581],[-84.4515,10.962,33.203],[-84.4859,11.0008,81.1124],[-84.5644,11.0332,57.8327],[-84.5745,11.0512,40.9],[-84.606,11.0384,57.1465],[-84.6665,11.0726,40.7758],[-84.6804,11.0845,35.0901],[-84.8822,10.9613,32.81],[-84.8806,10.9568,32.6028],[-84.8812,10.9416,32.9759],[-84.885,10.9348,32.45],[-84.8849,10.93,33.794],[-84.8869,10.9292,34.2271],[-84.8877,10.9197,34.0569],[-84.8865,10.9141,34.9288],[-84.8913,10.9059,34.975],[-84.8871,10.9001,36.4364],[-84.8887,10.8983,36.6],[-84.8882,10.8938,37.1509],[-84.885,10.8904,40.0946],[-84.8891,10.885,37.1199],[-84.8924,10.8725,42.2566],[-84.8905,10.8701,41.2998],[-84.8899,10.8648,42.9109],[-84.8863,10.8631,46.2366],[-84.8842,10.8583,46.8219],[-84.8859,10.8527,47.0873],[-84.8847,10.8479,47.8606],[-84.8867,10.8436,47.7042],[-84.8904,10.8445,47.6527],[-84.8928,10.8415,44.7598],[-84.8906,10.8392,54.4521],[-84.8976,10.8273,67.2716],[-84.8912,10.8188,84.5696],[-84.8884,10.8171,84.0687],[-84.8879,10.8149,83.1804],[-84.8814,10.8122,73.4699],[-84.8788,10.8089,54.1136],[-84.8752,10.8106,50.8852],[-84.8691,10.8056,57.8501],[-84.8605,10.809,49.8398],[-84.8562,10.8082,49.5628],[-84.854,10.8103,50.8887],[-84.8506,10.8108,48.5409],[-84.8431,10.8188,46.6323],[-84.8407,10.8187,42.9639],[-84.8383,10.8217,51.3295],[-84.8325,10.8235,42.7712],[-84.8324,10.8296,45.6369],[-84.8351,10.8319,40.0572],[-84.8342,10.8364,39.4622],[-84.8292,10.8415,38.1341],[-84.8149,10.8506,37.5389],[-84.8077,10.8523,39.2293],[-84.8026,10.8503,43.4167],[-84.8004,10.8515,41.2175],[-84.7994,10.85,41.8205],[-84.8021,10.849,43.4167],[-84.8024,10.8468,45.6073],[-84.7941,10.8476,36.6795],[-84.79,10.8418,40.301],[-84.7889,10.8453,46.3179],[-84.7867,10.8425,47.871],[-84.7872,10.8376,43.7065],[-84.784,10.8397,52.4151],[-84.7841,10.8368,50.7311],[-84.7809,10.8365,51.5217],[-84.7815,10.8336,50.7533],[-84.7803,10.8321,50.7533],[-84.7743,10.8342,46.0921],[-84.7729,10.8364,48.7804],[-84.7702,10.8306,40.472],[-84.7648,10.8293,42.9881],[-84.7638,10.8265,45.2044],[-84.7611,10.8268,46.2643],[-84.7599,10.8198,50.4216],[-84.7578,10.8215,46.9724],[-84.7557,10.8201,48.7169],[-84.7584,10.8166,49.665],[-84.7559,10.8157,48.6849],[-84.755,10.8134,49.4748],[-84.7532,10.8152,42.3612],[-84.7507,10.8113,40.7414],[-84.7506,10.8056,40.9438],[-84.7484,10.8006,42.8847],[-84.7499,10.7994,42.1456],[-84.7495,10.7952,40.7207],[-84.7478,10.7939,44.0545],[-84.7446,10.7834,44.0188],[-84.7435,10.7825,44.0188],[-84.7418,10.7838,44.6016],[-84.7427,10.78,42.7545],[-84.7407,10.7774,42.2023],[-84.7415,10.7759,43.8067]]]]}}