{"type": "Feature","bbox": [-84.1611,10.1823,-83.71,10.7925],"geometry": {"type": "MultiPolygon","coordinates": [[[[-83.9152,10.202,271.6283],[-83.9086,10.2052,262.1633],[-83.8874,10.2291,202.2933],[-83.8733,10.2428,169.5339],[-83.8638,10.2479,154.5935],[-83.8575,10.255,139.8174],[-83.8547,10.2623,131.2979],[-83.8553,10.2656,130.5551],[-83.852,10.2712,128.1173],[-83.8525,10.2752,122.6988],[-83.85,10.2821,121.3032],[-83.8516,10.2858,118.7534],[-83.8506,10.2887,113.4131],[-83.8527,10.3014,99.6341],[-83.8512,10.3076,95.0763],[-83.8532,10.3103,91.6793],[-83.8542,10.3177,86.4561],[-83.8522,10.3207,86.8206],[-83.8532,10.3264,82.5244],[-83.85,10.3302,85.3051],[-83.8489,10.335,79.3262],[-83.8517,10.3487,77.5689],[-83.8504,10.3543,73.4617],[-83.8549,10.359,67.3641],[-83.8576,10.3673,64.5884],[-83.865,10.3755,66.1271],[-83.8653,10.3797,69.5667],[-83.8691,10.3808,62.3964],[-83.8727,10.3896,63.4067],[-83.8754,10.3904,61.3822],[-83.8805,10.4036,62.7281],[-83.8753,10.4164,59.7469],[-83.874,10.429,56.8103],[-83.8665,10.4354,56.038],[-83.8598,10.4377,54.6062],[-83.8594,10.4446,53.2413],[-83.856,10.4466,52.0775],[-83.8447,10.4451,50.7882],[-83.8393,10.4551,51.3616],[-83.831,10.4622,47.4213],[-83.8319,10.4675,48.0085],[-83.838,10.4721,45.9904],[-83.8386,10.4745,45.8632],[-83.8365,10.4787,46.3812],[-83.831,10.4819,44.5719],[-83.8281,10.4944,44.0269],[-83.8322,10.4962,45.8023],[-83.8311,10.5034,41.7883],[-83.8392,10.5115,41.4595],[-83.8376,10.5157,41.8504],[-83.8378,10.5324,37.0951],[-83.8404,10.5392,37.2527],[-83.8454,10.54,36.9661],[-83.8462,10.5463,35.9523],[-83.8431,10.5487,35.0751],[-83.8473,10.5511,35.7506],[-83.845,10.5559,35.6969],[-83.8457,10.5588,34.5898],[-83.844,10.5636,33.8289],[-83.8404,10.5663,32.8369],[-83.8437,10.5729,37.0641],[-83.8394,10.5774,41.6213],[-83.8367,10.584,42.2769],[-83.8387,10.5888,39.1955],[-83.8363,10.5897,36.1568],[-83.8389,10.5943,28.2293],[-83.8414,10.5951,28.9728],[-83.842,10.6011,26.1324],[-83.8457,10.6039,25.3799],[-83.8456,10.6063,27.0363],[-83.8434,10.6064,24.7627],[-83.845,10.613,24.3705],[-83.8418,10.6148,24.1417],[-83.8401,10.6208,21.26],[-83.8424,10.6311,21.2805],[-83.8403,10.6372,21.4931],[-83.8408,10.6404,21.1878],[-83.8391,10.6437,18.0933],[-83.8356,10.6453,18.1447],[-83.8305,10.6448,18.9727],[-83.8157,10.65,24.7401],[-83.8117,10.6486,20.3899],[-83.8091,10.6524,17.0092],[-83.7965,10.653,15.2204],[-83.7875,10.6577,26.6674],[-83.7857,10.6652,10.2949],[-83.7864,10.6712,23.3579],[-83.7807,10.679,17.2038],[-83.7798,10.6842,10.1524],[-83.7752,10.6882,10.5385],[-83.7709,10.6963,17.8869],[-83.7651,10.6994,9.5331],[-83.7609,10.6981,10.3636],[-83.759,10.6991,11.2264],[-83.7561,10.6956,9.6949],[-83.7501,10.696,8.8666],[-83.7484,10.6938,10.6544],[-83.7421,10.6926,16.9915],[-83.7353,10.6924,11.5135],[-83.7288,10.6944,24.0241],[-83.7194,10.6918,12.938],[-83.71,10.6925,3.6958],[-83.7165,10.7034,7.7124],[-83.7394,10.7211,3.5],[-83.741,10.7259,3.5],[-83.7404,10.7304,6.3961],[-83.7331,10.7366,4.0],[-83.7326,10.7388,6.8571],[-83.7404,10.7561,5.0],[-83.7499,10.7676,5.5],[-83.7618,10.7722,6.0],[-83.765,10.7696,6.0],[-83.7783,10.7718,7.7136],[-83.7933,10.7694,7.7858],[-83.7967,10.7666,7.0],[-83.8001,10.7554,9.5176],[-83.8073,10.7509,8.7951],[-83.8099,10.7474,11.4069],[-83.8132,10.7459,8.9726],[-83.8269,10.7486,11.4346],[-83.8403,10.744,8.25],[-83.8633,10.7175,10.1732],[-83.8713,10.7159,11.81],[-83.8778,10.7191,11.1234],[-83.8909,10.7217,13.6843],[-83.9152,10.711,13.8414],[-83.9322,10.7074,15.3704],[-83.9355,10.7096,13.4089],[-83.9369,10.7134,15.6046],[-83.9361,10.7181,11.0],[-83.938,10.7212,14.0409],[-83.9551,10.724,17.7891],[-83.9666,10.7285,26.218],[-83.9693,10.7319,15.4872],[-83.9722,10.7453,15.9101],[-83.9835,10.7495,13.3652],[-83.991,10.7545,18.9082],[-83.9939,10.7592,13.0],[-83.9981,10.7599,28.3708],[-84.0053,10.7644,13.0],[-84.0093,10.7731,15.1446],[-84.0146,10.7791,15.7977],[-84.0149,10.7845,13.3412],[-84.0217,10.7917,14.9541],[-84.0256,10.7925,14.0],[-84.0307,10.7888,15.9416],[-84.034,10.7736,17.3246],[-84.0362,10.7711,15.9444],[-84.0431,10.7714,16.231],[-84.0474,10.7771,14.0],[-84.0541,10.7787,16.2113],[-84.0612,10.7741,15.4521],[-84.0625,10.7634,17.6399],[-84.0699,10.76,18.6187],[-84.0796,10.7583,18.2789],[-84.0836,10.7594,23.0886],[-84.0999,10.7732,17.2857],[-84.1056,10.7744,16.5],[-84.1159,10.7652,18.5412],[-84.1216,10.7638,17.0],[-84.1267,10.765,23.9228],[-84.1324,10.7719,25.8918],[-84.1332,10.7845,17.7599],[-84.1354,10.7869,17.9286],[-84.1462,10.7876,17.0],[-84.1611,10.7854,19.7528],[-84.1607,10.2959,616.129],[-84.1588,10.2964,606.683],[-84.1561,10.2899,746.6665],[-84.1514,10.29,703.8435],[-84.1494,10.2877,731.6326],[-84.1475,10.2888,823.8964],[-84.1417,10.2793,893.4819],[-84.1306,10.2695,1030.1309],[-84.1253,10.2655,1096.8308],[-84.1229,10.2663,1114.3813],[-84.1188,10.2617,1196.0778],[-84.1146,10.2615,1199.5164],[-84.1129,10.2597,1220.9677],[-84.1124,10.2525,1240.5165],[-84.1079,10.2489,1292.7275],[-84.11,10.241,1397.5959],[-84.105,10.2337,1511.0005],[-84.1051,10.2265,1585.3513],[-84.1028,10.2246,1610.3817],[-84.1029,10.2199,1630.8284],[-84.1043,10.2186,1674.4304],[-84.1045,10.1999,1848.8607],[-84.1011,10.1993,1874.6602],[-84.0963,10.1918,1639.0125],[-84.0916,10.1913,1536.5988],[-84.0871,10.1929,1519.0378],[-84.0832,10.1984,1436.9951],[-84.0809,10.1984,1441.9187],[-84.0801,10.201599999999999,1363.1962],[-84.075,10.2023,1327.047],[-84.0733,10.2056,1367.5793],[-84.0678,10.2066,1245.3219],[-84.0667,10.2047,1221.5813],[-84.0606,10.206,1175.511],[-84.0583,10.2081,1142.2689],[-84.0577,10.2039,1219.8373],[-84.0526,10.1998,1314.7726],[-84.0445,10.1971,1589.312],[-84.0378,10.1839,1623.1423],[-84.0349,10.1823,1516.4258],[-84.0303,10.1856,1420.7892],[-84.0226,10.1849,1184.0804],[-84.0025,10.1902,798.7792],[-83.9822,10.1863,634.864],[-83.9708,10.1873,523.0788],[-83.9552,10.1955,446.8852],[-83.9511,10.1999,415.96],[-83.946,10.1991,398.706],[-83.9427,10.2004,381.0235],[-83.9393,10.198,393.0757],[-83.9328,10.1992,334.2945],[-83.925,10.1977,306.3093],[-83.9203,10.1984,292.7639],[-83.9152,10.202,271.6283]]]]}
,"properties": {"GID_2": "CRI.4.10_1","GID_0": "CRI","country": "CostaRica","GID_1": "CRI.4_1","province": "Heredia","NL_NAME_1": "NA","county": "Sarapiquí","VARNAME_2": "NA","NL_NAME_2": "NA","TYPE_2": "Cantón","ENGTYPE_2": "Canton","CC_2": "10","HASC_2": "CR.HE.SA","name": "Sarapiquí.county","area_km2": 2151.141,"hist_schema_id": "Elevation0-9000","hist_area_km2": {"0": 56.309,"25": 541.861,"50": 621.075,"75": 172.413,"100": 107.014,"125": 77.848,"150": 59.792,"175": 49.741,"200": 44.841,"225": 34.623,"250": 26.802,"275": 23.715,"300": 20.901,"325": 18.481,"350": 16.354,"375": 14.539,"400": 14.414,"425": 14.185,"450": 12.224,"475": 11.494,"500": 10.451,"525": 8.407,"550": 9.117,"575": 9.701,"600": 10.473,"625": 7.99,"650": 7.928,"675": 7.97,"700": 7.052,"725": 6.989,"750": 6.697,"775": 5.758,"800": 5.07,"825": 4.319,"850": 5.049,"875": 5.216,"900": 4.673,"925": 4.402,"950": 4.402,"975": 4.235,"1000": 3.672,"1025": 4.235,"1050": 4.34,"1075": 4.068,"1100": 3.902,"1125": 3.484,"1150": 3.317,"1175": 3.401,"1200": 3.338,"1225": 4.173,"1250": 2.712,"1275": 2.462,"1300": 2.17,"1325": 2.399,"1350": 1.711,"1375": 1.732,"1400": 1.878,"1425": 1.753,"1450": 2.003,"1475": 1.753,"1500": 2.128,"1525": 1.92,"1550": 1.711,"1575": 1.356,"1600": 1.544,"1625": 1.127,"1650": 1.148,"1675": 1.043,"1700": 1.085,"1725": 0.939,"1750": 0.709,"1775": 0.668,"1800": 0.543,"1825": 0.501,"1850": 0.876,"1875": 0.313,"1900": 0.125,"1925": 0.104,"1950": 0.063,"1975": 0.042,"2000": 0.083,"2025": 0.042,"2075": 0.021,"2100": 0.021}}}