{"type":"Feature","properties":{"GID_2":"CRI.7.2_1","GID_0":"CRI","country":"CostaRica","GID_1":"CRI.7_1","province":"SanJosé","NL_NAME_1":"NA","county":"Alajuelita","VARNAME_2":"NA","NL_NAME_2":"NA","TYPE_2":"Cantón","ENGTYPE_2":"Canton","CC_2":"10","HASC_2":"CR.SJ.AL","name":"Alajuelita.county"},
"geometry":{"type": "MultiPolygon","coordinates": [[[[-84.136,9.8476,2350.8569],[-84.1338,9.8529,2059.8103],[-84.1223,9.8613,1723.4299],[-84.1212,9.8645,1656.656],[-84.1185,9.8658,1609.7747],[-84.1142,9.8719,1525.1204],[-84.1041,9.8751,1413.5088],[-84.0918,9.8837,1234.3577],[-84.0842,9.8866,1153.5804],[-84.0865,9.8939,1132.1434],[-84.0921,9.8987,1118.3199],[-84.0915,9.9014,1114.7073],[-84.0948,9.9026,1102.3538],[-84.0962,9.9061,1104.8182],[-84.0983,9.9057,1104.6924],[-84.1003,9.9093,1110.9449],[-84.1038,9.9091,1098.8228],[-84.1105,9.9146,1088.4565],[-84.1191,9.9317,1057.9594],[-84.1213,9.9301,1036.3259],[-84.1217,9.8952,1473.6991],[-84.1336,9.8816,1584.9631],[-84.1345,9.8782,1644.3242],[-84.1326,9.8704,1794.486],[-84.1371,9.8625,1957.6616],[-84.1459,9.8597,2338.8789],[-84.1389,9.8486,2348.4324],[-84.136,9.8476,2350.8569]]]]}}