{"type":"Feature","properties":{"GID_3":"CRI.4.9.2_1","GID_0":"CRI","country":"CostaRica","GID_1":"CRI.4_1","province":"Heredia","NL_NAME_1":"NA","GID_2":"CRI.4.9_1","county":"SantoDomingo","NL_NAME_2":"NA","city":"Paracito","VARNAME_3":"NA","NL_NAME_3":"NA","TYPE_3":"Distrito","ENGTYPE_3":"District","CC_3":"4","HASC_3":"NA","name":"Paracito.city"},
"geometry":{"type": "MultiPolygon","coordinates": [[[[-84.0249,10.0136,1338.3215],[-84.0267,10.0056,1336.7327],[-84.0291,10.0031,1312.8328],[-84.0296,9.9955,1277.3376],[-84.0328,9.9948,1275.4019],[-84.0352,9.9905,1277.7672],[-84.033,9.991,1265.9135],[-84.0324,9.9899,1285.1143],[-84.0317,9.992,1265.9135],[-84.0277,9.9926,1282.6836],[-84.0255,9.9917,1289.5305],[-84.0231,10.0139,1337.4927],[-84.0249,10.0136,1338.3215]]]]}}