{"type": "Feature","bbox": [-85.0458,10.3205,-84.7662,10.6523],"geometry": {"type": "MultiPolygon","coordinates": [[[[-84.7885,10.3211,1723.9827],[-84.781,10.3319,1606.873],[-84.7788,10.3396,1509.538],[-84.7772,10.3401,1502.8086],[-84.7762,10.3466,1356.3674],[-84.7739,10.3478,1228.8982],[-84.7743,10.3502,1181.3214],[-84.7675,10.3515,1130.7046],[-84.7663,10.3552,1001.7781],[-84.7685,10.3575,975.9213],[-84.7695,10.3675,915.6339],[-84.7716,10.3697,866.9445],[-84.7712,10.3744,835.0398],[-84.7792,10.3797,794.5483],[-84.7814,10.3847,742.9058],[-84.7745,10.3958,662.2812],[-84.7718,10.4063,608.0601],[-84.7672,10.4123,583.3141],[-84.7662,10.418,563.7311],[-84.7712,10.4531,540.0],[-84.7741,10.4628,551.7166],[-84.7742,10.4974,805.145],[-84.7789,10.4955,831.1491],[-84.7817,10.4963,830.4306],[-84.7923,10.4905,816.8711],[-84.7961,10.4999,855.5573],[-84.8019,10.5023,854.0092],[-84.8127,10.5111,832.0205],[-84.8206,10.5143,842.5183],[-84.8217,10.526,859.6918],[-84.8307,10.523,812.0149],[-84.8379,10.5247,791.8099],[-84.8387,10.5299,801.6041],[-84.846,10.5324,774.8773],[-84.846,10.5369,768.3619],[-84.8444,10.5395,772.0696],[-84.8449,10.5466,784.0927],[-84.8518,10.5462,751.0465],[-84.8576,10.5539,814.5807],[-84.8641,10.5561,798.3001],[-84.8707,10.5627,791.1008],[-84.8746,10.5635,784.9774],[-84.8793,10.562,790.9357],[-84.8831,10.564,774.4993],[-84.8901,10.5599,743.5453],[-84.8953,10.5628,752.7038],[-84.9032,10.5707,704.4955],[-84.9089,10.5688,703.2866],[-84.9191,10.5739,710.8466],[-84.9222,10.5723,760.5237],[-84.9252,10.5736,795.3263],[-84.9301,10.5801,774.0996],[-84.9295,10.5836,825.4218],[-84.9336,10.5857,819.7296],[-84.9392,10.5856,979.8667],[-84.9412,10.5898,945.4199],[-84.9443,10.5914,941.9136],[-84.9453,10.5952,938.7307],[-84.9558,10.5946,1033.9894],[-84.9687,10.601,1064.5819],[-84.9748,10.6062,1184.1907],[-84.9815,10.6064,1184.3171],[-84.9851,10.6047,1148.142],[-84.9872,10.609,1043.2488],[-84.9882,10.6184,984.0976],[-84.9921,10.6217,1021.3281],[-84.9982,10.623,1084.4243],[-84.9985,10.6252,1090.8274],[-85.0017,10.6256,1112.2856],[-85.0024,10.6304,1048.7043],[-85.001,10.6356,1023.424],[-85.003,10.6423,1163.662],[-85.0005,10.6523,1307.2231],[-85.0086,10.6414,1043.3574],[-85.0081,10.6345,925.0132],[-85.0102,10.6301,884.9067],[-85.0209,10.63,767.954],[-85.0276,10.6247,693.8481],[-85.0327,10.6252,659.1123],[-85.0424,10.6225,578.3232],[-85.0454,10.6183,569.2933],[-85.0436,10.6152,572.5989],[-85.0458,10.6105,536.5363],[-85.0436,10.6056,581.5519],[-85.0432,10.5092,344.8396],[-85.0279,10.5002,338.8369],[-85.0281,10.4295,441.2541],[-85.0181,10.367,590.4337],[-84.948,10.3655,1004.7228],[-84.919,10.3894,611.5747],[-84.915,10.385,680.0754],[-84.9133,10.3853,681.9852],[-84.9096,10.3785,741.7362],[-84.9074,10.3779,786.0983],[-84.9002,10.3649,804.8549],[-84.8972,10.3656,864.2963],[-84.8941,10.3616,830.9219],[-84.8926,10.362,828.895],[-84.885,10.3554,934.4186],[-84.8733,10.352,943.1381],[-84.8666,10.3477,981.2866],[-84.8598,10.3476,1062.8066],[-84.8564,10.3503,1082.5618],[-84.8475,10.3496,1278.9227],[-84.8412,10.343,1361.9258],[-84.8293,10.342,1505.3557],[-84.8271,10.3372,1484.8562],[-84.8207,10.3331,1477.5139],[-84.8141,10.3302,1533.1808],[-84.805,10.3309,1740.3914],[-84.803,10.3254,1752.1041],[-84.7965,10.3255,1765.7534],[-84.794,10.3232,1782.2069],[-84.7941,10.3205,1780.2399],[-84.7885,10.3211,1723.9827]]]]}
,"properties": {"GID_2": "CRI.3.11_1","GID_0": "CRI","country": "CostaRica","GID_1": "CRI.3_1","province": "Guanacaste","NL_NAME_1": "NA","county": "Tilarán","VARNAME_2": "NA","NL_NAME_2": "NA","TYPE_2": "Cantón","ENGTYPE_2": "Canton","CC_2": "8","HASC_2": "CR.GU.TI","name": "Tilarán.county","area_km2": 670.6586,"hist_schema_id": "Elevation0-9000","hist_area_km2": {"175": 0.0417,"200": 0.6672,"225": 1.6681,"250": 2.3979,"275": 3.7116,"300": 4.6708,"325": 5.4005,"350": 7.7772,"375": 9.0488,"400": 11.1753,"425": 10.9461,"450": 10.0915,"475": 9.9456,"500": 11.6757,"525": 12.9059,"550": 95.626,"575": 30.0421,"600": 29.9173,"625": 29.7709,"650": 30.5838,"675": 29.6241,"700": 27.2475,"725": 24.3289,"750": 22.9532,"775": 21.2648,"800": 17.971,"825": 18.1381,"850": 16.5746,"875": 15.1994,"900": 14.4488,"925": 13.9693,"950": 14.6365,"975": 14.0527,"1000": 9.9039,"1025": 6.7763,"1050": 6.2554,"1075": 6.36,"1100": 6.0474,"1125": 5.9223,"1150": 5.2343,"1175": 4.6504,"1200": 4.1501,"1225": 4.0876,"1250": 3.316,"1275": 3.3577,"1300": 2.8155,"1325": 2.8572,"1350": 2.2107,"1375": 1.9813,"1400": 2.5028,"1425": 2.6905,"1450": 3.2537,"1475": 2.8157,"1500": 2.3151,"1525": 2.0023,"1550": 1.6686,"1575": 1.6895,"1600": 1.3766,"1625": 1.2932,"1650": 1.1263,"1675": 1.0012,"1700": 1.1472,"1725": 0.5632,"1750": 0.3963,"1775": 0.2503,"1800": 0.1669}}}