{"type":"Feature","properties":{"GID_3":"CRI.6.6.1_1","GID_0":"CRI","country":"CostaRica","GID_1":"CRI.6_1","province":"Puntarenas","NL_NAME_1":"NA","GID_2":"CRI.6.6_1","county":"Garabito","NL_NAME_2":"NA","city":"Jacó","VARNAME_3":"NA","NL_NAME_3":"NA","TYPE_3":"Distrito","ENGTYPE_3":"District","CC_3":"1","HASC_3":"NA","name":"Jacó.city"},
"geometry":{"type": "MultiPolygon","coordinates": [[[[-84.6482,9.6193,0.0],[-84.6477,9.6192,0.0],[-84.6477,9.6198,0.0],[-84.6479,9.6198,0.0],[-84.6482,9.6193,0.0]]],
[[[-84.6534,9.6208,0.0],[-84.6533,9.6206,0.0],[-84.6531,9.6207,0.0],[-84.6532,9.6209,0.0],[-84.6534,9.6208,0.0]]],
[[[-84.6456,9.6209,0.0],[-84.6454,9.6209,0.0],[-84.6453,9.6212,0.0],[-84.6455,9.6212,0.0],[-84.6456,9.6209,0.0]]],
[[[-84.5583,9.5411,0.0],[-84.5556,9.5392,0.5958],[-84.5545,9.541,3.7973],[-84.5507,9.5377,3.3923],[-84.545,9.5386,6.8134],[-84.5451,9.5408,4.3005],[-84.548,9.5433,6.4444],[-84.5478,9.5462,5.1215],[-84.5459,9.5488,3.1971],[-84.5411,9.5492,3.8287],[-84.5459,9.5527,7.4075],[-84.5385,9.5586,5.8256],[-84.5397,9.5612,14.1074],[-84.5383,9.5657,6.7942],[-84.533,9.5695,5.5594],[-84.5294,9.5792,10.5771],[-84.5345,9.5829,16.6164],[-84.5354,9.5816,15.662],[-84.5388,9.5861,19.691],[-84.5437,9.585,29.9415],[-84.5496,9.5932,61.0296],[-84.5518,9.6037,83.0529],[-84.5498,9.61,102.377],[-84.5513,9.6191,256.4583],[-84.5543,9.6223,379.2617],[-84.5557,9.6267,360.3883],[-84.5614,9.625,447.0688],[-84.5644,9.6276,492.9547],[-84.5636,9.6312,521.021],[-84.5654,9.6356,559.6918],[-84.5719,9.6441,736.5175],[-84.5739,9.652,779.5305],[-84.5723,9.6542,772.2749],[-84.5807,9.6655,680.4201],[-84.5801,9.6719,703.0172],[-84.5855,9.6837,582.9604],[-84.5827,9.6894,647.2791],[-84.5846,9.6912,597.0493],[-84.5846,9.7018,494.3046],[-84.5906,9.7001,298.3018],[-84.5987,9.7048,151.2393],[-84.6,9.699,412.4707],[-84.6032,9.6944,680.9329],[-84.6166,9.7018,417.5488],[-84.6296,9.696,355.2089],[-84.6365,9.6951,295.9696],[-84.655,9.685,323.5175],[-84.6594,9.6848,335.0262],[-84.6654,9.6764,107.7133],[-84.6689,9.6748,45.6755],[-84.6696,9.6669,55.062],[-84.6721,9.6657,13.4757],[-84.6719,9.6595,28.0048],[-84.6791,9.658,23.7894],[-84.6797,9.6548,5.4972],[-84.6784,9.6535,34.935],[-84.6806,9.6522,4.9563],[-84.6801,9.6504,0.0],[-84.6752,9.6491,0.0],[-84.6743,9.6513,13.6481],[-84.6703,9.6504,0.0],[-84.6693,9.6521,79.8854],[-84.6662,9.6509,1.0837],[-84.6627,9.6527,5.5651],[-84.6582,9.6494,1.6789],[-84.6583,9.6512,4.3127],[-84.6568,9.6497,1.6789],[-84.6578,9.6489,1.6789],[-84.6552,9.6431,0.0],[-84.6553,9.6388,0.0],[-84.6584,9.6343,15.0761],[-84.6633,9.6314,0.0],[-84.6551,9.6268,0.0],[-84.6505,9.6218,0.0],[-84.6432,9.6226,10.7111],[-84.642,9.6261,13.1132],[-84.6426,9.6238,31.0879],[-84.6398,9.6206,2.9552],[-84.6312,9.614,1.44],[-84.6243,9.6059,0.941],[-84.6231,9.6076,10.4381],[-84.6228,9.6069,6.8663],[-84.6235,9.6048,1.7696],[-84.6204,9.5968,4.7021],[-84.6254,9.5915,34.7883],[-84.6198,9.5834,0.0],[-84.6184,9.5839,29.052],[-84.6178,9.5813,7.3721],[-84.6015,9.5728,2.6643],[-84.5583,9.5411,0.0]]],
[[[-84.654,9.6231,0.0],[-84.6539,9.623,0.0],[-84.6538,9.6232,0.0],[-84.654,9.6232,0.0],[-84.654,9.6231,0.0]]],
[[[-84.6676,9.6266,0.0],[-84.667,9.6265,0.0],[-84.6668,9.6266,0.0],[-84.6672,9.627,0.0],[-84.6676,9.6266,0.0]]],
[[[-84.6684,9.6266,0.0],[-84.6683,9.6265,0.0],[-84.6682,9.6266,0.0],[-84.6683,9.6267,0.0],[-84.6684,9.6266,0.0]]],
[[[-84.6693,9.6266,0.0],[-84.6692,9.6265,0.0],[-84.6691,9.6268,0.0],[-84.6692,9.6269,0.0],[-84.6693,9.6266,0.0]]],
[[[-84.6665,9.629,29.8176],[-84.6653,9.6309,14.8503],[-84.6718,9.6307,4.2658],[-84.6756,9.6291,0.0],[-84.6767,9.6265,18.3136],[-84.6717,9.6266,1.6946],[-84.6665,9.629,29.8176]]],
[[[-84.6806,9.6463,0.0],[-84.6798,9.6471,0.0],[-84.6801,9.6476,0.0],[-84.6807,9.6474,0.0],[-84.6806,9.6463,0.0]]],
[[[-84.679,9.6481,0.0],[-84.6787,9.6481,0.0],[-84.6787,9.6485,0.0],[-84.6789,9.6484,0.0],[-84.679,9.6481,0.0]]],
[[[-84.6796,9.6492,0.0],[-84.6793,9.6493,0.0],[-84.6795,9.6498,0.0],[-84.6797,9.6497,0.0],[-84.6796,9.6492,0.0]]],
[[[-84.6837,9.6557,0.0],[-84.6832,9.6557,0.0],[-84.6828,9.6566,0.0],[-84.6836,9.6562,0.0],[-84.6837,9.6557,0.0]]]]}}