{"type":"Feature","properties":{"GID_3":"CRI.1.13.11_1","GID_0":"CRI","country":"CostaRica","GID_1":"CRI.1_1","province":"Alajuela","NL_NAME_1":"NA","GID_2":"CRI.1.13_1","county":"SanRamón","NL_NAME_2":"NA","city":"SanRamón","VARNAME_3":"NA","NL_NAME_3":"NA","TYPE_3":"Distrito","ENGTYPE_3":"District","CC_3":"1","HASC_3":"NA","name":"San_Ramón.city"},
"geometry":{"type": "MultiPolygon","coordinates": [[[[-84.476,10.0831,1089.0706],[-84.4652,10.0818,1057.3389],[-84.4639,10.0915,1029.9763],[-84.4744,10.0929,1066.2509],[-84.476,10.0831,1089.0706]]]]}}