{"type":"Feature","properties":{"GID_3":"CRI.1.11.7_1","GID_0":"CRI","country":"CostaRica","GID_1":"CRI.1_1","province":"Alajuela","NL_NAME_1":"NA","GID_2":"CRI.1.11_1","county":"SanCarlos","NL_NAME_2":"NA","city":"LaTigra","VARNAME_3":"NA","NL_NAME_3":"NA","TYPE_3":"Distrito","ENGTYPE_3":"District","CC_3":"8","HASC_3":"NA","name":"La_Tigra.city"},
"geometry":{"type": "MultiPolygon","coordinates": [[[[-84.5535,10.4008,133.4779],[-84.5537,10.3941,142.9277],[-84.5695,10.3806,195.013],[-84.5717,10.3765,198.3717],[-84.5776,10.3728,219.4714],[-84.5856,10.3718,236.3352],[-84.5915,10.3672,251.1629],[-84.5965,10.3657,284.2172],[-84.6025,10.3658,310.9302],[-84.6086,10.3688,380.8217],[-84.6185,10.3692,335.4556],[-84.6256,10.3656,336.8588],[-84.6292,10.3656,393.5868],[-84.6327,10.3625,393.4466],[-84.6335,10.3604,520.9066],[-84.6312,10.3549,757.8319],[-84.6341,10.3441,1087.5936],[-84.6325,10.3366,1184.4523],[-84.6357,10.3268,1017.3559],[-84.6284,10.3148,706.4732],[-84.6233,10.3109,591.9791],[-84.619,10.3104,581.7247],[-84.6151,10.3119,540.5146],[-84.6063,10.3112,505.8404],[-84.6018,10.3091,503.283],[-84.5964,10.3107,468.5776],[-84.5893,10.3169,428.4444],[-84.5879,10.3203,387.8616],[-84.5829,10.3232,383.5934],[-84.581,10.3296,328.3979],[-84.5776,10.3328,304.6105],[-84.5593,10.3434,236.9235],[-84.5482,10.3536,192.6431],[-84.5367,10.3566,169.404],[-84.5317,10.3638,157.8834],[-84.5337,10.367,176.0073],[-84.5309,10.369,161.1787],[-84.5335,10.3739,168.5489],[-84.5329,10.3761,148.494],[-84.538,10.3764,150.223],[-84.5405,10.3828,135.7981],[-84.5535,10.4008,133.4779]]]]}}