{"type": "Feature","bbox": [-83.6009,9.749,-83.4899,9.8776],"geometry": {"type": "MultiPolygon","coordinates": [[[[-83.518,9.8776,494.337],[-83.5267,9.8666,870.4546],[-83.5337,9.8648,944.407],[-83.5434,9.857,982.9732],[-83.5468,9.8462,1150.7494],[-83.5522,9.8422,1280.0303],[-83.5554,9.8365,1272.0259],[-83.5601,9.8375,1060.8909],[-83.5645,9.8358,952.8633],[-83.5694,9.837,828.6764],[-83.5737,9.8348,776.963],[-83.5694,9.8311,805.2332],[-83.5694,9.8293,824.3669],[-83.5754,9.8226,861.1361],[-83.5764,9.818,932.8222],[-83.5828,9.8114,958.476],[-83.5838,9.8055,1011.3681],[-83.5883,9.8013,1034.3888],[-83.588,9.7996,1063.9623],[-83.5914,9.798,1080.0559],[-83.5938,9.7944,1129.4755],[-83.5947,9.7883,1185.1755],[-83.6009,9.7812,1305.7328],[-83.5995,9.7736,1396.7732],[-83.5931,9.7693,1445.7034],[-83.5925,9.7654,1516.5043],[-83.5904,9.7632,1536.7212],[-83.5946,9.754,1755.3143],[-83.5923,9.749,1894.9355],[-83.5827,9.7526,1781.3586],[-83.5776,9.7652,1932.4404],[-83.5756,9.7658,1922.8608],[-83.5743,9.7634,1879.4277],[-83.5685,9.7624,1884.0168],[-83.5646,9.7643,1737.8021],[-83.5613,9.7639,1697.4089],[-83.5543,9.7708,1657.3573],[-83.5483,9.7706,1587.3628],[-83.5397,9.7782,1291.9501],[-83.5262,9.7815,1372.4609],[-83.5108,9.7906,1222.4324],[-83.5108,9.7927,1209.9128],[-83.5171,9.798,996.9116],[-83.5106,9.7992,927.2281],[-83.5036,9.8107,684.1955],[-83.4899,9.8238,1059.0117],[-83.4931,9.8252,1066.8506],[-83.4988,9.8329,1019.3485],[-83.5062,9.834,861.809],[-83.5175,9.8393,560.631],[-83.5161,9.8419,556.6713],[-83.5171,9.8451,584.9761],[-83.5192,9.8455,567.684],[-83.518,9.849,585.0795],[-83.5213,9.8534,551.6055],[-83.5216,9.8574,550.8082],[-83.5197,9.8648,530.9702],[-83.5166,9.8645,532.0008],[-83.5145,9.8664,566.097],[-83.5188,9.8764,504.8508],[-83.518,9.8776,494.337]]]]}
,"properties": {"GID_3": "CRI.2.8.9_1","GID_0": "CRI","country": "CostaRica","GID_1": "CRI.2_1","province": "Cartago","NL_NAME_1": "NA","GID_2": "CRI.2.8_1","county": "Turrialba","NL_NAME_2": "NA","city": "Tayutic","VARNAME_3": "NA","NL_NAME_3": "NA","TYPE_3": "Distrito","ENGTYPE_3": "District","CC_3": "8","HASC_3": "NA","name": "Tayutic.city","area_km2": 75.33766,"hist_schema_id": "Elevation0-9000","hist_area_km2": {"500": 0.04178,"525": 0.12533,"550": 0.37601,"575": 0.6267,"600": 0.60581,"625": 0.85651,"650": 0.83561,"675": 0.98185,"700": 1.23252,"725": 1.29519,"750": 1.16987,"775": 1.71305,"800": 1.96374,"825": 1.90107,"850": 2.42338,"875": 2.86211,"900": 2.98747,"925": 3.09194,"950": 3.11283,"975": 2.56969,"1000": 2.63236,"1025": 2.77861,"1050": 2.8622,"1075": 2.33992,"1100": 2.23549,"1125": 2.06837,"1150": 2.04747,"1175": 1.96393,"1200": 2.11019,"1225": 1.88038,"1250": 2.13109,"1275": 1.65058,"1300": 1.44164,"1325": 1.52523,"1350": 0.98201,"1375": 0.83575,"1400": 0.85665,"1425": 0.85665,"1450": 1.17007,"1475": 1.17008,"1500": 0.94024,"1525": 0.66862,"1550": 0.71041,"1575": 0.56415,"1600": 0.7522,"1625": 0.75221,"1650": 0.50147,"1675": 0.52237,"1700": 0.4179,"1725": 0.58506,"1750": 0.58506,"1775": 0.4388,"1800": 0.4179,"1825": 0.41791,"1850": 0.20895,"1875": 0.18806,"1900": 0.14627,"1925": 0.06268,"1950": 0.10448,"1975": 0.04179}}}