{"type": "Feature","bbox": [-83.947,10.063,-83.3434,10.939],"geometry": {"type": "MultiPolygon","coordinates": [[[[-83.9465,10.1497,458.0477],[-83.947,10.1473,473.381],[-83.7739,10.063,1734.833],[-83.7751,10.0738,1431.3418],[-83.7718,10.0791,1341.7228],[-83.7721,10.0897,1125.0573],[-83.7685,10.0965,1022.5721],[-83.7725,10.1006,970.7214],[-83.7727,10.1091,909.5865],[-83.7627,10.1291,741.7206],[-83.7571,10.1359,646.826],[-83.756,10.1396,625.7036],[-83.7574,10.1437,608.6627],[-83.7555,10.1493,558.0663],[-83.7567,10.1563,535.3063],[-83.7525,10.1622,475.496],[-83.751,10.1704,472.3756],[-83.7527,10.1774,378.9984],[-83.7508,10.1795,373.4889],[-83.7472,10.1934,301.33],[-83.7363,10.2147,207.0953],[-83.7335,10.2244,176.8075],[-83.7297,10.2288,167.0647],[-83.7307,10.2318,157.2544],[-83.7279,10.2384,145.3877],[-83.7284,10.2409,136.4544],[-83.7265,10.2419,136.4544],[-83.7275,10.2435,136.0573],[-83.7215,10.2467,123.6956],[-83.7194,10.2497,115.5243],[-83.7159,10.2502,107.9814],[-83.7127,10.255,98.531],[-83.7047,10.2572,90.8221],[-83.7021,10.2596,88.7717],[-83.7006,10.2585,89.4289],[-83.7001,10.2612,86.1906],[-83.6968,10.2635,79.472],[-83.6931,10.2638,74.1386],[-83.6918,10.2663,72.3342],[-83.6863,10.2674,66.2049],[-83.6861,10.2703,64.8296],[-83.6814,10.2721,57.5222],[-83.6802,10.2745,59.105],[-83.6811,10.2781,59.6399],[-83.6748,10.278,57.3917],[-83.675,10.2819,58.5635],[-83.6722,10.2842,55.3608],[-83.6743,10.2852,63.5176],[-83.6734,10.2873,65.7716],[-83.6722,10.2864,56.8131],[-83.6721,10.2883,59.9456],[-83.6697,10.2885,56.534],[-83.6692,10.2872,56.534],[-83.6675,10.2907,48.6153],[-83.6673,10.3534,50.4372],[-83.6637,10.3538,44.5688],[-83.6629,10.3526,43.5385],[-83.6617,10.3538,42.0214],[-83.6502,10.3542,40.7138],[-83.6474,10.3569,40.0408],[-83.6391,10.3587,39.9009],[-83.6313,10.3566,37.6808],[-83.6266,10.3594,39.5302],[-83.6193,10.3565,33.8159],[-83.6102,10.3607,46.3183],[-83.6025,10.3613,25.0019],[-83.5956,10.3706,29.3159],[-83.5927,10.3704,25.5974],[-83.595,10.3686,26.0605],[-83.5919,10.3646,25.1889],[-83.5896,10.3643,28.132],[-83.5899,10.3619,25.9371],[-83.5877,10.3612,29.6615],[-83.5876,10.358,33.8574],[-83.584,10.354,102.6661],[-83.5807,10.3514,191.5238],[-83.5777,10.3517,236.4464],[-83.5729,10.3467,180.7545],[-83.5742,10.3421,177.1824],[-83.5727,10.3396,164.6467],[-83.5758,10.3361,126.3578],[-83.5758,10.3314,133.9454],[-83.5735,10.3229,108.561],[-83.5669,10.3123,136.936],[-83.5697,10.3036,57.0534],[-83.5688,10.2997,21.5814],[-83.5594,10.3007,23.3735],[-83.5562,10.2974,20.936],[-83.5485,10.2996,21.946],[-83.5442,10.2985,20.5173],[-83.5442,10.2966,18.6602],[-83.5406,10.2982,18.8029],[-83.5392,10.2957,17.0789],[-83.5375,10.299,16.1936],[-83.5344,10.2997,17.5434],[-83.5345,10.2965,23.1868],[-83.5305,10.2969,15.5727],[-83.5292,10.2945,16.9839],[-83.5244,10.2963,16.7915],[-83.5244,10.298,17.0994],[-83.5277,10.2976,15.6585],[-83.5226,10.3029,14.9656],[-83.5208,10.3012,15.257],[-83.5177,10.3017,14.5497],[-83.5208,10.3043,16.3023],[-83.5174,10.3073,14.9907],[-83.5167,10.3039,11.7691],[-83.5145,10.3057,13.6603],[-83.5119,10.3042,16.6119],[-83.5129,10.3017,19.0413],[-83.5116,10.2975,19.1826],[-83.5098,10.3033,12.0356],[-83.5055,10.3025,13.1249],[-83.5037,10.3037,12.0938],[-83.5027,10.2997,12.7927],[-83.4993,10.2994,12.4171],[-83.499,10.2965,11.8662],[-83.4972,10.2962,11.077],[-83.4974,10.2988,12.3425],[-83.4957,10.2997,11.5451],[-83.4947,10.2988,11.5451],[-83.4958,10.296,10.2797],[-83.4939,10.2956,11.8371],[-83.4922,10.2978,9.9653],[-83.4938,10.2995,11.3609],[-83.4909,10.2989,11.6538],[-83.4904,10.2949,9.1929],[-83.4846,10.2936,8.6818],[-83.4843,10.2918,9.2389],[-83.4822,10.2921,9.1215],[-83.4792,10.2896,9.3897],[-83.4788,10.292,8.4095],[-83.476,10.2908,8.8151],[-83.4767,10.2923,12.5121],[-83.4754,10.2925,19.4035],[-83.4734,10.2918,7.5831],[-83.4738,10.2893,8.1092],[-83.466,10.2893,6.9559],[-83.4627,10.2873,6.0903],[-83.4585,10.2885,6.6562],[-83.4551,10.2864,7.0749],[-83.4527,10.2892,10.5221],[-83.4491,10.288,7.6956],[-83.4444,10.2913,7.0936],[-83.4382,10.2841,6.2941],[-83.4374,10.2877,7.2278],[-83.428,10.2864,6.9767],[-83.4266,10.2907,9.063],[-83.4247,10.2874,7.6435],[-83.4188,10.2876,10.1193],[-83.4164,10.2896,9.7023],[-83.4133,10.2855,14.3341],[-83.406,10.2842,8.3661],[-83.4051,10.2851,6.8844],[-83.4102,10.2899,9.327],[-83.408,10.2902,10.3158],[-83.4069,10.2878,6.9065],[-83.4035,10.2899,9.3162],[-83.4027,10.2912,8.7853],[-83.4054,10.2941,11.1194],[-83.4047,10.2959,7.6276],[-83.3991,10.2943,8.2796],[-83.4011,10.3,9.6254],[-83.3985,10.3032,5.7253],[-83.3942,10.3008,4.8671],[-83.3954,10.2959,10.7119],[-83.3944,10.2947,7.2869],[-83.388,10.3031,6.7414],[-83.3855,10.3017,5.0867],[-83.3848,10.2961,3.044],[-83.3835,10.2962,3.044],[-83.3814,10.3027,5.6399],[-83.3799,10.3034,6.151],[-83.3777,10.2996,3.2467],[-83.3788,10.294,3.6975],[-83.3748,10.2989,3.0721],[-83.3701,10.3,2.1462],[-83.3682,10.2977,2.1891],[-83.37,10.2934,4.3396],[-83.3691,10.2921,4.3396],[-83.3659,10.2955,3.1507],[-83.362799999999993,10.2942,3.4063],[-83.366,10.2898,14.3143],[-83.3647,10.2881,6.4867],[-83.3591,10.288,3.2241],[-83.356,10.2897,2.8745],[-83.3512,10.2884,5.8371],[-83.3503,10.2897,2.8714],[-83.3543,10.2933,2.1166],[-83.3531,10.2944,2.1419],[-83.3494,10.2913,0.6958],[-83.3467,10.2921,1.9506],[-83.3447,10.2893,2.2049],[-83.3434,10.2901,7.4464],[-83.3446,10.295,0.3913],[-83.3527,10.3027,0.8756],[-83.3548,10.3124,2.9077],[-83.3753,10.336,15.2638],[-83.4036,10.3746,14.0491],[-83.441,10.4308,2.2227],[-83.4871,10.5122,0.0],[-83.5203,10.583,0.0],[-83.523,10.5801,3.9312],[-83.5218,10.5873,0.0],[-83.5506,10.657,6.5949],[-83.5688,10.7115,8.9271],[-83.5839,10.7734,1.4966],[-83.5858,10.7839,8.3477],[-83.5848,10.7866,7.4461],[-83.588,10.7866,2.1017],[-83.5892,10.7894,0.9132],[-83.5864,10.7973,0.0],[-83.6023,10.8319,1.7226],[-83.6164,10.87,0.0],[-83.6283,10.8949,0.0],[-83.6361,10.9074,0.0],[-83.6468,10.9197,0.0],[-83.6643,10.9332,0.0],[-83.6684,10.9291,0.6668],[-83.6756,10.9257,9.6586],[-83.675,10.9307,3.2483],[-83.6726,10.9321,0.0],[-83.6744,10.9346,4.9229],[-83.6784,10.9363,4.2372],[-83.6821,10.9355,8.9253],[-83.6875,10.9384,0.0],[-83.6919,10.9374,5.1993],[-83.6942,10.939,0.0],[-83.6973,10.9386,2.9801],[-83.6962,10.9353,0.9581],[-83.6899,10.935,2.6395],[-83.6882,10.9334,0.1501],[-83.6816,10.9194,5.5385],[-83.6731,10.9081,0.9841],[-83.675299999999993,10.9066,1.0228],[-83.6791,10.9095,1.1944],[-83.6765,10.9024,3.6076],[-83.6823,10.8985,2.5526],[-83.6824,10.897,8.3558],[-83.6756,10.8916,7.6131],[-83.6705,10.8916,2.5425],[-83.6684,10.8883,5.9992],[-83.667,10.8797,4.5764],[-83.6749,10.852,3.5769],[-83.6704,10.8409,8.3811],[-83.6679,10.8381,14.9832],[-83.668,10.8319,3.599],[-83.6639,10.8278,45.6806],[-83.6604,10.8189,8.8875],[-83.6687,10.7992,4.4903],[-83.6881,10.7898,7.3021],[-83.6968,10.7874,9.9453],[-83.7005,10.7877,5.4873],[-83.7077,10.7917,7.3908],[-83.7144,10.7927,5.0478],[-83.7244,10.7855,7.5635],[-83.7455,10.7797,7.3612],[-83.7598,10.7746,7.8938],[-83.7618,10.7722,6.0],[-83.7499,10.7676,5.5],[-83.7404,10.7561,5.0],[-83.7326,10.7388,6.8571],[-83.7331,10.7366,4.0],[-83.7404,10.7304,6.3961],[-83.741,10.7259,3.5],[-83.7394,10.7211,3.5],[-83.7165,10.7034,7.7124],[-83.71,10.6925,3.6958],[-83.7194,10.6918,12.938],[-83.7288,10.6944,24.0241],[-83.7353,10.6924,11.5135],[-83.7421,10.6926,16.9915],[-83.7484,10.6938,10.6544],[-83.7501,10.696,8.8666],[-83.7561,10.6956,9.6949],[-83.759,10.6991,11.2264],[-83.7609,10.6981,10.3636],[-83.7651,10.6994,9.5331],[-83.7709,10.6963,17.8869],[-83.7752,10.6882,10.5385],[-83.7798,10.6842,10.1524],[-83.7807,10.679,17.2038],[-83.7864,10.6712,23.3579],[-83.7857,10.6652,10.2949],[-83.7875,10.6577,26.6674],[-83.7965,10.653,15.2204],[-83.8091,10.6524,17.0092],[-83.8117,10.6486,20.3899],[-83.8157,10.65,24.7401],[-83.8305,10.6448,18.9727],[-83.8356,10.6453,18.1447],[-83.8391,10.6437,18.0933],[-83.8408,10.6404,21.1878],[-83.8403,10.6372,21.4931],[-83.8424,10.6311,21.2805],[-83.8401,10.6208,21.26],[-83.8418,10.6148,24.1417],[-83.845,10.613,24.3705],[-83.8434,10.6064,24.7627],[-83.8456,10.6063,27.0363],[-83.8457,10.6039,25.3799],[-83.842,10.6011,26.1324],[-83.8414,10.5951,28.9728],[-83.8389,10.5943,28.2293],[-83.8363,10.5897,36.1568],[-83.8387,10.5888,39.1955],[-83.8367,10.584,42.2769],[-83.8394,10.5774,41.6213],[-83.8437,10.5729,37.0641],[-83.8404,10.5663,32.8369],[-83.844,10.5636,33.8289],[-83.8457,10.5588,34.5898],[-83.845,10.5559,35.6969],[-83.8473,10.5511,35.7506],[-83.8431,10.5487,35.0751],[-83.8462,10.5463,35.9523],[-83.8454,10.54,36.9661],[-83.8404,10.5392,37.2527],[-83.8378,10.5324,37.0951],[-83.8376,10.5157,41.8504],[-83.8392,10.5115,41.4595],[-83.8311,10.5034,41.7883],[-83.8322,10.4962,45.8023],[-83.8281,10.4944,44.0269],[-83.831,10.4819,44.5719],[-83.8365,10.4787,46.3812],[-83.8386,10.4745,45.8632],[-83.838,10.4721,45.9904],[-83.8319,10.4675,48.0085],[-83.831,10.4622,47.4213],[-83.8393,10.4551,51.3616],[-83.8447,10.4451,50.7882],[-83.856,10.4466,52.0775],[-83.8594,10.4446,53.2413],[-83.8598,10.4377,54.6062],[-83.8665,10.4354,56.038],[-83.874,10.429,56.8103],[-83.8753,10.4164,59.7469],[-83.8805,10.4036,62.7281],[-83.8754,10.3904,61.3822],[-83.8727,10.3896,63.4067],[-83.8691,10.3808,62.3964],[-83.8653,10.3797,69.5667],[-83.865,10.3755,66.1271],[-83.8576,10.3673,64.5884],[-83.8549,10.359,67.3641],[-83.8504,10.3543,73.4617],[-83.8517,10.3487,77.5689],[-83.8489,10.335,79.3262],[-83.85,10.3302,85.3051],[-83.8532,10.3264,82.5244],[-83.8522,10.3207,86.8206],[-83.8542,10.3182,86.4561],[-83.8532,10.3103,91.6793],[-83.8512,10.3076,95.0763],[-83.8527,10.3014,99.6341],[-83.8506,10.2887,113.4131],[-83.8516,10.2858,118.7534],[-83.85,10.2821,121.3032],[-83.8525,10.2752,122.6988],[-83.852,10.2712,128.1173],[-83.8553,10.2656,130.5551],[-83.8547,10.2623,131.2979],[-83.8575,10.255,139.8174],[-83.8638,10.2479,154.5935],[-83.8733,10.2428,169.5339],[-83.8969,10.2188,228.8119],[-83.9027,10.2107,238.1959],[-83.9339,10.1854,337.2241],[-83.9367,10.179,429.6457],[-83.9375,10.1707,374.2995],[-83.9426,10.1627,406.5967],[-83.9465,10.1497,458.0477]]]]}
,"properties": {"GID_2": "CRI.5.4_1","GID_0": "CRI","country": "CostaRica","GID_1": "CRI.5_1","province": "Limón","NL_NAME_1": "NA","county": "Pococí","VARNAME_2": "NA","NL_NAME_2": "NA","TYPE_2": "Cantón","ENGTYPE_2": "Canton","CC_2": "2","HASC_2": "CR.LI.PO","name": "Pococí.county","area_km2": 2421.327,"hist_schema_id": "Elevation0-9000","hist_area_km2": {"0": 418.248,"25": 991.419,"50": 375.399,"75": 164.277,"100": 81.678,"125": 45.638,"150": 30.434,"175": 26.326,"200": 22.24,"225": 18.528,"250": 14.397,"275": 9.744,"300": 9.661,"325": 13.585,"350": 13.376,"375": 11.185,"400": 10.142,"425": 9.537,"450": 8.139,"475": 8.807,"500": 7.763,"525": 7.972,"550": 7.951,"575": 7.659,"600": 6.532,"625": 6.72,"650": 5.927,"675": 5.406,"700": 4.383,"725": 4.425,"750": 4.592,"775": 5.051,"800": 5.239,"825": 4.237,"850": 4.216,"875": 3.715,"900": 3.214,"925": 3.298,"950": 2.964,"975": 2.86,"1000": 2.567,"1025": 2.86,"1050": 2.379,"1075": 2.505,"1100": 2.066,"1125": 2.463,"1150": 2.171,"1175": 2.755,"1200": 2.797,"1225": 2.192,"1250": 2.338,"1275": 1.941,"1300": 1.399,"1325": 1.169,"1350": 0.689,"1375": 0.355,"1400": 0.376,"1425": 0.23,"1450": 0.23,"1475": 0.125,"1500": 0.23,"1525": 0.125,"1550": 0.084,"1575": 0.167,"1600": 0.042,"1625": 0.063,"1650": 0.063,"1675": 0.042,"1700": 0.021}}}