{"type":"Feature","properties":{"GID_2":"CRI.4.7_1","GID_0":"CRI","country":"CostaRica","GID_1":"CRI.4_1","province":"Heredia","NL_NAME_1":"NA","county":"SanRafael","VARNAME_2":"NA","NL_NAME_2":"NA","TYPE_2":"Cantón","ENGTYPE_2":"Canton","CC_2":"5","HASC_2":"CR.HE.SR","name":"San_Rafael.county"},
"geometry":{"type": "MultiPolygon","coordinates": [[[[-84.1094,9.999,1150.7618],[-84.1053,10.0036,1188.1731],[-84.0933,10.0036,1228.0234],[-84.0937,10.0065,1242.4116],[-84.0913,10.0061,1234.4055],[-84.0752,10.0126,1351.5868],[-84.0732,10.015,1358.9753],[-84.0726,10.0196,1404.1477],[-84.0685,10.021,1408.764],[-84.0666,10.0201,1381.9243],[-84.0639,10.0226,1423.2765],[-84.0591,10.0237,1390.7526],[-84.0572,10.0227,1389.4337],[-84.0533,10.0278,1421.4536],[-84.0531,10.0342,1479.2339],[-84.0481,10.0342,1471.8369],[-84.045,10.0413,1574.4937],[-84.0445,10.0484,1686.0436],[-84.0472,10.0596,2024.5837],[-84.0445,10.0631,2114.312],[-84.0456,10.0667,1976.9673],[-84.0506,10.0676,2088.4187],[-84.0534,10.0741,2162.5464],[-84.0608,10.0795,2242.2346],[-84.0782,10.0872,2078.5994],[-84.0785,10.0973,2152.5415],[-84.0763,10.1055,2233.6729],[-84.0796,10.1187,2401.5366],[-84.0831,10.1208,2468.5645],[-84.0872,10.1204,2536.0767],[-84.0872,10.098,2177.5469],[-84.0853,10.0904,2066.9944],[-84.0863,10.0852,1959.3728],[-84.0912,10.0753,1847.23],[-84.0925,10.0651,1752.7567],[-84.0986,10.0548,1611.8013],[-84.1045,10.0483,1502.9668],[-84.1078,10.0388,1396.0034],[-84.108,10.0258,1293.4062],[-84.105,10.0195,1265.6033],[-84.1197,10.0115,1170.7322],[-84.1171,10.006,1182.0396],[-84.1099,10.006,1203.4651],[-84.1094,9.999,1150.7618]]]]}}