{"type":"Feature","properties":{"GID_3":"CRI.7.5.13_1","GID_0":"CRI","country":"CostaRica","GID_1":"CRI.7_1","province":"SanJosé","NL_NAME_1":"NA","GID_2":"CRI.7.5_1","county":"Desamparados","NL_NAME_2":"NA","city":"SanRafaelArriba","VARNAME_3":"NA","NL_NAME_3":"NA","TYPE_3":"Distrito","ENGTYPE_3":"District","CC_3":"4","HASC_3":"NA","name":"San_Rafael_Arriba.city"},
"geometry":{"type": "MultiPolygon","coordinates": [[[[-84.081,9.8694,1209.7961],[-84.0805,9.8668,1228.1342],[-84.0607,9.8633,1225.149],[-84.07,9.8733,1186.4097],[-84.0711,9.8777,1174.6255],[-84.0672,9.8822,1174.8049],[-84.0675,9.8842,1171.8645],[-84.0711,9.8852,1161.7094],[-84.0762,9.8942,1152.4072],[-84.0781,9.8857,1167.6757],[-84.0813,9.8844,1159.4425],[-84.0811,9.883,1164.6151],[-84.078,9.8822,1173.2561],[-84.0793,9.8815,1169.7],[-84.0794,9.8717,1203.6299],[-84.081,9.8694,1209.7961]]]]}}