{"type": "Feature","bbox": [-84.0711,9.8074,-84.0231,9.8881],"geometry": {"type": "MultiPolygon","coordinates": [[[[-84.0447,9.8158,1654.5767],[-84.0357,9.8226,1790.79],[-84.0302,9.8238,1893.6249],[-84.0255,9.8391,1842.8718],[-84.0231,9.8404,1845.988],[-84.0268,9.8459,1667.5757],[-84.0407,9.8491,1380.4867],[-84.0465,9.8542,1294.3042],[-84.057,9.869,1208.739],[-84.0651,9.8881,1158.8466],[-84.0656,9.8858,1164.5513],[-84.0685,9.8839,1162.4972],[-84.0671,9.8823,1174.8049],[-84.071,9.8779,1174.6255],[-84.0708,9.8756,1180.6726],[-84.0607,9.8633,1225.149],[-84.0606,9.8606,1218.1919],[-84.07,9.8506,1272.1897],[-84.0675,9.8468,1337.6494],[-84.0658,9.8368,1560.151],[-84.0623,9.8317,1666.9087],[-84.065,9.8314,1677.0471],[-84.0676,9.8282,1755.9279],[-84.068,9.8243,1663.2993],[-84.0661,9.8191,1652.3523],[-84.0668,9.8167,1566.0383],[-84.0695,9.817,1512.0925],[-84.0711,9.8148,1478.9965],[-84.0695,9.8122,1435.0931],[-84.0671,9.8118,1412.9441],[-84.0676,9.8074,1400.7158],[-84.0542,9.8106,1532.4717],[-84.0511,9.8129,1541.6792],[-84.0462,9.8135,1621.0599],[-84.0447,9.8158,1654.5767]]]]}
,"properties": {"GID_3": "CRI.7.5.11_1","GID_0": "CRI","country": "CostaRica","GID_1": "CRI.7_1","province": "SanJosé","NL_NAME_1": "NA","GID_2": "CRI.7.5_1","county": "Desamparados","NL_NAME_2": "NA","city": "SanMiguel","VARNAME_3": "NA","NL_NAME_3": "NA","TYPE_3": "Distrito","ENGTYPE_3": "District","CC_3": "2","HASC_3": "NA","name": "San_Miguel.city","area_km2": 21.32906,"hist_schema_id": "Elevation0-9000","hist_area_km2": {"1150": 0.02089,"1175": 0.83551,"1200": 0.75198,"1225": 0.91911,"1250": 1.21157,"1275": 0.81469,"1300": 0.62669,"1325": 0.45957,"1350": 0.43869,"1375": 0.33424,"1400": 0.6685,"1425": 0.41781,"1450": 0.62672,"1475": 0.58494,"1500": 0.64761,"1525": 0.94008,"1550": 0.79386,"1575": 0.62673,"1600": 0.71029,"1625": 1.02367,"1650": 1.04456,"1675": 0.9192,"1700": 0.73119,"1725": 0.96099,"1750": 0.71029,"1775": 0.66851,"1800": 0.6894,"1825": 0.39693,"1850": 0.56406,"1875": 0.60584,"1900": 0.27158,"1925": 0.08356,"1950": 0.14624,"1975": 0.08356}}}