{"type": "Feature","bbox": [-85.1324,10.899,-84.9912,11.027],"geometry": {"type": "MultiPolygon","coordinates": [[[[-84.9912,10.9742,35.7988],[-85.1323,11.027,36.6708],[-85.1324,11.0243,37.8038],[-85.1272,11.0242,37.5887],[-85.1296,11.022,41.0997],[-85.1265,11.0189,38.6336],[-85.1242,11.0113,44.0088],[-85.1215,11.0077,40.2761],[-85.1198,10.9927,41.4769],[-85.113,10.9839,42.6107],[-85.1152,10.9779,46.6064],[-85.1032,10.9656,43.5626],[-85.1024,10.9597,44.9097],[-85.0967,10.957,44.4225],[-85.0928,10.9468,46.3627],[-85.0919,10.94,48.7616],[-85.0934,10.9344,49.3581],[-85.0922,10.9322,48.0015],[-85.0943,10.9226,55.5725],[-85.0922,10.916,53.7952],[-85.0883,10.9132,55.246],[-85.0872,10.9082,58.1566],[-85.0778,10.9084,56.1334],[-85.0703,10.9064,56.1006],[-85.064,10.9075,58.2465],[-85.0563,10.9053,56.3877],[-85.0532,10.9069,51.5228],[-85.0431,10.899,53.9774],[-85.0453,10.905,57.3036],[-85.0427,10.9091,52.5055],[-85.0443,10.9152,55.42],[-85.0391,10.9211,45.7752],[-85.04,10.9241,51.0126],[-85.0387,10.9267,47.4356],[-85.0305,10.9265,42.372],[-85.0271,10.9308,42.1906],[-85.0274,10.9341,44.2098],[-85.0217,10.934,39.4004],[-85.0204,10.9396,38.8091],[-85.0216,10.945,43.3218],[-85.0156,10.9563,35.8085],[-85.0055,10.9601,35.1493],[-85.0011,10.9594,35.6319],[-84.999,10.9639,35.9491],[-84.9925,10.9678,41.3618],[-84.9912,10.9742,35.7988]]]]}
,"properties": {"GID_3": "CRI.1.14.4_1","GID_0": "CRI","country": "CostaRica","GID_1": "CRI.1_1","province": "Alajuela","NL_NAME_1": "NA","GID_2": "CRI.1.14_1","county": "Upala","NL_NAME_2": "NA","city": "Delicias","VARNAME_3": "NA","NL_NAME_3": "NA","TYPE_3": "Distrito","ENGTYPE_3": "District","CC_3": "5","HASC_3": "NA","name": "Delicias.city","area_km2": 98.85159,"hist_schema_id": "Elevation0-9000","hist_area_km2": {"25": 12.17607,"50": 86.27998,"75": 0.39554}}}