{"type": "Feature","bbox": [-84.4656,10.0605,-84.4336,10.1065],"geometry": {"type": "MultiPolygon","coordinates": [[[[-84.4432,10.1014,986.4296],[-84.4457,10.1009,1002.239],[-84.4456,10.1028,998.1954],[-84.4511,10.1065,1003.6359],[-84.4533,10.1063,1016.6398],[-84.4535,10.1005,1016.9258],[-84.4579,10.097,1000.9884],[-84.4577,10.095,1001.0685],[-84.4656,10.0921,1034.7344],[-84.4639,10.0915,1029.9763],[-84.4652,10.0818,1057.3389],[-84.4633,10.0839,1023.3622],[-84.4614,10.0816,1049.3906],[-84.4601,10.0713,1025.7614],[-84.4542,10.066,1063.1816],[-84.453,10.0605,1160.5055],[-84.4467,10.0798,1189.4824],[-84.4391,10.0811,1204.4509],[-84.4336,10.086,970.9791],[-84.4368,10.0983,1011.3226],[-84.4432,10.1014,986.4296]]]]}
,"properties": {"GID_3": "CRI.1.13.7_1","GID_0": "CRI","country": "CostaRica","GID_1": "CRI.1_1","province": "Alajuela","NL_NAME_1": "NA","GID_2": "CRI.1.13_1","county": "SanRamón","NL_NAME_2": "NA","city": "SanIsidro","VARNAME_3": "NA","NL_NAME_3": "NA","TYPE_3": "Distrito","ENGTYPE_3": "District","CC_3": "7","HASC_3": "NA","name": "San_Isidro.city","area_km2": 8.662914,"hist_schema_id": "Elevation0-9000","hist_area_km2": {"950": 0.020874,"975": 0.187865,"1000": 0.730599,"1025": 1.69082,"1050": 2.254438,"1075": 1.398598,"1100": 0.981105,"1125": 0.751496,"1150": 0.250498,"1175": 0.146124,"1200": 0.166999,"1225": 0.062625,"1250": 0.020875}}}