{"type":"Feature","properties":{"GID_3":"CRI.5.5.7_1","GID_0":"CRI","country":"CostaRica","GID_1":"CRI.5_1","province":"Limón","NL_NAME_1":"NA","GID_2":"CRI.5.5_1","county":"Siquirres","NL_NAME_2":"NA","city":"Siquirres","VARNAME_3":"NA","NL_NAME_3":"NA","TYPE_3":"Distrito","ENGTYPE_3":"District","CC_3":"1","HASC_3":"NA","name":"Siquirres.city"},
"geometry":{"type": "MultiPolygon","coordinates": [[[[-83.5514,9.9819,265.0061],[-83.5475,9.985,262.4031],[-83.5494,9.9946,252.5635],[-83.545,9.9959,256.0514],[-83.5442,9.9991,265.5139],[-83.539,9.9981,264.7553],[-83.5388,10.0017,249.1881],[-83.5318,10.0026,228.6246],[-83.5301,10.0052,248.1034],[-83.5266,10.0055,256.9113],[-83.5196,10.0117,227.7075],[-83.516,10.0092,229.4455],[-83.5104,10.0124,228.5498],[-83.5067,10.0106,231.7973],[-83.5059,10.0126,284.3962],[-83.5099,10.0149,228.2066],[-83.5102,10.0184,184.2628],[-83.5071,10.0189,207.6345],[-83.4966,10.0267,160.6614],[-83.4971,10.0303,177.418],[-83.4957,10.0329,157.0195],[-83.4987,10.0344,192.059],[-83.4981,10.0374,225.9437],[-83.4887,10.0395,117.5615],[-83.4844,10.0556,112.0404],[-83.4971,10.0674,103.6118],[-83.4966,10.0715,189.3104],[-83.4989,10.0782,113.7062],[-83.4907,10.0836,68.3086],[-83.4869,10.0888,97.2925],[-83.4875,10.094,49.2283],[-83.485,10.097,46.5709],[-83.484,10.1015,44.1486],[-83.4774,10.1057,43.845],[-83.4721,10.1157,25.4521],[-83.4646,10.1179,24.1894],[-83.4612,10.1173,23.1724],[-83.4567,10.1208,23.9058],[-83.4531,10.1192,22.998],[-83.4506,10.1199,23.2076],[-83.4494,10.1237,17.526],[-83.445,10.1275,20.5684],[-83.4486,10.1336,17.7663],[-83.4472,10.1362,24.1986],[-83.4389,10.1388,19.7218],[-83.4373,10.1358,19.2935],[-83.4379,10.1327,17.912],[-83.4367,10.1325,17.912],[-83.4345,10.139099999999999,17.0859],[-83.4317,10.1423,19.1445],[-83.4382,10.1425,15.8496],[-83.4391,10.1447,16.0361],[-83.4368,10.1462,15.5954],[-83.4327,10.1456,17.4455],[-83.4332,10.1564,14.9293],[-83.4262,10.1623,15.3058],[-83.4269,10.1639,17.0607],[-83.4327,10.1648,15.6555],[-83.4316,10.1683,16.3959],[-83.4215,10.1729,15.9252],[-83.4121,10.1678,13.5399],[-83.4082,10.1687,14.8973],[-83.4065,10.171,12.4652],[-83.4071,10.1775,15.2523],[-83.4015,10.1815,13.8576],[-83.4006,10.1875,11.8738],[-83.3916,10.1889,10.921],[-83.4024,10.1907,11.7526],[-83.4114,10.1826,12.4138],[-83.4331,10.1847,22.1908],[-83.4478,10.1938,14.0793],[-83.4523,10.1865,16.6335],[-83.4517,10.1829,16.2153],[-83.4776,10.1799,22.1994],[-83.4848,10.1715,32.6614],[-83.489,10.1752,21.2802],[-83.496,10.1745,21.9034],[-83.4973,10.1729,32.5108],[-83.4956,10.1705,18.8898],[-83.4967,10.167,30.7024],[-83.5034,10.1575,29.5678],[-83.5047,10.1449,33.8606],[-83.5099,10.1347,45.4831],[-83.5097,10.1311,49.3707],[-83.516,10.1206,59.6262],[-83.5405,10.0965,153.1604],[-83.5469,10.0959,110.698],[-83.547,10.0908,150.6182],[-83.5493,10.0888,131.0917],[-83.5486,10.0846,153.23],[-83.5545,10.0858,125.8345],[-83.5608,10.0847,168.9794],[-83.5627,10.09,133.5464],[-83.5663,10.0907,140.0777],[-83.5692,10.0891,142.9251],[-83.5792,10.0696,171.3239],[-83.5802,10.0639,171.9481],[-83.589,10.0567,192.0606],[-83.5906,10.0438,220.4136],[-83.5966,10.0408,211.878],[-83.6017,10.0408,216.5465],[-83.6027,10.039,224.101],[-83.6011,10.0346,232.3736],[-83.6067,10.0332,237.9209],[-83.6065,10.0166,264.1499],[-83.5949,10.0066,293.9511],[-83.5892,9.9959,300.5868],[-83.5918,9.9865,344.7618],[-83.5978,9.9866,320.2927],[-83.6034,9.982,340.4409],[-83.5514,9.9819,265.0061]]]]}}