{"type":"Feature","properties":{"GID_3":"CRI.7.8.2_1","GID_0":"CRI","country":"CostaRica","GID_1":"CRI.7_1","province":"SanJosé","NL_NAME_1":"NA","GID_2":"CRI.7.8_1","county":"Goicoechea","NL_NAME_2":"NA","city":"Guadalupe","VARNAME_3":"NA","NL_NAME_3":"NA","TYPE_3":"Distrito","ENGTYPE_3":"District","CC_3":"1","HASC_3":"NA","name":"Guadalupe.city"},
"geometry":{"type": "MultiPolygon","coordinates": [[[[-84.0648,9.9431,1181.6277],[-84.0657,9.9396,1174.5803],[-84.0636,9.9389,1179.3234],[-84.0629,9.9404,1179.3234],[-84.0578,9.94,1187.0577],[-84.0565,9.942,1186.5256],[-84.0549,9.941,1189.9421],[-84.0545,9.9425,1194.5095],[-84.0489,9.9432,1204.6021],[-84.0464,9.9504,1204.6659],[-84.0425,9.9496,1213.8756],[-84.0393,9.9515,1228.8115],[-84.0369,9.9567,1227.8528],[-84.0408,9.9597,1234.0011],[-84.0457,9.955,1206.6721],[-84.0553,9.9534,1193.42],[-84.0564,9.9515,1199.9861],[-84.0552,9.9495,1199.1393],[-84.057,9.9477,1195.959],[-84.0583,9.9483,1197.8777],[-84.0594,9.9448,1190.8433],[-84.0648,9.9431,1181.6277]]]]}}