{"type":"Feature","properties":{"GID_3":"CRI.4.7.5_1","GID_0":"CRI","country":"CostaRica","GID_1":"CRI.4_1","province":"Heredia","NL_NAME_1":"NA","GID_2":"CRI.4.7_1","county":"SanRafael","NL_NAME_2":"NA","city":"Santiago","VARNAME_3":"NA","NL_NAME_3":"NA","TYPE_3":"Distrito","ENGTYPE_3":"District","CC_3":"3","HASC_3":"NA","name":"Santiago.city"},
"geometry":{"type": "MultiPolygon","coordinates": [[[[-84.1088,9.9997,1155.1085],[-84.1053,10.0036,1188.1731],[-84.0933,10.0036,1228.0234],[-84.0937,10.0065,1242.4116],[-84.0908,10.0063,1234.4055],[-84.0909,10.009,1241.6143],[-84.0934,10.0121,1264.0449],[-84.0983,10.0113,1257.6979],[-84.0998,10.0127,1256.3544],[-84.1028,10.0098,1237.8911],[-84.1076,10.0096,1231.1987],[-84.1099,10.006,1203.4651],[-84.1098,9.9986,1145.848],[-84.1088,9.9997,1155.1085]]]]}}