{"type": "Feature","bbox": [-84.0785,9.9384,-83.8872,9.9757],"geometry": {"type": "MultiPolygon","coordinates": [[[[-84.0661,9.9401,1175.0696],[-84.0638,9.9389,1179.3234],[-84.0629,9.9404,1179.3234],[-84.0578,9.94,1187.0577],[-84.0565,9.942,1186.5256],[-84.0549,9.941,1189.9421],[-84.0545,9.9425,1194.5095],[-84.0489,9.9432,1204.6021],[-84.0464,9.9504,1204.6659],[-84.0425,9.9496,1213.8756],[-84.0404,9.9519,1228.8115],[-84.0374,9.9493,1244.0903],[-84.0336,9.9499,1253.6294],[-84.031,9.9471,1277.6047],[-84.0271,9.9482,1286.3785],[-84.0239,9.9459,1301.4757],[-84.0141,9.9458,1338.9132],[-84.01,9.947,1334.3866],[-83.9924,9.9578,1506.3383],[-83.9912,9.9513,1484.2668],[-83.9879,9.9536,1503.2595],[-83.9846,9.9525,1539.333],[-83.9799,9.9543,1577.3639],[-83.9726,9.9519,1669.9572],[-83.9672,9.952,1767.8572],[-83.9582,9.956,1869.3647],[-83.9565,9.9496,1811.6035],[-83.9523,9.9538,1925.446],[-83.9479,9.9532,1955.4132],[-83.9383,9.9583,2069.6519],[-83.937,9.9553,2162.9644],[-83.9314,9.9518,2168.0354],[-83.9214,9.9518,2293.5186],[-83.9153,9.9546,2369.0508],[-83.9106,9.9607,2595.5591],[-83.906,9.9613,2673.4204],[-83.9041,9.9661,2781.0305],[-83.8991,9.9686,2920.9453],[-83.8912,9.9678,3003.9414],[-83.8872,9.9701,3047.489],[-83.9047,9.9757,2767.6567],[-83.9086,9.9698,2581.1897],[-83.9189,9.97,2316.8428],[-83.9315,9.9657,2152.6233],[-83.9363,9.9676,2126.1201],[-83.9431,9.9672,2048.2073],[-83.9498,9.9644,1910.8865],[-83.9567,9.9679,1818.8345],[-83.9634,9.9694,1737.3787],[-83.9666,9.9684,1724.8416],[-83.9731,9.971,1650.1058],[-83.992,9.9717,1484.1528],[-83.9918,9.9681,1492.8544],[-83.993,9.9674,1476.6554],[-84.0122,9.9702,1365.2759],[-84.0197,9.9665,1320.5044],[-84.0249,9.9671,1297.6151],[-84.0333,9.9645,1267.3191],[-84.0381,9.9605,1243.8435],[-84.0389,9.9615,1243.8435],[-84.0449,9.9554,1215.1681],[-84.0513,9.9532,1196.917],[-84.0574,9.9528,1192.634],[-84.064,9.956,1164.308],[-84.0683,9.9529,1154.4033],[-84.0734,9.9522,1147.0095],[-84.0749,9.9496,1139.0455],[-84.0771,9.9512,1136.2506],[-84.0785,9.9403,1140.9462],[-84.0734,9.9384,1164.2213],[-84.0698,9.9409,1170.3853],[-84.0661,9.9401,1175.0696]]]]}
,"properties": {"GID_2": "CRI.7.8_1","GID_0": "CRI","country": "CostaRica","GID_1": "CRI.7_1","province": "SanJosé","NL_NAME_1": "NA","county": "Goicoechea","VARNAME_2": "NA","NL_NAME_2": "NA","TYPE_2": "Cantón","ENGTYPE_2": "Canton","CC_2": "8","HASC_2": "CR.SJ.GO","name": "Goicoechea.county","area_km2": 32.20123,"hist_schema_id": "Elevation0-9000","hist_area_km2": {"1150": 0.96064,"1175": 1.3992,"1200": 2.40159,"1225": 0.83532,"1250": 0.8562,"1275": 1.04415,"1300": 1.31562,"1325": 1.52446,"1350": 1.44091,"1375": 1.23208,"1400": 0.9606,"1425": 0.56383,"1450": 0.4803,"1475": 0.62648,"1500": 0.60559,"1525": 0.8353,"1550": 0.56383,"1575": 0.60559,"1600": 0.52206,"1625": 0.54295,"1650": 0.58471,"1675": 0.54295,"1700": 0.50118,"1725": 0.25059,"1750": 0.37589,"1775": 0.43854,"1800": 0.31324,"1825": 0.29236,"1850": 0.27147,"1875": 0.22971,"1900": 0.20883,"1925": 0.20883,"1950": 0.29236,"1975": 0.29236,"2000": 0.43854,"2025": 0.37589,"2050": 0.4803,"2075": 0.33412,"2100": 0.20883,"2125": 0.18794,"2150": 0.25059,"2175": 0.33412,"2200": 0.33412,"2225": 0.27147,"2250": 0.31324,"2275": 0.20883,"2300": 0.37589,"2325": 0.22971,"2350": 0.31324,"2375": 0.25059,"2400": 0.22971,"2425": 0.20883,"2450": 0.27147,"2475": 0.06265,"2500": 0.25059,"2525": 0.16706,"2550": 0.14618,"2575": 0.06265,"2600": 0.12529,"2625": 0.12529,"2650": 0.10441,"2675": 0.14618,"2700": 0.16706,"2725": 0.06265,"2750": 0.06265,"2775": 0.14617,"2800": 0.16705,"2825": 0.10441,"2850": 0.12529,"2875": 0.12529,"2900": 0.10441,"2925": 0.10441,"2950": 0.02088,"2975": 0.02088,"3000": 0.04176,"3025": 0.02088}}}