{"type": "Feature","bbox": [-84.9175,10.3205,-84.7864,10.4126],"geometry": {"type": "MultiPolygon","coordinates": [[[[-84.7864,10.323,1696.8127],[-84.7924,10.3276,1693.2466],[-84.7917,10.3292,1694.7797],[-84.7954,10.3356,1627.769],[-84.7992,10.3368,1623.2322],[-84.7999,10.3401,1595.3451],[-84.8076,10.3426,1546.5276],[-84.8091,10.3483,1501.948],[-84.8141,10.3495,1490.9338],[-84.8141,10.3514,1466.2386],[-84.817,10.3508,1457.194],[-84.8212,10.3578,1373.4651],[-84.824,10.3568,1370.7782],[-84.8276,10.3596,1335.5295],[-84.8267,10.3634,1339.8572],[-84.8285,10.3647,1299.5728],[-84.8272,10.3655,1347.1803],[-84.8278,10.3681,1277.2458],[-84.8291,10.3683,1277.2458],[-84.8262,10.3709,1242.0183],[-84.8278,10.3729,1198.3298],[-84.8256,10.3732,1199.6484],[-84.8249,10.3769,1191.0625],[-84.8279,10.3829,1083.3964],[-84.8309,10.3858,1064.0806],[-84.8321,10.3849,1078.1108],[-84.8319,10.3872,1045.6233],[-84.8347,10.3871,1016.3029],[-84.836,10.3904,1001.8766],[-84.8398,10.3873,999.7233],[-84.8445,10.3915,968.1986],[-84.8587,10.3903,871.9525],[-84.8632,10.3941,825.2655],[-84.8633,10.3966,830.364],[-84.8665,10.3965,845.4823],[-84.8635,10.4003,828.7405],[-84.8657,10.4021,881.1439],[-84.8639,10.4068,789.724],[-84.8694,10.408,741.8755],[-84.8717,10.4126,718.2888],[-84.8776,10.4111,906.066],[-84.8793,10.4082,958.876],[-84.8828,10.4072,1011.9204],[-84.8839,10.4044,1138.6934],[-84.8866,10.4053,1203.8066],[-84.8939,10.3922,1002.4625],[-84.8978,10.3922,956.4009],[-84.8987,10.3841,953.5099],[-84.9041,10.3859,878.7769],[-84.9053,10.3883,856.7503],[-84.9175,10.3878,665.1206],[-84.915,10.385,680.0754],[-84.9133,10.3853,681.9852],[-84.9096,10.3785,741.7362],[-84.9074,10.3779,786.0983],[-84.9002,10.3649,804.8549],[-84.8972,10.3656,864.2963],[-84.8941,10.3616,830.9219],[-84.8926,10.362,828.895],[-84.885,10.3554,934.4186],[-84.8733,10.352,943.1381],[-84.8666,10.3477,981.2866],[-84.8598,10.3476,1062.8066],[-84.8564,10.3503,1082.5618],[-84.8479,10.3497,1278.9227],[-84.8412,10.343,1361.9258],[-84.8293,10.342,1505.3557],[-84.8271,10.3372,1484.8562],[-84.8153,10.3305,1535.6705],[-84.805,10.3309,1740.3914],[-84.8035,10.3257,1787.1707],[-84.7965,10.3255,1765.7534],[-84.794,10.3232,1782.2069],[-84.7941,10.3205,1780.2399],[-84.7885,10.3211,1723.9827],[-84.7864,10.323,1696.8127]]]]}
,"properties": {"GID_3": "CRI.3.11.2_1","GID_0": "CRI","country": "CostaRica","GID_1": "CRI.3_1","province": "Guanacaste","NL_NAME_1": "NA","GID_2": "CRI.3.11_1","county": "Tilarán","NL_NAME_2": "NA","city": "Cabeceras","VARNAME_3": "NA","NL_NAME_3": "NA","TYPE_3": "Distrito","ENGTYPE_3": "District","CC_3": "2","HASC_3": "NA","name": "Cabeceras.city","area_km2": 49.84574,"hist_schema_id": "Elevation0-9000","hist_area_km2": {"625": 0.02085,"675": 0.08342,"700": 0.04171,"725": 0.12513,"750": 0.12513,"775": 0.33368,"800": 0.39624,"825": 0.52137,"850": 0.54223,"875": 1.12618,"900": 1.00104,"925": 1.04275,"950": 1.27217,"975": 1.50158,"1000": 1.81442,"1025": 1.64756,"1050": 1.85612,"1075": 2.46095,"1100": 2.35665,"1125": 2.25236,"1150": 2.29407,"1175": 1.96041,"1200": 2.06468,"1225": 1.9813,"1250": 1.96045,"1275": 1.96046,"1300": 1.35564,"1325": 1.37651,"1350": 0.79253,"1375": 0.87595,"1400": 1.08454,"1425": 1.33484,"1450": 2.00228,"1475": 1.62685,"1500": 1.314,"1525": 1.16802,"1550": 0.64659,"1575": 0.50059,"1600": 0.35459,"1625": 0.35459,"1650": 0.41716,"1675": 0.39631,"1700": 0.58404,"1725": 0.31288,"1750": 0.2503,"1775": 0.18773,"1800": 0.16687}}}