{"type": "Feature","bbox": [-84.0659,9.9224,-84.0286,9.9442],"geometry": {"type": "MultiPolygon","coordinates": [[[[-84.0414,9.9299,1215.9099],[-84.0318,9.9302,1244.5925],[-84.0286,9.9331,1253.158],[-84.0308,9.9351,1265.8567],[-84.0303,9.9395,1275.4849],[-84.035,9.9407,1252.1194],[-84.0361,9.9442,1257.1663],[-84.0423,9.9429,1233.2943],[-84.0471,9.9392,1219.6348],[-84.0473,9.9373,1212.4768],[-84.0579,9.938,1187.0957],[-84.061,9.9365,1183.7556],[-84.0615,9.932,1186.1592],[-84.0659,9.9276,1157.9993],[-84.0556,9.9269,1174.9706],[-84.0515,9.9253,1178.5146],[-84.0512,9.9224,1181.5801],[-84.0459,9.9256,1200.5793],[-84.0436,9.9297,1216.4116],[-84.0414,9.9299,1215.9099]]]]}
,"properties": {"GID_3": "CRI.7.10.3_1","GID_0": "CRI","country": "CostaRica","GID_1": "CRI.7_1","province": "SanJosé","NL_NAME_1": "NA","GID_2": "CRI.7.10_1","county": "MontesdeOca","NL_NAME_2": "NA","city": "SanPedro","VARNAME_3": "NA","NL_NAME_3": "NA","TYPE_3": "Distrito","ENGTYPE_3": "District","CC_3": "1","HASC_3": "NA","name": "San_Pedro.city","area_km2": 4.8034,"hist_schema_id": "Elevation0-9000","hist_area_km2": {"1150": 0.083539,"1175": 0.563886,"1200": 1.691638,"1225": 1.273943,"1250": 1.002438,"1275": 0.187957}}}