{"type":"Feature","properties":{"GID_3":"CRI.7.11.5_1","GID_0":"CRI","country":"CostaRica","GID_1":"CRI.7_1","province":"SanJosé","NL_NAME_1":"NA","GID_2":"CRI.7.11_1","county":"Mora","NL_NAME_2":"NA","city":"PiedrasNegras","VARNAME_3":"NA","NL_NAME_3":"NA","TYPE_3":"Distrito","ENGTYPE_3":"District","CC_3":"4","HASC_3":"NA","name":"Piedras_Negras.city"},
"geometry":{"type": "MultiPolygon","coordinates": [[[[-84.3463,9.9166,364.4155],[-84.3458,9.9138,418.6145],[-84.3419,9.9138,424.7546],[-84.3409,9.9106,430.2131],[-84.3386,9.9095,453.0751],[-84.338,9.906,457.3755],[-84.3398,9.9037,501.8433],[-84.3369,9.9018,478.7476],[-84.3359,9.8983,506.5905],[-84.3295,9.8996,496.9728],[-84.3298,9.8969,539.9835],[-84.3263,9.8909,538.0553],[-84.317,9.8879,671.1929],[-84.3092,9.8827,780.8486],[-84.3072,9.8822,786.4638],[-84.3046,9.884,834.2653],[-84.3,9.8815,826.6893],[-84.2984,9.8773,857.3067],[-84.2781,9.8843,651.5952],[-84.2788,9.8865,611.0312],[-84.284,9.8901,599.7878],[-84.2865,9.8959,571.8123],[-84.2902,9.8965,560.3073],[-84.2916,9.9001,555.2813],[-84.3005,9.9032,518.9198],[-84.3012,9.9064,519.5255],[-84.3027,9.9054,535.3348],[-84.3088,9.9099,501.7022],[-84.3181,9.9108,478.5732],[-84.3191,9.913,498.7821],[-84.3266,9.9165,416.3959],[-84.3283,9.9143,412.7468],[-84.334,9.9175,402.1031],[-84.3385,9.915,432.1641],[-84.3463,9.9166,364.4155]]]]}}