{"type":"Feature","properties":{"GID_3":"CRI.6.11.9_1","GID_0":"CRI","country":"CostaRica","GID_1":"CRI.6_1","province":"Puntarenas","NL_NAME_1":"NA","GID_2":"CRI.6.11_1","county":"Puntarenas","NL_NAME_2":"NA","city":"Guacimal","VARNAME_3":"NA","NL_NAME_3":"NA","TYPE_3":"Distrito","ENGTYPE_3":"District","CC_3":"7","HASC_3":"NA","name":"Guacimal.city"},
"geometry":{"type": "MultiPolygon","coordinates": [[[[-84.7707,10.2801,1482.7244],[-84.776,10.2798,1442.981],[-84.7797,10.2759,1392.3479],[-84.7883,10.28,1131.098],[-84.7975,10.28,1007.1848],[-84.7999,10.2766,975.8998],[-84.8021,10.2773,987.9753],[-84.8069,10.2739,844.9519],[-84.8103,10.2743,822.8275],[-84.8225,10.2708,708.6354],[-84.8281,10.2603,679.0813],[-84.8318,10.2588,723.7286],[-84.8348,10.2543,630.7313],[-84.8377,10.2548,749.5609],[-84.8387,10.2585,833.3187],[-84.8446,10.2585,790.411],[-84.8446,10.2539,719.8721],[-84.8491,10.2477,572.0029],[-84.8601,10.2499,445.2625],[-84.8718,10.2449,345.8287],[-84.8726,10.2414,351.6284],[-84.8768,10.2376,340.4999],[-84.8789,10.2276,296.6824],[-84.8874,10.2221,294.7378],[-84.8896,10.2128,256.9124],[-84.8784,10.2019,221.5322],[-84.8744,10.2002,242.0032],[-84.8749,10.1883,187.709],[-84.885,10.1813,175.6884],[-84.8905,10.1798,170.9599],[-84.8937,10.1816,156.235],[-84.899,10.1805,185.2022],[-84.9013,10.178,148.8068],[-84.9032,10.1796,146.9287],[-84.9073,10.1763,134.5387],[-84.8647,10.149,181.9234],[-84.8634,10.1522,182.2066],[-84.8573,10.1533,202.2862],[-84.8572,10.1554,192.4312],[-84.852,10.1549,214.6148],[-84.8471,10.1577,228.7878],[-84.8452,10.1604,250.3128],[-84.8459,10.1633,234.0786],[-84.8429,10.1638,232.4848],[-84.8438,10.1669,241.4917],[-84.8419,10.1719,273.3196],[-84.836,10.1717,271.1257],[-84.8358,10.1746,300.1467],[-84.8274,10.1777,330.1567],[-84.8229,10.1733,327.0844],[-84.8185,10.1745,335.4933],[-84.815,10.1778,364.4656],[-84.8112,10.1864,417.7057],[-84.8085,10.1884,476.4903],[-84.8087,10.1906,479.1028],[-84.8039,10.1936,555.1098],[-84.8024,10.1974,562.8257],[-84.7982,10.1999,618.3842],[-84.7973,10.2029,664.0704],[-84.7952,10.2025,679.4599],[-84.7903,10.2061,766.7834],[-84.7888,10.2106,812.5992],[-84.7892,10.2191,888.1544],[-84.7907,10.2212,917.9669],[-84.7886,10.2316,1184.5365],[-84.7827,10.2319,1388.9865],[-84.7662,10.2433,1607.8118],[-84.7633,10.2432,1614.8481],[-84.76,10.2465,1709.5525],[-84.7576,10.2565,1768.8734],[-84.7658,10.2625,1724.4861],[-84.7639,10.2687,1705.0774],[-84.7662,10.2699,1667.0482],[-84.7669,10.2796,1506.7072],[-84.7707,10.2801,1482.7244]]]]}}