{"type":"Feature","properties":{"GID_2":"CRI.7.20_1","GID_0":"CRI","country":"CostaRica","GID_1":"CRI.7_1","province":"SanJosé","NL_NAME_1":"NA","county":"VázquezdeCoronado","VARNAME_2":"NA","NL_NAME_2":"NA","TYPE_2":"Cantón","ENGTYPE_2":"Canton","CC_2":"11","HASC_2":"CR.SJ.VC","name":"Vázquezde_Coronado.county"},
"geometry":{"type": "MultiPolygon","coordinates": [[[[-83.906,9.9752,2719.188],[-83.8872,9.9701,3047.489],[-83.8789,9.9709,2988.5205],[-83.8727,9.9696,3152.5918],[-83.8603,9.9716,3378.5986],[-83.8586,9.9742,3357.6519],[-83.8592,9.9792,3049.801],[-83.8662,9.9865,2811.7681],[-83.8678,9.9908,2473.8535],[-83.869,9.9963,2302.4839],[-83.8671,10.0041,1975.7932],[-83.8718,10.014,1791.8431],[-83.877,10.0204,1724.181],[-83.8752,10.0345,1508.4402],[-83.8792,10.038,1432.7762],[-83.8816,10.0446,1406.0365],[-83.8949,10.0606,1196.9225],[-83.9083,10.0685,1062.6663],[-83.9124,10.0733,1020.1208],[-83.9169,10.0745,1000.4568],[-83.9181,10.077,977.0717],[-83.9216,10.0759,975.8729],[-83.9234,10.079,970.8759],[-83.9262,10.0792,960.6834],[-83.9317,10.0837,908.7759],[-83.9325,10.0986,771.4249],[-83.9377,10.1102,713.4905],[-83.9362,10.1158,765.2194],[-83.9379,10.1174,685.7578],[-83.9381,10.1245,654.8297],[-83.9415,10.1297,566.9847],[-83.947,10.1473,473.381],[-83.9426,10.1627,406.5967],[-83.9375,10.1707,374.2995],[-83.9365,10.1795,429.6457],[-83.9339,10.1854,337.2241],[-83.9295,10.19,338.0164],[-83.9527,10.1796,405.8527],[-83.9593,10.1735,458.4234],[-83.9719,10.1695,547.1394],[-83.974,10.167,535.1856],[-83.9764,10.1548,595.8252],[-83.9794,10.1496,656.5607],[-83.9772,10.1326,736.5411],[-83.9805,10.1238,778.9161],[-83.9805,10.1164,792.7803],[-83.9788,10.1148,833.724],[-83.9801,10.1025,877.0974],[-83.9844,10.1011,896.8868],[-83.985,10.0977,909.1794],[-83.9892,10.0942,943.5798],[-83.9942,10.0954,988.2943],[-84.0018,10.0921,1060.5121],[-84.0057,10.0862,1113.7568],[-84.0156,10.0795,1169.0216],[-84.0217,10.0822,1279.115],[-84.0283,10.0829,1289.5195],[-84.0283,10.0601,2067.9856],[-84.0239,10.0636,1774.2385],[-84.0209,10.06,1700.5745],[-84.0143,10.0565,1559.5881],[-84.0104,10.0562,1545.3047],[-84.0071,10.0583,1496.7627],[-84.0005,10.0561,1417.3408],[-83.9838,10.066,1170.1094],[-83.9751,10.0667,1077.876],[-83.9777,10.0643,1080.7122],[-83.9832,10.0644,1146.2631],[-83.9812,10.0635,1227.0388],[-83.9837,10.0589,1300.4197],[-83.9866,10.0606,1285.8972],[-83.9847,10.0568,1452.9579],[-83.9862,10.0569,1439.9656],[-83.9875,10.0502,1540.6643],[-83.9864,10.0454,1512.1798],[-83.9894,10.04,1512.1017],[-83.9885,10.031,1459.7607],[-83.9936,10.0211,1467.4707],[-83.9987,10.021,1449.8641],[-84.0023,10.019,1438.9561],[-84.0023,10.0015,1392.4783],[-84.0045,10.0026,1378.8196],[-84.0073,10.0,1360.9399],[-84.0111,10.0012,1360.3456],[-84.0119,9.9974,1339.5692],[-84.0143,9.997,1334.1748],[-84.0131,9.9931,1323.0735],[-84.0157,9.9944,1321.7781],[-84.0196,9.9926,1307.3162],[-84.0189,9.9902,1312.2419],[-84.0233,9.9887,1321.6285],[-84.0213,9.9855,1320.1676],[-84.0232,9.9814,1301.3088],[-84.0224,9.9771,1329.7296],[-84.0335,9.9711,1268.8049],[-84.035,9.9681,1261.7622],[-84.0257,9.9683,1297.6151],[-84.0197,9.9665,1320.5044],[-84.0156,9.9695,1336.999],[-84.0109,9.9703,1365.2759],[-83.993,9.9674,1476.6554],[-83.9918,9.9681,1492.8544],[-83.992,9.9717,1484.1528],[-83.9778,9.9713,1603.0598],[-83.9666,9.9684,1724.8416],[-83.9634,9.9694,1737.3787],[-83.9567,9.9679,1818.8345],[-83.9498,9.9644,1910.8865],[-83.9431,9.9672,2048.2073],[-83.9363,9.9676,2126.1201],[-83.9315,9.9657,2152.6233],[-83.9189,9.97,2316.8428],[-83.9086,9.9698,2581.1897],[-83.906,9.9752,2719.188]]]]}}