{"type": "Feature","bbox": [-84.076,9.9965,-84.0101,10.0631],"geometry": {"type": "MultiPolygon","coordinates": [[[[-84.0685,9.9979,1238.0815],[-84.0482,10.0024,1289.9446],[-84.0461,10.0056,1284.0558],[-84.0422,10.0048,1278.6958],[-84.0377,10.0118,1292.2354],[-84.0282,10.014,1336.4252],[-84.0273,10.0161,1341.5403],[-84.0254,10.016,1343.7253],[-84.024,10.0134,1331.4543],[-84.0197,10.0162,1355.3003],[-84.0199,10.019,1365.8555],[-84.0126,10.0215,1378.1382],[-84.0101,10.0369,1475.0737],[-84.0125,10.0395,1504.9236],[-84.0161,10.0504,1602.637],[-84.0283,10.0601,2067.9856],[-84.0315,10.0574,1985.0303],[-84.0365,10.0615,1965.9409],[-84.0397,10.0606,2053.856],[-84.0445,10.0631,2114.312],[-84.0456,10.0622,2035.2036],[-84.0472,10.0596,2024.5837],[-84.0445,10.0452,1626.9423],[-84.0481,10.0342,1471.8369],[-84.0531,10.0342,1479.2339],[-84.0533,10.0278,1421.4536],[-84.0572,10.0227,1389.4337],[-84.0591,10.0237,1390.7526],[-84.0639,10.0226,1423.2765],[-84.0666,10.0201,1381.9243],[-84.0685,10.021,1408.764],[-84.073,10.0192,1404.1477],[-84.0732,10.015,1358.9753],[-84.0752,10.0126,1351.5868],[-84.074,10.0052,1271.8477],[-84.076,10.0033,1257.9233],[-84.0759,9.9965,1222.0146],[-84.0685,9.9979,1238.0815]]]]}
,"properties": {"GID_2": "CRI.4.5_1","GID_0": "CRI","country": "CostaRica","GID_1": "CRI.4_1","province": "Heredia","NL_NAME_1": "NA","county": "SanIsidro","VARNAME_2": "NA","NL_NAME_2": "NA","TYPE_2": "Cantón","ENGTYPE_2": "Canton","CC_2": "6","HASC_2": "CR.HE.SI","name": "San_Isidro.county","area_km2": 26.80774,"hist_schema_id": "Elevation0-9000","hist_area_km2": {"1225": 0.22968,"1250": 1.044,"1275": 1.14839,"1300": 2.17147,"1325": 2.52638,"1350": 2.6725,"1375": 2.46368,"1400": 2.04609,"1425": 1.58674,"1450": 1.27356,"1475": 1.23179,"1500": 0.83511,"1525": 0.75159,"1550": 0.79334,"1575": 0.60544,"1600": 0.41755,"1625": 0.52193,"1650": 0.5428,"1675": 0.37579,"1700": 0.62631,"1725": 0.35491,"1750": 0.29227,"1775": 0.31315,"1800": 0.31315,"1825": 0.2714,"1850": 0.20877,"1875": 0.14614,"1900": 0.14613,"1925": 0.20876,"1950": 0.22964,"1975": 0.16701,"2000": 0.08351,"2025": 0.12526,"2050": 0.02088,"2075": 0.04175,"2100": 0.02088}}}