{"type":"Feature","properties":{"GID_3":"CRI.7.7.1_1","GID_0":"CRI","country":"CostaRica","GID_1":"CRI.7_1","province":"SanJosé","NL_NAME_1":"NA","GID_2":"CRI.7.7_1","county":"Escazú","NL_NAME_2":"NA","city":"Escazú","VARNAME_3":"NA","NL_NAME_3":"NA","TYPE_3":"Distrito","ENGTYPE_3":"District","CC_3":"1","HASC_3":"NA","name":"Escazú.city"},
"geometry":{"type": "MultiPolygon","coordinates": [[[[-84.1307,9.9175,1134.8931],[-84.13,9.9189,1122.3528],[-84.1337,9.9204,1117.9626],[-84.1391,9.9281,1049.5917],[-84.1492,9.924,1072.6328],[-84.1534,9.9276,1072.4744],[-84.1602,9.9274,1164.7023],[-84.1585,9.9225,1282.1349],[-84.1624,9.9073,1560.0068],[-84.1615,9.9055,1605.5596],[-84.1578,9.9046,1515.1227],[-84.1554,9.9086,1393.7592],[-84.1433,9.9168,1123.2432],[-84.1393,9.9151,1144.2769],[-84.1307,9.9175,1134.8931]]]]}}