{"type": "Feature","bbox": [-84.1416,9.8044,-84.086,9.8477],"geometry": {"type": "MultiPolygon","coordinates": [[[[-84.141,9.8227,1623.0585],[-84.1397,9.8201,1545.0596],[-84.1416,9.8166,1463.2249],[-84.1394,9.8124,1424.8059],[-84.1358,9.8104,1379.1304],[-84.1321,9.8102,1334.3835],[-84.1305,9.812,1324.599],[-84.1264,9.8114,1372.8787],[-84.1274,9.8071,1541.054],[-84.1264,9.8078,1541.054],[-84.1254,9.8065,1559.1376],[-84.1165,9.8124,1713.028],[-84.1149,9.8116,1701.1035],[-84.1149,9.8142,1735.2622],[-84.1108,9.8127,1735.4017],[-84.1113,9.8149,1766.1892],[-84.1056,9.8108,1681.2841],[-84.1037,9.8066,1590.2632],[-84.1038,9.8082,1630.4929],[-84.0945,9.8044,1451.1028],[-84.0893,9.8048,1402.8087],[-84.086,9.8176,1853.7122],[-84.0882,9.8204,1819.9327],[-84.091,9.8195,1819.754],[-84.0955,9.8229,1739.7162],[-84.1017,9.8232,1825.1809],[-84.1064,9.8281,1839.5878],[-84.1048,9.8353,1788.5311],[-84.1086,9.8323,1878.3909],[-84.1174,9.8342,1950.1055],[-84.1245,9.8445,2227.7373],[-84.1299,9.8446,2322.4417],[-84.1351,9.8477,2375.7122],[-84.1371,9.8458,2308.3765],[-84.1378,9.8398,2060.116],[-84.1356,9.8332,1835.2151],[-84.1411,9.8277,1686.824],[-84.141,9.8227,1623.0585]]]]}
,"properties": {"GID_3": "CRI.7.3.6_1","GID_0": "CRI","country": "CostaRica","GID_1": "CRI.7_1","province": "SanJosé","NL_NAME_1": "NA","GID_2": "CRI.7.3_1","county": "Aserrí","NL_NAME_2": "NA","city": "Tarbaca","VARNAME_3": "NA","NL_NAME_3": "NA","TYPE_3": "Distrito","ENGTYPE_3": "District","CC_3": "2","HASC_3": "NA","name": "Tarbaca.city","area_km2": 15.41784,"hist_schema_id": "Elevation0-9000","hist_area_km2": {"1325": 0.04178,"1350": 0.04178,"1375": 0.10446,"1400": 0.18803,"1425": 0.20892,"1450": 0.31338,"1475": 0.31338,"1500": 0.39695,"1525": 0.45962,"1550": 0.5223,"1575": 0.37605,"1600": 0.60586,"1625": 0.68943,"1650": 0.43873,"1675": 0.5014,"1700": 0.85656,"1725": 0.94012,"1750": 1.12814,"1775": 1.04457,"1800": 1.16992,"1825": 0.75208,"1850": 0.62673,"1875": 0.43871,"1900": 0.48049,"1925": 0.43871,"1950": 0.18802,"1975": 0.25069,"2000": 0.29247,"2025": 0.10445,"2050": 0.16712,"2075": 0.22979,"2100": 0.18801,"2125": 0.10445,"2150": 0.10445,"2175": 0.12534,"2200": 0.10445,"2225": 0.12534,"2250": 0.08356,"2275": 0.12534,"2300": 0.02089,"2325": 0.06267,"2350": 0.04178,"2400": 0.02089}}}