{"type": "Feature","bbox": [-84.4117,10.247,-84.298,10.5907],"geometry": {"type": "MultiPolygon","coordinates": [[[[-84.4006,10.473,81.8262],[-84.4014,10.468,83.1318],[-84.3999,10.4642,84.6011],[-84.3954,10.4659,87.2959],[-84.3939,10.4646,88.0225],[-84.3925,10.4696,87.4484],[-84.3906,10.4667,90.563],[-84.3881,10.4684,92.6348],[-84.3871,10.4652,94.116],[-84.3806,10.4655,94.6689],[-84.3774,10.4633,99.7727],[-84.3708,10.4489,109.6442],[-84.3703,10.4343,129.7812],[-84.3655,10.4324,142.098],[-84.3643,10.4268,155.3673],[-84.3616,10.423,163.7455],[-84.3512,10.4199,206.567],[-84.3458,10.4054,286.6516],[-84.3465,10.3966,318.5234],[-84.3523,10.3851,401.2238],[-84.3519,10.3684,536.3284],[-84.3539,10.3631,562.4464],[-84.3489,10.3551,631.817],[-84.349,10.3485,738.3021],[-84.3459,10.346,708.0346],[-84.3469,10.3404,787.952],[-84.3449,10.3366,818.2946],[-84.3461,10.3351,821.0182],[-84.3441,10.3328,824.5903],[-84.3438,10.3213,938.2279],[-84.3403,10.3136,1059.0973],[-84.339,10.301,1273.6641],[-84.3405,10.2937,1286.6642],[-84.3453,10.2859,1416.616],[-84.3492,10.2657,1846.73],[-84.3529,10.2634,1904.2371],[-84.3513,10.247,2200.3098],[-84.3412,10.2581,2168.583],[-84.3352,10.2582,2174.457],[-84.3331,10.2616,2167.8674],[-84.3328,10.2666,2090.0967],[-84.3298,10.2688,1977.1343],[-84.3297,10.2722,1964.8859],[-84.3324,10.2778,1799.0004],[-84.3317,10.2841,1730.6516],[-84.3286,10.2869,1902.0796],[-84.3326,10.3042,1708.2617],[-84.3308,10.3098,1661.9296],[-84.3321,10.3142,1464.8029],[-84.3312,10.3211,1240.0283],[-84.329,10.3207,1207.4324],[-84.3265,10.3273,994.274],[-84.3308,10.3353,856.4504],[-84.3309,10.3389,794.5562],[-84.3333,10.3432,743.4873],[-84.3332,10.3482,691.124],[-84.3307,10.3502,671.5356],[-84.3284,10.3576,564.0479],[-84.3214,10.3693,468.08],[-84.3198,10.3774,395.2153],[-84.3138,10.3847,347.6667],[-84.2987,10.4143,217.8922],[-84.3006,10.4231,176.0693],[-84.298,10.4283,167.0543],[-84.2997,10.4314,159.1066],[-84.3013,10.4457,142.0468],[-84.3073,10.4535,128.007],[-84.3081,10.4582,122.6467],[-84.3142,10.4617,127.1118],[-84.3148,10.4679,108.7696],[-84.3186,10.4703,106.8989],[-84.32,10.475,101.241],[-84.3181,10.4805,96.694],[-84.3229,10.4839,92.9815],[-84.325,10.4908,89.1135],[-84.3212,10.4976,81.8658],[-84.3184,10.5084,82.6373],[-84.3162,10.5097,75.4259],[-84.3153,10.5129,73.1436],[-84.3184,10.5137,73.1995],[-84.3176,10.5182,70.6792],[-84.3199,10.5258,72.4302],[-84.3215,10.5284,82.9098],[-84.3267,10.5296,72.4049],[-84.3279,10.5328,67.8865],[-84.3272,10.5364,73.3414],[-84.3294,10.5364,74.7821],[-84.3296,10.5392,72.9716],[-84.3263,10.541,62.6779],[-84.3254,10.5439,63.1796],[-84.3263,10.549,69.1441],[-84.33,10.5507,73.4899],[-84.3254,10.555,64.3868],[-84.3281,10.5588,65.5773],[-84.3253,10.5625,63.9267],[-84.3283,10.563,62.9548],[-84.3285,10.5684,54.1072],[-84.3308,10.5701,68.3036],[-84.3298,10.5797,50.4709],[-84.3325,10.5812,61.944],[-84.3317,10.5907,49.4849],[-84.3414,10.589,55.1516],[-84.3408,10.5866,55.1693],[-84.3424,10.5833,61.9717],[-84.3442,10.5818,80.0277],[-84.349,10.5821,94.1044],[-84.3491,10.5792,67.4161],[-84.3474,10.5796,86.7295],[-84.3471,10.5779,80.9384],[-84.3509,10.5763,67.0722],[-84.3544,10.5776,66.5744],[-84.3602,10.5766,73.5089],[-84.3683,10.579,72.388],[-84.3704,10.577,63.9461],[-84.3692,10.576,63.9461],[-84.3708,10.5735,74.5348],[-84.3754,10.5778,78.032],[-84.3802,10.573,68.013],[-84.3826,10.5735,74.5742],[-84.3826,10.576,87.626],[-84.3855,10.5756,92.0694],[-84.3875,10.5727,78.397],[-84.3887,10.5737,78.397],[-84.3934,10.5712,84.9272],[-84.3925,10.5686,89.3777],[-84.4013,10.5549,79.5847],[-84.4022,10.5476,73.603],[-84.4092,10.5462,82.9581],[-84.4117,10.5424,79.9155],[-84.397,10.5296,67.2224],[-84.4033,10.5282,72.7819],[-84.406,10.5245,69.1088],[-84.4057,10.5192,70.3715],[-84.4039,10.5167,71.2268],[-84.4047,10.5126,71.5938],[-84.4,10.5048,74.6814],[-84.3964,10.5023,74.9639],[-84.3943,10.495,77.7888],[-84.3888,10.4859,84.1642],[-84.3894,10.4816,83.3528],[-84.385,10.4762,87.7453],[-84.3904,10.4748,85.5525],[-84.3914,10.4728,86.9519],[-84.3951,10.4726,85.179],[-84.3978,10.4747,82.6852],[-84.4006,10.473,81.8262]]]]}
,"properties": {"GID_3": "CRI.1.11.1_1","GID_0": "CRI","country": "CostaRica","GID_1": "CRI.1_1","province": "Alajuela","NL_NAME_1": "NA","GID_2": "CRI.1.11_1","county": "SanCarlos","NL_NAME_2": "NA","city": "AguasZarcas","VARNAME_3": "NA","NL_NAME_3": "NA","TYPE_3": "Distrito","ENGTYPE_3": "District","CC_3": "4","HASC_3": "NA","name": "Aguas_Zarcas.city","area_km2": 186.686,"hist_schema_id": "Elevation0-9000","hist_area_km2": {"50": 4.7522,"75": 70.8741,"100": 31.8342,"125": 12.0098,"150": 10.9885,"175": 7.1522,"200": 4.379,"225": 3.7744,"250": 3.4825,"275": 3.0029,"300": 1.9186,"325": 1.4181,"350": 1.4181,"375": 1.3764,"400": 1.3764,"425": 1.3556,"450": 1.439,"475": 1.293,"500": 1.1054,"525": 0.9802,"550": 1.0428,"575": 0.8551,"600": 0.8134,"625": 0.8134,"650": 0.6257,"675": 0.5631,"700": 0.5006,"725": 0.1877,"750": 0.2711,"775": 0.2503,"800": 0.3546,"825": 0.3754,"850": 0.3129,"875": 0.3963,"900": 0.2086,"925": 0.2712,"950": 0.3337,"975": 0.292,"1000": 0.1669,"1025": 0.1669,"1050": 0.2503,"1075": 0.1877,"1100": 0.1669,"1125": 0.1669,"1150": 0.2086,"1175": 0.2712,"1200": 0.146,"1225": 0.2086,"1250": 0.2295,"1275": 0.2086,"1300": 0.2295,"1325": 0.292,"1350": 0.1877,"1375": 0.2712,"1400": 0.1669,"1425": 0.3963,"1450": 0.1669,"1475": 0.146,"1500": 0.3964,"1525": 0.3338,"1550": 0.3546,"1575": 0.3129,"1600": 0.3546,"1625": 0.1669,"1650": 0.459,"1675": 0.3964,"1700": 0.3129,"1725": 0.459,"1750": 0.3129,"1775": 0.3338,"1800": 0.2503,"1825": 0.3547,"1850": 0.459,"1875": 0.1669,"1900": 0.3129,"1925": 0.2712,"1950": 0.1669,"1975": 0.2086,"2000": 0.2295,"2025": 0.1669,"2050": 0.2295,"2075": 0.2712,"2100": 0.0835,"2125": 0.2295,"2150": 0.1043,"2175": 0.1878,"2200": 0.1252,"2225": 0.0417}}}