{"type": "Feature","bbox": [-84.4384,10.0478,-84.4281,10.0627],"geometry": {"type": "MultiPolygon","coordinates": [[[[-84.4384,10.0561,1019.103],[-84.4372,10.0478,1027.4406],[-84.4318,10.0484,1020.1416],[-84.4321,10.0501,1027.564],[-84.4286,10.0526,1013.9394],[-84.4281,10.062,989.9143],[-84.429,10.0627,988.8542],[-84.4354,10.0555,1011.0554],[-84.4384,10.0561,1019.103]]]]}
,"properties": {"GID_3": "CRI.1.9.5_1","GID_0": "CRI","country": "CostaRica","GID_1": "CRI.1_1","province": "Alajuela","NL_NAME_1": "NA","GID_2": "CRI.1.9_1","county": "Palmares","NL_NAME_2": "NA","city": "Palmares","VARNAME_3": "NA","NL_NAME_3": "NA","TYPE_3": "Distrito","ENGTYPE_3": "District","CC_3": "1","HASC_3": "NA","name": "Palmares.city","area_km2": 1.10646,"hist_schema_id": "Elevation0-9000","hist_area_km2": {"975": 0.0208761,"1000": 0.2296416,"1025": 0.8559424}}}